<?xml version="1.0" encoding="UTF-8"?><gpx creator="Wikiloc - http://www.wikiloc.com" version="1.1" xmlns="http://www.topografix.com/GPX/1/1" xmlns:xsi="http://www.w3.org/2001/XMLSchema-instance" xsi:schemaLocation="http://www.topografix.com/GPX/1/1 http://www.topografix.com/GPX/1/1/gpx.xsd"><trk><name><![CDATA[Alder Creek (GC12)]]></name><cmt><![CDATA[Alder Creek]]></cmt><desc><![CDATA[Alder Creek]]></desc><trkseg><trkpt lat="45.309703" lon="-122.07524"><ele>955.061</ele><time>2026-08-22T23:30:08Z</time></trkpt><trkpt lat="45.309768" lon="-122.075317"><ele>955.021</ele><time>2026-08-22T23:30:14Z</time></trkpt><trkpt lat="45.309625" lon="-122.075315"><ele>954.213</ele><time>2026-08-22T23:30:21Z</time></trkpt><trkpt lat="45.309603" lon="-122.07533"><ele>954.009</ele><time>2026-08-22T23:30:23Z</time></trkpt><trkpt lat="45.309524" lon="-122.075362"><ele>954.258</ele><time>2026-08-22T23:30:29Z</time></trkpt><trkpt lat="45.309429" lon="-122.075331"><ele>954.014</ele><time>2026-08-22T23:30:37Z</time></trkpt><trkpt lat="45.309404" lon="-122.075324"><ele>953.667</ele><time>2026-08-22T23:30:39Z</time></trkpt><trkpt lat="45.309371" lon="-122.075314"><ele>953.061</ele><time>2026-08-22T23:30:43Z</time></trkpt><trkpt lat="45.309334" lon="-122.075291"><ele>953.237</ele><time>2026-08-22T23:30:48Z</time></trkpt><trkpt lat="45.309208" lon="-122.075266"><ele>953.060</ele><time>2026-08-22T23:30:57Z</time></trkpt><trkpt lat="45.309151" lon="-122.075254"><ele>952.610</ele><time>2026-08-22T23:31:02Z</time></trkpt><trkpt lat="45.309109" lon="-122.075245"><ele>952.687</ele><time>2026-08-22T23:31:05Z</time></trkpt><trkpt lat="45.30908" lon="-122.075236"><ele>952.417</ele><time>2026-08-22T23:31:07Z</time></trkpt><trkpt lat="45.309019" lon="-122.075216"><ele>952.062</ele><time>2026-08-22T23:31:12Z</time></trkpt><trkpt lat="45.30901" lon="-122.075209"><ele>951.883</ele><time>2026-08-22T23:31:13Z</time></trkpt><trkpt lat="45.308932" lon="-122.075201"><ele>951.411</ele><time>2026-08-22T23:31:20Z</time></trkpt><trkpt lat="45.308799" lon="-122.075189"><ele>951.009</ele><time>2026-08-22T23:31:29Z</time></trkpt><trkpt lat="45.308793" lon="-122.075185"><ele>950.868</ele><time>2026-08-22T23:31:30Z</time></trkpt><trkpt lat="45.30877" lon="-122.075166"><ele>950.454</ele><time>2026-08-22T23:31:38Z</time></trkpt><trkpt lat="45.30876" lon="-122.075165"><ele>950.427</ele><time>2026-08-22T23:31:39Z</time></trkpt><trkpt lat="45.308666" lon="-122.075167"><ele>950.261</ele><time>2026-08-22T23:31:48Z</time></trkpt><trkpt lat="45.308579" lon="-122.075175"><ele>949.857</ele><time>2026-08-22T23:31:55Z</time></trkpt><trkpt lat="45.308555" lon="-122.075186"><ele>949.880</ele><time>2026-08-22T23:31:57Z</time></trkpt><trkpt lat="45.308458" lon="-122.075261"><ele>948.810</ele><time>2026-08-22T23:32:07Z</time></trkpt><trkpt lat="45.308433" lon="-122.075289"><ele>948.847</ele><time>2026-08-22T23:32:09Z</time></trkpt><trkpt lat="45.308339" lon="-122.07538"><ele>948.477</ele><time>2026-08-22T23:32:18Z</time></trkpt><trkpt lat="45.30827" lon="-122.075434"><ele>948.034</ele><time>2026-08-22T23:32:25Z</time></trkpt><trkpt lat="45.30824" lon="-122.075464"><ele>947.855</ele><time>2026-08-22T23:32:28Z</time></trkpt><trkpt lat="45.308141" lon="-122.075571"><ele>947.010</ele><time>2026-08-22T23:32:39Z</time></trkpt><trkpt lat="45.308036" lon="-122.07566"><ele>946.609</ele><time>2026-08-22T23:32:45Z</time></trkpt><trkpt lat="45.308008" lon="-122.075686"><ele>946.635</ele><time>2026-08-22T23:32:47Z</time></trkpt><trkpt lat="45.308002" lon="-122.075694"><ele>946.421</ele><time>2026-08-22T23:32:48Z</time></trkpt><trkpt lat="45.307924" lon="-122.075811"><ele>946.024</ele><time>2026-08-22T23:32:57Z</time></trkpt><trkpt lat="45.307875" lon="-122.075886"><ele>945.698</ele><time>2026-08-22T23:33:02Z</time></trkpt><trkpt lat="45.307824" lon="-122.075947"><ele>945.254</ele><time>2026-08-22T23:33:06Z</time></trkpt><trkpt lat="45.30778" lon="-122.075991"><ele>944.847</ele><time>2026-08-22T23:33:12Z</time></trkpt><trkpt lat="45.307766" lon="-122.076007"><ele>944.887</ele><time>2026-08-22T23:33:14Z</time></trkpt><trkpt lat="45.307742" lon="-122.076028"><ele>944.644</ele><time>2026-08-22T23:33:16Z</time></trkpt><trkpt lat="45.307619" lon="-122.076153"><ele>943.884</ele><time>2026-08-22T23:33:25Z</time></trkpt><trkpt lat="45.307572" lon="-122.076207"><ele>943.624</ele><time>2026-08-22T23:33:30Z</time></trkpt><trkpt lat="45.307541" lon="-122.07625"><ele>943.004</ele><time>2026-08-22T23:33:34Z</time></trkpt><trkpt lat="45.307445" lon="-122.076356"><ele>942.614</ele><time>2026-08-22T23:33:42Z</time></trkpt><trkpt lat="45.307421" lon="-122.076383"><ele>942.409</ele><time>2026-08-22T23:33:44Z</time></trkpt><trkpt lat="45.307304" lon="-122.076529"><ele>941.454</ele><time>2026-08-22T23:33:54Z</time></trkpt><trkpt lat="45.307293" lon="-122.076546"><ele>941.440</ele><time>2026-08-22T23:33:55Z</time></trkpt><trkpt lat="45.307205" lon="-122.076642"><ele>941.273</ele><time>2026-08-22T23:34:02Z</time></trkpt><trkpt lat="45.307118" lon="-122.076705"><ele>940.677</ele><time>2026-08-22T23:34:10Z</time></trkpt><trkpt lat="45.307088" lon="-122.076739"><ele>940.443</ele><time>2026-08-22T23:34:13Z</time></trkpt><trkpt lat="45.307011" lon="-122.076824"><ele>940.086</ele><time>2026-08-22T23:34:20Z</time></trkpt><trkpt lat="45.306911" lon="-122.076911"><ele>939.416</ele><time>2026-08-22T23:34:29Z</time></trkpt><trkpt lat="45.306824" lon="-122.077047"><ele>939.023</ele><time>2026-08-22T23:34:40Z</time></trkpt><trkpt lat="45.306778" lon="-122.077134"><ele>938.663</ele><time>2026-08-22T23:34:46Z</time></trkpt><trkpt lat="45.306766" lon="-122.077155"><ele>938.448</ele><time>2026-08-22T23:34:47Z</time></trkpt><trkpt lat="45.306758" lon="-122.07717"><ele>938.461</ele><time>2026-08-22T23:34:48Z</time></trkpt><trkpt lat="45.306687" lon="-122.077303"><ele>937.617</ele><time>2026-08-22T23:34:57Z</time></trkpt><trkpt lat="45.306669" lon="-122.07734"><ele>937.209</ele><time>2026-08-22T23:35:00Z</time></trkpt><trkpt lat="45.306627" lon="-122.077456"><ele>936.676</ele><time>2026-08-22T23:35:07Z</time></trkpt><trkpt lat="45.306594" lon="-122.077542"><ele>936.282</ele><time>2026-08-22T23:35:11Z</time></trkpt><trkpt lat="45.306553" lon="-122.077645"><ele>935.485</ele><time>2026-08-22T23:35:18Z</time></trkpt><trkpt lat="45.306519" lon="-122.077761"><ele>935.259</ele><time>2026-08-22T23:35:25Z</time></trkpt><trkpt lat="45.30651" lon="-122.077801"><ele>935.025</ele><time>2026-08-22T23:35:27Z</time></trkpt><trkpt lat="45.306493" lon="-122.077947"><ele>934.268</ele><time>2026-08-22T23:35:37Z</time></trkpt><trkpt lat="45.306484" lon="-122.077994"><ele>934.078</ele><time>2026-08-22T23:35:39Z</time></trkpt><trkpt lat="45.306483" lon="-122.078203"><ele>933.425</ele><time>2026-08-22T23:35:49Z</time></trkpt><trkpt lat="45.3065" lon="-122.078275"><ele>933.085</ele><time>2026-08-22T23:35:54Z</time></trkpt><trkpt lat="45.306499" lon="-122.078371"><ele>932.473</ele><time>2026-08-22T23:35:59Z</time></trkpt><trkpt lat="45.30649" lon="-122.078528"><ele>932.085</ele><time>2026-08-22T23:36:07Z</time></trkpt><trkpt lat="45.306488" lon="-122.078556"><ele>931.813</ele><time>2026-08-22T23:36:08Z</time></trkpt><trkpt lat="45.306483" lon="-122.078725"><ele>931.209</ele><time>2026-08-22T23:36:18Z</time></trkpt><trkpt lat="45.306484" lon="-122.078751"><ele>931.079</ele><time>2026-08-22T23:36:20Z</time></trkpt><trkpt lat="45.306506" lon="-122.078922"><ele>930.435</ele><time>2026-08-22T23:36:28Z</time></trkpt><trkpt lat="45.306535" lon="-122.079017"><ele>930.058</ele><time>2026-08-22T23:36:32Z</time></trkpt><trkpt lat="45.306557" lon="-122.079142"><ele>929.622</ele><time>2026-08-22T23:36:39Z</time></trkpt><trkpt lat="45.306575" lon="-122.079257"><ele>929.058</ele><time>2026-08-22T23:36:47Z</time></trkpt><trkpt lat="45.306577" lon="-122.079274"><ele>928.891</ele><time>2026-08-22T23:36:48Z</time></trkpt><trkpt lat="45.306583" lon="-122.079384"><ele>928.251</ele><time>2026-08-22T23:36:54Z</time></trkpt><trkpt lat="45.306588" lon="-122.079464"><ele>927.858</ele><time>2026-08-22T23:36:59Z</time></trkpt><trkpt lat="45.306625" lon="-122.079713"><ele>926.848</ele><time>2026-08-22T23:37:11Z</time></trkpt><trkpt lat="45.306627" lon="-122.079884"><ele>925.861</ele><time>2026-08-22T23:37:20Z</time></trkpt><trkpt lat="45.30663" lon="-122.079899"><ele>925.621</ele><time>2026-08-22T23:37:21Z</time></trkpt><trkpt lat="45.306649" lon="-122.080023"><ele>925.413</ele><time>2026-08-22T23:37:27Z</time></trkpt><trkpt lat="45.306666" lon="-122.080081"><ele>924.609</ele><time>2026-08-22T23:37:31Z</time></trkpt><trkpt lat="45.306671" lon="-122.080108"><ele>924.228</ele><time>2026-08-22T23:37:35Z</time></trkpt><trkpt lat="45.306678" lon="-122.080164"><ele>924.214</ele><time>2026-08-22T23:37:38Z</time></trkpt><trkpt lat="45.306687" lon="-122.080196"><ele>924.027</ele><time>2026-08-22T23:37:40Z</time></trkpt><trkpt lat="45.306702" lon="-122.080274"><ele>923.621</ele><time>2026-08-22T23:37:44Z</time></trkpt><trkpt lat="45.306706" lon="-122.080303"><ele>923.667</ele><time>2026-08-22T23:37:45Z</time></trkpt><trkpt lat="45.306723" lon="-122.080387"><ele>923.610</ele><time>2026-08-22T23:37:49Z</time></trkpt><trkpt lat="45.306726" lon="-122.080426"><ele>923.630</ele><time>2026-08-22T23:37:51Z</time></trkpt><trkpt lat="45.30672" lon="-122.080466"><ele>923.677</ele><time>2026-08-22T23:37:53Z</time></trkpt><trkpt lat="45.306719" lon="-122.080504"><ele>923.657</ele><time>2026-08-22T23:37:55Z</time></trkpt><trkpt lat="45.306719" lon="-122.080545"><ele>923.421</ele><time>2026-08-22T23:37:57Z</time></trkpt><trkpt lat="45.306719" lon="-122.080695"><ele>923.241</ele><time>2026-08-22T23:38:05Z</time></trkpt><trkpt lat="45.306717" lon="-122.08087"><ele>923.005</ele><time>2026-08-22T23:38:14Z</time></trkpt><trkpt lat="45.306712" lon="-122.080913"><ele>922.809</ele><time>2026-08-22T23:38:16Z</time></trkpt><trkpt lat="45.306703" lon="-122.080957"><ele>922.644</ele><time>2026-08-22T23:38:19Z</time></trkpt><trkpt lat="45.306672" lon="-122.081069"><ele>922.630</ele><time>2026-08-22T23:38:24Z</time></trkpt><trkpt lat="45.306652" lon="-122.081134"><ele>922.493</ele><time>2026-08-22T23:38:27Z</time></trkpt><trkpt lat="45.306646" lon="-122.081151"><ele>922.487</ele><time>2026-08-22T23:38:28Z</time></trkpt><trkpt lat="45.306631" lon="-122.081177"><ele>922.433</ele><time>2026-08-22T23:38:30Z</time></trkpt><trkpt lat="45.306612" lon="-122.081222"><ele>922.446</ele><time>2026-08-22T23:38:33Z</time></trkpt><trkpt lat="45.306574" lon="-122.081356"><ele>922.036</ele><time>2026-08-22T23:38:41Z</time></trkpt><trkpt lat="45.306561" lon="-122.081386"><ele>921.853</ele><time>2026-08-22T23:38:43Z</time></trkpt><trkpt lat="45.306494" lon="-122.08156"><ele>921.213</ele><time>2026-08-22T23:38:54Z</time></trkpt><trkpt lat="45.306474" lon="-122.081612"><ele>921.078</ele><time>2026-08-22T23:38:57Z</time></trkpt><trkpt lat="45.306415" lon="-122.081702"><ele>920.433</ele><time>2026-08-22T23:39:04Z</time></trkpt><trkpt lat="45.306361" lon="-122.081738"><ele>919.826</ele><time>2026-08-22T23:39:11Z</time></trkpt><trkpt lat="45.306325" lon="-122.081759"><ele>919.809</ele><time>2026-08-22T23:39:14Z</time></trkpt><trkpt lat="45.306189" lon="-122.081849"><ele>918.899</ele><time>2026-08-22T23:39:24Z</time></trkpt><trkpt lat="45.306079" lon="-122.081917"><ele>918.095</ele><time>2026-08-22T23:39:32Z</time></trkpt><trkpt lat="45.30606" lon="-122.081924"><ele>917.848</ele><time>2026-08-22T23:39:34Z</time></trkpt><trkpt lat="45.305979" lon="-122.081974"><ele>917.262</ele><time>2026-08-22T23:39:41Z</time></trkpt><trkpt lat="45.305932" lon="-122.08201"><ele>916.648</ele><time>2026-08-22T23:39:45Z</time></trkpt><trkpt lat="45.305848" lon="-122.082071"><ele>915.811</ele><time>2026-08-22T23:39:53Z</time></trkpt><trkpt lat="45.305826" lon="-122.082091"><ele>915.691</ele><time>2026-08-22T23:39:55Z</time></trkpt><trkpt lat="45.305751" lon="-122.082157"><ele>914.878</ele><time>2026-08-22T23:40:04Z</time></trkpt><trkpt lat="45.305678" lon="-122.082219"><ele>914.648</ele><time>2026-08-22T23:40:10Z</time></trkpt><trkpt lat="45.305664" lon="-122.082241"><ele>914.443</ele><time>2026-08-22T23:40:12Z</time></trkpt><trkpt lat="45.305578" lon="-122.082356"><ele>914.464</ele><time>2026-08-22T23:40:23Z</time></trkpt><trkpt lat="45.305489" lon="-122.082516"><ele>914.210</ele><time>2026-08-22T23:40:34Z</time></trkpt><trkpt lat="45.305481" lon="-122.082527"><ele>914.209</ele><time>2026-08-22T23:40:35Z</time></trkpt><trkpt lat="45.305359" lon="-122.08269"><ele>913.656</ele><time>2026-08-22T23:40:44Z</time></trkpt><trkpt lat="45.30532" lon="-122.082725"><ele>913.462</ele><time>2026-08-22T23:40:47Z</time></trkpt><trkpt lat="45.305228" lon="-122.082794"><ele>913.055</ele><time>2026-08-22T23:40:55Z</time></trkpt><trkpt lat="45.30512" lon="-122.082896"><ele>912.899</ele><time>2026-08-22T23:41:06Z</time></trkpt><trkpt lat="45.305031" lon="-122.082974"><ele>912.465</ele><time>2026-08-22T23:41:14Z</time></trkpt><trkpt lat="45.305011" lon="-122.082984"><ele>912.228</ele><time>2026-08-22T23:41:16Z</time></trkpt><trkpt lat="45.304915" lon="-122.08304"><ele>911.898</ele><time>2026-08-22T23:41:24Z</time></trkpt><trkpt lat="45.304876" lon="-122.08306"><ele>911.495</ele><time>2026-08-22T23:41:27Z</time></trkpt><trkpt lat="45.304763" lon="-122.083123"><ele>910.445</ele><time>2026-08-22T23:41:38Z</time></trkpt><trkpt lat="45.304746" lon="-122.08313"><ele>910.423</ele><time>2026-08-22T23:41:40Z</time></trkpt><trkpt lat="45.304651" lon="-122.083166"><ele>909.883</ele><time>2026-08-22T23:41:49Z</time></trkpt><trkpt lat="45.304577" lon="-122.083181"><ele>909.211</ele><time>2026-08-22T23:41:57Z</time></trkpt><trkpt lat="45.304516" lon="-122.083172"><ele>909.409</ele><time>2026-08-22T23:42:01Z</time></trkpt><trkpt lat="45.304363" lon="-122.083183"><ele>908.844</ele><time>2026-08-22T23:42:10Z</time></trkpt><trkpt lat="45.304307" lon="-122.083216"><ele>908.230</ele><time>2026-08-22T23:42:14Z</time></trkpt><trkpt lat="45.304221" lon="-122.083261"><ele>907.863</ele><time>2026-08-22T23:42:21Z</time></trkpt><trkpt lat="45.304089" lon="-122.083321"><ele>907.297</ele><time>2026-08-22T23:42:31Z</time></trkpt><trkpt lat="45.303953" lon="-122.083344"><ele>906.633</ele><time>2026-08-22T23:42:41Z</time></trkpt><trkpt lat="45.303841" lon="-122.083339"><ele>906.436</ele><time>2026-08-22T23:42:51Z</time></trkpt><trkpt lat="45.303714" lon="-122.083343"><ele>906.286</ele><time>2026-08-22T23:43:01Z</time></trkpt><trkpt lat="45.303634" lon="-122.083345"><ele>906.033</ele><time>2026-08-22T23:43:10Z</time></trkpt><trkpt lat="45.303629" lon="-122.083344"><ele>906.013</ele><time>2026-08-22T23:43:11Z</time></trkpt><trkpt lat="45.303557" lon="-122.083328"><ele>905.847</ele><time>2026-08-22T23:43:18Z</time></trkpt><trkpt lat="45.303542" lon="-122.083324"><ele>905.829</ele><time>2026-08-22T23:43:19Z</time></trkpt><trkpt lat="45.303395" lon="-122.083288"><ele>905.421</ele><time>2026-08-22T23:43:30Z</time></trkpt><trkpt lat="45.30329" lon="-122.083223"><ele>905.209</ele><time>2026-08-22T23:43:40Z</time></trkpt><trkpt lat="45.303246" lon="-122.083184"><ele>905.236</ele><time>2026-08-22T23:43:44Z</time></trkpt><trkpt lat="45.303228" lon="-122.083166"><ele>905.042</ele><time>2026-08-22T23:43:46Z</time></trkpt><trkpt lat="45.303175" lon="-122.08312"><ele>905.015</ele><time>2026-08-22T23:43:50Z</time></trkpt><trkpt lat="45.303111" lon="-122.083059"><ele>904.879</ele><time>2026-08-22T23:43:56Z</time></trkpt><trkpt lat="45.303096" lon="-122.083046"><ele>904.825</ele><time>2026-08-22T23:43:58Z</time></trkpt><trkpt lat="45.303075" lon="-122.083026"><ele>904.818</ele><time>2026-08-22T23:44:00Z</time></trkpt><trkpt lat="45.302977" lon="-122.082902"><ele>904.458</ele><time>2026-08-22T23:44:10Z</time></trkpt><trkpt lat="45.302937" lon="-122.082836"><ele>904.045</ele><time>2026-08-22T23:44:15Z</time></trkpt><trkpt lat="45.302886" lon="-122.082792"><ele>903.455</ele><time>2026-08-22T23:44:20Z</time></trkpt><trkpt lat="45.30285" lon="-122.082749"><ele>903.078</ele><time>2026-08-22T23:44:23Z</time></trkpt><trkpt lat="45.302786" lon="-122.082672"><ele>902.233</ele><time>2026-08-22T23:44:29Z</time></trkpt><trkpt lat="45.302755" lon="-122.082625"><ele>902.026</ele><time>2026-08-22T23:44:32Z</time></trkpt><trkpt lat="45.302707" lon="-122.082549"><ele>901.009</ele><time>2026-08-22T23:44:38Z</time></trkpt><trkpt lat="45.3027" lon="-122.082539"><ele>901.089</ele><time>2026-08-22T23:44:39Z</time></trkpt><trkpt lat="45.302598" lon="-122.082474"><ele>900.465</ele><time>2026-08-22T23:44:47Z</time></trkpt><trkpt lat="45.302541" lon="-122.082452"><ele>899.838</ele><time>2026-08-22T23:44:51Z</time></trkpt><trkpt lat="45.3025" lon="-122.082424"><ele>899.482</ele><time>2026-08-22T23:44:55Z</time></trkpt><trkpt lat="45.302423" lon="-122.082365"><ele>899.058</ele><time>2026-08-22T23:45:05Z</time></trkpt><trkpt lat="45.302391" lon="-122.082342"><ele>898.881</ele><time>2026-08-22T23:45:08Z</time></trkpt><trkpt lat="45.302334" lon="-122.08231"><ele>898.471</ele><time>2026-08-22T23:45:14Z</time></trkpt><trkpt lat="45.302328" lon="-122.082307"><ele>898.688</ele><time>2026-08-22T23:45:16Z</time></trkpt><trkpt lat="45.302324" lon="-122.082295"><ele>898.648</ele><time>2026-08-22T23:45:24Z</time></trkpt><trkpt lat="45.302303" lon="-122.082241"><ele>898.257</ele><time>2026-08-22T23:45:35Z</time></trkpt><trkpt lat="45.302272" lon="-122.082214"><ele>897.800</ele><time>2026-08-22T23:45:40Z</time></trkpt><trkpt lat="45.302241" lon="-122.082179"><ele>897.620</ele><time>2026-08-22T23:45:43Z</time></trkpt><trkpt lat="45.30214" lon="-122.082089"><ele>897.409</ele><time>2026-08-22T23:45:52Z</time></trkpt><trkpt lat="45.302036" lon="-122.081994"><ele>896.867</ele><time>2026-08-22T23:46:02Z</time></trkpt><trkpt lat="45.302026" lon="-122.081978"><ele>896.863</ele><time>2026-08-22T23:46:04Z</time></trkpt><trkpt lat="45.301958" lon="-122.081901"><ele>896.686</ele><time>2026-08-22T23:46:15Z</time></trkpt><trkpt lat="45.301938" lon="-122.081889"><ele>896.680</ele><time>2026-08-22T23:46:17Z</time></trkpt><trkpt lat="45.301888" lon="-122.081851"><ele>896.896</ele><time>2026-08-22T23:46:21Z</time></trkpt><trkpt lat="45.301803" lon="-122.081808"><ele>896.449</ele><time>2026-08-22T23:46:27Z</time></trkpt><trkpt lat="45.30168" lon="-122.081739"><ele>896.229</ele><time>2026-08-22T23:46:36Z</time></trkpt><trkpt lat="45.301636" lon="-122.081723"><ele>896.016</ele><time>2026-08-22T23:46:39Z</time></trkpt><trkpt lat="45.301603" lon="-122.08171"><ele>895.666</ele><time>2026-08-22T23:46:41Z</time></trkpt><trkpt lat="45.301535" lon="-122.081694"><ele>895.061</ele><time>2026-08-22T23:46:46Z</time></trkpt><trkpt lat="45.301482" lon="-122.081692"><ele>894.621</ele><time>2026-08-22T23:46:50Z</time></trkpt><trkpt lat="45.301416" lon="-122.081679"><ele>893.813</ele><time>2026-08-22T23:46:56Z</time></trkpt><trkpt lat="45.301373" lon="-122.081647"><ele>893.609</ele><time>2026-08-22T23:47:00Z</time></trkpt><trkpt lat="45.301322" lon="-122.081609"><ele>892.868</ele><time>2026-08-22T23:47:05Z</time></trkpt><trkpt lat="45.30128" lon="-122.081562"><ele>892.414</ele><time>2026-08-22T23:47:09Z</time></trkpt><trkpt lat="45.30122" lon="-122.081507"><ele>891.817</ele><time>2026-08-22T23:47:14Z</time></trkpt><trkpt lat="45.301126" lon="-122.081439"><ele>891.651</ele><time>2026-08-22T23:47:22Z</time></trkpt><trkpt lat="45.301102" lon="-122.081426"><ele>891.417</ele><time>2026-08-22T23:47:24Z</time></trkpt><trkpt lat="45.301003" lon="-122.081363"><ele>890.860</ele><time>2026-08-22T23:47:33Z</time></trkpt><trkpt lat="45.300949" lon="-122.08132"><ele>890.430</ele><time>2026-08-22T23:47:38Z</time></trkpt><trkpt lat="45.300877" lon="-122.081261"><ele>889.857</ele><time>2026-08-22T23:47:44Z</time></trkpt><trkpt lat="45.300803" lon="-122.081211"><ele>889.227</ele><time>2026-08-22T23:47:49Z</time></trkpt><trkpt lat="45.300743" lon="-122.081173"><ele>889.215</ele><time>2026-08-22T23:47:54Z</time></trkpt><trkpt lat="45.30063" lon="-122.081107"><ele>888.665</ele><time>2026-08-22T23:48:03Z</time></trkpt><trkpt lat="45.300587" lon="-122.081099"><ele>888.211</ele><time>2026-08-22T23:48:06Z</time></trkpt><trkpt lat="45.300487" lon="-122.081073"><ele>887.409</ele><time>2026-08-22T23:48:13Z</time></trkpt><trkpt lat="45.300437" lon="-122.081054"><ele>887.253</ele><time>2026-08-22T23:48:16Z</time></trkpt><trkpt lat="45.300375" lon="-122.081025"><ele>886.889</ele><time>2026-08-22T23:48:20Z</time></trkpt><trkpt lat="45.300349" lon="-122.081025"><ele>886.662</ele><time>2026-08-22T23:48:22Z</time></trkpt><trkpt lat="45.300294" lon="-122.08102"><ele>886.246</ele><time>2026-08-22T23:48:26Z</time></trkpt><trkpt lat="45.300231" lon="-122.080996"><ele>885.472</ele><time>2026-08-22T23:48:31Z</time></trkpt><trkpt lat="45.300204" lon="-122.080984"><ele>885.075</ele><time>2026-08-22T23:48:33Z</time></trkpt><trkpt lat="45.300087" lon="-122.080935"><ele>884.065</ele><time>2026-08-22T23:48:42Z</time></trkpt><trkpt lat="45.300076" lon="-122.080929"><ele>884.032</ele><time>2026-08-22T23:48:43Z</time></trkpt><trkpt lat="45.299984" lon="-122.080846"><ele>883.492</ele><time>2026-08-22T23:48:53Z</time></trkpt><trkpt lat="45.299947" lon="-122.080827"><ele>883.677</ele><time>2026-08-22T23:48:57Z</time></trkpt><trkpt lat="45.299915" lon="-122.080789"><ele>883.861</ele><time>2026-08-22T23:49:00Z</time></trkpt><trkpt lat="45.299879" lon="-122.08074"><ele>884.227</ele><time>2026-08-22T23:49:03Z</time></trkpt><trkpt lat="45.299806" lon="-122.080655"><ele>884.809</ele><time>2026-08-22T23:49:12Z</time></trkpt><trkpt lat="45.299783" lon="-122.080636"><ele>885.079</ele><time>2026-08-22T23:49:15Z</time></trkpt><trkpt lat="45.299726" lon="-122.080625"><ele>885.215</ele><time>2026-08-22T23:49:21Z</time></trkpt><trkpt lat="45.299714" lon="-122.080635"><ele>885.298</ele><time>2026-08-22T23:49:22Z</time></trkpt><trkpt lat="45.299705" lon="-122.080639"><ele>885.052</ele><time>2026-08-22T23:49:23Z</time></trkpt><trkpt lat="45.299646" lon="-122.080672"><ele>884.028</ele><time>2026-08-22T23:49:31Z</time></trkpt><trkpt lat="45.299647" lon="-122.080662"><ele>884.071</ele><time>2026-08-22T23:49:33Z</time></trkpt><trkpt lat="45.299593" lon="-122.080721"><ele>883.691</ele><time>2026-08-22T23:49:43Z</time></trkpt><trkpt lat="45.299568" lon="-122.080802"><ele>883.028</ele><time>2026-08-22T23:49:49Z</time></trkpt><trkpt lat="45.299561" lon="-122.080822"><ele>883.038</ele><time>2026-08-22T23:49:51Z</time></trkpt><trkpt lat="45.299554" lon="-122.080836"><ele>882.845</ele><time>2026-08-22T23:49:52Z</time></trkpt><trkpt lat="45.299541" lon="-122.080911"><ele>882.647</ele><time>2026-08-22T23:49:59Z</time></trkpt><trkpt lat="45.299548" lon="-122.08094"><ele>882.411</ele><time>2026-08-22T23:50:01Z</time></trkpt><trkpt lat="45.299563" lon="-122.080993"><ele>882.009</ele><time>2026-08-22T23:50:04Z</time></trkpt><trkpt lat="45.299568" lon="-122.08101"><ele>881.866</ele><time>2026-08-22T23:50:05Z</time></trkpt><trkpt lat="45.299583" lon="-122.081045"><ele>881.852</ele><time>2026-08-22T23:50:07Z</time></trkpt><trkpt lat="45.299616" lon="-122.081121"><ele>881.215</ele><time>2026-08-22T23:50:13Z</time></trkpt><trkpt lat="45.299629" lon="-122.081146"><ele>880.859</ele><time>2026-08-22T23:50:16Z</time></trkpt><trkpt lat="45.299674" lon="-122.081201"><ele>880.235</ele><time>2026-08-22T23:50:23Z</time></trkpt><trkpt lat="45.299691" lon="-122.08123"><ele>880.038</ele><time>2026-08-22T23:50:26Z</time></trkpt><trkpt lat="45.299693" lon="-122.081244"><ele>879.818</ele><time>2026-08-22T23:50:28Z</time></trkpt><trkpt lat="45.299684" lon="-122.081248"><ele>879.615</ele><time>2026-08-22T23:50:32Z</time></trkpt><trkpt lat="45.299682" lon="-122.081256"><ele>879.625</ele><time>2026-08-22T23:50:40Z</time></trkpt><trkpt lat="45.299686" lon="-122.081257"><ele>879.661</ele><time>2026-08-22T23:50:42Z</time></trkpt><trkpt lat="45.299683" lon="-122.081261"><ele>879.621</ele><time>2026-08-22T23:50:46Z</time></trkpt><trkpt lat="45.299678" lon="-122.081262"><ele>879.613</ele><time>2026-08-22T23:50:47Z</time></trkpt><trkpt lat="45.299676" lon="-122.081264"><ele>879.409</ele><time>2026-08-22T23:50:48Z</time></trkpt><trkpt lat="45.299662" lon="-122.081288"><ele>879.498</ele><time>2026-08-22T23:50:54Z</time></trkpt><trkpt lat="45.299626" lon="-122.081348"><ele>879.064</ele><time>2026-08-22T23:51:03Z</time></trkpt><trkpt lat="45.299658" lon="-122.081352"><ele>878.817</ele><time>2026-08-22T23:51:13Z</time></trkpt><trkpt lat="45.299671" lon="-122.081362"><ele>878.891</ele><time>2026-08-22T23:51:21Z</time></trkpt><trkpt lat="45.299668" lon="-122.081369"><ele>878.657</ele><time>2026-08-22T23:51:23Z</time></trkpt><trkpt lat="45.299644" lon="-122.081367"><ele>878.820</ele><time>2026-08-22T23:51:29Z</time></trkpt><trkpt lat="45.299629" lon="-122.081337"><ele>878.410</ele><time>2026-08-22T23:51:39Z</time></trkpt><trkpt lat="45.299635" lon="-122.081326"><ele>878.447</ele><time>2026-08-22T23:51:48Z</time></trkpt><trkpt lat="45.299661" lon="-122.081326"><ele>878.427</ele><time>2026-08-22T23:51:58Z</time></trkpt><trkpt lat="45.299674" lon="-122.08134"><ele>878.085</ele><time>2026-08-22T23:52:08Z</time></trkpt><trkpt lat="45.29967" lon="-122.081351"><ele>877.889</ele><time>2026-08-22T23:52:20Z</time></trkpt><trkpt lat="45.299682" lon="-122.081337"><ele>877.617</ele><time>2026-08-22T23:52:31Z</time></trkpt><trkpt lat="45.299661" lon="-122.081313"><ele>877.409</ele><time>2026-08-22T23:52:41Z</time></trkpt><trkpt lat="45.299645" lon="-122.081274"><ele>877.210</ele><time>2026-08-22T23:52:51Z</time></trkpt><trkpt lat="45.299621" lon="-122.081295"><ele>877.016</ele><time>2026-08-22T23:53:02Z</time></trkpt><trkpt lat="45.299653" lon="-122.081342"><ele>876.849</ele><time>2026-08-22T23:53:11Z</time></trkpt><trkpt lat="45.299647" lon="-122.081348"><ele>877.043</ele><time>2026-08-22T23:53:14Z</time></trkpt><trkpt lat="45.299638" lon="-122.081355"><ele>876.869</ele><time>2026-08-22T23:53:17Z</time></trkpt><trkpt lat="45.299631" lon="-122.08136"><ele>876.822</ele><time>2026-08-22T23:53:24Z</time></trkpt><trkpt lat="45.299659" lon="-122.081346"><ele>877.212</ele><time>2026-08-22T23:53:33Z</time></trkpt><trkpt lat="45.299659" lon="-122.08134"><ele>877.489</ele><time>2026-08-22T23:53:34Z</time></trkpt><trkpt lat="45.299652" lon="-122.081335"><ele>877.419</ele><time>2026-08-22T23:53:36Z</time></trkpt><trkpt lat="45.299646" lon="-122.08134"><ele>877.247</ele><time>2026-08-22T23:53:38Z</time></trkpt><trkpt lat="45.299651" lon="-122.081361"><ele>877.229</ele><time>2026-08-22T23:53:43Z</time></trkpt><trkpt lat="45.299656" lon="-122.081368"><ele>877.221</ele><time>2026-08-22T23:53:44Z</time></trkpt><trkpt lat="45.299664" lon="-122.081372"><ele>876.809</ele><time>2026-08-22T23:53:53Z</time></trkpt><trkpt lat="45.299688" lon="-122.081348"><ele>876.886</ele><time>2026-08-22T23:54:06Z</time></trkpt><trkpt lat="45.299705" lon="-122.081333"><ele>876.872</ele><time>2026-08-22T23:54:18Z</time></trkpt><trkpt lat="45.299703" lon="-122.081338"><ele>876.895</ele><time>2026-08-22T23:54:20Z</time></trkpt><trkpt lat="45.299697" lon="-122.081345"><ele>876.649</ele><time>2026-08-22T23:54:24Z</time></trkpt><trkpt lat="45.299695" lon="-122.081357"><ele>876.685</ele><time>2026-08-22T23:54:30Z</time></trkpt><trkpt lat="45.299671" lon="-122.08134"><ele>876.628</ele><time>2026-08-22T23:54:34Z</time></trkpt><trkpt lat="45.299663" lon="-122.081333"><ele>876.828</ele><time>2026-08-22T23:54:37Z</time></trkpt><trkpt lat="45.299662" lon="-122.081331"><ele>876.845</ele><time>2026-08-22T23:54:38Z</time></trkpt><trkpt lat="45.299661" lon="-122.081333"><ele>876.855</ele><time>2026-08-22T23:54:39Z</time></trkpt><trkpt lat="45.29966" lon="-122.081333"><ele>876.698</ele><time>2026-08-22T23:54:40Z</time></trkpt><trkpt lat="45.299676" lon="-122.081366"><ele>876.815</ele><time>2026-08-22T23:54:54Z</time></trkpt><trkpt lat="45.299663" lon="-122.081356"><ele>876.826</ele><time>2026-08-22T23:55:04Z</time></trkpt><trkpt lat="45.299628" lon="-122.08141"><ele>876.609</ele><time>2026-08-22T23:55:15Z</time></trkpt><trkpt lat="45.299633" lon="-122.081419"><ele>876.671</ele><time>2026-08-22T23:55:26Z</time></trkpt><trkpt lat="45.299659" lon="-122.081372"><ele>876.697</ele><time>2026-08-22T23:55:33Z</time></trkpt><trkpt lat="45.299662" lon="-122.081361"><ele>876.680</ele><time>2026-08-22T23:55:35Z</time></trkpt><trkpt lat="45.299642" lon="-122.081362"><ele>876.474</ele><time>2026-08-22T23:55:44Z</time></trkpt><trkpt lat="45.299586" lon="-122.081435"><ele>876.690</ele><time>2026-08-22T23:55:55Z</time></trkpt><trkpt lat="45.299591" lon="-122.081449"><ele>876.623</ele><time>2026-08-22T23:55:58Z</time></trkpt><trkpt lat="45.299597" lon="-122.081449"><ele>876.613</ele><time>2026-08-22T23:55:59Z</time></trkpt><trkpt lat="45.299604" lon="-122.081447"><ele>876.650</ele><time>2026-08-22T23:56:00Z</time></trkpt><trkpt lat="45.299608" lon="-122.081444"><ele>876.620</ele><time>2026-08-22T23:56:01Z</time></trkpt><trkpt lat="45.299623" lon="-122.081425"><ele>876.645</ele><time>2026-08-22T23:56:05Z</time></trkpt><trkpt lat="45.299626" lon="-122.081424"><ele>876.847</ele><time>2026-08-22T23:56:06Z</time></trkpt><trkpt lat="45.299638" lon="-122.081414"><ele>876.811</ele><time>2026-08-22T23:56:11Z</time></trkpt><trkpt lat="45.299666" lon="-122.081346"><ele>877.209</ele><time>2026-08-22T23:59:58Z</time></trkpt><trkpt lat="45.299671" lon="-122.08134"><ele>877.216</ele><time>2026-08-22T23:59:59Z</time></trkpt><trkpt lat="45.29968" lon="-122.081318"><ele>877.092</ele><time>2026-08-23T00:00:02Z</time></trkpt><trkpt lat="45.299685" lon="-122.081238"><ele>877.095</ele><time>2026-08-23T00:00:13Z</time></trkpt><trkpt lat="45.29966" lon="-122.081194"><ele>877.839</ele><time>2026-08-23T00:00:23Z</time></trkpt><trkpt lat="45.299652" lon="-122.081181"><ele>878.065</ele><time>2026-08-23T00:00:26Z</time></trkpt><trkpt lat="45.299633" lon="-122.081137"><ele>878.818</ele><time>2026-08-23T00:00:32Z</time></trkpt><trkpt lat="45.299619" lon="-122.081087"><ele>879.488</ele><time>2026-08-23T00:00:36Z</time></trkpt><trkpt lat="45.299608" lon="-122.081045"><ele>879.625</ele><time>2026-08-23T00:00:39Z</time></trkpt><trkpt lat="45.299593" lon="-122.080997"><ele>879.875</ele><time>2026-08-23T00:00:42Z</time></trkpt><trkpt lat="45.299581" lon="-122.080946"><ele>880.029</ele><time>2026-08-23T00:00:46Z</time></trkpt><trkpt lat="45.299581" lon="-122.080899"><ele>880.800</ele><time>2026-08-23T00:00:52Z</time></trkpt><trkpt lat="45.299591" lon="-122.080886"><ele>880.620</ele><time>2026-08-23T00:00:55Z</time></trkpt><trkpt lat="45.299607" lon="-122.080867"><ele>880.809</ele><time>2026-08-23T00:00:57Z</time></trkpt><trkpt lat="45.299632" lon="-122.080814"><ele>881.644</ele><time>2026-08-23T00:01:02Z</time></trkpt><trkpt lat="45.299663" lon="-122.080756"><ele>881.870</ele><time>2026-08-23T00:01:08Z</time></trkpt><trkpt lat="45.299708" lon="-122.080705"><ele>882.823</ele><time>2026-08-23T00:01:15Z</time></trkpt><trkpt lat="45.299726" lon="-122.080688"><ele>882.827</ele><time>2026-08-23T00:01:17Z</time></trkpt><trkpt lat="45.299732" lon="-122.080681"><ele>883.063</ele><time>2026-08-23T00:01:18Z</time></trkpt><trkpt lat="45.29977" lon="-122.080668"><ele>883.686</ele><time>2026-08-23T00:01:23Z</time></trkpt><trkpt lat="45.299793" lon="-122.080699"><ele>883.266</ele><time>2026-08-23T00:01:27Z</time></trkpt><trkpt lat="45.299814" lon="-122.080763"><ele>882.213</ele><time>2026-08-23T00:01:37Z</time></trkpt><trkpt lat="45.299857" lon="-122.080813"><ele>882.243</ele><time>2026-08-23T00:01:47Z</time></trkpt><trkpt lat="45.299873" lon="-122.080836"><ele>882.024</ele><time>2026-08-23T00:01:50Z</time></trkpt><trkpt lat="45.299878" lon="-122.080839"><ele>881.804</ele><time>2026-08-23T00:01:51Z</time></trkpt><trkpt lat="45.29994" lon="-122.080888"><ele>881.614</ele><time>2026-08-23T00:01:57Z</time></trkpt><trkpt lat="45.300068" lon="-122.080988"><ele>882.209</ele><time>2026-08-23T00:02:07Z</time></trkpt><trkpt lat="45.300151" lon="-122.08105"><ele>882.854</ele><time>2026-08-23T00:02:15Z</time></trkpt><trkpt lat="45.300163" lon="-122.081059"><ele>883.030</ele><time>2026-08-23T00:02:16Z</time></trkpt><trkpt lat="45.300275" lon="-122.081075"><ele>883.883</ele><time>2026-08-23T00:02:25Z</time></trkpt><trkpt lat="45.300299" lon="-122.081079"><ele>883.897</ele><time>2026-08-23T00:02:27Z</time></trkpt><trkpt lat="45.30039" lon="-122.08111"><ele>884.683</ele><time>2026-08-23T00:02:36Z</time></trkpt><trkpt lat="45.30042" lon="-122.081121"><ele>885.036</ele><time>2026-08-23T00:02:39Z</time></trkpt><trkpt lat="45.300493" lon="-122.081147"><ele>885.686</ele><time>2026-08-23T00:02:46Z</time></trkpt><trkpt lat="45.30056" lon="-122.081174"><ele>886.083</ele><time>2026-08-23T00:02:51Z</time></trkpt><trkpt lat="45.300611" lon="-122.0812"><ele>886.643</ele><time>2026-08-23T00:02:56Z</time></trkpt><trkpt lat="45.300717" lon="-122.081238"><ele>887.037</ele><time>2026-08-23T00:03:06Z</time></trkpt><trkpt lat="45.300737" lon="-122.081241"><ele>887.249</ele><time>2026-08-23T00:03:07Z</time></trkpt><trkpt lat="45.300797" lon="-122.081283"><ele>887.413</ele><time>2026-08-23T00:03:13Z</time></trkpt><trkpt lat="45.300833" lon="-122.081328"><ele>887.609</ele><time>2026-08-23T00:03:17Z</time></trkpt><trkpt lat="45.300873" lon="-122.081366"><ele>888.255</ele><time>2026-08-23T00:03:22Z</time></trkpt><trkpt lat="45.300924" lon="-122.081394"><ele>888.621</ele><time>2026-08-23T00:03:26Z</time></trkpt><trkpt lat="45.300997" lon="-122.081444"><ele>889.264</ele><time>2026-08-23T00:03:32Z</time></trkpt><trkpt lat="45.301031" lon="-122.081466"><ele>889.498</ele><time>2026-08-23T00:03:35Z</time></trkpt><trkpt lat="45.301125" lon="-122.081536"><ele>890.094</ele><time>2026-08-23T00:03:44Z</time></trkpt><trkpt lat="45.301159" lon="-122.081564"><ele>890.297</ele><time>2026-08-23T00:03:47Z</time></trkpt><trkpt lat="45.301241" lon="-122.081636"><ele>890.667</ele><time>2026-08-23T00:03:55Z</time></trkpt><trkpt lat="45.301279" lon="-122.081658"><ele>891.064</ele><time>2026-08-23T00:03:58Z</time></trkpt><trkpt lat="45.301296" lon="-122.081671"><ele>891.234</ele><time>2026-08-23T00:04:00Z</time></trkpt><trkpt lat="45.301315" lon="-122.081684"><ele>891.434</ele><time>2026-08-23T00:04:02Z</time></trkpt><trkpt lat="45.30133" lon="-122.081698"><ele>891.855</ele><time>2026-08-23T00:04:04Z</time></trkpt><trkpt lat="45.301421" lon="-122.081735"><ele>892.410</ele><time>2026-08-23T00:04:12Z</time></trkpt><trkpt lat="45.301438" lon="-122.081735"><ele>892.609</ele><time>2026-08-23T00:04:14Z</time></trkpt><trkpt lat="45.301493" lon="-122.081756"><ele>893.495</ele><time>2026-08-23T00:04:19Z</time></trkpt><trkpt lat="45.30155" lon="-122.081777"><ele>893.811</ele><time>2026-08-23T00:04:23Z</time></trkpt><trkpt lat="45.301612" lon="-122.081804"><ele>894.454</ele><time>2026-08-23T00:04:28Z</time></trkpt><trkpt lat="45.301665" lon="-122.081819"><ele>894.828</ele><time>2026-08-23T00:04:33Z</time></trkpt><trkpt lat="45.301771" lon="-122.081875"><ele>895.414</ele><time>2026-08-23T00:04:42Z</time></trkpt><trkpt lat="45.301779" lon="-122.081881"><ele>895.447</ele><time>2026-08-23T00:04:43Z</time></trkpt><trkpt lat="45.301846" lon="-122.081948"><ele>895.467</ele><time>2026-08-23T00:04:52Z</time></trkpt><trkpt lat="45.301948" lon="-122.082027"><ele>896.094</ele><time>2026-08-23T00:05:02Z</time></trkpt><trkpt lat="45.302041" lon="-122.082085"><ele>896.214</ele><time>2026-08-23T00:05:12Z</time></trkpt><trkpt lat="45.302085" lon="-122.082126"><ele>896.476</ele><time>2026-08-23T00:05:16Z</time></trkpt><trkpt lat="45.302142" lon="-122.082161"><ele>896.890</ele><time>2026-08-23T00:05:22Z</time></trkpt><trkpt lat="45.302143" lon="-122.08215"><ele>897.019</ele><time>2026-08-23T00:05:23Z</time></trkpt><trkpt lat="45.302151" lon="-122.082133"><ele>897.209</ele><time>2026-08-23T00:05:25Z</time></trkpt><trkpt lat="45.302161" lon="-122.082123"><ele>897.649</ele><time>2026-08-23T00:05:27Z</time></trkpt><trkpt lat="45.302171" lon="-122.082108"><ele>897.885</ele><time>2026-08-23T00:05:29Z</time></trkpt><trkpt lat="45.302181" lon="-122.082097"><ele>898.448</ele><time>2026-08-23T00:05:37Z</time></trkpt><trkpt lat="45.302176" lon="-122.082098"><ele>898.292</ele><time>2026-08-23T00:05:49Z</time></trkpt><trkpt lat="45.302186" lon="-122.082079"><ele>898.288</ele><time>2026-08-23T00:05:54Z</time></trkpt><trkpt lat="45.302202" lon="-122.082071"><ele>898.811</ele><time>2026-08-23T00:05:58Z</time></trkpt><trkpt lat="45.302245" lon="-122.082091"><ele>900.061</ele><time>2026-08-23T00:06:05Z</time></trkpt><trkpt lat="45.302257" lon="-122.082096"><ele>900.228</ele><time>2026-08-23T00:06:07Z</time></trkpt><trkpt lat="45.302296" lon="-122.082081"><ele>901.098</ele><time>2026-08-23T00:06:13Z</time></trkpt><trkpt lat="45.30231" lon="-122.082061"><ele>902.211</ele><time>2026-08-23T00:06:17Z</time></trkpt><trkpt lat="45.302316" lon="-122.081984"><ele>902.821</ele><time>2026-08-23T00:06:30Z</time></trkpt><trkpt lat="45.302316" lon="-122.082013"><ele>902.803</ele><time>2026-08-23T00:06:36Z</time></trkpt><trkpt lat="45.30233" lon="-122.082032"><ele>902.809</ele><time>2026-08-23T00:06:39Z</time></trkpt><trkpt lat="45.302346" lon="-122.082047"><ele>902.863</ele><time>2026-08-23T00:06:44Z</time></trkpt><trkpt lat="45.302334" lon="-122.082053"><ele>903.029</ele><time>2026-08-23T00:06:47Z</time></trkpt><trkpt lat="45.302326" lon="-122.082055"><ele>903.052</ele><time>2026-08-23T00:06:50Z</time></trkpt><trkpt lat="45.302332" lon="-122.082043"><ele>902.656</ele><time>2026-08-23T00:06:58Z</time></trkpt><trkpt lat="45.302314" lon="-122.082043"><ele>902.042</ele><time>2026-08-23T00:07:10Z</time></trkpt><trkpt lat="45.302357" lon="-122.08198"><ele>902.685</ele><time>2026-08-23T00:07:20Z</time></trkpt><trkpt lat="45.302336" lon="-122.081986"><ele>902.835</ele><time>2026-08-23T00:07:27Z</time></trkpt><trkpt lat="45.302328" lon="-122.08199"><ele>902.832</ele><time>2026-08-23T00:07:28Z</time></trkpt><trkpt lat="45.302325" lon="-122.081981"><ele>902.872</ele><time>2026-08-23T00:07:38Z</time></trkpt><trkpt lat="45.30233" lon="-122.081986"><ele>902.667</ele><time>2026-08-23T00:07:40Z</time></trkpt><trkpt lat="45.302362" lon="-122.082048"><ele>902.681</ele><time>2026-08-23T00:07:50Z</time></trkpt><trkpt lat="45.302375" lon="-122.082033"><ele>902.619</ele><time>2026-08-23T00:07:59Z</time></trkpt><trkpt lat="45.302282" lon="-122.081992"><ele>903.009</ele><time>2026-08-23T00:08:10Z</time></trkpt><trkpt lat="45.302284" lon="-122.081995"><ele>902.658</ele><time>2026-08-23T00:08:19Z</time></trkpt><trkpt lat="45.302282" lon="-122.081968"><ele>902.624</ele><time>2026-08-23T00:08:25Z</time></trkpt><trkpt lat="45.302277" lon="-122.081973"><ele>902.257</ele><time>2026-08-23T00:08:27Z</time></trkpt><trkpt lat="45.302236" lon="-122.081997"><ele>901.471</ele><time>2026-08-23T00:08:37Z</time></trkpt><trkpt lat="45.302229" lon="-122.082001"><ele>901.257</ele><time>2026-08-23T00:08:39Z</time></trkpt><trkpt lat="45.302221" lon="-122.082004"><ele>901.050</ele><time>2026-08-23T00:08:42Z</time></trkpt><trkpt lat="45.302218" lon="-122.082018"><ele>900.490</ele><time>2026-08-23T00:08:47Z</time></trkpt><trkpt lat="45.302208" lon="-122.082032"><ele>900.037</ele><time>2026-08-23T00:08:49Z</time></trkpt><trkpt lat="45.302204" lon="-122.082037"><ele>900.077</ele><time>2026-08-23T00:08:50Z</time></trkpt><trkpt lat="45.302167" lon="-122.082133"><ele>898.896</ele><time>2026-08-23T00:09:00Z</time></trkpt><trkpt lat="45.302166" lon="-122.082149"><ele>898.631</ele><time>2026-08-23T00:09:01Z</time></trkpt><trkpt lat="45.302235" lon="-122.082247"><ele>898.224</ele><time>2026-08-23T00:09:11Z</time></trkpt><trkpt lat="45.302336" lon="-122.082346"><ele>899.209</ele><time>2026-08-23T00:09:22Z</time></trkpt><trkpt lat="45.302437" lon="-122.08243"><ele>899.821</ele><time>2026-08-23T00:09:30Z</time></trkpt><trkpt lat="45.302447" lon="-122.082439"><ele>900.067</ele><time>2026-08-23T00:09:31Z</time></trkpt><trkpt lat="45.302539" lon="-122.082525"><ele>900.820</ele><time>2026-08-23T00:09:40Z</time></trkpt><trkpt lat="45.302559" lon="-122.082546"><ele>901.064</ele><time>2026-08-23T00:09:42Z</time></trkpt><trkpt lat="45.302655" lon="-122.082621"><ele>901.670</ele><time>2026-08-23T00:09:51Z</time></trkpt><trkpt lat="45.302664" lon="-122.082632"><ele>901.883</ele><time>2026-08-23T00:09:52Z</time></trkpt><trkpt lat="45.302671" lon="-122.08264"><ele>902.033</ele><time>2026-08-23T00:09:53Z</time></trkpt><trkpt lat="45.302734" lon="-122.082712"><ele>903.090</ele><time>2026-08-23T00:10:01Z</time></trkpt><trkpt lat="45.30275" lon="-122.082728"><ele>903.480</ele><time>2026-08-23T00:10:02Z</time></trkpt><trkpt lat="45.302823" lon="-122.082802"><ele>903.838</ele><time>2026-08-23T00:10:10Z</time></trkpt><trkpt lat="45.302842" lon="-122.082835"><ele>904.270</ele><time>2026-08-23T00:10:13Z</time></trkpt><trkpt lat="45.302848" lon="-122.082848"><ele>904.217</ele><time>2026-08-23T00:10:14Z</time></trkpt><trkpt lat="45.302855" lon="-122.082859"><ele>904.409</ele><time>2026-08-23T00:10:15Z</time></trkpt><trkpt lat="45.30287" lon="-122.082883"><ele>904.675</ele><time>2026-08-23T00:10:17Z</time></trkpt><trkpt lat="45.302898" lon="-122.082926"><ele>904.821</ele><time>2026-08-23T00:10:20Z</time></trkpt><trkpt lat="45.302928" lon="-122.082972"><ele>905.224</ele><time>2026-08-23T00:10:23Z</time></trkpt><trkpt lat="45.302987" lon="-122.083034"><ele>905.428</ele><time>2026-08-23T00:10:30Z</time></trkpt><trkpt lat="45.302997" lon="-122.083049"><ele>905.414</ele><time>2026-08-23T00:10:31Z</time></trkpt><trkpt lat="45.303006" lon="-122.08306"><ele>905.457</ele><time>2026-08-23T00:10:32Z</time></trkpt><trkpt lat="45.303023" lon="-122.083077"><ele>905.657</ele><time>2026-08-23T00:10:34Z</time></trkpt><trkpt lat="45.303045" lon="-122.0831"><ele>905.674</ele><time>2026-08-23T00:10:37Z</time></trkpt><trkpt lat="45.303108" lon="-122.083171"><ele>905.664</ele><time>2026-08-23T00:10:43Z</time></trkpt><trkpt lat="45.303217" lon="-122.083276"><ele>905.853</ele><time>2026-08-23T00:10:52Z</time></trkpt><trkpt lat="45.30332" lon="-122.083333"><ele>905.804</ele><time>2026-08-23T00:11:01Z</time></trkpt><trkpt lat="45.303422" lon="-122.083381"><ele>906.014</ele><time>2026-08-23T00:11:11Z</time></trkpt><trkpt lat="45.303509" lon="-122.083426"><ele>906.209</ele><time>2026-08-23T00:11:18Z</time></trkpt><trkpt lat="45.303544" lon="-122.08343"><ele>906.237</ele><time>2026-08-23T00:11:21Z</time></trkpt><trkpt lat="45.303558" lon="-122.083434"><ele>906.233</ele><time>2026-08-23T00:11:22Z</time></trkpt><trkpt lat="45.303695" lon="-122.083451"><ele>906.246</ele><time>2026-08-23T00:11:32Z</time></trkpt><trkpt lat="45.303812" lon="-122.083434"><ele>906.870</ele><time>2026-08-23T00:11:40Z</time></trkpt><trkpt lat="45.303953" lon="-122.083411"><ele>907.026</ele><time>2026-08-23T00:11:50Z</time></trkpt><trkpt lat="45.303989" lon="-122.083413"><ele>907.249</ele><time>2026-08-23T00:11:53Z</time></trkpt><trkpt lat="45.304057" lon="-122.083416"><ele>907.459</ele><time>2026-08-23T00:12:00Z</time></trkpt><trkpt lat="45.304084" lon="-122.083407"><ele>907.466</ele><time>2026-08-23T00:12:02Z</time></trkpt><trkpt lat="45.304234" lon="-122.083322"><ele>908.256</ele><time>2026-08-23T00:12:14Z</time></trkpt><trkpt lat="45.304246" lon="-122.083314"><ele>908.211</ele><time>2026-08-23T00:12:15Z</time></trkpt><trkpt lat="45.304345" lon="-122.083266"><ele>909.221</ele><time>2026-08-23T00:12:25Z</time></trkpt><trkpt lat="45.304472" lon="-122.083249"><ele>910.203</ele><time>2026-08-23T00:12:36Z</time></trkpt><trkpt lat="45.30449" lon="-122.083245"><ele>910.209</ele><time>2026-08-23T00:12:37Z</time></trkpt><trkpt lat="45.304592" lon="-122.083243"><ele>910.863</ele><time>2026-08-23T00:12:46Z</time></trkpt><trkpt lat="45.304673" lon="-122.083224"><ele>911.489</ele><time>2026-08-23T00:12:54Z</time></trkpt><trkpt lat="45.304728" lon="-122.083206"><ele>911.692</ele><time>2026-08-23T00:12:58Z</time></trkpt><trkpt lat="45.304798" lon="-122.083183"><ele>912.286</ele><time>2026-08-23T00:13:07Z</time></trkpt><trkpt lat="45.304833" lon="-122.083174"><ele>912.442</ele><time>2026-08-23T00:13:09Z</time></trkpt><trkpt lat="45.304946" lon="-122.083115"><ele>913.295</ele><time>2026-08-23T00:13:18Z</time></trkpt><trkpt lat="45.304994" lon="-122.083075"><ele>913.495</ele><time>2026-08-23T00:13:24Z</time></trkpt><trkpt lat="45.305033" lon="-122.083049"><ele>913.872</ele><time>2026-08-23T00:13:28Z</time></trkpt><trkpt lat="45.305105" lon="-122.083002"><ele>914.242</ele><time>2026-08-23T00:13:32Z</time></trkpt><trkpt lat="45.305167" lon="-122.082937"><ele>914.466</ele><time>2026-08-23T00:13:38Z</time></trkpt><trkpt lat="45.305196" lon="-122.082903"><ele>914.429</ele><time>2026-08-23T00:13:40Z</time></trkpt><trkpt lat="45.305267" lon="-122.08284"><ele>914.421</ele><time>2026-08-23T00:13:46Z</time></trkpt><trkpt lat="45.305395" lon="-122.082712"><ele>914.809</ele><time>2026-08-23T00:13:58Z</time></trkpt><trkpt lat="45.30549" lon="-122.08259"><ele>915.688</ele><time>2026-08-23T00:14:07Z</time></trkpt><trkpt lat="45.305584" lon="-122.082478"><ele>915.854</ele><time>2026-08-23T00:14:18Z</time></trkpt><trkpt lat="45.30561" lon="-122.082442"><ele>916.037</ele><time>2026-08-23T00:14:20Z</time></trkpt><trkpt lat="45.305621" lon="-122.082429"><ele>916.011</ele><time>2026-08-23T00:14:21Z</time></trkpt><trkpt lat="45.30563" lon="-122.082415"><ele>916.057</ele><time>2026-08-23T00:14:22Z</time></trkpt><trkpt lat="45.3057" lon="-122.082333"><ele>916.220</ele><time>2026-08-23T00:14:28Z</time></trkpt><trkpt lat="45.30578" lon="-122.082262"><ele>916.430</ele><time>2026-08-23T00:14:38Z</time></trkpt><trkpt lat="45.305792" lon="-122.082252"><ele>916.687</ele><time>2026-08-23T00:14:39Z</time></trkpt><trkpt lat="45.305881" lon="-122.08217"><ele>917.277</ele><time>2026-08-23T00:14:48Z</time></trkpt><trkpt lat="45.305913" lon="-122.082144"><ele>917.617</ele><time>2026-08-23T00:14:51Z</time></trkpt><trkpt lat="45.305974" lon="-122.082091"><ele>918.487</ele><time>2026-08-23T00:14:59Z</time></trkpt><trkpt lat="45.305981" lon="-122.082083"><ele>918.615</ele><time>2026-08-23T00:15:01Z</time></trkpt><trkpt lat="45.305989" lon="-122.08208"><ele>918.609</ele><time>2026-08-23T00:15:02Z</time></trkpt><trkpt lat="45.305997" lon="-122.082076"><ele>918.653</ele><time>2026-08-23T00:15:03Z</time></trkpt><trkpt lat="45.306077" lon="-122.082045"><ele>919.669</ele><time>2026-08-23T00:15:11Z</time></trkpt><trkpt lat="45.3061" lon="-122.082035"><ele>919.632</ele><time>2026-08-23T00:15:14Z</time></trkpt><trkpt lat="45.306192" lon="-122.08197"><ele>920.626</ele><time>2026-08-23T00:15:22Z</time></trkpt><trkpt lat="45.306254" lon="-122.08189"><ele>921.212</ele><time>2026-08-23T00:15:29Z</time></trkpt><trkpt lat="45.3063" lon="-122.081841"><ele>921.465</ele><time>2026-08-23T00:15:33Z</time></trkpt><trkpt lat="45.306339" lon="-122.081813"><ele>921.895</ele><time>2026-08-23T00:15:36Z</time></trkpt><trkpt lat="45.30641" lon="-122.081745"><ele>922.212</ele><time>2026-08-23T00:15:41Z</time></trkpt><trkpt lat="45.306492" lon="-122.081658"><ele>922.892</ele><time>2026-08-23T00:15:47Z</time></trkpt><trkpt lat="45.306527" lon="-122.081597"><ele>923.072</ele><time>2026-08-23T00:15:51Z</time></trkpt><trkpt lat="45.306591" lon="-122.081451"><ele>923.613</ele><time>2026-08-23T00:16:01Z</time></trkpt><trkpt lat="45.306597" lon="-122.081434"><ele>923.614</ele><time>2026-08-23T00:16:02Z</time></trkpt><trkpt lat="45.306622" lon="-122.081356"><ele>923.809</ele><time>2026-08-23T00:16:07Z</time></trkpt><trkpt lat="45.30664" lon="-122.081296"><ele>924.239</ele><time>2026-08-23T00:16:11Z</time></trkpt><trkpt lat="45.306689" lon="-122.081131"><ele>924.215</ele><time>2026-08-23T00:16:21Z</time></trkpt><trkpt lat="45.306733" lon="-122.080955"><ele>924.678</ele><time>2026-08-23T00:16:30Z</time></trkpt><trkpt lat="45.306753" lon="-122.080829"><ele>924.662</ele><time>2026-08-23T00:16:38Z</time></trkpt><trkpt lat="45.306756" lon="-122.0808"><ele>924.658</ele><time>2026-08-23T00:16:40Z</time></trkpt><trkpt lat="45.306758" lon="-122.080711"><ele>924.811</ele><time>2026-08-23T00:16:44Z</time></trkpt><trkpt lat="45.306756" lon="-122.080645"><ele>924.811</ele><time>2026-08-23T00:16:48Z</time></trkpt><trkpt lat="45.306733" lon="-122.080471"><ele>925.028</ele><time>2026-08-23T00:16:57Z</time></trkpt><trkpt lat="45.306703" lon="-122.080263"><ele>925.468</ele><time>2026-08-23T00:17:07Z</time></trkpt><trkpt lat="45.306679" lon="-122.080141"><ele>926.044</ele><time>2026-08-23T00:17:14Z</time></trkpt><trkpt lat="45.306675" lon="-122.0801"><ele>926.205</ele><time>2026-08-23T00:17:16Z</time></trkpt><trkpt lat="45.306664" lon="-122.079969"><ele>926.815</ele><time>2026-08-23T00:17:24Z</time></trkpt><trkpt lat="45.306664" lon="-122.079958"><ele>926.809</ele><time>2026-08-23T00:17:25Z</time></trkpt><trkpt lat="45.306663" lon="-122.079926"><ele>927.076</ele><time>2026-08-23T00:17:27Z</time></trkpt><trkpt lat="45.306653" lon="-122.079797"><ele>927.892</ele><time>2026-08-23T00:17:33Z</time></trkpt><trkpt lat="45.30664" lon="-122.079746"><ele>928.055</ele><time>2026-08-23T00:17:36Z</time></trkpt><trkpt lat="45.306638" lon="-122.079729"><ele>928.039</ele><time>2026-08-23T00:17:37Z</time></trkpt><trkpt lat="45.306617" lon="-122.079573"><ele>928.645</ele><time>2026-08-23T00:17:46Z</time></trkpt><trkpt lat="45.306607" lon="-122.079513"><ele>929.278</ele><time>2026-08-23T00:17:50Z</time></trkpt><trkpt lat="45.306601" lon="-122.079402"><ele>929.638</ele><time>2026-08-23T00:17:56Z</time></trkpt><trkpt lat="45.306599" lon="-122.079317"><ele>930.215</ele><time>2026-08-23T00:18:01Z</time></trkpt><trkpt lat="45.306598" lon="-122.079272"><ele>930.425</ele><time>2026-08-23T00:18:03Z</time></trkpt><trkpt lat="45.306573" lon="-122.079122"><ele>930.837</ele><time>2026-08-23T00:18:12Z</time></trkpt><trkpt lat="45.306553" lon="-122.079028"><ele>931.249</ele><time>2026-08-23T00:18:18Z</time></trkpt><trkpt lat="45.306542" lon="-122.078983"><ele>931.613</ele><time>2026-08-23T00:18:21Z</time></trkpt><trkpt lat="45.306539" lon="-122.078922"><ele>931.609</ele><time>2026-08-23T00:18:28Z</time></trkpt><trkpt lat="45.306522" lon="-122.078795"><ele>932.245</ele><time>2026-08-23T00:18:36Z</time></trkpt><trkpt lat="45.306517" lon="-122.078741"><ele>932.421</ele><time>2026-08-23T00:18:38Z</time></trkpt><trkpt lat="45.306493" lon="-122.07858"><ele>933.254</ele><time>2026-08-23T00:18:46Z</time></trkpt><trkpt lat="45.306491" lon="-122.078556"><ele>933.248</ele><time>2026-08-23T00:18:47Z</time></trkpt><trkpt lat="45.306495" lon="-122.078359"><ele>933.864</ele><time>2026-08-23T00:18:56Z</time></trkpt><trkpt lat="45.306487" lon="-122.078235"><ele>934.227</ele><time>2026-08-23T00:19:03Z</time></trkpt><trkpt lat="45.306484" lon="-122.078205"><ele>934.487</ele><time>2026-08-23T00:19:05Z</time></trkpt><trkpt lat="45.306519" lon="-122.077976"><ele>935.234</ele><time>2026-08-23T00:19:16Z</time></trkpt><trkpt lat="45.306564" lon="-122.077818"><ele>936.054</ele><time>2026-08-23T00:19:26Z</time></trkpt><trkpt lat="45.306592" lon="-122.077719"><ele>936.474</ele><time>2026-08-23T00:19:32Z</time></trkpt><trkpt lat="45.306621" lon="-122.077605"><ele>936.856</ele><time>2026-08-23T00:19:38Z</time></trkpt><trkpt lat="45.306624" lon="-122.07759"><ele>936.821</ele><time>2026-08-23T00:19:39Z</time></trkpt><trkpt lat="45.306627" lon="-122.077578"><ele>937.009</ele><time>2026-08-23T00:19:40Z</time></trkpt><trkpt lat="45.306644" lon="-122.077526"><ele>937.299</ele><time>2026-08-23T00:19:44Z</time></trkpt><trkpt lat="45.306666" lon="-122.077469"><ele>937.475</ele><time>2026-08-23T00:19:47Z</time></trkpt><trkpt lat="45.306717" lon="-122.077336"><ele>938.048</ele><time>2026-08-23T00:19:56Z</time></trkpt><trkpt lat="45.306739" lon="-122.077258"><ele>938.442</ele><time>2026-08-23T00:20:01Z</time></trkpt><trkpt lat="45.306764" lon="-122.077184"><ele>938.848</ele><time>2026-08-23T00:20:06Z</time></trkpt><trkpt lat="45.306817" lon="-122.077099"><ele>939.271</ele><time>2026-08-23T00:20:13Z</time></trkpt><trkpt lat="45.306838" lon="-122.077073"><ele>939.461</ele><time>2026-08-23T00:20:15Z</time></trkpt><trkpt lat="45.306848" lon="-122.07706"><ele>939.638</ele><time>2026-08-23T00:20:16Z</time></trkpt><trkpt lat="45.306919" lon="-122.076937"><ele>940.228</ele><time>2026-08-23T00:20:25Z</time></trkpt><trkpt lat="45.306974" lon="-122.076875"><ele>940.421</ele><time>2026-08-23T00:20:31Z</time></trkpt><trkpt lat="45.307013" lon="-122.076848"><ele>940.641</ele><time>2026-08-23T00:20:35Z</time></trkpt><trkpt lat="45.307125" lon="-122.07675"><ele>941.005</ele><time>2026-08-23T00:20:45Z</time></trkpt><trkpt lat="45.307208" lon="-122.076687"><ele>941.609</ele><time>2026-08-23T00:20:53Z</time></trkpt><trkpt lat="45.307233" lon="-122.076666"><ele>941.644</ele><time>2026-08-23T00:20:55Z</time></trkpt><trkpt lat="45.307362" lon="-122.076529"><ele>942.280</ele><time>2026-08-23T00:21:05Z</time></trkpt><trkpt lat="45.30741" lon="-122.076476"><ele>942.623</ele><time>2026-08-23T00:21:10Z</time></trkpt><trkpt lat="45.30744" lon="-122.076435"><ele>942.857</ele><time>2026-08-23T00:21:14Z</time></trkpt><trkpt lat="45.307521" lon="-122.076354"><ele>943.443</ele><time>2026-08-23T00:21:25Z</time></trkpt><trkpt lat="45.307541" lon="-122.076337"><ele>943.676</ele><time>2026-08-23T00:21:27Z</time></trkpt><trkpt lat="45.307633" lon="-122.076228"><ele>944.256</ele><time>2026-08-23T00:21:34Z</time></trkpt><trkpt lat="45.307707" lon="-122.07615"><ele>944.843</ele><time>2026-08-23T00:21:41Z</time></trkpt><trkpt lat="45.307755" lon="-122.076088"><ele>944.873</ele><time>2026-08-23T00:21:46Z</time></trkpt><trkpt lat="45.307864" lon="-122.075987"><ele>945.686</ele><time>2026-08-23T00:21:56Z</time></trkpt><trkpt lat="45.307884" lon="-122.075977"><ele>945.860</ele><time>2026-08-23T00:22:00Z</time></trkpt><trkpt lat="45.307908" lon="-122.075953"><ele>946.026</ele><time>2026-08-23T00:22:03Z</time></trkpt><trkpt lat="45.307954" lon="-122.075874"><ele>946.409</ele><time>2026-08-23T00:22:10Z</time></trkpt><trkpt lat="45.308015" lon="-122.075806"><ele>946.660</ele><time>2026-08-23T00:22:14Z</time></trkpt><trkpt lat="45.308067" lon="-122.07575"><ele>946.896</ele><time>2026-08-23T00:22:19Z</time></trkpt><trkpt lat="45.308097" lon="-122.075718"><ele>946.899</ele><time>2026-08-23T00:22:22Z</time></trkpt><trkpt lat="45.308119" lon="-122.075692"><ele>947.073</ele><time>2026-08-23T00:22:24Z</time></trkpt><trkpt lat="45.308208" lon="-122.075607"><ele>947.679</ele><time>2026-08-23T00:22:33Z</time></trkpt><trkpt lat="45.308232" lon="-122.075586"><ele>948.062</ele><time>2026-08-23T00:22:37Z</time></trkpt><trkpt lat="45.308329" lon="-122.075495"><ele>948.222</ele><time>2026-08-23T00:22:45Z</time></trkpt><trkpt lat="45.308421" lon="-122.075386"><ele>948.849</ele><time>2026-08-23T00:22:55Z</time></trkpt><trkpt lat="45.30844" lon="-122.075361"><ele>949.089</ele><time>2026-08-23T00:22:58Z</time></trkpt><trkpt lat="45.308491" lon="-122.07529"><ele>949.498</ele><time>2026-08-23T00:23:04Z</time></trkpt><trkpt lat="45.308569" lon="-122.075242"><ele>949.815</ele><time>2026-08-23T00:23:12Z</time></trkpt><trkpt lat="45.308624" lon="-122.07523"><ele>950.026</ele><time>2026-08-23T00:23:16Z</time></trkpt><trkpt lat="45.308662" lon="-122.075229"><ele>950.209</ele><time>2026-08-23T00:23:19Z</time></trkpt><trkpt lat="45.30877" lon="-122.075259"><ele>950.671</ele><time>2026-08-23T00:23:28Z</time></trkpt><trkpt lat="45.30891" lon="-122.075258"><ele>951.077</ele><time>2026-08-23T00:23:38Z</time></trkpt><trkpt lat="45.308989" lon="-122.075278"><ele>951.020</ele><time>2026-08-23T00:23:44Z</time></trkpt><trkpt lat="45.309009" lon="-122.075288"><ele>951.424</ele><time>2026-08-23T00:23:46Z</time></trkpt><trkpt lat="45.309109" lon="-122.075342"><ele>952.230</ele><time>2026-08-23T00:23:55Z</time></trkpt><trkpt lat="45.309126" lon="-122.075346"><ele>952.263</ele><time>2026-08-23T00:23:56Z</time></trkpt><trkpt lat="45.309227" lon="-122.075378"><ele>952.653</ele><time>2026-08-23T00:24:04Z</time></trkpt><trkpt lat="45.309239" lon="-122.075379"><ele>952.620</ele><time>2026-08-23T00:24:05Z</time></trkpt><trkpt lat="45.309369" lon="-122.075409"><ele>953.080</ele><time>2026-08-23T00:24:16Z</time></trkpt><trkpt lat="45.309403" lon="-122.075422"><ele>953.211</ele><time>2026-08-23T00:24:20Z</time></trkpt><trkpt lat="45.309448" lon="-122.075424"><ele>953.421</ele><time>2026-08-23T00:24:24Z</time></trkpt><trkpt lat="45.309524" lon="-122.075442"><ele>953.803</ele><time>2026-08-23T00:24:33Z</time></trkpt><trkpt lat="45.309603" lon="-122.075453"><ele>954.009</ele><time>2026-08-23T00:24:41Z</time></trkpt><trkpt lat="45.309648" lon="-122.075448"><ele>954.213</ele><time>2026-08-23T00:24:44Z</time></trkpt><trkpt lat="45.309668" lon="-122.075441"><ele>954.219</ele><time>2026-08-23T00:24:46Z</time></trkpt><trkpt lat="45.309708" lon="-122.075425"><ele>954.692</ele><time>2026-08-23T00:24:49Z</time></trkpt><trkpt lat="45.309765" lon="-122.075321"><ele>954.816</ele><time>2026-08-23T00:24:57Z</time></trkpt><trkpt lat="45.309819" lon="-122.07529"><ele>955.442</ele><time>2026-08-23T00:25:03Z</time></trkpt><trkpt lat="45.309828" lon="-122.075289"><ele>955.415</ele><time>2026-08-23T00:25:04Z</time></trkpt></trkseg></trk></gpx>