<?xml version="1.0" encoding="UTF-8"?><gpx creator="Wikiloc - http://www.wikiloc.com" version="1.1" xmlns="http://www.topografix.com/GPX/1/1" xmlns:xsi="http://www.w3.org/2001/XMLSchema-instance" xsi:schemaLocation="http://www.topografix.com/GPX/1/1 http://www.topografix.com/GPX/1/1/gpx.xsd"><trk><name><![CDATA[Anchorage - Kincaid Park - Anchorage]]></name><cmt><![CDATA[Turnagain Heights]]></cmt><desc><![CDATA[Turnagain Heights]]></desc><trkseg><trkpt lat="61.153772" lon="-150.05405"><ele>68.887</ele><time>2026-08-06T20:13:25Z</time></trkpt><trkpt lat="61.153748" lon="-150.054102"><ele>68.842</ele><time>2026-08-06T20:13:31Z</time></trkpt><trkpt lat="61.153738" lon="-150.054135"><ele>68.826</ele><time>2026-08-06T20:13:37Z</time></trkpt><trkpt lat="61.153724" lon="-150.054237"><ele>69.009</ele><time>2026-08-06T20:13:46Z</time></trkpt><trkpt lat="61.153716" lon="-150.054313"><ele>69.230</ele><time>2026-08-06T20:13:51Z</time></trkpt><trkpt lat="61.153696" lon="-150.054361"><ele>69.675</ele><time>2026-08-06T20:13:58Z</time></trkpt><trkpt lat="61.153665" lon="-150.054394"><ele>69.646</ele><time>2026-08-06T20:14:04Z</time></trkpt><trkpt lat="61.153623" lon="-150.054472"><ele>69.670</ele><time>2026-08-06T20:14:12Z</time></trkpt><trkpt lat="61.153592" lon="-150.054534"><ele>69.248</ele><time>2026-08-06T20:14:20Z</time></trkpt><trkpt lat="61.153595" lon="-150.054539"><ele>69.275</ele><time>2026-08-06T20:14:22Z</time></trkpt><trkpt lat="61.153595" lon="-150.054539"><ele>69.224</ele><time>2026-08-06T20:14:30Z</time></trkpt><trkpt lat="61.153599" lon="-150.054492"><ele>69.268</ele><time>2026-08-06T20:14:39Z</time></trkpt><trkpt lat="61.153611" lon="-150.05448"><ele>69.465</ele><time>2026-08-06T20:14:47Z</time></trkpt><trkpt lat="61.153618" lon="-150.054464"><ele>69.268</ele><time>2026-08-06T20:14:54Z</time></trkpt><trkpt lat="61.153613" lon="-150.054467"><ele>69.242</ele><time>2026-08-06T20:14:58Z</time></trkpt><trkpt lat="61.153588" lon="-150.054497"><ele>69.226</ele><time>2026-08-06T20:15:06Z</time></trkpt><trkpt lat="61.153588" lon="-150.054492"><ele>69.209</ele><time>2026-08-06T20:15:15Z</time></trkpt><trkpt lat="61.153581" lon="-150.054483"><ele>69.448</ele><time>2026-08-06T20:15:22Z</time></trkpt><trkpt lat="61.153564" lon="-150.054554"><ele>69.243</ele><time>2026-08-06T20:15:28Z</time></trkpt><trkpt lat="61.153551" lon="-150.054636"><ele>69.674</ele><time>2026-08-06T20:15:33Z</time></trkpt><trkpt lat="61.15352" lon="-150.054733"><ele>69.468</ele><time>2026-08-06T20:15:40Z</time></trkpt><trkpt lat="61.153512" lon="-150.054796"><ele>69.246</ele><time>2026-08-06T20:15:46Z</time></trkpt><trkpt lat="61.153504" lon="-150.05482"><ele>69.463</ele><time>2026-08-06T20:15:54Z</time></trkpt><trkpt lat="61.153529" lon="-150.054958"><ele>69.452</ele><time>2026-08-06T20:16:01Z</time></trkpt><trkpt lat="61.15355" lon="-150.055093"><ele>69.446</ele><time>2026-08-06T20:16:07Z</time></trkpt><trkpt lat="61.153573" lon="-150.0552"><ele>69.253</ele><time>2026-08-06T20:16:12Z</time></trkpt><trkpt lat="61.153587" lon="-150.055284"><ele>69.225</ele><time>2026-08-06T20:16:15Z</time></trkpt><trkpt lat="61.15354" lon="-150.055423"><ele>69.226</ele><time>2026-08-06T20:16:23Z</time></trkpt><trkpt lat="61.153473" lon="-150.055515"><ele>69.208</ele><time>2026-08-06T20:16:32Z</time></trkpt><trkpt lat="61.153458" lon="-150.055604"><ele>69.009</ele><time>2026-08-06T20:16:39Z</time></trkpt><trkpt lat="61.153469" lon="-150.055752"><ele>68.864</ele><time>2026-08-06T20:16:46Z</time></trkpt><trkpt lat="61.153502" lon="-150.055936"><ele>68.459</ele><time>2026-08-06T20:16:55Z</time></trkpt><trkpt lat="61.153517" lon="-150.056015"><ele>67.820</ele><time>2026-08-06T20:17:03Z</time></trkpt><trkpt lat="61.153533" lon="-150.056092"><ele>67.864</ele><time>2026-08-06T20:17:10Z</time></trkpt><trkpt lat="61.153548" lon="-150.05612"><ele>67.852</ele><time>2026-08-06T20:17:12Z</time></trkpt><trkpt lat="61.153558" lon="-150.056164"><ele>67.469</ele><time>2026-08-06T20:17:15Z</time></trkpt><trkpt lat="61.153566" lon="-150.056223"><ele>67.468</ele><time>2026-08-06T20:17:18Z</time></trkpt><trkpt lat="61.153592" lon="-150.056388"><ele>67.072</ele><time>2026-08-06T20:17:25Z</time></trkpt><trkpt lat="61.153605" lon="-150.056426"><ele>66.869</ele><time>2026-08-06T20:17:27Z</time></trkpt><trkpt lat="61.153614" lon="-150.056455"><ele>66.665</ele><time>2026-08-06T20:17:28Z</time></trkpt><trkpt lat="61.153628" lon="-150.056558"><ele>66.468</ele><time>2026-08-06T20:17:33Z</time></trkpt><trkpt lat="61.153666" lon="-150.056668"><ele>65.814</ele><time>2026-08-06T20:17:39Z</time></trkpt><trkpt lat="61.153674" lon="-150.056774"><ele>65.609</ele><time>2026-08-06T20:17:44Z</time></trkpt><trkpt lat="61.15368" lon="-150.056863"><ele>65.248</ele><time>2026-08-06T20:17:48Z</time></trkpt><trkpt lat="61.15369" lon="-150.057142"><ele>64.633</ele><time>2026-08-06T20:18:00Z</time></trkpt><trkpt lat="61.153689" lon="-150.057192"><ele>64.654</ele><time>2026-08-06T20:18:02Z</time></trkpt><trkpt lat="61.153684" lon="-150.057312"><ele>64.218</ele><time>2026-08-06T20:18:08Z</time></trkpt><trkpt lat="61.153659" lon="-150.057462"><ele>63.876</ele><time>2026-08-06T20:18:16Z</time></trkpt><trkpt lat="61.15365" lon="-150.057515"><ele>63.663</ele><time>2026-08-06T20:18:19Z</time></trkpt><trkpt lat="61.153638" lon="-150.057582"><ele>63.272</ele><time>2026-08-06T20:18:24Z</time></trkpt><trkpt lat="61.153607" lon="-150.057699"><ele>62.856</ele><time>2026-08-06T20:18:32Z</time></trkpt><trkpt lat="61.153606" lon="-150.057702"><ele>62.683</ele><time>2026-08-06T20:18:46Z</time></trkpt><trkpt lat="61.153606" lon="-150.057702"><ele>62.688</ele><time>2026-08-06T20:18:54Z</time></trkpt><trkpt lat="61.153595" lon="-150.057729"><ele>62.624</ele><time>2026-08-06T20:18:59Z</time></trkpt><trkpt lat="61.153595" lon="-150.057729"><ele>62.426</ele><time>2026-08-06T20:19:01Z</time></trkpt><trkpt lat="61.153595" lon="-150.05773"><ele>62.409</ele><time>2026-08-06T20:19:02Z</time></trkpt><trkpt lat="61.153574" lon="-150.057798"><ele>62.440</ele><time>2026-08-06T20:19:06Z</time></trkpt><trkpt lat="61.153563" lon="-150.057835"><ele>62.235</ele><time>2026-08-06T20:19:08Z</time></trkpt><trkpt lat="61.153515" lon="-150.058028"><ele>61.416</ele><time>2026-08-06T20:19:18Z</time></trkpt><trkpt lat="61.153507" lon="-150.058074"><ele>61.420</ele><time>2026-08-06T20:19:20Z</time></trkpt><trkpt lat="61.153487" lon="-150.058284"><ele>60.638</ele><time>2026-08-06T20:19:28Z</time></trkpt><trkpt lat="61.153484" lon="-150.058343"><ele>60.455</ele><time>2026-08-06T20:19:30Z</time></trkpt><trkpt lat="61.153482" lon="-150.058556"><ele>59.454</ele><time>2026-08-06T20:19:38Z</time></trkpt><trkpt lat="61.153517" lon="-150.058785"><ele>58.228</ele><time>2026-08-06T20:19:47Z</time></trkpt><trkpt lat="61.153521" lon="-150.0588"><ele>58.245</ele><time>2026-08-06T20:19:48Z</time></trkpt><trkpt lat="61.15359" lon="-150.058895"><ele>57.472</ele><time>2026-08-06T20:19:55Z</time></trkpt><trkpt lat="61.153602" lon="-150.058905"><ele>57.213</ele><time>2026-08-06T20:19:56Z</time></trkpt><trkpt lat="61.1537" lon="-150.058911"><ele>56.414</ele><time>2026-08-06T20:20:04Z</time></trkpt><trkpt lat="61.153712" lon="-150.058907"><ele>56.209</ele><time>2026-08-06T20:20:05Z</time></trkpt><trkpt lat="61.153836" lon="-150.058881"><ele>55.449</ele><time>2026-08-06T20:20:15Z</time></trkpt><trkpt lat="61.153861" lon="-150.058885"><ele>55.244</ele><time>2026-08-06T20:20:17Z</time></trkpt><trkpt lat="61.153965" lon="-150.058989"><ele>54.235</ele><time>2026-08-06T20:20:26Z</time></trkpt><trkpt lat="61.153976" lon="-150.059006"><ele>54.079</ele><time>2026-08-06T20:20:27Z</time></trkpt><trkpt lat="61.154047" lon="-150.059175"><ele>53.277</ele><time>2026-08-06T20:20:36Z</time></trkpt><trkpt lat="61.154059" lon="-150.059219"><ele>53.054</ele><time>2026-08-06T20:20:38Z</time></trkpt><trkpt lat="61.15411" lon="-150.059397"><ele>52.253</ele><time>2026-08-06T20:20:46Z</time></trkpt><trkpt lat="61.154119" lon="-150.059438"><ele>52.077</ele><time>2026-08-06T20:20:48Z</time></trkpt><trkpt lat="61.154168" lon="-150.059651"><ele>51.034</ele><time>2026-08-06T20:20:57Z</time></trkpt><trkpt lat="61.15417" lon="-150.059678"><ele>50.869</ele><time>2026-08-06T20:20:58Z</time></trkpt><trkpt lat="61.154199" lon="-150.059835"><ele>50.404</ele><time>2026-08-06T20:21:04Z</time></trkpt><trkpt lat="61.154213" lon="-150.059963"><ele>49.824</ele><time>2026-08-06T20:21:09Z</time></trkpt><trkpt lat="61.154228" lon="-150.060124"><ele>49.009</ele><time>2026-08-06T20:21:15Z</time></trkpt><trkpt lat="61.154233" lon="-150.060202"><ele>48.618</ele><time>2026-08-06T20:21:18Z</time></trkpt><trkpt lat="61.15423" lon="-150.06034"><ele>48.093</ele><time>2026-08-06T20:21:23Z</time></trkpt><trkpt lat="61.154226" lon="-150.060445"><ele>47.624</ele><time>2026-08-06T20:21:27Z</time></trkpt><trkpt lat="61.154208" lon="-150.060544"><ele>47.268</ele><time>2026-08-06T20:21:31Z</time></trkpt><trkpt lat="61.154183" lon="-150.060657"><ele>46.676</ele><time>2026-08-06T20:21:36Z</time></trkpt><trkpt lat="61.154163" lon="-150.060736"><ele>46.253</ele><time>2026-08-06T20:21:39Z</time></trkpt><trkpt lat="61.154127" lon="-150.060891"><ele>45.692</ele><time>2026-08-06T20:21:45Z</time></trkpt><trkpt lat="61.15411" lon="-150.06099"><ele>45.016</ele><time>2026-08-06T20:21:49Z</time></trkpt><trkpt lat="61.154095" lon="-150.061084"><ele>44.433</ele><time>2026-08-06T20:21:53Z</time></trkpt><trkpt lat="61.154079" lon="-150.061152"><ele>44.211</ele><time>2026-08-06T20:21:56Z</time></trkpt><trkpt lat="61.154038" lon="-150.061321"><ele>43.421</ele><time>2026-08-06T20:22:04Z</time></trkpt><trkpt lat="61.154013" lon="-150.061454"><ele>43.003</ele><time>2026-08-06T20:22:10Z</time></trkpt><trkpt lat="61.153962" lon="-150.061607"><ele>42.409</ele><time>2026-08-06T20:22:18Z</time></trkpt><trkpt lat="61.153929" lon="-150.061778"><ele>42.073</ele><time>2026-08-06T20:22:25Z</time></trkpt><trkpt lat="61.153924" lon="-150.061915"><ele>41.668</ele><time>2026-08-06T20:22:32Z</time></trkpt><trkpt lat="61.153916" lon="-150.061967"><ele>41.659</ele><time>2026-08-06T20:22:37Z</time></trkpt><trkpt lat="61.15391" lon="-150.062071"><ele>41.483</ele><time>2026-08-06T20:22:42Z</time></trkpt><trkpt lat="61.153903" lon="-150.062139"><ele>41.251</ele><time>2026-08-06T20:22:46Z</time></trkpt><trkpt lat="61.153901" lon="-150.062287"><ele>41.248</ele><time>2026-08-06T20:22:53Z</time></trkpt><trkpt lat="61.153924" lon="-150.062471"><ele>40.877</ele><time>2026-08-06T20:23:01Z</time></trkpt><trkpt lat="61.153979" lon="-150.062656"><ele>40.811</ele><time>2026-08-06T20:23:10Z</time></trkpt><trkpt lat="61.154056" lon="-150.062813"><ele>40.668</ele><time>2026-08-06T20:23:19Z</time></trkpt><trkpt lat="61.1541" lon="-150.062919"><ele>40.499</ele><time>2026-08-06T20:23:25Z</time></trkpt><trkpt lat="61.154132" lon="-150.062992"><ele>40.407</ele><time>2026-08-06T20:23:29Z</time></trkpt><trkpt lat="61.154156" lon="-150.063043"><ele>40.427</ele><time>2026-08-06T20:23:32Z</time></trkpt><trkpt lat="61.154179" lon="-150.063077"><ele>40.409</ele><time>2026-08-06T20:23:35Z</time></trkpt><trkpt lat="61.154241" lon="-150.063222"><ele>40.441</ele><time>2026-08-06T20:23:45Z</time></trkpt><trkpt lat="61.154337" lon="-150.063447"><ele>40.446</ele><time>2026-08-06T20:23:56Z</time></trkpt><trkpt lat="61.154456" lon="-150.063601"><ele>39.867</ele><time>2026-08-06T20:24:06Z</time></trkpt><trkpt lat="61.154515" lon="-150.063617"><ele>39.421</ele><time>2026-08-06T20:24:13Z</time></trkpt><trkpt lat="61.154522" lon="-150.063619"><ele>39.479</ele><time>2026-08-06T20:24:14Z</time></trkpt><trkpt lat="61.154543" lon="-150.063587"><ele>39.276</ele><time>2026-08-06T20:24:21Z</time></trkpt><trkpt lat="61.154536" lon="-150.063572"><ele>39.245</ele><time>2026-08-06T20:24:29Z</time></trkpt><trkpt lat="61.154532" lon="-150.063582"><ele>39.289</ele><time>2026-08-06T20:24:38Z</time></trkpt><trkpt lat="61.154548" lon="-150.063575"><ele>39.256</ele><time>2026-08-06T20:24:40Z</time></trkpt><trkpt lat="61.154599" lon="-150.063569"><ele>39.028</ele><time>2026-08-06T20:24:45Z</time></trkpt><trkpt lat="61.154603" lon="-150.063574"><ele>38.889</ele><time>2026-08-06T20:24:47Z</time></trkpt><trkpt lat="61.154639" lon="-150.063544"><ele>38.617</ele><time>2026-08-06T20:24:54Z</time></trkpt><trkpt lat="61.154657" lon="-150.06353"><ele>38.409</ele><time>2026-08-06T20:24:57Z</time></trkpt><trkpt lat="61.15467" lon="-150.063516"><ele>38.274</ele><time>2026-08-06T20:24:59Z</time></trkpt><trkpt lat="61.154717" lon="-150.063465"><ele>38.079</ele><time>2026-08-06T20:25:04Z</time></trkpt><trkpt lat="61.154767" lon="-150.063416"><ele>37.690</ele><time>2026-08-06T20:25:08Z</time></trkpt><trkpt lat="61.154812" lon="-150.063372"><ele>37.284</ele><time>2026-08-06T20:25:12Z</time></trkpt><trkpt lat="61.154877" lon="-150.06333"><ele>36.892</ele><time>2026-08-06T20:25:18Z</time></trkpt><trkpt lat="61.154973" lon="-150.06324"><ele>36.659</ele><time>2026-08-06T20:25:27Z</time></trkpt><trkpt lat="61.155086" lon="-150.063184"><ele>36.458</ele><time>2026-08-06T20:25:38Z</time></trkpt><trkpt lat="61.155121" lon="-150.063171"><ele>36.272</ele><time>2026-08-06T20:25:41Z</time></trkpt><trkpt lat="61.155174" lon="-150.063166"><ele>36.039</ele><time>2026-08-06T20:25:46Z</time></trkpt><trkpt lat="61.155242" lon="-150.063134"><ele>36.049</ele><time>2026-08-06T20:25:53Z</time></trkpt><trkpt lat="61.155341" lon="-150.063168"><ele>35.602</ele><time>2026-08-06T20:26:02Z</time></trkpt><trkpt lat="61.155381" lon="-150.063147"><ele>35.222</ele><time>2026-08-06T20:26:07Z</time></trkpt><trkpt lat="61.155419" lon="-150.063132"><ele>35.209</ele><time>2026-08-06T20:26:10Z</time></trkpt><trkpt lat="61.155434" lon="-150.06311"><ele>35.216</ele><time>2026-08-06T20:26:11Z</time></trkpt><trkpt lat="61.15547" lon="-150.063081"><ele>34.891</ele><time>2026-08-06T20:26:14Z</time></trkpt><trkpt lat="61.155563" lon="-150.062987"><ele>34.262</ele><time>2026-08-06T20:26:22Z</time></trkpt><trkpt lat="61.155574" lon="-150.062967"><ele>34.076</ele><time>2026-08-06T20:26:23Z</time></trkpt><trkpt lat="61.155649" lon="-150.062798"><ele>33.684</ele><time>2026-08-06T20:26:31Z</time></trkpt><trkpt lat="61.155686" lon="-150.062715"><ele>33.451</ele><time>2026-08-06T20:26:35Z</time></trkpt><trkpt lat="61.15574" lon="-150.062605"><ele>33.410</ele><time>2026-08-06T20:26:41Z</time></trkpt><trkpt lat="61.155872" lon="-150.06247"><ele>33.424</ele><time>2026-08-06T20:26:53Z</time></trkpt><trkpt lat="61.156025" lon="-150.062368"><ele>33.211</ele><time>2026-08-06T20:27:06Z</time></trkpt><trkpt lat="61.156079" lon="-150.062337"><ele>33.027</ele><time>2026-08-06T20:27:11Z</time></trkpt><trkpt lat="61.156163" lon="-150.062267"><ele>32.668</ele><time>2026-08-06T20:27:18Z</time></trkpt><trkpt lat="61.156266" lon="-150.062159"><ele>32.414</ele><time>2026-08-06T20:27:27Z</time></trkpt><trkpt lat="61.156363" lon="-150.062077"><ele>32.009</ele><time>2026-08-06T20:27:35Z</time></trkpt><trkpt lat="61.156402" lon="-150.06204"><ele>31.684</ele><time>2026-08-06T20:27:38Z</time></trkpt><trkpt lat="61.156497" lon="-150.061991"><ele>30.869</ele><time>2026-08-06T20:27:46Z</time></trkpt><trkpt lat="61.15653" lon="-150.061979"><ele>30.630</ele><time>2026-08-06T20:27:49Z</time></trkpt><trkpt lat="61.1566" lon="-150.061994"><ele>30.034</ele><time>2026-08-06T20:27:56Z</time></trkpt><trkpt lat="61.156609" lon="-150.062007"><ele>29.832</ele><time>2026-08-06T20:27:58Z</time></trkpt><trkpt lat="61.156649" lon="-150.062034"><ele>29.679</ele><time>2026-08-06T20:28:02Z</time></trkpt><trkpt lat="61.156735" lon="-150.062125"><ele>28.858</ele><time>2026-08-06T20:28:10Z</time></trkpt><trkpt lat="61.156769" lon="-150.062162"><ele>28.652</ele><time>2026-08-06T20:28:13Z</time></trkpt><trkpt lat="61.156805" lon="-150.062188"><ele>28.289</ele><time>2026-08-06T20:28:17Z</time></trkpt><trkpt lat="61.156843" lon="-150.062212"><ele>27.845</ele><time>2026-08-06T20:28:22Z</time></trkpt><trkpt lat="61.156949" lon="-150.062302"><ele>27.247</ele><time>2026-08-06T20:28:32Z</time></trkpt><trkpt lat="61.156984" lon="-150.062328"><ele>26.611</ele><time>2026-08-06T20:28:36Z</time></trkpt><trkpt lat="61.157032" lon="-150.062336"><ele>26.209</ele><time>2026-08-06T20:28:40Z</time></trkpt><trkpt lat="61.157124" lon="-150.062355"><ele>25.656</ele><time>2026-08-06T20:28:48Z</time></trkpt><trkpt lat="61.157218" lon="-150.062378"><ele>24.881</ele><time>2026-08-06T20:28:56Z</time></trkpt><trkpt lat="61.157262" lon="-150.06239"><ele>24.682</ele><time>2026-08-06T20:29:00Z</time></trkpt><trkpt lat="61.157311" lon="-150.062411"><ele>24.056</ele><time>2026-08-06T20:29:04Z</time></trkpt><trkpt lat="61.157359" lon="-150.062437"><ele>23.634</ele><time>2026-08-06T20:29:08Z</time></trkpt><trkpt lat="61.157402" lon="-150.062479"><ele>23.051</ele><time>2026-08-06T20:29:12Z</time></trkpt><trkpt lat="61.15746" lon="-150.062565"><ele>22.480</ele><time>2026-08-06T20:29:18Z</time></trkpt><trkpt lat="61.157502" lon="-150.062638"><ele>21.644</ele><time>2026-08-06T20:29:23Z</time></trkpt><trkpt lat="61.15752" lon="-150.062697"><ele>21.461</ele><time>2026-08-06T20:29:26Z</time></trkpt><trkpt lat="61.157537" lon="-150.062788"><ele>21.095</ele><time>2026-08-06T20:29:30Z</time></trkpt><trkpt lat="61.15756" lon="-150.062909"><ele>20.249</ele><time>2026-08-06T20:29:35Z</time></trkpt><trkpt lat="61.15757" lon="-150.063028"><ele>19.823</ele><time>2026-08-06T20:29:39Z</time></trkpt><trkpt lat="61.157575" lon="-150.063132"><ele>19.209</ele><time>2026-08-06T20:29:43Z</time></trkpt><trkpt lat="61.157583" lon="-150.063268"><ele>18.871</ele><time>2026-08-06T20:29:48Z</time></trkpt><trkpt lat="61.157587" lon="-150.063403"><ele>18.066</ele><time>2026-08-06T20:29:53Z</time></trkpt><trkpt lat="61.157586" lon="-150.063455"><ele>18.017</ele><time>2026-08-06T20:29:55Z</time></trkpt><trkpt lat="61.157585" lon="-150.063711"><ele>17.061</ele><time>2026-08-06T20:30:03Z</time></trkpt><trkpt lat="61.157563" lon="-150.063912"><ele>16.419</ele><time>2026-08-06T20:30:10Z</time></trkpt><trkpt lat="61.157517" lon="-150.064062"><ele>16.046</ele><time>2026-08-06T20:30:16Z</time></trkpt><trkpt lat="61.157487" lon="-150.064105"><ele>16.085</ele><time>2026-08-06T20:30:18Z</time></trkpt><trkpt lat="61.157405" lon="-150.064206"><ele>16.299</ele><time>2026-08-06T20:30:25Z</time></trkpt><trkpt lat="61.157326" lon="-150.064306"><ele>16.266</ele><time>2026-08-06T20:30:32Z</time></trkpt><trkpt lat="61.157315" lon="-150.064311"><ele>15.882</ele><time>2026-08-06T20:30:36Z</time></trkpt><trkpt lat="61.15732" lon="-150.064311"><ele>15.843</ele><time>2026-08-06T20:30:38Z</time></trkpt><trkpt lat="61.157312" lon="-150.064312"><ele>15.817</ele><time>2026-08-06T20:30:39Z</time></trkpt><trkpt lat="61.157244" lon="-150.064327"><ele>15.809</ele><time>2026-08-06T20:30:44Z</time></trkpt><trkpt lat="61.15712" lon="-150.064334"><ele>15.860</ele><time>2026-08-06T20:30:53Z</time></trkpt><trkpt lat="61.156991" lon="-150.064383"><ele>16.215</ele><time>2026-08-06T20:31:02Z</time></trkpt><trkpt lat="61.156911" lon="-150.064498"><ele>16.296</ele><time>2026-08-06T20:31:10Z</time></trkpt><trkpt lat="61.156887" lon="-150.064564"><ele>16.230</ele><time>2026-08-06T20:31:16Z</time></trkpt><trkpt lat="61.156885" lon="-150.064563"><ele>16.288</ele><time>2026-08-06T20:31:29Z</time></trkpt><trkpt lat="61.156879" lon="-150.064568"><ele>16.275</ele><time>2026-08-06T20:31:30Z</time></trkpt><trkpt lat="61.156834" lon="-150.064604"><ele>16.084</ele><time>2026-08-06T20:31:34Z</time></trkpt><trkpt lat="61.156804" lon="-150.064627"><ele>16.258</ele><time>2026-08-06T20:31:36Z</time></trkpt><trkpt lat="61.156751" lon="-150.064714"><ele>16.275</ele><time>2026-08-06T20:31:44Z</time></trkpt><trkpt lat="61.156757" lon="-150.064725"><ele>16.437</ele><time>2026-08-06T20:31:53Z</time></trkpt><trkpt lat="61.156757" lon="-150.064725"><ele>16.449</ele><time>2026-08-06T20:32:01Z</time></trkpt><trkpt lat="61.156757" lon="-150.064725"><ele>16.213</ele><time>2026-08-06T20:32:14Z</time></trkpt><trkpt lat="61.156757" lon="-150.064701"><ele>16.209</ele><time>2026-08-06T20:32:38Z</time></trkpt><trkpt lat="61.156746" lon="-150.064701"><ele>16.425</ele><time>2026-08-06T20:32:48Z</time></trkpt><trkpt lat="61.156708" lon="-150.064693"><ele>16.450</ele><time>2026-08-06T20:32:57Z</time></trkpt><trkpt lat="61.156638" lon="-150.064702"><ele>16.421</ele><time>2026-08-06T20:33:06Z</time></trkpt><trkpt lat="61.156566" lon="-150.064723"><ele>16.845</ele><time>2026-08-06T20:33:14Z</time></trkpt><trkpt lat="61.156482" lon="-150.064786"><ele>16.813</ele><time>2026-08-06T20:33:23Z</time></trkpt><trkpt lat="61.156444" lon="-150.064854"><ele>16.850</ele><time>2026-08-06T20:33:31Z</time></trkpt><trkpt lat="61.156413" lon="-150.064874"><ele>16.899</ele><time>2026-08-06T20:33:39Z</time></trkpt><trkpt lat="61.156403" lon="-150.064871"><ele>16.843</ele><time>2026-08-06T20:33:47Z</time></trkpt><trkpt lat="61.15641" lon="-150.064842"><ele>16.880</ele><time>2026-08-06T20:33:55Z</time></trkpt><trkpt lat="61.156411" lon="-150.064835"><ele>16.891</ele><time>2026-08-06T20:33:56Z</time></trkpt><trkpt lat="61.156415" lon="-150.064818"><ele>17.081</ele><time>2026-08-06T20:34:01Z</time></trkpt><trkpt lat="61.156416" lon="-150.064819"><ele>17.019</ele><time>2026-08-06T20:34:04Z</time></trkpt><trkpt lat="61.156422" lon="-150.064817"><ele>17.009</ele><time>2026-08-06T20:34:15Z</time></trkpt><trkpt lat="61.15642" lon="-150.064841"><ele>17.021</ele><time>2026-08-06T20:34:23Z</time></trkpt><trkpt lat="61.156415" lon="-150.064847"><ele>17.266</ele><time>2026-08-06T20:34:34Z</time></trkpt><trkpt lat="61.156426" lon="-150.064844"><ele>17.027</ele><time>2026-08-06T20:34:45Z</time></trkpt><trkpt lat="61.156408" lon="-150.064852"><ele>17.231</ele><time>2026-08-06T20:34:56Z</time></trkpt><trkpt lat="61.156408" lon="-150.06485"><ele>17.439</ele><time>2026-08-06T20:35:05Z</time></trkpt><trkpt lat="61.156404" lon="-150.064839"><ele>17.216</ele><time>2026-08-06T20:35:10Z</time></trkpt><trkpt lat="61.156404" lon="-150.064841"><ele>17.275</ele><time>2026-08-06T20:35:11Z</time></trkpt><trkpt lat="61.156399" lon="-150.064819"><ele>17.219</ele><time>2026-08-06T20:35:19Z</time></trkpt><trkpt lat="61.15642" lon="-150.064838"><ele>17.276</ele><time>2026-08-06T20:35:28Z</time></trkpt><trkpt lat="61.156413" lon="-150.064841"><ele>17.488</ele><time>2026-08-06T20:35:38Z</time></trkpt><trkpt lat="61.156351" lon="-150.064821"><ele>17.224</ele><time>2026-08-06T20:35:47Z</time></trkpt><trkpt lat="61.156319" lon="-150.06479"><ele>17.226</ele><time>2026-08-06T20:35:50Z</time></trkpt><trkpt lat="61.1563" lon="-150.064747"><ele>17.209</ele><time>2026-08-06T20:35:53Z</time></trkpt><trkpt lat="61.156309" lon="-150.064753"><ele>17.250</ele><time>2026-08-06T20:36:01Z</time></trkpt><trkpt lat="61.156301" lon="-150.064689"><ele>17.215</ele><time>2026-08-06T20:36:11Z</time></trkpt><trkpt lat="61.156276" lon="-150.064621"><ele>17.876</ele><time>2026-08-06T20:36:20Z</time></trkpt><trkpt lat="61.156293" lon="-150.064647"><ele>17.850</ele><time>2026-08-06T20:36:27Z</time></trkpt><trkpt lat="61.156283" lon="-150.064718"><ele>17.698</ele><time>2026-08-06T20:36:35Z</time></trkpt><trkpt lat="61.156314" lon="-150.064843"><ele>17.295</ele><time>2026-08-06T20:36:40Z</time></trkpt><trkpt lat="61.156326" lon="-150.064863"><ele>17.254</ele><time>2026-08-06T20:36:41Z</time></trkpt><trkpt lat="61.156349" lon="-150.064871"><ele>17.448</ele><time>2026-08-06T20:36:43Z</time></trkpt><trkpt lat="61.156392" lon="-150.064856"><ele>17.645</ele><time>2026-08-06T20:36:46Z</time></trkpt><trkpt lat="61.156425" lon="-150.064806"><ele>17.639</ele><time>2026-08-06T20:36:49Z</time></trkpt><trkpt lat="61.15643" lon="-150.064756"><ele>17.601</ele><time>2026-08-06T20:36:52Z</time></trkpt><trkpt lat="61.156439" lon="-150.064708"><ele>17.421</ele><time>2026-08-06T20:36:59Z</time></trkpt><trkpt lat="61.156443" lon="-150.064716"><ele>17.409</ele><time>2026-08-06T20:37:01Z</time></trkpt><trkpt lat="61.156448" lon="-150.064728"><ele>17.415</ele><time>2026-08-06T20:37:06Z</time></trkpt><trkpt lat="61.15645" lon="-150.064722"><ele>17.450</ele><time>2026-08-06T20:37:07Z</time></trkpt><trkpt lat="61.156447" lon="-150.064688"><ele>17.411</ele><time>2026-08-06T20:37:09Z</time></trkpt><trkpt lat="61.156432" lon="-150.064669"><ele>17.655</ele><time>2026-08-06T20:37:16Z</time></trkpt><trkpt lat="61.156434" lon="-150.064634"><ele>17.453</ele><time>2026-08-06T20:37:26Z</time></trkpt><trkpt lat="61.156432" lon="-150.064724"><ele>17.690</ele><time>2026-08-06T20:37:31Z</time></trkpt><trkpt lat="61.156411" lon="-150.064744"><ele>17.459</ele><time>2026-08-06T20:37:40Z</time></trkpt><trkpt lat="61.156432" lon="-150.064732"><ele>17.473</ele><time>2026-08-06T20:37:48Z</time></trkpt><trkpt lat="61.156434" lon="-150.064726"><ele>17.280</ele><time>2026-08-06T20:37:54Z</time></trkpt><trkpt lat="61.156432" lon="-150.064728"><ele>17.424</ele><time>2026-08-06T20:37:58Z</time></trkpt><trkpt lat="61.156429" lon="-150.0647"><ele>17.404</ele><time>2026-08-06T20:38:05Z</time></trkpt><trkpt lat="61.156437" lon="-150.064702"><ele>17.414</ele><time>2026-08-06T20:38:10Z</time></trkpt><trkpt lat="61.156429" lon="-150.064683"><ele>17.409</ele><time>2026-08-06T20:38:20Z</time></trkpt><trkpt lat="61.156425" lon="-150.064683"><ele>17.434</ele><time>2026-08-06T20:38:32Z</time></trkpt><trkpt lat="61.156431" lon="-150.064681"><ele>17.419</ele><time>2026-08-06T20:38:38Z</time></trkpt><trkpt lat="61.156437" lon="-150.064674"><ele>17.430</ele><time>2026-08-06T20:38:45Z</time></trkpt><trkpt lat="61.156442" lon="-150.06467"><ele>17.414</ele><time>2026-08-06T20:38:47Z</time></trkpt><trkpt lat="61.156447" lon="-150.064678"><ele>17.452</ele><time>2026-08-06T20:38:49Z</time></trkpt><trkpt lat="61.15644" lon="-150.0647"><ele>17.889</ele><time>2026-08-06T20:38:53Z</time></trkpt><trkpt lat="61.156436" lon="-150.064726"><ele>18.078</ele><time>2026-08-06T20:38:56Z</time></trkpt><trkpt lat="61.156435" lon="-150.064738"><ele>18.052</ele><time>2026-08-06T20:38:57Z</time></trkpt><trkpt lat="61.156438" lon="-150.064782"><ele>17.629</ele><time>2026-08-06T20:39:03Z</time></trkpt><trkpt lat="61.156439" lon="-150.064772"><ele>17.443</ele><time>2026-08-06T20:39:10Z</time></trkpt><trkpt lat="61.156426" lon="-150.064784"><ele>17.464</ele><time>2026-08-06T20:39:18Z</time></trkpt><trkpt lat="61.156423" lon="-150.064802"><ele>17.410</ele><time>2026-08-06T20:39:21Z</time></trkpt><trkpt lat="61.156417" lon="-150.064838"><ele>17.409</ele><time>2026-08-06T20:39:25Z</time></trkpt><trkpt lat="61.156415" lon="-150.064843"><ele>17.486</ele><time>2026-08-06T20:39:26Z</time></trkpt><trkpt lat="61.156405" lon="-150.064841"><ele>17.661</ele><time>2026-08-06T20:39:31Z</time></trkpt><trkpt lat="61.156395" lon="-150.064831"><ele>17.652</ele><time>2026-08-06T20:39:35Z</time></trkpt><trkpt lat="61.156391" lon="-150.064836"><ele>17.616</ele><time>2026-08-06T20:39:37Z</time></trkpt><trkpt lat="61.156387" lon="-150.064842"><ele>17.654</ele><time>2026-08-06T20:39:39Z</time></trkpt><trkpt lat="61.156385" lon="-150.064828"><ele>17.861</ele><time>2026-08-06T20:39:45Z</time></trkpt><trkpt lat="61.156389" lon="-150.064836"><ele>17.810</ele><time>2026-08-06T20:39:51Z</time></trkpt><trkpt lat="61.15634" lon="-150.06488"><ele>17.844</ele><time>2026-08-06T20:39:58Z</time></trkpt><trkpt lat="61.156269" lon="-150.064886"><ele>17.841</ele><time>2026-08-06T20:40:06Z</time></trkpt><trkpt lat="61.156208" lon="-150.064927"><ele>17.697</ele><time>2026-08-06T20:40:14Z</time></trkpt><trkpt lat="61.156211" lon="-150.064947"><ele>17.223</ele><time>2026-08-06T20:40:21Z</time></trkpt><trkpt lat="61.156203" lon="-150.064944"><ele>17.225</ele><time>2026-08-06T20:40:29Z</time></trkpt><trkpt lat="61.156215" lon="-150.064932"><ele>17.409</ele><time>2026-08-06T20:40:40Z</time></trkpt><trkpt lat="61.156218" lon="-150.064938"><ele>17.891</ele><time>2026-08-06T20:40:50Z</time></trkpt><trkpt lat="61.156215" lon="-150.064929"><ele>18.096</ele><time>2026-08-06T20:40:57Z</time></trkpt><trkpt lat="61.156164" lon="-150.064973"><ele>17.827</ele><time>2026-08-06T20:41:04Z</time></trkpt><trkpt lat="61.156077" lon="-150.065016"><ele>18.071</ele><time>2026-08-06T20:41:13Z</time></trkpt><trkpt lat="61.156003" lon="-150.06504"><ele>18.029</ele><time>2026-08-06T20:41:21Z</time></trkpt><trkpt lat="61.155927" lon="-150.065066"><ele>18.426</ele><time>2026-08-06T20:41:29Z</time></trkpt><trkpt lat="61.155842" lon="-150.065114"><ele>18.615</ele><time>2026-08-06T20:41:38Z</time></trkpt><trkpt lat="61.155771" lon="-150.065185"><ele>18.879</ele><time>2026-08-06T20:41:45Z</time></trkpt><trkpt lat="61.15571" lon="-150.065255"><ele>18.866</ele><time>2026-08-06T20:41:53Z</time></trkpt><trkpt lat="61.155687" lon="-150.065288"><ele>19.245</ele><time>2026-08-06T20:41:56Z</time></trkpt><trkpt lat="61.155646" lon="-150.065367"><ele>18.847</ele><time>2026-08-06T20:42:02Z</time></trkpt><trkpt lat="61.155592" lon="-150.065505"><ele>18.611</ele><time>2026-08-06T20:42:11Z</time></trkpt><trkpt lat="61.155585" lon="-150.065524"><ele>18.609</ele><time>2026-08-06T20:42:12Z</time></trkpt><trkpt lat="61.155514" lon="-150.06569"><ele>18.836</ele><time>2026-08-06T20:42:22Z</time></trkpt><trkpt lat="61.155447" lon="-150.065857"><ele>18.461</ele><time>2026-08-06T20:42:32Z</time></trkpt><trkpt lat="61.155395" lon="-150.065983"><ele>18.442</ele><time>2026-08-06T20:42:40Z</time></trkpt><trkpt lat="61.155383" lon="-150.066017"><ele>18.226</ele><time>2026-08-06T20:42:42Z</time></trkpt><trkpt lat="61.155357" lon="-150.066078"><ele>18.224</ele><time>2026-08-06T20:42:45Z</time></trkpt><trkpt lat="61.155326" lon="-150.066142"><ele>18.231</ele><time>2026-08-06T20:42:49Z</time></trkpt><trkpt lat="61.155303" lon="-150.066186"><ele>18.240</ele><time>2026-08-06T20:42:52Z</time></trkpt><trkpt lat="61.155273" lon="-150.066289"><ele>18.034</ele><time>2026-08-06T20:42:57Z</time></trkpt><trkpt lat="61.155234" lon="-150.06648"><ele>18.061</ele><time>2026-08-06T20:43:05Z</time></trkpt><trkpt lat="61.15522" lon="-150.066606"><ele>18.086</ele><time>2026-08-06T20:43:11Z</time></trkpt><trkpt lat="61.15522" lon="-150.066775"><ele>17.860</ele><time>2026-08-06T20:43:18Z</time></trkpt><trkpt lat="61.155232" lon="-150.06686"><ele>17.826</ele><time>2026-08-06T20:43:22Z</time></trkpt><trkpt lat="61.15526" lon="-150.067041"><ele>17.609</ele><time>2026-08-06T20:43:30Z</time></trkpt><trkpt lat="61.155289" lon="-150.067222"><ele>17.650</ele><time>2026-08-06T20:43:39Z</time></trkpt><trkpt lat="61.155325" lon="-150.067427"><ele>17.445</ele><time>2026-08-06T20:43:47Z</time></trkpt><trkpt lat="61.155349" lon="-150.067591"><ele>17.436</ele><time>2026-08-06T20:43:55Z</time></trkpt><trkpt lat="61.155346" lon="-150.067755"><ele>17.480</ele><time>2026-08-06T20:44:03Z</time></trkpt><trkpt lat="61.155328" lon="-150.06799"><ele>17.438</ele><time>2026-08-06T20:44:13Z</time></trkpt><trkpt lat="61.155296" lon="-150.068156"><ele>17.435</ele><time>2026-08-06T20:44:20Z</time></trkpt><trkpt lat="61.155269" lon="-150.068355"><ele>17.634</ele><time>2026-08-06T20:44:29Z</time></trkpt><trkpt lat="61.155243" lon="-150.068566"><ele>17.418</ele><time>2026-08-06T20:44:38Z</time></trkpt><trkpt lat="61.15524" lon="-150.068731"><ele>17.435</ele><time>2026-08-06T20:44:45Z</time></trkpt><trkpt lat="61.155246" lon="-150.06892"><ele>17.491</ele><time>2026-08-06T20:44:53Z</time></trkpt><trkpt lat="61.155259" lon="-150.069146"><ele>17.481</ele><time>2026-08-06T20:45:02Z</time></trkpt><trkpt lat="61.155265" lon="-150.06925"><ele>17.019</ele><time>2026-08-06T20:45:07Z</time></trkpt><trkpt lat="61.155286" lon="-150.069356"><ele>17.209</ele><time>2026-08-06T20:45:12Z</time></trkpt><trkpt lat="61.15529" lon="-150.069535"><ele>17.221</ele><time>2026-08-06T20:45:20Z</time></trkpt><trkpt lat="61.1553" lon="-150.069705"><ele>17.256</ele><time>2026-08-06T20:45:27Z</time></trkpt><trkpt lat="61.1553" lon="-150.069898"><ele>16.817</ele><time>2026-08-06T20:45:36Z</time></trkpt><trkpt lat="61.155242" lon="-150.06999"><ele>17.271</ele><time>2026-08-06T20:45:44Z</time></trkpt><trkpt lat="61.15523" lon="-150.069979"><ele>17.269</ele><time>2026-08-06T20:45:45Z</time></trkpt><trkpt lat="61.155177" lon="-150.069967"><ele>17.016</ele><time>2026-08-06T20:45:50Z</time></trkpt><trkpt lat="61.155148" lon="-150.06995"><ele>16.875</ele><time>2026-08-06T20:45:56Z</time></trkpt><trkpt lat="61.155054" lon="-150.069889"><ele>16.869</ele><time>2026-08-06T20:46:04Z</time></trkpt><trkpt lat="61.154946" lon="-150.069797"><ele>16.896</ele><time>2026-08-06T20:46:13Z</time></trkpt><trkpt lat="61.154876" lon="-150.069635"><ele>16.698</ele><time>2026-08-06T20:46:22Z</time></trkpt><trkpt lat="61.154801" lon="-150.069539"><ele>16.615</ele><time>2026-08-06T20:46:31Z</time></trkpt><trkpt lat="61.154734" lon="-150.069567"><ele>16.826</ele><time>2026-08-06T20:46:36Z</time></trkpt><trkpt lat="61.154701" lon="-150.06958"><ele>16.809</ele><time>2026-08-06T20:46:39Z</time></trkpt><trkpt lat="61.154629" lon="-150.069528"><ele>16.851</ele><time>2026-08-06T20:46:48Z</time></trkpt><trkpt lat="61.154525" lon="-150.069457"><ele>17.276</ele><time>2026-08-06T20:46:58Z</time></trkpt><trkpt lat="61.15444" lon="-150.069317"><ele>17.247</ele><time>2026-08-06T20:47:07Z</time></trkpt><trkpt lat="61.154416" lon="-150.069267"><ele>17.251</ele><time>2026-08-06T20:47:10Z</time></trkpt><trkpt lat="61.154411" lon="-150.069255"><ele>17.259</ele><time>2026-08-06T20:47:11Z</time></trkpt><trkpt lat="61.154405" lon="-150.069242"><ele>17.226</ele><time>2026-08-06T20:47:12Z</time></trkpt><trkpt lat="61.154388" lon="-150.069183"><ele>17.085</ele><time>2026-08-06T20:47:16Z</time></trkpt><trkpt lat="61.154379" lon="-150.069147"><ele>17.219</ele><time>2026-08-06T20:47:18Z</time></trkpt><trkpt lat="61.154343" lon="-150.069062"><ele>17.276</ele><time>2026-08-06T20:47:22Z</time></trkpt><trkpt lat="61.154334" lon="-150.069053"><ele>17.233</ele><time>2026-08-06T20:47:23Z</time></trkpt><trkpt lat="61.154323" lon="-150.06904"><ele>17.223</ele><time>2026-08-06T20:47:24Z</time></trkpt><trkpt lat="61.154308" lon="-150.069027"><ele>17.215</ele><time>2026-08-06T20:47:25Z</time></trkpt><trkpt lat="61.154283" lon="-150.069016"><ele>17.209</ele><time>2026-08-06T20:47:27Z</time></trkpt><trkpt lat="61.154236" lon="-150.069028"><ele>17.455</ele><time>2026-08-06T20:47:32Z</time></trkpt><trkpt lat="61.154189" lon="-150.069043"><ele>17.670</ele><time>2026-08-06T20:47:36Z</time></trkpt><trkpt lat="61.154106" lon="-150.069058"><ele>17.861</ele><time>2026-08-06T20:47:44Z</time></trkpt><trkpt lat="61.154079" lon="-150.069058"><ele>18.275</ele><time>2026-08-06T20:47:46Z</time></trkpt><trkpt lat="61.154" lon="-150.069055"><ele>18.053</ele><time>2026-08-06T20:47:52Z</time></trkpt><trkpt lat="61.153929" lon="-150.069073"><ele>18.240</ele><time>2026-08-06T20:47:59Z</time></trkpt><trkpt lat="61.153858" lon="-150.069027"><ele>18.279</ele><time>2026-08-06T20:48:06Z</time></trkpt><trkpt lat="61.15375" lon="-150.068922"><ele>18.433</ele><time>2026-08-06T20:48:17Z</time></trkpt><trkpt lat="61.153675" lon="-150.068912"><ele>18.620</ele><time>2026-08-06T20:48:25Z</time></trkpt><trkpt lat="61.153603" lon="-150.068938"><ele>18.876</ele><time>2026-08-06T20:48:34Z</time></trkpt><trkpt lat="61.153586" lon="-150.068938"><ele>18.690</ele><time>2026-08-06T20:48:44Z</time></trkpt><trkpt lat="61.153565" lon="-150.069025"><ele>18.619</ele><time>2026-08-06T20:48:52Z</time></trkpt><trkpt lat="61.153535" lon="-150.069092"><ele>17.809</ele><time>2026-08-06T20:49:00Z</time></trkpt><trkpt lat="61.153534" lon="-150.069088"><ele>17.419</ele><time>2026-08-06T20:49:09Z</time></trkpt><trkpt lat="61.153508" lon="-150.069087"><ele>17.254</ele><time>2026-08-06T20:49:15Z</time></trkpt><trkpt lat="61.153487" lon="-150.069084"><ele>16.815</ele><time>2026-08-06T20:49:18Z</time></trkpt><trkpt lat="61.153474" lon="-150.069078"><ele>16.039</ele><time>2026-08-06T20:49:22Z</time></trkpt><trkpt lat="61.153474" lon="-150.06908"><ele>15.817</ele><time>2026-08-06T20:49:25Z</time></trkpt><trkpt lat="61.153472" lon="-150.069084"><ele>15.894</ele><time>2026-08-06T20:49:31Z</time></trkpt><trkpt lat="61.153468" lon="-150.069092"><ele>15.663</ele><time>2026-08-06T20:49:36Z</time></trkpt><trkpt lat="61.153468" lon="-150.069097"><ele>15.687</ele><time>2026-08-06T20:49:37Z</time></trkpt><trkpt lat="61.15347" lon="-150.069097"><ele>15.694</ele><time>2026-08-06T20:49:38Z</time></trkpt><trkpt lat="61.153481" lon="-150.069078"><ele>15.642</ele><time>2026-08-06T20:49:46Z</time></trkpt><trkpt lat="61.153467" lon="-150.069066"><ele>15.622</ele><time>2026-08-06T20:49:50Z</time></trkpt><trkpt lat="61.153426" lon="-150.06907"><ele>15.214</ele><time>2026-08-06T20:49:54Z</time></trkpt><trkpt lat="61.153411" lon="-150.069071"><ele>15.009</ele><time>2026-08-06T20:49:56Z</time></trkpt><trkpt lat="61.15332" lon="-150.069053"><ele>14.666</ele><time>2026-08-06T20:50:04Z</time></trkpt><trkpt lat="61.153258" lon="-150.069035"><ele>14.031</ele><time>2026-08-06T20:50:09Z</time></trkpt><trkpt lat="61.153205" lon="-150.069015"><ele>13.622</ele><time>2026-08-06T20:50:13Z</time></trkpt><trkpt lat="61.153113" lon="-150.069026"><ele>12.886</ele><time>2026-08-06T20:50:21Z</time></trkpt><trkpt lat="61.152992" lon="-150.069001"><ele>12.094</ele><time>2026-08-06T20:50:31Z</time></trkpt><trkpt lat="61.152888" lon="-150.068949"><ele>11.641</ele><time>2026-08-06T20:50:40Z</time></trkpt><trkpt lat="61.15288" lon="-150.068947"><ele>11.610</ele><time>2026-08-06T20:50:41Z</time></trkpt><trkpt lat="61.152855" lon="-150.06892"><ele>10.664</ele><time>2026-08-06T20:50:50Z</time></trkpt><trkpt lat="61.15285" lon="-150.068904"><ele>10.811</ele><time>2026-08-06T20:50:52Z</time></trkpt><trkpt lat="61.152824" lon="-150.068825"><ele>11.848</ele><time>2026-08-06T20:50:58Z</time></trkpt><trkpt lat="61.152823" lon="-150.06881"><ele>12.261</ele><time>2026-08-06T20:50:59Z</time></trkpt><trkpt lat="61.152831" lon="-150.068772"><ele>13.017</ele><time>2026-08-06T20:51:02Z</time></trkpt><trkpt lat="61.152842" lon="-150.068741"><ele>14.209</ele><time>2026-08-06T20:51:06Z</time></trkpt><trkpt lat="61.152839" lon="-150.068723"><ele>14.856</ele><time>2026-08-06T20:51:08Z</time></trkpt><trkpt lat="61.15284" lon="-150.06871"><ele>15.421</ele><time>2026-08-06T20:51:11Z</time></trkpt><trkpt lat="61.152826" lon="-150.068655"><ele>16.652</ele><time>2026-08-06T20:51:16Z</time></trkpt><trkpt lat="61.152822" lon="-150.068631"><ele>17.246</ele><time>2026-08-06T20:51:18Z</time></trkpt><trkpt lat="61.152826" lon="-150.068619"><ele>17.854</ele><time>2026-08-06T20:51:20Z</time></trkpt><trkpt lat="61.152819" lon="-150.068591"><ele>18.811</ele><time>2026-08-06T20:51:24Z</time></trkpt><trkpt lat="61.152818" lon="-150.068579"><ele>19.050</ele><time>2026-08-06T20:51:25Z</time></trkpt><trkpt lat="61.152806" lon="-150.068512"><ele>20.264</ele><time>2026-08-06T20:51:31Z</time></trkpt><trkpt lat="61.152791" lon="-150.068475"><ele>21.061</ele><time>2026-08-06T20:51:35Z</time></trkpt><trkpt lat="61.152786" lon="-150.068465"><ele>21.251</ele><time>2026-08-06T20:51:37Z</time></trkpt><trkpt lat="61.152764" lon="-150.068394"><ele>22.201</ele><time>2026-08-06T20:51:43Z</time></trkpt><trkpt lat="61.152763" lon="-150.068391"><ele>22.411</ele><time>2026-08-06T20:51:44Z</time></trkpt><trkpt lat="61.152764" lon="-150.068397"><ele>22.809</ele><time>2026-08-06T20:51:48Z</time></trkpt><trkpt lat="61.152763" lon="-150.068402"><ele>22.697</ele><time>2026-08-06T20:51:52Z</time></trkpt><trkpt lat="61.152748" lon="-150.068335"><ele>23.042</ele><time>2026-08-06T20:51:58Z</time></trkpt><trkpt lat="61.152737" lon="-150.068301"><ele>23.613</ele><time>2026-08-06T20:52:01Z</time></trkpt><trkpt lat="61.152725" lon="-150.068237"><ele>24.827</ele><time>2026-08-06T20:52:06Z</time></trkpt><trkpt lat="61.152725" lon="-150.06821"><ele>25.285</ele><time>2026-08-06T20:52:08Z</time></trkpt><trkpt lat="61.152716" lon="-150.068172"><ele>25.812</ele><time>2026-08-06T20:52:12Z</time></trkpt><trkpt lat="61.152714" lon="-150.06814"><ele>26.831</ele><time>2026-08-06T20:52:18Z</time></trkpt><trkpt lat="61.152715" lon="-150.068132"><ele>27.295</ele><time>2026-08-06T20:52:20Z</time></trkpt><trkpt lat="61.152723" lon="-150.068098"><ele>28.042</ele><time>2026-08-06T20:52:25Z</time></trkpt><trkpt lat="61.15273" lon="-150.068074"><ele>28.631</ele><time>2026-08-06T20:52:29Z</time></trkpt><trkpt lat="61.152728" lon="-150.068047"><ele>29.261</ele><time>2026-08-06T20:52:32Z</time></trkpt><trkpt lat="61.152722" lon="-150.067977"><ele>30.207</ele><time>2026-08-06T20:52:38Z</time></trkpt><trkpt lat="61.152718" lon="-150.067964"><ele>30.609</ele><time>2026-08-06T20:52:40Z</time></trkpt><trkpt lat="61.152721" lon="-150.067926"><ele>31.425</ele><time>2026-08-06T20:52:45Z</time></trkpt><trkpt lat="61.15272" lon="-150.067925"><ele>31.630</ele><time>2026-08-06T20:52:51Z</time></trkpt><trkpt lat="61.152712" lon="-150.067943"><ele>31.431</ele><time>2026-08-06T20:52:59Z</time></trkpt><trkpt lat="61.152711" lon="-150.067934"><ele>31.455</ele><time>2026-08-06T20:53:01Z</time></trkpt><trkpt lat="61.152712" lon="-150.067928"><ele>31.473</ele><time>2026-08-06T20:53:02Z</time></trkpt><trkpt lat="61.152717" lon="-150.067922"><ele>31.680</ele><time>2026-08-06T20:53:03Z</time></trkpt><trkpt lat="61.152718" lon="-150.067916"><ele>31.649</ele><time>2026-08-06T20:53:04Z</time></trkpt><trkpt lat="61.15272" lon="-150.067909"><ele>31.853</ele><time>2026-08-06T20:53:05Z</time></trkpt><trkpt lat="61.152721" lon="-150.067901"><ele>31.870</ele><time>2026-08-06T20:53:06Z</time></trkpt><trkpt lat="61.152725" lon="-150.06785"><ele>32.613</ele><time>2026-08-06T20:53:10Z</time></trkpt><trkpt lat="61.152737" lon="-150.06779"><ele>33.843</ele><time>2026-08-06T20:53:15Z</time></trkpt><trkpt lat="61.152741" lon="-150.067753"><ele>35.007</ele><time>2026-08-06T20:53:19Z</time></trkpt><trkpt lat="61.152745" lon="-150.067706"><ele>36.009</ele><time>2026-08-06T20:53:25Z</time></trkpt><trkpt lat="61.152747" lon="-150.067702"><ele>36.223</ele><time>2026-08-06T20:53:26Z</time></trkpt><trkpt lat="61.152757" lon="-150.067675"><ele>37.278</ele><time>2026-08-06T20:53:34Z</time></trkpt><trkpt lat="61.152761" lon="-150.067669"><ele>37.649</ele><time>2026-08-06T20:53:35Z</time></trkpt><trkpt lat="61.152767" lon="-150.067644"><ele>38.253</ele><time>2026-08-06T20:53:38Z</time></trkpt><trkpt lat="61.152772" lon="-150.067609"><ele>38.691</ele><time>2026-08-06T20:53:41Z</time></trkpt><trkpt lat="61.152772" lon="-150.067597"><ele>38.858</ele><time>2026-08-06T20:53:42Z</time></trkpt><trkpt lat="61.152775" lon="-150.067551"><ele>39.847</ele><time>2026-08-06T20:53:47Z</time></trkpt><trkpt lat="61.152771" lon="-150.067533"><ele>40.261</ele><time>2026-08-06T20:53:49Z</time></trkpt><trkpt lat="61.152766" lon="-150.067499"><ele>40.848</ele><time>2026-08-06T20:53:52Z</time></trkpt><trkpt lat="61.152762" lon="-150.06746"><ele>42.094</ele><time>2026-08-06T20:53:58Z</time></trkpt><trkpt lat="61.152758" lon="-150.067445"><ele>42.657</ele><time>2026-08-06T20:54:01Z</time></trkpt><trkpt lat="61.152752" lon="-150.067434"><ele>43.022</ele><time>2026-08-06T20:54:04Z</time></trkpt><trkpt lat="61.152751" lon="-150.067424"><ele>43.009</ele><time>2026-08-06T20:54:05Z</time></trkpt><trkpt lat="61.15275" lon="-150.067396"><ele>43.881</ele><time>2026-08-06T20:54:09Z</time></trkpt><trkpt lat="61.152743" lon="-150.067376"><ele>44.446</ele><time>2026-08-06T20:54:11Z</time></trkpt><trkpt lat="61.152711" lon="-150.067305"><ele>45.427</ele><time>2026-08-06T20:54:16Z</time></trkpt><trkpt lat="61.152706" lon="-150.067286"><ele>45.431</ele><time>2026-08-06T20:54:17Z</time></trkpt><trkpt lat="61.152695" lon="-150.067226"><ele>45.649</ele><time>2026-08-06T20:54:22Z</time></trkpt><trkpt lat="61.152696" lon="-150.067216"><ele>45.646</ele><time>2026-08-06T20:54:24Z</time></trkpt><trkpt lat="61.152684" lon="-150.067184"><ele>45.425</ele><time>2026-08-06T20:54:32Z</time></trkpt><trkpt lat="61.152632" lon="-150.067122"><ele>44.829</ele><time>2026-08-06T20:54:39Z</time></trkpt><trkpt lat="61.152612" lon="-150.067"><ele>44.416</ele><time>2026-08-06T20:54:46Z</time></trkpt><trkpt lat="61.152609" lon="-150.066991"><ele>44.428</ele><time>2026-08-06T20:54:47Z</time></trkpt><trkpt lat="61.152586" lon="-150.066938"><ele>44.289</ele><time>2026-08-06T20:54:52Z</time></trkpt><trkpt lat="61.152585" lon="-150.066917"><ele>44.617</ele><time>2026-08-06T20:54:57Z</time></trkpt><trkpt lat="61.152585" lon="-150.066915"><ele>44.609</ele><time>2026-08-06T20:54:59Z</time></trkpt><trkpt lat="61.152574" lon="-150.066895"><ele>44.624</ele><time>2026-08-06T20:55:01Z</time></trkpt><trkpt lat="61.152571" lon="-150.066885"><ele>44.699</ele><time>2026-08-06T20:55:02Z</time></trkpt><trkpt lat="61.152573" lon="-150.066878"><ele>44.630</ele><time>2026-08-06T20:55:04Z</time></trkpt><trkpt lat="61.152572" lon="-150.066859"><ele>44.684</ele><time>2026-08-06T20:55:07Z</time></trkpt><trkpt lat="61.152562" lon="-150.066814"><ele>44.232</ele><time>2026-08-06T20:55:10Z</time></trkpt><trkpt lat="61.152558" lon="-150.066785"><ele>44.039</ele><time>2026-08-06T20:55:15Z</time></trkpt><trkpt lat="61.152556" lon="-150.066695"><ele>43.878</ele><time>2026-08-06T20:55:20Z</time></trkpt><trkpt lat="61.152539" lon="-150.066636"><ele>44.062</ele><time>2026-08-06T20:55:25Z</time></trkpt><trkpt lat="61.152536" lon="-150.066587"><ele>44.819</ele><time>2026-08-06T20:55:30Z</time></trkpt><trkpt lat="61.152531" lon="-150.066544"><ele>45.476</ele><time>2026-08-06T20:55:33Z</time></trkpt><trkpt lat="61.152492" lon="-150.066439"><ele>46.490</ele><time>2026-08-06T20:55:41Z</time></trkpt><trkpt lat="61.152491" lon="-150.066424"><ele>46.619</ele><time>2026-08-06T20:55:42Z</time></trkpt><trkpt lat="61.152444" lon="-150.066248"><ele>47.409</ele><time>2026-08-06T20:55:51Z</time></trkpt><trkpt lat="61.152439" lon="-150.066237"><ele>47.659</ele><time>2026-08-06T20:55:52Z</time></trkpt><trkpt lat="61.152431" lon="-150.066205"><ele>48.214</ele><time>2026-08-06T20:55:57Z</time></trkpt><trkpt lat="61.152417" lon="-150.066162"><ele>48.085</ele><time>2026-08-06T20:56:00Z</time></trkpt><trkpt lat="61.152375" lon="-150.066096"><ele>47.889</ele><time>2026-08-06T20:56:05Z</time></trkpt><trkpt lat="61.152345" lon="-150.065976"><ele>47.087</ele><time>2026-08-06T20:56:12Z</time></trkpt><trkpt lat="61.152291" lon="-150.065875"><ele>47.054</ele><time>2026-08-06T20:56:20Z</time></trkpt><trkpt lat="61.152258" lon="-150.065802"><ele>48.653</ele><time>2026-08-06T20:56:28Z</time></trkpt><trkpt lat="61.152249" lon="-150.065774"><ele>49.077</ele><time>2026-08-06T20:56:30Z</time></trkpt><trkpt lat="61.152242" lon="-150.065726"><ele>49.644</ele><time>2026-08-06T20:56:33Z</time></trkpt><trkpt lat="61.152243" lon="-150.065659"><ele>50.691</ele><time>2026-08-06T20:56:38Z</time></trkpt><trkpt lat="61.152242" lon="-150.065644"><ele>50.881</ele><time>2026-08-06T20:56:39Z</time></trkpt><trkpt lat="61.152243" lon="-150.06562"><ele>51.219</ele><time>2026-08-06T20:56:41Z</time></trkpt><trkpt lat="61.152244" lon="-150.065593"><ele>51.809</ele><time>2026-08-06T20:56:43Z</time></trkpt><trkpt lat="61.152248" lon="-150.065557"><ele>52.211</ele><time>2026-08-06T20:56:46Z</time></trkpt><trkpt lat="61.15225" lon="-150.065546"><ele>52.446</ele><time>2026-08-06T20:56:47Z</time></trkpt><trkpt lat="61.152253" lon="-150.065526"><ele>52.867</ele><time>2026-08-06T20:56:49Z</time></trkpt><trkpt lat="61.15226" lon="-150.065457"><ele>54.031</ele><time>2026-08-06T20:56:54Z</time></trkpt><trkpt lat="61.152258" lon="-150.065456"><ele>54.469</ele><time>2026-08-06T20:56:56Z</time></trkpt><trkpt lat="61.152251" lon="-150.06545"><ele>55.246</ele><time>2026-08-06T20:56:59Z</time></trkpt><trkpt lat="61.15224" lon="-150.065428"><ele>56.095</ele><time>2026-08-06T20:57:03Z</time></trkpt><trkpt lat="61.152238" lon="-150.065413"><ele>56.249</ele><time>2026-08-06T20:57:04Z</time></trkpt><trkpt lat="61.152233" lon="-150.065382"><ele>56.816</ele><time>2026-08-06T20:57:07Z</time></trkpt><trkpt lat="61.152226" lon="-150.065344"><ele>57.234</ele><time>2026-08-06T20:57:10Z</time></trkpt><trkpt lat="61.152228" lon="-150.065297"><ele>58.255</ele><time>2026-08-06T20:57:15Z</time></trkpt><trkpt lat="61.152231" lon="-150.065288"><ele>58.410</ele><time>2026-08-06T20:57:16Z</time></trkpt><trkpt lat="61.152232" lon="-150.065276"><ele>58.409</ele><time>2026-08-06T20:57:17Z</time></trkpt><trkpt lat="61.152239" lon="-150.065242"><ele>59.435</ele><time>2026-08-06T20:57:22Z</time></trkpt><trkpt lat="61.15224" lon="-150.065202"><ele>60.230</ele><time>2026-08-06T20:57:27Z</time></trkpt><trkpt lat="61.152245" lon="-150.065186"><ele>60.631</ele><time>2026-08-06T20:57:29Z</time></trkpt><trkpt lat="61.152258" lon="-150.065136"><ele>61.655</ele><time>2026-08-06T20:57:35Z</time></trkpt><trkpt lat="61.15226" lon="-150.065131"><ele>61.853</ele><time>2026-08-06T20:57:36Z</time></trkpt><trkpt lat="61.15227" lon="-150.065102"><ele>62.840</ele><time>2026-08-06T20:57:41Z</time></trkpt><trkpt lat="61.152275" lon="-150.06508"><ele>63.469</ele><time>2026-08-06T20:57:45Z</time></trkpt><trkpt lat="61.152275" lon="-150.065066"><ele>63.833</ele><time>2026-08-06T20:57:47Z</time></trkpt><trkpt lat="61.152268" lon="-150.065017"><ele>64.840</ele><time>2026-08-06T20:57:53Z</time></trkpt><trkpt lat="61.152267" lon="-150.065008"><ele>65.015</ele><time>2026-08-06T20:57:54Z</time></trkpt><trkpt lat="61.152267" lon="-150.064991"><ele>65.265</ele><time>2026-08-06T20:57:56Z</time></trkpt><trkpt lat="61.152271" lon="-150.06494"><ele>66.011</ele><time>2026-08-06T20:58:01Z</time></trkpt><trkpt lat="61.152273" lon="-150.064902"><ele>66.809</ele><time>2026-08-06T20:58:05Z</time></trkpt><trkpt lat="61.152273" lon="-150.064891"><ele>67.213</ele><time>2026-08-06T20:58:07Z</time></trkpt><trkpt lat="61.152257" lon="-150.064835"><ele>68.268</ele><time>2026-08-06T20:58:13Z</time></trkpt><trkpt lat="61.152257" lon="-150.06481"><ele>68.669</ele><time>2026-08-06T20:58:15Z</time></trkpt><trkpt lat="61.152255" lon="-150.064766"><ele>69.213</ele><time>2026-08-06T20:58:19Z</time></trkpt><trkpt lat="61.152252" lon="-150.064708"><ele>70.251</ele><time>2026-08-06T20:58:24Z</time></trkpt><trkpt lat="61.152255" lon="-150.064695"><ele>70.428</ele><time>2026-08-06T20:58:25Z</time></trkpt><trkpt lat="61.152245" lon="-150.064655"><ele>71.457</ele><time>2026-08-06T20:58:31Z</time></trkpt><trkpt lat="61.152241" lon="-150.06463"><ele>71.651</ele><time>2026-08-06T20:58:33Z</time></trkpt><trkpt lat="61.15223" lon="-150.06457"><ele>72.488</ele><time>2026-08-06T20:58:37Z</time></trkpt><trkpt lat="61.152215" lon="-150.06452"><ele>73.427</ele><time>2026-08-06T20:58:42Z</time></trkpt><trkpt lat="61.152209" lon="-150.064491"><ele>73.868</ele><time>2026-08-06T20:58:44Z</time></trkpt><trkpt lat="61.152202" lon="-150.064453"><ele>74.414</ele><time>2026-08-06T20:58:47Z</time></trkpt><trkpt lat="61.152193" lon="-150.064387"><ele>75.409</ele><time>2026-08-06T20:58:53Z</time></trkpt><trkpt lat="61.15219" lon="-150.064352"><ele>75.854</ele><time>2026-08-06T20:58:55Z</time></trkpt><trkpt lat="61.152197" lon="-150.064282"><ele>76.619</ele><time>2026-08-06T20:58:59Z</time></trkpt><trkpt lat="61.152208" lon="-150.064245"><ele>77.250</ele><time>2026-08-06T20:59:04Z</time></trkpt><trkpt lat="61.152211" lon="-150.064196"><ele>77.614</ele><time>2026-08-06T20:59:08Z</time></trkpt><trkpt lat="61.152193" lon="-150.064119"><ele>78.412</ele><time>2026-08-06T20:59:13Z</time></trkpt><trkpt lat="61.152185" lon="-150.064084"><ele>78.649</ele><time>2026-08-06T20:59:15Z</time></trkpt><trkpt lat="61.152149" lon="-150.063964"><ele>79.048</ele><time>2026-08-06T20:59:21Z</time></trkpt><trkpt lat="61.152125" lon="-150.063916"><ele>78.842</ele><time>2026-08-06T20:59:28Z</time></trkpt><trkpt lat="61.152125" lon="-150.063901"><ele>78.219</ele><time>2026-08-06T20:59:39Z</time></trkpt><trkpt lat="61.152119" lon="-150.063875"><ele>78.285</ele><time>2026-08-06T20:59:45Z</time></trkpt><trkpt lat="61.15212" lon="-150.06381"><ele>78.289</ele><time>2026-08-06T20:59:49Z</time></trkpt><trkpt lat="61.152109" lon="-150.063807"><ele>78.017</ele><time>2026-08-06T20:59:52Z</time></trkpt><trkpt lat="61.152104" lon="-150.063824"><ele>78.009</ele><time>2026-08-06T20:59:54Z</time></trkpt><trkpt lat="61.152111" lon="-150.06382"><ele>78.030</ele><time>2026-08-06T20:59:59Z</time></trkpt><trkpt lat="61.152099" lon="-150.063832"><ele>78.025</ele><time>2026-08-06T21:00:05Z</time></trkpt><trkpt lat="61.15209" lon="-150.063833"><ele>77.686</ele><time>2026-08-06T21:00:10Z</time></trkpt><trkpt lat="61.152081" lon="-150.063838"><ele>77.490</ele><time>2026-08-06T21:00:12Z</time></trkpt><trkpt lat="61.152068" lon="-150.063875"><ele>76.438</ele><time>2026-08-06T21:00:15Z</time></trkpt><trkpt lat="61.15208" lon="-150.063912"><ele>75.635</ele><time>2026-08-06T21:00:18Z</time></trkpt><trkpt lat="61.152085" lon="-150.063917"><ele>75.444</ele><time>2026-08-06T21:00:19Z</time></trkpt><trkpt lat="61.15209" lon="-150.063911"><ele>75.488</ele><time>2026-08-06T21:00:25Z</time></trkpt><trkpt lat="61.1521" lon="-150.063881"><ele>75.865</ele><time>2026-08-06T21:00:35Z</time></trkpt><trkpt lat="61.152096" lon="-150.063875"><ele>75.084</ele><time>2026-08-06T21:00:45Z</time></trkpt><trkpt lat="61.152096" lon="-150.063876"><ele>75.007</ele><time>2026-08-06T21:00:46Z</time></trkpt><trkpt lat="61.152095" lon="-150.063883"><ele>75.017</ele><time>2026-08-06T21:00:51Z</time></trkpt><trkpt lat="61.152098" lon="-150.063879"><ele>75.009</ele><time>2026-08-06T21:00:58Z</time></trkpt><trkpt lat="61.152098" lon="-150.063882"><ele>75.020</ele><time>2026-08-06T21:01:00Z</time></trkpt><trkpt lat="61.152096" lon="-150.063884"><ele>75.055</ele><time>2026-08-06T21:01:02Z</time></trkpt><trkpt lat="61.152096" lon="-150.063887"><ele>75.036</ele><time>2026-08-06T21:01:09Z</time></trkpt><trkpt lat="61.152098" lon="-150.063883"><ele>74.650</ele><time>2026-08-06T21:01:18Z</time></trkpt><trkpt lat="61.152093" lon="-150.063855"><ele>75.038</ele><time>2026-08-06T21:01:27Z</time></trkpt><trkpt lat="61.152098" lon="-150.063856"><ele>75.415</ele><time>2026-08-06T21:01:33Z</time></trkpt><trkpt lat="61.152099" lon="-150.063874"><ele>75.664</ele><time>2026-08-06T21:01:35Z</time></trkpt><trkpt lat="61.152094" lon="-150.063874"><ele>76.278</ele><time>2026-08-06T21:01:39Z</time></trkpt><trkpt lat="61.152096" lon="-150.063858"><ele>76.695</ele><time>2026-08-06T21:01:41Z</time></trkpt><trkpt lat="61.152102" lon="-150.063853"><ele>76.669</ele><time>2026-08-06T21:01:42Z</time></trkpt><trkpt lat="61.152104" lon="-150.063838"><ele>76.804</ele><time>2026-08-06T21:01:47Z</time></trkpt><trkpt lat="61.152099" lon="-150.063749"><ele>76.824</ele><time>2026-08-06T21:01:52Z</time></trkpt><trkpt lat="61.15208" lon="-150.063669"><ele>76.409</ele><time>2026-08-06T21:01:59Z</time></trkpt><trkpt lat="61.152087" lon="-150.063627"><ele>76.478</ele><time>2026-08-06T21:02:09Z</time></trkpt><trkpt lat="61.152078" lon="-150.06356"><ele>76.233</ele><time>2026-08-06T21:02:16Z</time></trkpt><trkpt lat="61.152034" lon="-150.0635"><ele>76.214</ele><time>2026-08-06T21:02:24Z</time></trkpt><trkpt lat="61.152006" lon="-150.06341"><ele>75.698</ele><time>2026-08-06T21:02:32Z</time></trkpt><trkpt lat="61.152007" lon="-150.063376"><ele>75.436</ele><time>2026-08-06T21:02:39Z</time></trkpt><trkpt lat="61.152004" lon="-150.063291"><ele>74.813</ele><time>2026-08-06T21:02:44Z</time></trkpt><trkpt lat="61.151993" lon="-150.063275"><ele>74.812</ele><time>2026-08-06T21:02:45Z</time></trkpt><trkpt lat="61.151978" lon="-150.063253"><ele>74.496</ele><time>2026-08-06T21:02:47Z</time></trkpt><trkpt lat="61.15195" lon="-150.063208"><ele>74.263</ele><time>2026-08-06T21:02:52Z</time></trkpt><trkpt lat="61.151909" lon="-150.063132"><ele>73.858</ele><time>2026-08-06T21:02:59Z</time></trkpt><trkpt lat="61.151891" lon="-150.063106"><ele>73.452</ele><time>2026-08-06T21:03:02Z</time></trkpt><trkpt lat="61.15187" lon="-150.063093"><ele>73.017</ele><time>2026-08-06T21:03:05Z</time></trkpt><trkpt lat="61.151843" lon="-150.063058"><ele>72.409</ele><time>2026-08-06T21:03:10Z</time></trkpt><trkpt lat="61.151846" lon="-150.063043"><ele>72.277</ele><time>2026-08-06T21:03:12Z</time></trkpt><trkpt lat="61.15183" lon="-150.062995"><ele>71.452</ele><time>2026-08-06T21:03:17Z</time></trkpt><trkpt lat="61.151799" lon="-150.062969"><ele>71.013</ele><time>2026-08-06T21:03:20Z</time></trkpt><trkpt lat="61.151769" lon="-150.062922"><ele>70.237</ele><time>2026-08-06T21:03:24Z</time></trkpt><trkpt lat="61.15176" lon="-150.062894"><ele>70.035</ele><time>2026-08-06T21:03:26Z</time></trkpt><trkpt lat="61.15176" lon="-150.062874"><ele>69.222</ele><time>2026-08-06T21:03:31Z</time></trkpt><trkpt lat="61.151761" lon="-150.062873"><ele>69.281</ele><time>2026-08-06T21:03:32Z</time></trkpt><trkpt lat="61.151762" lon="-150.062872"><ele>69.245</ele><time>2026-08-06T21:03:33Z</time></trkpt><trkpt lat="61.151761" lon="-150.062866"><ele>69.242</ele><time>2026-08-06T21:03:40Z</time></trkpt><trkpt lat="61.151761" lon="-150.062855"><ele>69.428</ele><time>2026-08-06T21:03:42Z</time></trkpt><trkpt lat="61.151757" lon="-150.062847"><ele>69.489</ele><time>2026-08-06T21:03:43Z</time></trkpt><trkpt lat="61.151731" lon="-150.062788"><ele>68.817</ele><time>2026-08-06T21:03:47Z</time></trkpt><trkpt lat="61.151733" lon="-150.06279"><ele>68.809</ele><time>2026-08-06T21:03:48Z</time></trkpt><trkpt lat="61.15173" lon="-150.062792"><ele>69.264</ele><time>2026-08-06T21:03:55Z</time></trkpt><trkpt lat="61.151707" lon="-150.062713"><ele>69.489</ele><time>2026-08-06T21:04:03Z</time></trkpt><trkpt lat="61.151687" lon="-150.062634"><ele>69.450</ele><time>2026-08-06T21:04:07Z</time></trkpt><trkpt lat="61.151674" lon="-150.062554"><ele>69.624</ele><time>2026-08-06T21:04:11Z</time></trkpt><trkpt lat="61.151633" lon="-150.062431"><ele>69.082</ele><time>2026-08-06T21:04:17Z</time></trkpt><trkpt lat="61.151596" lon="-150.062278"><ele>69.849</ele><time>2026-08-06T21:04:25Z</time></trkpt><trkpt lat="61.151584" lon="-150.062251"><ele>70.268</ele><time>2026-08-06T21:04:29Z</time></trkpt><trkpt lat="61.151583" lon="-150.062254"><ele>70.412</ele><time>2026-08-06T21:04:30Z</time></trkpt><trkpt lat="61.151584" lon="-150.062246"><ele>70.499</ele><time>2026-08-06T21:04:31Z</time></trkpt><trkpt lat="61.151561" lon="-150.062147"><ele>70.264</ele><time>2026-08-06T21:04:36Z</time></trkpt><trkpt lat="61.151529" lon="-150.062043"><ele>70.206</ele><time>2026-08-06T21:04:41Z</time></trkpt><trkpt lat="61.151512" lon="-150.062004"><ele>70.016</ele><time>2026-08-06T21:04:44Z</time></trkpt><trkpt lat="61.151482" lon="-150.061913"><ele>69.409</ele><time>2026-08-06T21:04:49Z</time></trkpt><trkpt lat="61.151478" lon="-150.061891"><ele>69.258</ele><time>2026-08-06T21:04:50Z</time></trkpt><trkpt lat="61.151441" lon="-150.06179"><ele>69.253</ele><time>2026-08-06T21:04:56Z</time></trkpt><trkpt lat="61.151432" lon="-150.061776"><ele>69.284</ele><time>2026-08-06T21:04:57Z</time></trkpt><trkpt lat="61.15138" lon="-150.061672"><ele>68.068</ele><time>2026-08-06T21:05:02Z</time></trkpt><trkpt lat="61.15137" lon="-150.061649"><ele>67.666</ele><time>2026-08-06T21:05:03Z</time></trkpt><trkpt lat="61.151351" lon="-150.061572"><ele>67.093</ele><time>2026-08-06T21:05:07Z</time></trkpt><trkpt lat="61.151337" lon="-150.061533"><ele>67.032</ele><time>2026-08-06T21:05:09Z</time></trkpt><trkpt lat="61.151297" lon="-150.061422"><ele>67.686</ele><time>2026-08-06T21:05:17Z</time></trkpt><trkpt lat="61.151263" lon="-150.061321"><ele>67.043</ele><time>2026-08-06T21:05:25Z</time></trkpt><trkpt lat="61.151232" lon="-150.061221"><ele>66.278</ele><time>2026-08-06T21:05:32Z</time></trkpt><trkpt lat="61.151228" lon="-150.061178"><ele>65.833</ele><time>2026-08-06T21:05:35Z</time></trkpt><trkpt lat="61.15123" lon="-150.061162"><ele>65.626</ele><time>2026-08-06T21:05:40Z</time></trkpt><trkpt lat="61.151233" lon="-150.061174"><ele>65.609</ele><time>2026-08-06T21:05:45Z</time></trkpt><trkpt lat="61.151227" lon="-150.061185"><ele>65.639</ele><time>2026-08-06T21:05:50Z</time></trkpt><trkpt lat="61.1512" lon="-150.061202"><ele>64.834</ele><time>2026-08-06T21:05:55Z</time></trkpt><trkpt lat="61.1512" lon="-150.061181"><ele>64.265</ele><time>2026-08-06T21:05:57Z</time></trkpt><trkpt lat="61.151189" lon="-150.061215"><ele>64.259</ele><time>2026-08-06T21:06:03Z</time></trkpt><trkpt lat="61.151194" lon="-150.061203"><ele>64.097</ele><time>2026-08-06T21:06:11Z</time></trkpt><trkpt lat="61.151194" lon="-150.061199"><ele>63.644</ele><time>2026-08-06T21:06:16Z</time></trkpt><trkpt lat="61.151193" lon="-150.061197"><ele>63.693</ele><time>2026-08-06T21:06:18Z</time></trkpt><trkpt lat="61.151198" lon="-150.061201"><ele>63.837</ele><time>2026-08-06T21:06:26Z</time></trkpt><trkpt lat="61.151197" lon="-150.061195"><ele>63.844</ele><time>2026-08-06T21:06:33Z</time></trkpt><trkpt lat="61.1512" lon="-150.061182"><ele>63.832</ele><time>2026-08-06T21:06:40Z</time></trkpt><trkpt lat="61.151202" lon="-150.06118"><ele>63.692</ele><time>2026-08-06T21:06:56Z</time></trkpt><trkpt lat="61.151202" lon="-150.06118"><ele>63.611</ele><time>2026-08-06T21:07:08Z</time></trkpt><trkpt lat="61.151202" lon="-150.06118"><ele>63.609</ele><time>2026-08-06T21:07:19Z</time></trkpt><trkpt lat="61.151202" lon="-150.06118"><ele>63.645</ele><time>2026-08-06T21:07:23Z</time></trkpt><trkpt lat="61.151188" lon="-150.061191"><ele>63.650</ele><time>2026-08-06T21:07:31Z</time></trkpt><trkpt lat="61.151185" lon="-150.061197"><ele>63.691</ele><time>2026-08-06T21:07:32Z</time></trkpt><trkpt lat="61.151185" lon="-150.0612"><ele>63.635</ele><time>2026-08-06T21:07:33Z</time></trkpt><trkpt lat="61.151186" lon="-150.061192"><ele>63.653</ele><time>2026-08-06T21:07:34Z</time></trkpt><trkpt lat="61.151188" lon="-150.061187"><ele>63.410</ele><time>2026-08-06T21:07:39Z</time></trkpt><trkpt lat="61.151187" lon="-150.061188"><ele>63.479</ele><time>2026-08-06T21:07:54Z</time></trkpt><trkpt lat="61.151187" lon="-150.061188"><ele>63.293</ele><time>2026-08-06T21:08:05Z</time></trkpt><trkpt lat="61.151187" lon="-150.061188"><ele>63.210</ele><time>2026-08-06T21:08:08Z</time></trkpt><trkpt lat="61.151187" lon="-150.061188"><ele>63.221</ele><time>2026-08-06T21:08:11Z</time></trkpt><trkpt lat="61.151196" lon="-150.06119"><ele>63.441</ele><time>2026-08-06T21:08:19Z</time></trkpt><trkpt lat="61.151195" lon="-150.06119"><ele>63.605</ele><time>2026-08-06T21:08:20Z</time></trkpt><trkpt lat="61.151187" lon="-150.061188"><ele>63.409</ele><time>2026-08-06T21:08:30Z</time></trkpt><trkpt lat="61.151191" lon="-150.061191"><ele>63.264</ele><time>2026-08-06T21:08:40Z</time></trkpt><trkpt lat="61.151192" lon="-150.061195"><ele>63.429</ele><time>2026-08-06T21:08:42Z</time></trkpt><trkpt lat="61.151194" lon="-150.061193"><ele>63.430</ele><time>2026-08-06T21:08:43Z</time></trkpt><trkpt lat="61.151187" lon="-150.061188"><ele>63.684</ele><time>2026-08-06T21:08:49Z</time></trkpt><trkpt lat="61.15119" lon="-150.061187"><ele>63.672</ele><time>2026-08-06T21:08:55Z</time></trkpt><trkpt lat="61.151188" lon="-150.061189"><ele>63.689</ele><time>2026-08-06T21:08:57Z</time></trkpt><trkpt lat="61.151199" lon="-150.061199"><ele>63.878</ele><time>2026-08-06T21:09:08Z</time></trkpt><trkpt lat="61.151187" lon="-150.061188"><ele>63.612</ele><time>2026-08-06T21:09:20Z</time></trkpt><trkpt lat="61.151201" lon="-150.061196"><ele>63.659</ele><time>2026-08-06T21:09:28Z</time></trkpt><trkpt lat="61.151201" lon="-150.061196"><ele>63.836</ele><time>2026-08-06T21:09:38Z</time></trkpt><trkpt lat="61.151203" lon="-150.061196"><ele>63.817</ele><time>2026-08-06T21:09:39Z</time></trkpt><trkpt lat="61.151214" lon="-150.061192"><ele>64.018</ele><time>2026-08-06T21:09:41Z</time></trkpt><trkpt lat="61.151222" lon="-150.061187"><ele>64.609</ele><time>2026-08-06T21:09:43Z</time></trkpt><trkpt lat="61.151226" lon="-150.061184"><ele>65.065</ele><time>2026-08-06T21:09:44Z</time></trkpt><trkpt lat="61.151228" lon="-150.061192"><ele>65.220</ele><time>2026-08-06T21:09:52Z</time></trkpt><trkpt lat="61.151217" lon="-150.061189"><ele>65.021</ele><time>2026-08-06T21:09:56Z</time></trkpt><trkpt lat="61.151222" lon="-150.061179"><ele>65.095</ele><time>2026-08-06T21:09:59Z</time></trkpt><trkpt lat="61.151228" lon="-150.061182"><ele>65.073</ele><time>2026-08-06T21:10:09Z</time></trkpt><trkpt lat="61.151226" lon="-150.061182"><ele>65.090</ele><time>2026-08-06T21:10:13Z</time></trkpt><trkpt lat="61.151226" lon="-150.061182"><ele>65.069</ele><time>2026-08-06T21:10:14Z</time></trkpt><trkpt lat="61.151224" lon="-150.061175"><ele>64.893</ele><time>2026-08-06T21:10:23Z</time></trkpt><trkpt lat="61.151224" lon="-150.061175"><ele>65.010</ele><time>2026-08-06T21:10:27Z</time></trkpt><trkpt lat="61.151224" lon="-150.061175"><ele>65.019</ele><time>2026-08-06T21:10:30Z</time></trkpt><trkpt lat="61.151224" lon="-150.061175"><ele>65.009</ele><time>2026-08-06T21:10:31Z</time></trkpt><trkpt lat="61.151224" lon="-150.061175"><ele>65.019</ele><time>2026-08-06T21:10:34Z</time></trkpt><trkpt lat="61.151224" lon="-150.061175"><ele>65.409</ele><time>2026-08-06T21:10:41Z</time></trkpt><trkpt lat="61.151224" lon="-150.061175"><ele>65.233</ele><time>2026-08-06T21:10:51Z</time></trkpt><trkpt lat="61.151224" lon="-150.061175"><ele>65.258</ele><time>2026-08-06T21:10:56Z</time></trkpt><trkpt lat="61.151224" lon="-150.061175"><ele>65.239</ele><time>2026-08-06T21:10:57Z</time></trkpt><trkpt lat="61.151224" lon="-150.061175"><ele>65.273</ele><time>2026-08-06T21:10:58Z</time></trkpt><trkpt lat="61.151224" lon="-150.061175"><ele>65.231</ele><time>2026-08-06T21:10:59Z</time></trkpt><trkpt lat="61.151224" lon="-150.061175"><ele>65.238</ele><time>2026-08-06T21:11:00Z</time></trkpt><trkpt lat="61.151224" lon="-150.061175"><ele>65.247</ele><time>2026-08-06T21:11:09Z</time></trkpt><trkpt lat="61.151224" lon="-150.061175"><ele>65.051</ele><time>2026-08-06T21:11:14Z</time></trkpt><trkpt lat="61.151224" lon="-150.061175"><ele>65.288</ele><time>2026-08-06T21:11:19Z</time></trkpt><trkpt lat="61.151224" lon="-150.061175"><ele>65.252</ele><time>2026-08-06T21:11:20Z</time></trkpt><trkpt lat="61.151224" lon="-150.061175"><ele>65.253</ele><time>2026-08-06T21:11:25Z</time></trkpt><trkpt lat="61.151224" lon="-150.061175"><ele>65.008</ele><time>2026-08-06T21:11:35Z</time></trkpt><trkpt lat="61.151224" lon="-150.061175"><ele>65.009</ele><time>2026-08-06T21:11:38Z</time></trkpt><trkpt lat="61.151224" lon="-150.061175"><ele>65.027</ele><time>2026-08-06T21:11:40Z</time></trkpt><trkpt lat="61.151227" lon="-150.061185"><ele>65.242</ele><time>2026-08-06T21:11:45Z</time></trkpt><trkpt lat="61.151223" lon="-150.061184"><ele>65.013</ele><time>2026-08-06T21:11:59Z</time></trkpt><trkpt lat="61.151224" lon="-150.061175"><ele>65.287</ele><time>2026-08-06T21:12:11Z</time></trkpt><trkpt lat="61.151224" lon="-150.061175"><ele>64.815</ele><time>2026-08-06T21:12:29Z</time></trkpt><trkpt lat="61.15121" lon="-150.061127"><ele>64.672</ele><time>2026-08-06T21:12:35Z</time></trkpt><trkpt lat="61.151207" lon="-150.061076"><ele>64.681</ele><time>2026-08-06T21:12:37Z</time></trkpt><trkpt lat="61.151194" lon="-150.060958"><ele>65.265</ele><time>2026-08-06T21:12:41Z</time></trkpt><trkpt lat="61.151186" lon="-150.060872"><ele>65.862</ele><time>2026-08-06T21:12:43Z</time></trkpt><trkpt lat="61.151173" lon="-150.060806"><ele>66.696</ele><time>2026-08-06T21:12:46Z</time></trkpt><trkpt lat="61.151157" lon="-150.060749"><ele>66.431</ele><time>2026-08-06T21:12:49Z</time></trkpt><trkpt lat="61.15113" lon="-150.060662"><ele>66.024</ele><time>2026-08-06T21:12:52Z</time></trkpt><trkpt lat="61.15112" lon="-150.06064"><ele>65.809</ele><time>2026-08-06T21:12:53Z</time></trkpt><trkpt lat="61.151073" lon="-150.060538"><ele>64.631</ele><time>2026-08-06T21:12:58Z</time></trkpt><trkpt lat="61.151063" lon="-150.060499"><ele>64.616</ele><time>2026-08-06T21:13:00Z</time></trkpt><trkpt lat="61.151016" lon="-150.060392"><ele>63.667</ele><time>2026-08-06T21:13:06Z</time></trkpt><trkpt lat="61.151009" lon="-150.060362"><ele>63.471</ele><time>2026-08-06T21:13:07Z</time></trkpt><trkpt lat="61.150991" lon="-150.060243"><ele>63.899</ele><time>2026-08-06T21:13:11Z</time></trkpt><trkpt lat="61.150963" lon="-150.060082"><ele>64.416</ele><time>2026-08-06T21:13:18Z</time></trkpt><trkpt lat="61.150972" lon="-150.059975"><ele>64.695</ele><time>2026-08-06T21:13:22Z</time></trkpt><trkpt lat="61.150973" lon="-150.059944"><ele>65.059</ele><time>2026-08-06T21:13:23Z</time></trkpt><trkpt lat="61.150964" lon="-150.059877"><ele>65.886</ele><time>2026-08-06T21:13:25Z</time></trkpt><trkpt lat="61.150954" lon="-150.059827"><ele>66.673</ele><time>2026-08-06T21:13:28Z</time></trkpt><trkpt lat="61.150949" lon="-150.059815"><ele>66.885</ele><time>2026-08-06T21:13:29Z</time></trkpt><trkpt lat="61.150906" lon="-150.059737"><ele>67.613</ele><time>2026-08-06T21:13:36Z</time></trkpt><trkpt lat="61.150892" lon="-150.059644"><ele>67.009</ele><time>2026-08-06T21:13:43Z</time></trkpt><trkpt lat="61.150861" lon="-150.059521"><ele>65.839</ele><time>2026-08-06T21:13:51Z</time></trkpt><trkpt lat="61.150858" lon="-150.059505"><ele>65.444</ele><time>2026-08-06T21:13:52Z</time></trkpt><trkpt lat="61.150827" lon="-150.059457"><ele>64.455</ele><time>2026-08-06T21:13:57Z</time></trkpt><trkpt lat="61.150798" lon="-150.059403"><ele>64.059</ele><time>2026-08-06T21:14:00Z</time></trkpt><trkpt lat="61.150752" lon="-150.059347"><ele>63.817</ele><time>2026-08-06T21:14:08Z</time></trkpt><trkpt lat="61.15073" lon="-150.059306"><ele>63.264</ele><time>2026-08-06T21:14:12Z</time></trkpt><trkpt lat="61.150732" lon="-150.059281"><ele>62.873</ele><time>2026-08-06T21:14:14Z</time></trkpt><trkpt lat="61.150735" lon="-150.059267"><ele>62.617</ele><time>2026-08-06T21:14:15Z</time></trkpt><trkpt lat="61.150737" lon="-150.059176"><ele>62.244</ele><time>2026-08-06T21:14:19Z</time></trkpt><trkpt lat="61.150725" lon="-150.059143"><ele>61.633</ele><time>2026-08-06T21:14:21Z</time></trkpt><trkpt lat="61.150718" lon="-150.059131"><ele>61.423</ele><time>2026-08-06T21:14:22Z</time></trkpt><trkpt lat="61.150698" lon="-150.059102"><ele>61.015</ele><time>2026-08-06T21:14:24Z</time></trkpt><trkpt lat="61.150656" lon="-150.058984"><ele>60.409</ele><time>2026-08-06T21:14:32Z</time></trkpt><trkpt lat="61.15065" lon="-150.058944"><ele>59.845</ele><time>2026-08-06T21:14:35Z</time></trkpt><trkpt lat="61.150641" lon="-150.058936"><ele>59.640</ele><time>2026-08-06T21:14:36Z</time></trkpt><trkpt lat="61.150621" lon="-150.058915"><ele>59.261</ele><time>2026-08-06T21:14:38Z</time></trkpt><trkpt lat="61.150596" lon="-150.058893"><ele>58.825</ele><time>2026-08-06T21:14:41Z</time></trkpt><trkpt lat="61.150587" lon="-150.058888"><ele>58.853</ele><time>2026-08-06T21:14:42Z</time></trkpt><trkpt lat="61.15055" lon="-150.05879"><ele>58.260</ele><time>2026-08-06T21:14:50Z</time></trkpt><trkpt lat="61.150532" lon="-150.058785"><ele>57.879</ele><time>2026-08-06T21:14:53Z</time></trkpt><trkpt lat="61.150507" lon="-150.058771"><ele>57.263</ele><time>2026-08-06T21:14:57Z</time></trkpt><trkpt lat="61.150492" lon="-150.05873"><ele>56.640</ele><time>2026-08-06T21:15:00Z</time></trkpt><trkpt lat="61.150463" lon="-150.058648"><ele>55.682</ele><time>2026-08-06T21:15:06Z</time></trkpt><trkpt lat="61.150438" lon="-150.058584"><ele>54.443</ele><time>2026-08-06T21:15:11Z</time></trkpt><trkpt lat="61.150429" lon="-150.058512"><ele>54.017</ele><time>2026-08-06T21:15:15Z</time></trkpt><trkpt lat="61.150434" lon="-150.058496"><ele>53.409</ele><time>2026-08-06T21:15:19Z</time></trkpt><trkpt lat="61.150435" lon="-150.058496"><ele>53.440</ele><time>2026-08-06T21:15:20Z</time></trkpt><trkpt lat="61.150432" lon="-150.058499"><ele>53.465</ele><time>2026-08-06T21:15:30Z</time></trkpt><trkpt lat="61.150432" lon="-150.058504"><ele>53.666</ele><time>2026-08-06T21:15:31Z</time></trkpt><trkpt lat="61.150429" lon="-150.058503"><ele>53.420</ele><time>2026-08-06T21:15:39Z</time></trkpt><trkpt lat="61.150411" lon="-150.058408"><ele>53.248</ele><time>2026-08-06T21:15:45Z</time></trkpt><trkpt lat="61.150405" lon="-150.058361"><ele>53.075</ele><time>2026-08-06T21:15:47Z</time></trkpt><trkpt lat="61.150377" lon="-150.05823"><ele>53.484</ele><time>2026-08-06T21:15:55Z</time></trkpt><trkpt lat="61.150369" lon="-150.058157"><ele>54.618</ele><time>2026-08-06T21:16:01Z</time></trkpt><trkpt lat="61.150365" lon="-150.058122"><ele>54.815</ele><time>2026-08-06T21:16:03Z</time></trkpt><trkpt lat="61.150365" lon="-150.058076"><ele>55.629</ele><time>2026-08-06T21:16:06Z</time></trkpt><trkpt lat="61.150364" lon="-150.058004"><ele>56.600</ele><time>2026-08-06T21:16:11Z</time></trkpt><trkpt lat="61.150369" lon="-150.057993"><ele>57.020</ele><time>2026-08-06T21:16:13Z</time></trkpt><trkpt lat="61.150384" lon="-150.057957"><ele>57.809</ele><time>2026-08-06T21:16:17Z</time></trkpt><trkpt lat="61.150388" lon="-150.057909"><ele>58.434</ele><time>2026-08-06T21:16:20Z</time></trkpt><trkpt lat="61.150386" lon="-150.057879"><ele>59.049</ele><time>2026-08-06T21:16:22Z</time></trkpt><trkpt lat="61.150382" lon="-150.057803"><ele>60.050</ele><time>2026-08-06T21:16:29Z</time></trkpt><trkpt lat="61.150368" lon="-150.057734"><ele>61.034</ele><time>2026-08-06T21:16:35Z</time></trkpt><trkpt lat="61.150367" lon="-150.057722"><ele>61.012</ele><time>2026-08-06T21:16:36Z</time></trkpt><trkpt lat="61.150362" lon="-150.05769"><ele>61.419</ele><time>2026-08-06T21:16:38Z</time></trkpt><trkpt lat="61.15036" lon="-150.057634"><ele>62.258</ele><time>2026-08-06T21:16:41Z</time></trkpt><trkpt lat="61.150363" lon="-150.057569"><ele>63.052</ele><time>2026-08-06T21:16:46Z</time></trkpt><trkpt lat="61.150364" lon="-150.05756"><ele>63.249</ele><time>2026-08-06T21:16:47Z</time></trkpt><trkpt lat="61.150368" lon="-150.057539"><ele>63.426</ele><time>2026-08-06T21:16:48Z</time></trkpt><trkpt lat="61.150369" lon="-150.057519"><ele>63.847</ele><time>2026-08-06T21:16:50Z</time></trkpt><trkpt lat="61.150369" lon="-150.057486"><ele>64.211</ele><time>2026-08-06T21:16:52Z</time></trkpt><trkpt lat="61.150368" lon="-150.057458"><ele>64.609</ele><time>2026-08-06T21:16:54Z</time></trkpt><trkpt lat="61.150363" lon="-150.057442"><ele>64.644</ele><time>2026-08-06T21:16:55Z</time></trkpt><trkpt lat="61.150348" lon="-150.057367"><ele>65.239</ele><time>2026-08-06T21:17:01Z</time></trkpt><trkpt lat="61.15035" lon="-150.057357"><ele>65.440</ele><time>2026-08-06T21:17:02Z</time></trkpt><trkpt lat="61.150357" lon="-150.057309"><ele>66.264</ele><time>2026-08-06T21:17:06Z</time></trkpt><trkpt lat="61.150358" lon="-150.057231"><ele>67.022</ele><time>2026-08-06T21:17:11Z</time></trkpt><trkpt lat="61.150353" lon="-150.057071"><ele>67.479</ele><time>2026-08-06T21:17:19Z</time></trkpt><trkpt lat="61.150354" lon="-150.057056"><ele>67.478</ele><time>2026-08-06T21:17:20Z</time></trkpt><trkpt lat="61.150346" lon="-150.057004"><ele>68.082</ele><time>2026-08-06T21:17:26Z</time></trkpt><trkpt lat="61.150331" lon="-150.056992"><ele>67.649</ele><time>2026-08-06T21:17:30Z</time></trkpt><trkpt lat="61.150299" lon="-150.05691"><ele>67.081</ele><time>2026-08-06T21:17:38Z</time></trkpt><trkpt lat="61.150296" lon="-150.056808"><ele>68.461</ele><time>2026-08-06T21:17:46Z</time></trkpt><trkpt lat="61.150293" lon="-150.056784"><ele>68.617</ele><time>2026-08-06T21:17:47Z</time></trkpt><trkpt lat="61.150289" lon="-150.056711"><ele>69.009</ele><time>2026-08-06T21:17:55Z</time></trkpt><trkpt lat="61.150291" lon="-150.056681"><ele>69.490</ele><time>2026-08-06T21:17:58Z</time></trkpt><trkpt lat="61.150292" lon="-150.056666"><ele>69.835</ele><time>2026-08-06T21:18:00Z</time></trkpt><trkpt lat="61.150292" lon="-150.056654"><ele>70.066</ele><time>2026-08-06T21:18:01Z</time></trkpt><trkpt lat="61.150288" lon="-150.056603"><ele>70.680</ele><time>2026-08-06T21:18:04Z</time></trkpt><trkpt lat="61.150288" lon="-150.05659"><ele>70.868</ele><time>2026-08-06T21:18:05Z</time></trkpt><trkpt lat="61.150275" lon="-150.056559"><ele>71.215</ele><time>2026-08-06T21:18:14Z</time></trkpt><trkpt lat="61.150268" lon="-150.056549"><ele>71.424</ele><time>2026-08-06T21:18:24Z</time></trkpt><trkpt lat="61.150283" lon="-150.056458"><ele>71.878</ele><time>2026-08-06T21:18:35Z</time></trkpt><trkpt lat="61.150285" lon="-150.056399"><ele>72.895</ele><time>2026-08-06T21:18:40Z</time></trkpt><trkpt lat="61.150293" lon="-150.05634"><ele>73.827</ele><time>2026-08-06T21:18:46Z</time></trkpt><trkpt lat="61.150294" lon="-150.056323"><ele>74.068</ele><time>2026-08-06T21:18:47Z</time></trkpt><trkpt lat="61.150301" lon="-150.056292"><ele>74.814</ele><time>2026-08-06T21:18:51Z</time></trkpt><trkpt lat="61.150302" lon="-150.056265"><ele>75.809</ele><time>2026-08-06T21:18:55Z</time></trkpt><trkpt lat="61.150309" lon="-150.056267"><ele>76.074</ele><time>2026-08-06T21:18:57Z</time></trkpt><trkpt lat="61.150321" lon="-150.056258"><ele>77.069</ele><time>2026-08-06T21:19:02Z</time></trkpt><trkpt lat="61.150324" lon="-150.056251"><ele>77.270</ele><time>2026-08-06T21:19:03Z</time></trkpt><trkpt lat="61.150342" lon="-150.056197"><ele>78.234</ele><time>2026-08-06T21:19:09Z</time></trkpt><trkpt lat="61.150348" lon="-150.05617"><ele>79.292</ele><time>2026-08-06T21:19:13Z</time></trkpt><trkpt lat="61.150351" lon="-150.056157"><ele>79.429</ele><time>2026-08-06T21:19:14Z</time></trkpt><trkpt lat="61.150363" lon="-150.056104"><ele>80.418</ele><time>2026-08-06T21:19:19Z</time></trkpt><trkpt lat="61.150369" lon="-150.056041"><ele>81.422</ele><time>2026-08-06T21:19:23Z</time></trkpt><trkpt lat="61.150369" lon="-150.056026"><ele>81.699</ele><time>2026-08-06T21:19:24Z</time></trkpt><trkpt lat="61.150374" lon="-150.055964"><ele>82.029</ele><time>2026-08-06T21:19:29Z</time></trkpt><trkpt lat="61.150384" lon="-150.055935"><ele>82.400</ele><time>2026-08-06T21:19:33Z</time></trkpt><trkpt lat="61.150386" lon="-150.055932"><ele>82.620</ele><time>2026-08-06T21:19:34Z</time></trkpt><trkpt lat="61.150389" lon="-150.055933"><ele>82.809</ele><time>2026-08-06T21:19:36Z</time></trkpt><trkpt lat="61.15039" lon="-150.055932"><ele>82.824</ele><time>2026-08-06T21:19:38Z</time></trkpt><trkpt lat="61.150399" lon="-150.055925"><ele>82.839</ele><time>2026-08-06T21:19:40Z</time></trkpt><trkpt lat="61.150412" lon="-150.055909"><ele>83.060</ele><time>2026-08-06T21:19:44Z</time></trkpt><trkpt lat="61.150409" lon="-150.05591"><ele>82.664</ele><time>2026-08-06T21:19:55Z</time></trkpt><trkpt lat="61.150413" lon="-150.055939"><ele>82.632</ele><time>2026-08-06T21:20:01Z</time></trkpt><trkpt lat="61.150417" lon="-150.05594"><ele>82.649</ele><time>2026-08-06T21:20:07Z</time></trkpt><trkpt lat="61.150425" lon="-150.05597"><ele>82.838</ele><time>2026-08-06T21:20:12Z</time></trkpt><trkpt lat="61.150435" lon="-150.055987"><ele>82.692</ele><time>2026-08-06T21:20:14Z</time></trkpt><trkpt lat="61.150439" lon="-150.056002"><ele>82.849</ele><time>2026-08-06T21:20:16Z</time></trkpt><trkpt lat="61.150451" lon="-150.056014"><ele>82.696</ele><time>2026-08-06T21:20:19Z</time></trkpt><trkpt lat="61.150483" lon="-150.056059"><ele>82.631</ele><time>2026-08-06T21:20:26Z</time></trkpt><trkpt lat="61.1505" lon="-150.056121"><ele>83.024</ele><time>2026-08-06T21:20:30Z</time></trkpt><trkpt lat="61.150504" lon="-150.05613"><ele>83.209</ele><time>2026-08-06T21:20:31Z</time></trkpt><trkpt lat="61.15053" lon="-150.056194"><ele>83.261</ele><time>2026-08-06T21:20:35Z</time></trkpt><trkpt lat="61.15055" lon="-150.056346"><ele>83.076</ele><time>2026-08-06T21:20:43Z</time></trkpt><trkpt lat="61.150574" lon="-150.056447"><ele>82.837</ele><time>2026-08-06T21:20:49Z</time></trkpt><trkpt lat="61.150594" lon="-150.056492"><ele>82.491</ele><time>2026-08-06T21:20:52Z</time></trkpt><trkpt lat="61.150639" lon="-150.056552"><ele>81.649</ele><time>2026-08-06T21:20:57Z</time></trkpt><trkpt lat="61.150649" lon="-150.056561"><ele>81.466</ele><time>2026-08-06T21:20:58Z</time></trkpt><trkpt lat="61.150699" lon="-150.056619"><ele>80.435</ele><time>2026-08-06T21:21:03Z</time></trkpt><trkpt lat="61.150727" lon="-150.056659"><ele>80.229</ele><time>2026-08-06T21:21:07Z</time></trkpt><trkpt lat="61.150781" lon="-150.056716"><ele>79.426</ele><time>2026-08-06T21:21:12Z</time></trkpt><trkpt lat="61.150807" lon="-150.056777"><ele>78.877</ele><time>2026-08-06T21:21:16Z</time></trkpt><trkpt lat="61.150819" lon="-150.056831"><ele>78.261</ele><time>2026-08-06T21:21:19Z</time></trkpt><trkpt lat="61.150833" lon="-150.056926"><ele>77.227</ele><time>2026-08-06T21:21:24Z</time></trkpt><trkpt lat="61.150837" lon="-150.057049"><ele>75.809</ele><time>2026-08-06T21:21:28Z</time></trkpt><trkpt lat="61.150832" lon="-150.057143"><ele>74.879</ele><time>2026-08-06T21:21:31Z</time></trkpt><trkpt lat="61.15083" lon="-150.057162"><ele>74.614</ele><time>2026-08-06T21:21:32Z</time></trkpt><trkpt lat="61.150824" lon="-150.057305"><ele>75.285</ele><time>2026-08-06T21:21:39Z</time></trkpt><trkpt lat="61.150798" lon="-150.057527"><ele>73.289</ele><time>2026-08-06T21:21:44Z</time></trkpt><trkpt lat="61.150802" lon="-150.057582"><ele>72.267</ele><time>2026-08-06T21:21:45Z</time></trkpt><trkpt lat="61.150804" lon="-150.057634"><ele>71.474</ele><time>2026-08-06T21:21:46Z</time></trkpt><trkpt lat="61.150808" lon="-150.057743"><ele>70.063</ele><time>2026-08-06T21:21:48Z</time></trkpt><trkpt lat="61.150837" lon="-150.057892"><ele>69.067</ele><time>2026-08-06T21:21:51Z</time></trkpt><trkpt lat="61.150855" lon="-150.057943"><ele>68.444</ele><time>2026-08-06T21:21:52Z</time></trkpt><trkpt lat="61.150891" lon="-150.058028"><ele>67.823</ele><time>2026-08-06T21:21:54Z</time></trkpt><trkpt lat="61.150925" lon="-150.058098"><ele>67.683</ele><time>2026-08-06T21:21:57Z</time></trkpt><trkpt lat="61.150934" lon="-150.058082"><ele>68.411</ele><time>2026-08-06T21:22:00Z</time></trkpt><trkpt lat="61.150933" lon="-150.058073"><ele>68.409</ele><time>2026-08-06T21:22:03Z</time></trkpt><trkpt lat="61.150934" lon="-150.058075"><ele>68.294</ele><time>2026-08-06T21:22:04Z</time></trkpt><trkpt lat="61.150955" lon="-150.0581"><ele>68.289</ele><time>2026-08-06T21:22:07Z</time></trkpt><trkpt lat="61.15096" lon="-150.058111"><ele>68.490</ele><time>2026-08-06T21:22:08Z</time></trkpt><trkpt lat="61.150968" lon="-150.058123"><ele>68.484</ele><time>2026-08-06T21:22:09Z</time></trkpt><trkpt lat="61.150984" lon="-150.058144"><ele>68.872</ele><time>2026-08-06T21:22:11Z</time></trkpt><trkpt lat="61.151061" lon="-150.058279"><ele>69.629</ele><time>2026-08-06T21:22:21Z</time></trkpt><trkpt lat="61.151128" lon="-150.058367"><ele>69.638</ele><time>2026-08-06T21:22:28Z</time></trkpt><trkpt lat="61.151223" lon="-150.058485"><ele>69.822</ele><time>2026-08-06T21:22:38Z</time></trkpt><trkpt lat="61.151232" lon="-150.058491"><ele>69.889</ele><time>2026-08-06T21:22:39Z</time></trkpt><trkpt lat="61.151318" lon="-150.058553"><ele>70.244</ele><time>2026-08-06T21:22:47Z</time></trkpt><trkpt lat="61.151393" lon="-150.058596"><ele>70.805</ele><time>2026-08-06T21:22:55Z</time></trkpt><trkpt lat="61.151414" lon="-150.058601"><ele>71.015</ele><time>2026-08-06T21:22:57Z</time></trkpt><trkpt lat="61.151476" lon="-150.058595"><ele>71.609</ele><time>2026-08-06T21:23:03Z</time></trkpt><trkpt lat="61.151507" lon="-150.058607"><ele>72.066</ele><time>2026-08-06T21:23:06Z</time></trkpt><trkpt lat="61.151565" lon="-150.058645"><ele>71.861</ele><time>2026-08-06T21:23:11Z</time></trkpt><trkpt lat="61.151641" lon="-150.058765"><ele>71.422</ele><time>2026-08-06T21:23:19Z</time></trkpt><trkpt lat="61.151692" lon="-150.058885"><ele>71.616</ele><time>2026-08-06T21:23:26Z</time></trkpt><trkpt lat="61.151706" lon="-150.058925"><ele>71.874</ele><time>2026-08-06T21:23:28Z</time></trkpt><trkpt lat="61.151719" lon="-150.05896"><ele>72.031</ele><time>2026-08-06T21:23:30Z</time></trkpt><trkpt lat="61.151803" lon="-150.059202"><ele>71.640</ele><time>2026-08-06T21:23:42Z</time></trkpt><trkpt lat="61.151858" lon="-150.059365"><ele>70.814</ele><time>2026-08-06T21:23:49Z</time></trkpt><trkpt lat="61.151893" lon="-150.059437"><ele>70.261</ele><time>2026-08-06T21:23:51Z</time></trkpt><trkpt lat="61.151916" lon="-150.059465"><ele>69.888</ele><time>2026-08-06T21:23:52Z</time></trkpt><trkpt lat="61.151975" lon="-150.059554"><ele>68.424</ele><time>2026-08-06T21:23:55Z</time></trkpt><trkpt lat="61.152017" lon="-150.059632"><ele>67.826</ele><time>2026-08-06T21:23:57Z</time></trkpt><trkpt lat="61.152073" lon="-150.059728"><ele>67.009</ele><time>2026-08-06T21:24:00Z</time></trkpt><trkpt lat="61.152088" lon="-150.059784"><ele>66.680</ele><time>2026-08-06T21:24:02Z</time></trkpt><trkpt lat="61.152145" lon="-150.059869"><ele>66.025</ele><time>2026-08-06T21:24:10Z</time></trkpt><trkpt lat="61.152195" lon="-150.059975"><ele>64.816</ele><time>2026-08-06T21:24:16Z</time></trkpt><trkpt lat="61.152215" lon="-150.06001"><ele>64.480</ele><time>2026-08-06T21:24:18Z</time></trkpt><trkpt lat="61.152275" lon="-150.060086"><ele>63.878</ele><time>2026-08-06T21:24:24Z</time></trkpt><trkpt lat="61.152285" lon="-150.060104"><ele>63.655</ele><time>2026-08-06T21:24:25Z</time></trkpt><trkpt lat="61.152329" lon="-150.060219"><ele>62.664</ele><time>2026-08-06T21:24:31Z</time></trkpt><trkpt lat="61.15234" lon="-150.060263"><ele>62.478</ele><time>2026-08-06T21:24:33Z</time></trkpt><trkpt lat="61.152353" lon="-150.060406"><ele>61.655</ele><time>2026-08-06T21:24:39Z</time></trkpt><trkpt lat="61.152334" lon="-150.060538"><ele>60.821</ele><time>2026-08-06T21:24:43Z</time></trkpt><trkpt lat="61.152324" lon="-150.060578"><ele>60.441</ele><time>2026-08-06T21:24:44Z</time></trkpt><trkpt lat="61.152305" lon="-150.060727"><ele>59.005</ele><time>2026-08-06T21:24:47Z</time></trkpt><trkpt lat="61.152306" lon="-150.060818"><ele>58.409</ele><time>2026-08-06T21:24:49Z</time></trkpt><trkpt lat="61.152313" lon="-150.060877"><ele>57.814</ele><time>2026-08-06T21:24:51Z</time></trkpt><trkpt lat="61.152338" lon="-150.060968"><ele>57.459</ele><time>2026-08-06T21:24:56Z</time></trkpt><trkpt lat="61.152378" lon="-150.061023"><ele>56.840</ele><time>2026-08-06T21:25:01Z</time></trkpt><trkpt lat="61.152395" lon="-150.061071"><ele>56.254</ele><time>2026-08-06T21:25:04Z</time></trkpt><trkpt lat="61.152414" lon="-150.061139"><ele>55.832</ele><time>2026-08-06T21:25:09Z</time></trkpt><trkpt lat="61.152407" lon="-150.061138"><ele>56.059</ele><time>2026-08-06T21:25:12Z</time></trkpt><trkpt lat="61.152437" lon="-150.061148"><ele>55.658</ele><time>2026-08-06T21:25:20Z</time></trkpt><trkpt lat="61.152528" lon="-150.061187"><ele>54.242</ele><time>2026-08-06T21:25:23Z</time></trkpt><trkpt lat="61.152564" lon="-150.061184"><ele>53.479</ele><time>2026-08-06T21:25:24Z</time></trkpt><trkpt lat="61.152587" lon="-150.061169"><ele>52.898</ele><time>2026-08-06T21:25:25Z</time></trkpt><trkpt lat="61.15262" lon="-150.06115"><ele>52.415</ele><time>2026-08-06T21:25:27Z</time></trkpt><trkpt lat="61.15262" lon="-150.061146"><ele>52.826</ele><time>2026-08-06T21:25:28Z</time></trkpt><trkpt lat="61.152617" lon="-150.061149"><ele>53.409</ele><time>2026-08-06T21:25:30Z</time></trkpt><trkpt lat="61.15265" lon="-150.061142"><ele>53.681</ele><time>2026-08-06T21:25:35Z</time></trkpt><trkpt lat="61.152663" lon="-150.061144"><ele>54.046</ele><time>2026-08-06T21:25:37Z</time></trkpt><trkpt lat="61.152709" lon="-150.061118"><ele>55.097</ele><time>2026-08-06T21:25:42Z</time></trkpt><trkpt lat="61.15276" lon="-150.060998"><ele>56.041</ele><time>2026-08-06T21:25:50Z</time></trkpt><trkpt lat="61.152795" lon="-150.060952"><ele>56.429</ele><time>2026-08-06T21:25:57Z</time></trkpt><trkpt lat="61.152789" lon="-150.060938"><ele>56.456</ele><time>2026-08-06T21:25:58Z</time></trkpt><trkpt lat="61.152772" lon="-150.060889"><ele>56.245</ele><time>2026-08-06T21:26:02Z</time></trkpt><trkpt lat="61.152732" lon="-150.060743"><ele>55.639</ele><time>2026-08-06T21:26:07Z</time></trkpt><trkpt lat="61.152729" lon="-150.060685"><ele>55.066</ele><time>2026-08-06T21:26:08Z</time></trkpt><trkpt lat="61.152701" lon="-150.060435"><ele>53.811</ele><time>2026-08-06T21:26:11Z</time></trkpt><trkpt lat="61.15269" lon="-150.060367"><ele>52.621</ele><time>2026-08-06T21:26:12Z</time></trkpt><trkpt lat="61.152665" lon="-150.060256"><ele>50.803</ele><time>2026-08-06T21:26:14Z</time></trkpt><trkpt lat="61.152659" lon="-150.060198"><ele>51.009</ele><time>2026-08-06T21:26:16Z</time></trkpt><trkpt lat="61.152661" lon="-150.060167"><ele>51.443</ele><time>2026-08-06T21:26:23Z</time></trkpt><trkpt lat="61.152674" lon="-150.060071"><ele>51.458</ele><time>2026-08-06T21:26:33Z</time></trkpt><trkpt lat="61.152719" lon="-150.059884"><ele>50.029</ele><time>2026-08-06T21:26:40Z</time></trkpt><trkpt lat="61.152723" lon="-150.059855"><ele>49.613</ele><time>2026-08-06T21:26:41Z</time></trkpt><trkpt lat="61.152754" lon="-150.059663"><ele>48.891</ele><time>2026-08-06T21:26:48Z</time></trkpt><trkpt lat="61.152809" lon="-150.059525"><ele>49.048</ele><time>2026-08-06T21:26:55Z</time></trkpt><trkpt lat="61.152898" lon="-150.059454"><ele>49.697</ele><time>2026-08-06T21:27:03Z</time></trkpt><trkpt lat="61.15294" lon="-150.059453"><ele>50.011</ele><time>2026-08-06T21:27:06Z</time></trkpt><trkpt lat="61.152974" lon="-150.059461"><ele>50.448</ele><time>2026-08-06T21:27:09Z</time></trkpt><trkpt lat="61.153016" lon="-150.059466"><ele>50.678</ele><time>2026-08-06T21:27:13Z</time></trkpt><trkpt lat="61.153078" lon="-150.059445"><ele>50.833</ele><time>2026-08-06T21:27:19Z</time></trkpt><trkpt lat="61.153105" lon="-150.059389"><ele>50.826</ele><time>2026-08-06T21:27:22Z</time></trkpt><trkpt lat="61.153193" lon="-150.059239"><ele>49.809</ele><time>2026-08-06T21:27:32Z</time></trkpt><trkpt lat="61.153201" lon="-150.059232"><ele>49.649</ele><time>2026-08-06T21:27:33Z</time></trkpt><trkpt lat="61.153313" lon="-150.059105"><ele>48.884</ele><time>2026-08-06T21:27:44Z</time></trkpt><trkpt lat="61.153383" lon="-150.058969"><ele>49.815</ele><time>2026-08-06T21:27:53Z</time></trkpt><trkpt lat="61.153435" lon="-150.058881"><ele>50.639</ele><time>2026-08-06T21:27:59Z</time></trkpt><trkpt lat="61.153443" lon="-150.058863"><ele>50.827</ele><time>2026-08-06T21:28:00Z</time></trkpt><trkpt lat="61.153493" lon="-150.058749"><ele>51.644</ele><time>2026-08-06T21:28:07Z</time></trkpt><trkpt lat="61.15349" lon="-150.058686"><ele>52.053</ele><time>2026-08-06T21:28:10Z</time></trkpt><trkpt lat="61.153486" lon="-150.058569"><ele>52.657</ele><time>2026-08-06T21:28:16Z</time></trkpt><trkpt lat="61.153483" lon="-150.058551"><ele>52.864</ele><time>2026-08-06T21:28:17Z</time></trkpt><trkpt lat="61.153483" lon="-150.05836"><ele>53.842</ele><time>2026-08-06T21:28:25Z</time></trkpt><trkpt lat="61.153487" lon="-150.058264"><ele>54.422</ele><time>2026-08-06T21:28:30Z</time></trkpt><trkpt lat="61.153488" lon="-150.058199"><ele>54.814</ele><time>2026-08-06T21:28:33Z</time></trkpt><trkpt lat="61.153489" lon="-150.058176"><ele>54.809</ele><time>2026-08-06T21:28:34Z</time></trkpt><trkpt lat="61.153529" lon="-150.057965"><ele>55.886</ele><time>2026-08-06T21:28:43Z</time></trkpt><trkpt lat="61.153533" lon="-150.057945"><ele>55.881</ele><time>2026-08-06T21:28:44Z</time></trkpt><trkpt lat="61.153577" lon="-150.0578"><ele>56.672</ele><time>2026-08-06T21:28:51Z</time></trkpt><trkpt lat="61.1536" lon="-150.057717"><ele>57.016</ele><time>2026-08-06T21:28:55Z</time></trkpt><trkpt lat="61.153619" lon="-150.05763"><ele>57.254</ele><time>2026-08-06T21:28:59Z</time></trkpt><trkpt lat="61.153652" lon="-150.057434"><ele>57.871</ele><time>2026-08-06T21:29:08Z</time></trkpt><trkpt lat="61.153659" lon="-150.057391"><ele>58.080</ele><time>2026-08-06T21:29:10Z</time></trkpt><trkpt lat="61.153667" lon="-150.05732"><ele>58.254</ele><time>2026-08-06T21:29:13Z</time></trkpt><trkpt lat="61.15368" lon="-150.057111"><ele>59.091</ele><time>2026-08-06T21:29:22Z</time></trkpt><trkpt lat="61.153677" lon="-150.05688"><ele>59.683</ele><time>2026-08-06T21:29:31Z</time></trkpt><trkpt lat="61.153657" lon="-150.056735"><ele>60.025</ele><time>2026-08-06T21:29:37Z</time></trkpt><trkpt lat="61.153639" lon="-150.056636"><ele>60.417</ele><time>2026-08-06T21:29:41Z</time></trkpt><trkpt lat="61.153603" lon="-150.056461"><ele>60.809</ele><time>2026-08-06T21:29:49Z</time></trkpt><trkpt lat="61.153598" lon="-150.056436"><ele>61.070</ele><time>2026-08-06T21:29:50Z</time></trkpt><trkpt lat="61.153563" lon="-150.0563"><ele>61.495</ele><time>2026-08-06T21:29:56Z</time></trkpt><trkpt lat="61.153528" lon="-150.056163"><ele>62.236</ele><time>2026-08-06T21:30:02Z</time></trkpt><trkpt lat="61.153512" lon="-150.056089"><ele>62.080</ele><time>2026-08-06T21:30:05Z</time></trkpt><trkpt lat="61.153466" lon="-150.055853"><ele>63.038</ele><time>2026-08-06T21:30:15Z</time></trkpt><trkpt lat="61.15345" lon="-150.055743"><ele>63.255</ele><time>2026-08-06T21:30:19Z</time></trkpt><trkpt lat="61.153443" lon="-150.055671"><ele>63.674</ele><time>2026-08-06T21:30:22Z</time></trkpt><trkpt lat="61.153468" lon="-150.055481"><ele>64.028</ele><time>2026-08-06T21:30:30Z</time></trkpt><trkpt lat="61.153486" lon="-150.055438"><ele>64.215</ele><time>2026-08-06T21:30:32Z</time></trkpt><trkpt lat="61.153536" lon="-150.055361"><ele>64.226</ele><time>2026-08-06T21:30:37Z</time></trkpt><trkpt lat="61.15356" lon="-150.055303"><ele>64.647</ele><time>2026-08-06T21:30:40Z</time></trkpt><trkpt lat="61.153561" lon="-150.055231"><ele>64.211</ele><time>2026-08-06T21:30:43Z</time></trkpt><trkpt lat="61.153526" lon="-150.055041"><ele>64.209</ele><time>2026-08-06T21:30:52Z</time></trkpt><trkpt lat="61.153506" lon="-150.054842"><ele>64.674</ele><time>2026-08-06T21:31:01Z</time></trkpt><trkpt lat="61.153543" lon="-150.054675"><ele>64.899</ele><time>2026-08-06T21:31:08Z</time></trkpt><trkpt lat="61.153592" lon="-150.054542"><ele>65.050</ele><time>2026-08-06T21:31:15Z</time></trkpt><trkpt lat="61.153633" lon="-150.054473"><ele>65.254</ele><time>2026-08-06T21:31:20Z</time></trkpt><trkpt lat="61.153661" lon="-150.054411"><ele>65.452</ele><time>2026-08-06T21:31:24Z</time></trkpt><trkpt lat="61.15369" lon="-150.054297"><ele>65.289</ele><time>2026-08-06T21:31:30Z</time></trkpt><trkpt lat="61.153713" lon="-150.054233"><ele>64.818</ele><time>2026-08-06T21:31:33Z</time></trkpt><trkpt lat="61.153762" lon="-150.054134"><ele>64.832</ele><time>2026-08-06T21:31:39Z</time></trkpt><trkpt lat="61.153784" lon="-150.054111"><ele>65.019</ele><time>2026-08-06T21:31:41Z</time></trkpt><trkpt lat="61.153809" lon="-150.054058"><ele>64.654</ele><time>2026-08-06T21:31:46Z</time></trkpt><trkpt lat="61.153816" lon="-150.05402"><ele>64.456</ele><time>2026-08-06T21:31:48Z</time></trkpt><trkpt lat="61.153807" lon="-150.054018"><ele>64.611</ele><time>2026-08-06T21:31:55Z</time></trkpt><trkpt lat="61.153812" lon="-150.054019"><ele>64.609</ele><time>2026-08-06T21:32:03Z</time></trkpt><trkpt lat="61.153805" lon="-150.054012"><ele>64.667</ele><time>2026-08-06T21:32:08Z</time></trkpt><trkpt lat="61.153801" lon="-150.054022"><ele>64.642</ele><time>2026-08-06T21:32:09Z</time></trkpt><trkpt lat="61.153805" lon="-150.05402"><ele>64.673</ele><time>2026-08-06T21:32:10Z</time></trkpt><trkpt lat="61.153805" lon="-150.054024"><ele>64.637</ele><time>2026-08-06T21:32:11Z</time></trkpt><trkpt lat="61.153811" lon="-150.054023"><ele>64.225</ele><time>2026-08-06T21:32:14Z</time></trkpt><trkpt lat="61.153813" lon="-150.054023"><ele>64.052</ele><time>2026-08-06T21:32:15Z</time></trkpt><trkpt lat="61.153813" lon="-150.054022"><ele>64.091</ele><time>2026-08-06T21:32:24Z</time></trkpt><trkpt lat="61.153818" lon="-150.05399"><ele>64.415</ele><time>2026-08-06T21:32:29Z</time></trkpt><trkpt lat="61.153827" lon="-150.054003"><ele>64.252</ele><time>2026-08-06T21:32:37Z</time></trkpt></trkseg></trk></gpx>