<?xml version="1.0" encoding="UTF-8"?><gpx creator="Wikiloc - http://www.wikiloc.com" version="1.1" xmlns="http://www.topografix.com/GPX/1/1" xmlns:xsi="http://www.w3.org/2001/XMLSchema-instance" xsi:schemaLocation="http://www.topografix.com/GPX/1/1 http://www.topografix.com/GPX/1/1/gpx.xsd"><trk><name><![CDATA[Banff National Park: Peyto Lake Viewpoint - Peyto Lake Upper Viewpoint]]></name><cmt><![CDATA[Ruta circular des de Peyto Lake Viewpoint Parking passant per:
- Peyto Lake (0.7 km)]]></cmt><desc><![CDATA[Ruta circular des de Peyto Lake Viewpoint Parking passant per:
- Peyto Lake (0.7 km)]]></desc><trkseg><trkpt lat="51.716658" lon="-116.498555"><ele>2088.661</ele><time>2026-06-28T16:12:10Z</time></trkpt><trkpt lat="51.716671" lon="-116.498695"><ele>2088.621</ele><time>2026-06-28T16:12:15Z</time></trkpt><trkpt lat="51.716702" lon="-116.498727"><ele>2088.213</ele><time>2026-06-28T16:12:23Z</time></trkpt><trkpt lat="51.71675" lon="-116.498831"><ele>2088.209</ele><time>2026-06-28T16:12:30Z</time></trkpt><trkpt lat="51.716767" lon="-116.498866"><ele>2087.248</ele><time>2026-06-28T16:12:32Z</time></trkpt><trkpt lat="51.716815" lon="-116.498964"><ele>2087.093</ele><time>2026-06-28T16:12:38Z</time></trkpt><trkpt lat="51.716854" lon="-116.499015"><ele>2088.227</ele><time>2026-06-28T16:12:42Z</time></trkpt><trkpt lat="51.716887" lon="-116.499064"><ele>2088.043</ele><time>2026-06-28T16:12:46Z</time></trkpt><trkpt lat="51.716969" lon="-116.499188"><ele>2087.861</ele><time>2026-06-28T16:12:56Z</time></trkpt><trkpt lat="51.716987" lon="-116.499275"><ele>2086.853</ele><time>2026-06-28T16:13:01Z</time></trkpt><trkpt lat="51.716982" lon="-116.499335"><ele>2086.426</ele><time>2026-06-28T16:13:04Z</time></trkpt><trkpt lat="51.716973" lon="-116.499498"><ele>2086.663</ele><time>2026-06-28T16:13:12Z</time></trkpt><trkpt lat="51.716971" lon="-116.499552"><ele>2086.256</ele><time>2026-06-28T16:13:15Z</time></trkpt><trkpt lat="51.717012" lon="-116.499662"><ele>2086.228</ele><time>2026-06-28T16:13:22Z</time></trkpt><trkpt lat="51.717036" lon="-116.499807"><ele>2086.089</ele><time>2026-06-28T16:13:30Z</time></trkpt><trkpt lat="51.717055" lon="-116.499883"><ele>2085.817</ele><time>2026-06-28T16:13:34Z</time></trkpt><trkpt lat="51.717099" lon="-116.500008"><ele>2085.809</ele><time>2026-06-28T16:13:40Z</time></trkpt><trkpt lat="51.717114" lon="-116.500123"><ele>2085.024</ele><time>2026-06-28T16:13:47Z</time></trkpt><trkpt lat="51.717122" lon="-116.500224"><ele>2086.679</ele><time>2026-06-28T16:13:52Z</time></trkpt><trkpt lat="51.717123" lon="-116.500246"><ele>2087.023</ele><time>2026-06-28T16:13:53Z</time></trkpt><trkpt lat="51.717122" lon="-116.500303"><ele>2087.629</ele><time>2026-06-28T16:13:56Z</time></trkpt><trkpt lat="51.717124" lon="-116.500353"><ele>2087.877</ele><time>2026-06-28T16:13:59Z</time></trkpt><trkpt lat="51.717125" lon="-116.500392"><ele>2088.089</ele><time>2026-06-28T16:14:01Z</time></trkpt><trkpt lat="51.717111" lon="-116.500494"><ele>2088.812</ele><time>2026-06-28T16:14:06Z</time></trkpt><trkpt lat="51.717103" lon="-116.500524"><ele>2089.239</ele><time>2026-06-28T16:14:08Z</time></trkpt><trkpt lat="51.717098" lon="-116.500649"><ele>2090.072</ele><time>2026-06-28T16:14:15Z</time></trkpt><trkpt lat="51.717105" lon="-116.500708"><ele>2090.299</ele><time>2026-06-28T16:14:18Z</time></trkpt><trkpt lat="51.717114" lon="-116.500838"><ele>2090.807</ele><time>2026-06-28T16:14:25Z</time></trkpt><trkpt lat="51.717106" lon="-116.500938"><ele>2091.227</ele><time>2026-06-28T16:14:31Z</time></trkpt><trkpt lat="51.717096" lon="-116.50101"><ele>2091.809</ele><time>2026-06-28T16:14:35Z</time></trkpt><trkpt lat="51.717091" lon="-116.501029"><ele>2092.011</ele><time>2026-06-28T16:14:36Z</time></trkpt><trkpt lat="51.717085" lon="-116.501139"><ele>2092.266</ele><time>2026-06-28T16:14:41Z</time></trkpt><trkpt lat="51.71709" lon="-116.501175"><ele>2092.210</ele><time>2026-06-28T16:14:43Z</time></trkpt><trkpt lat="51.717096" lon="-116.501219"><ele>2092.266</ele><time>2026-06-28T16:14:45Z</time></trkpt><trkpt lat="51.717126" lon="-116.501418"><ele>2091.814</ele><time>2026-06-28T16:14:55Z</time></trkpt><trkpt lat="51.717186" lon="-116.501555"><ele>2091.666</ele><time>2026-06-28T16:15:05Z</time></trkpt><trkpt lat="51.717263" lon="-116.501745"><ele>2091.679</ele><time>2026-06-28T16:15:16Z</time></trkpt><trkpt lat="51.717286" lon="-116.501832"><ele>2093.046</ele><time>2026-06-28T16:15:23Z</time></trkpt><trkpt lat="51.717288" lon="-116.501845"><ele>2093.429</ele><time>2026-06-28T16:15:24Z</time></trkpt><trkpt lat="51.717301" lon="-116.501889"><ele>2094.639</ele><time>2026-06-28T16:15:28Z</time></trkpt><trkpt lat="51.717308" lon="-116.501939"><ele>2095.801</ele><time>2026-06-28T16:15:32Z</time></trkpt><trkpt lat="51.717306" lon="-116.502029"><ele>2096.821</ele><time>2026-06-28T16:15:38Z</time></trkpt><trkpt lat="51.717302" lon="-116.50216"><ele>2097.209</ele><time>2026-06-28T16:15:46Z</time></trkpt><trkpt lat="51.717298" lon="-116.50217"><ele>2097.255</ele><time>2026-06-28T16:15:47Z</time></trkpt><trkpt lat="51.71728" lon="-116.502224"><ele>2098.080</ele><time>2026-06-28T16:15:52Z</time></trkpt><trkpt lat="51.717278" lon="-116.502285"><ele>2098.464</ele><time>2026-06-28T16:15:56Z</time></trkpt><trkpt lat="51.717285" lon="-116.502353"><ele>2099.080</ele><time>2026-06-28T16:16:00Z</time></trkpt><trkpt lat="51.717302" lon="-116.502407"><ele>2099.618</ele><time>2026-06-28T16:16:05Z</time></trkpt><trkpt lat="51.717318" lon="-116.502466"><ele>2100.260</ele><time>2026-06-28T16:16:09Z</time></trkpt><trkpt lat="51.717336" lon="-116.502535"><ele>2101.293</ele><time>2026-06-28T16:16:14Z</time></trkpt><trkpt lat="51.717359" lon="-116.502659"><ele>2102.270</ele><time>2026-06-28T16:16:23Z</time></trkpt><trkpt lat="51.717377" lon="-116.50277"><ele>2103.213</ele><time>2026-06-28T16:16:30Z</time></trkpt><trkpt lat="51.717378" lon="-116.502813"><ele>2103.887</ele><time>2026-06-28T16:16:34Z</time></trkpt><trkpt lat="51.717346" lon="-116.502905"><ele>2104.642</ele><time>2026-06-28T16:16:42Z</time></trkpt><trkpt lat="51.717337" lon="-116.502942"><ele>2105.426</ele><time>2026-06-28T16:16:45Z</time></trkpt><trkpt lat="51.717332" lon="-116.502971"><ele>2106.009</ele><time>2026-06-28T16:16:47Z</time></trkpt><trkpt lat="51.71732" lon="-116.503031"><ele>2107.220</ele><time>2026-06-28T16:16:52Z</time></trkpt><trkpt lat="51.717304" lon="-116.503082"><ele>2108.435</ele><time>2026-06-28T16:16:57Z</time></trkpt><trkpt lat="51.717282" lon="-116.503142"><ele>2109.459</ele><time>2026-06-28T16:17:02Z</time></trkpt><trkpt lat="51.71726" lon="-116.503211"><ele>2109.685</ele><time>2026-06-28T16:17:07Z</time></trkpt><trkpt lat="51.717258" lon="-116.503241"><ele>2109.883</ele><time>2026-06-28T16:17:09Z</time></trkpt><trkpt lat="51.717254" lon="-116.50331"><ele>2110.415</ele><time>2026-06-28T16:17:14Z</time></trkpt><trkpt lat="51.71725" lon="-116.503378"><ele>2110.658</ele><time>2026-06-28T16:17:18Z</time></trkpt><trkpt lat="51.717254" lon="-116.503475"><ele>2111.425</ele><time>2026-06-28T16:17:25Z</time></trkpt><trkpt lat="51.717254" lon="-116.5035"><ele>2111.878</ele><time>2026-06-28T16:17:27Z</time></trkpt><trkpt lat="51.717241" lon="-116.503572"><ele>2112.451</ele><time>2026-06-28T16:17:32Z</time></trkpt><trkpt lat="51.717225" lon="-116.503653"><ele>2113.201</ele><time>2026-06-28T16:17:37Z</time></trkpt><trkpt lat="51.717222" lon="-116.503705"><ele>2113.611</ele><time>2026-06-28T16:17:40Z</time></trkpt><trkpt lat="51.717231" lon="-116.503824"><ele>2114.209</ele><time>2026-06-28T16:17:49Z</time></trkpt><trkpt lat="51.717238" lon="-116.503977"><ele>2114.627</ele><time>2026-06-28T16:17:58Z</time></trkpt><trkpt lat="51.717263" lon="-116.50412"><ele>2114.642</ele><time>2026-06-28T16:18:07Z</time></trkpt><trkpt lat="51.717256" lon="-116.504193"><ele>2115.686</ele><time>2026-06-28T16:18:11Z</time></trkpt><trkpt lat="51.717244" lon="-116.504264"><ele>2115.852</ele><time>2026-06-28T16:18:15Z</time></trkpt><trkpt lat="51.71721" lon="-116.504436"><ele>2115.810</ele><time>2026-06-28T16:18:25Z</time></trkpt><trkpt lat="51.717215" lon="-116.504616"><ele>2116.242</ele><time>2026-06-28T16:18:34Z</time></trkpt><trkpt lat="51.717213" lon="-116.504631"><ele>2116.265</ele><time>2026-06-28T16:18:35Z</time></trkpt><trkpt lat="51.71721" lon="-116.504719"><ele>2116.682</ele><time>2026-06-28T16:18:40Z</time></trkpt><trkpt lat="51.717217" lon="-116.504792"><ele>2116.225</ele><time>2026-06-28T16:18:44Z</time></trkpt><trkpt lat="51.717229" lon="-116.504945"><ele>2116.436</ele><time>2026-06-28T16:18:55Z</time></trkpt><trkpt lat="51.717234" lon="-116.505076"><ele>2117.617</ele><time>2026-06-28T16:19:01Z</time></trkpt><trkpt lat="51.717238" lon="-116.505168"><ele>2118.218</ele><time>2026-06-28T16:19:07Z</time></trkpt><trkpt lat="51.717236" lon="-116.505239"><ele>2118.809</ele><time>2026-06-28T16:19:12Z</time></trkpt><trkpt lat="51.717236" lon="-116.505285"><ele>2119.245</ele><time>2026-06-28T16:19:16Z</time></trkpt><trkpt lat="51.717235" lon="-116.505325"><ele>2120.070</ele><time>2026-06-28T16:19:20Z</time></trkpt><trkpt lat="51.717237" lon="-116.505371"><ele>2120.664</ele><time>2026-06-28T16:19:23Z</time></trkpt><trkpt lat="51.717234" lon="-116.505425"><ele>2121.610</ele><time>2026-06-28T16:19:27Z</time></trkpt><trkpt lat="51.717236" lon="-116.505456"><ele>2122.068</ele><time>2026-06-28T16:19:29Z</time></trkpt><trkpt lat="51.717238" lon="-116.505498"><ele>2122.860</ele><time>2026-06-28T16:19:32Z</time></trkpt><trkpt lat="51.717237" lon="-116.505516"><ele>2123.233</ele><time>2026-06-28T16:19:33Z</time></trkpt><trkpt lat="51.717232" lon="-116.505592"><ele>2123.620</ele><time>2026-06-28T16:19:39Z</time></trkpt><trkpt lat="51.71723" lon="-116.505646"><ele>2123.893</ele><time>2026-06-28T16:19:43Z</time></trkpt><trkpt lat="51.71723" lon="-116.505665"><ele>2124.033</ele><time>2026-06-28T16:19:45Z</time></trkpt><trkpt lat="51.71723" lon="-116.50568"><ele>2124.423</ele><time>2026-06-28T16:19:46Z</time></trkpt><trkpt lat="51.717241" lon="-116.505753"><ele>2125.415</ele><time>2026-06-28T16:19:50Z</time></trkpt><trkpt lat="51.717246" lon="-116.505769"><ele>2125.409</ele><time>2026-06-28T16:19:51Z</time></trkpt><trkpt lat="51.717294" lon="-116.505895"><ele>2125.085</ele><time>2026-06-28T16:19:59Z</time></trkpt><trkpt lat="51.717318" lon="-116.506023"><ele>2124.860</ele><time>2026-06-28T16:20:07Z</time></trkpt><trkpt lat="51.717326" lon="-116.506154"><ele>2124.484</ele><time>2026-06-28T16:20:14Z</time></trkpt><trkpt lat="51.717355" lon="-116.506305"><ele>2124.220</ele><time>2026-06-28T16:20:23Z</time></trkpt><trkpt lat="51.71736" lon="-116.506321"><ele>2124.068</ele><time>2026-06-28T16:20:24Z</time></trkpt><trkpt lat="51.717379" lon="-116.506429"><ele>2123.840</ele><time>2026-06-28T16:20:31Z</time></trkpt><trkpt lat="51.717394" lon="-116.506553"><ele>2123.483</ele><time>2026-06-28T16:20:38Z</time></trkpt><trkpt lat="51.717388" lon="-116.506568"><ele>2123.220</ele><time>2026-06-28T16:20:39Z</time></trkpt><trkpt lat="51.717372" lon="-116.506753"><ele>2123.463</ele><time>2026-06-28T16:20:49Z</time></trkpt><trkpt lat="51.717377" lon="-116.506898"><ele>2123.497</ele><time>2026-06-28T16:20:57Z</time></trkpt><trkpt lat="51.717359" lon="-116.506988"><ele>2122.423</ele><time>2026-06-28T16:21:03Z</time></trkpt><trkpt lat="51.717357" lon="-116.507002"><ele>2122.225</ele><time>2026-06-28T16:21:04Z</time></trkpt><trkpt lat="51.717354" lon="-116.507034"><ele>2122.209</ele><time>2026-06-28T16:21:06Z</time></trkpt><trkpt lat="51.717342" lon="-116.507088"><ele>2122.021</ele><time>2026-06-28T16:21:09Z</time></trkpt><trkpt lat="51.717326" lon="-116.5072"><ele>2121.466</ele><time>2026-06-28T16:21:15Z</time></trkpt><trkpt lat="51.717328" lon="-116.507237"><ele>2121.240</ele><time>2026-06-28T16:21:17Z</time></trkpt><trkpt lat="51.717343" lon="-116.507346"><ele>2121.066</ele><time>2026-06-28T16:21:23Z</time></trkpt><trkpt lat="51.717383" lon="-116.507421"><ele>2120.274</ele><time>2026-06-28T16:21:29Z</time></trkpt><trkpt lat="51.7174" lon="-116.507433"><ele>2120.016</ele><time>2026-06-28T16:21:31Z</time></trkpt><trkpt lat="51.717463" lon="-116.507507"><ele>2119.269</ele><time>2026-06-28T16:21:38Z</time></trkpt><trkpt lat="51.717541" lon="-116.507575"><ele>2119.226</ele><time>2026-06-28T16:21:47Z</time></trkpt><trkpt lat="51.717545" lon="-116.507577"><ele>2119.039</ele><time>2026-06-28T16:21:48Z</time></trkpt><trkpt lat="51.717551" lon="-116.507591"><ele>2118.631</ele><time>2026-06-28T16:21:51Z</time></trkpt><trkpt lat="51.717546" lon="-116.507598"><ele>2118.261</ele><time>2026-06-28T16:21:53Z</time></trkpt><trkpt lat="51.717544" lon="-116.507603"><ele>2118.007</ele><time>2026-06-28T16:21:54Z</time></trkpt><trkpt lat="51.717531" lon="-116.507616"><ele>2117.609</ele><time>2026-06-28T16:22:05Z</time></trkpt><trkpt lat="51.717526" lon="-116.507609"><ele>2118.655</ele><time>2026-06-28T16:22:14Z</time></trkpt><trkpt lat="51.717536" lon="-116.507632"><ele>2118.270</ele><time>2026-06-28T16:22:22Z</time></trkpt><trkpt lat="51.717534" lon="-116.507614"><ele>2118.084</ele><time>2026-06-28T16:22:37Z</time></trkpt><trkpt lat="51.717533" lon="-116.507619"><ele>2118.440</ele><time>2026-06-28T16:22:42Z</time></trkpt><trkpt lat="51.717531" lon="-116.507616"><ele>2118.048</ele><time>2026-06-28T16:22:46Z</time></trkpt><trkpt lat="51.71753" lon="-116.507619"><ele>2117.090</ele><time>2026-06-28T16:22:52Z</time></trkpt><trkpt lat="51.71753" lon="-116.507614"><ele>2116.643</ele><time>2026-06-28T16:22:57Z</time></trkpt><trkpt lat="51.717551" lon="-116.50762"><ele>2117.010</ele><time>2026-06-28T16:23:03Z</time></trkpt><trkpt lat="51.71756" lon="-116.507623"><ele>2117.213</ele><time>2026-06-28T16:23:04Z</time></trkpt><trkpt lat="51.717566" lon="-116.507629"><ele>2117.239</ele><time>2026-06-28T16:23:05Z</time></trkpt><trkpt lat="51.717567" lon="-116.507618"><ele>2117.201</ele><time>2026-06-28T16:23:12Z</time></trkpt><trkpt lat="51.717572" lon="-116.507619"><ele>2117.221</ele><time>2026-06-28T16:23:19Z</time></trkpt><trkpt lat="51.717567" lon="-116.507618"><ele>2117.209</ele><time>2026-06-28T16:23:27Z</time></trkpt><trkpt lat="51.717567" lon="-116.507618"><ele>2117.095</ele><time>2026-06-28T16:23:30Z</time></trkpt><trkpt lat="51.717567" lon="-116.507634"><ele>2116.650</ele><time>2026-06-28T16:23:36Z</time></trkpt><trkpt lat="51.717566" lon="-116.507639"><ele>2116.684</ele><time>2026-06-28T16:23:44Z</time></trkpt><trkpt lat="51.717561" lon="-116.507635"><ele>2116.040</ele><time>2026-06-28T16:23:55Z</time></trkpt><trkpt lat="51.717562" lon="-116.507633"><ele>2116.218</ele><time>2026-06-28T16:23:58Z</time></trkpt><trkpt lat="51.717564" lon="-116.507634"><ele>2116.070</ele><time>2026-06-28T16:23:59Z</time></trkpt><trkpt lat="51.717572" lon="-116.507649"><ele>2116.053</ele><time>2026-06-28T16:24:03Z</time></trkpt><trkpt lat="51.71757" lon="-116.507639"><ele>2115.650</ele><time>2026-06-28T16:24:09Z</time></trkpt><trkpt lat="51.717553" lon="-116.507606"><ele>2116.653</ele><time>2026-06-28T16:24:19Z</time></trkpt><trkpt lat="51.717551" lon="-116.507602"><ele>2117.044</ele><time>2026-06-28T16:24:23Z</time></trkpt><trkpt lat="51.717545" lon="-116.507588"><ele>2116.605</ele><time>2026-06-28T16:24:27Z</time></trkpt><trkpt lat="51.71754" lon="-116.507575"><ele>2116.615</ele><time>2026-06-28T16:24:38Z</time></trkpt><trkpt lat="51.717537" lon="-116.507572"><ele>2116.409</ele><time>2026-06-28T16:24:40Z</time></trkpt><trkpt lat="51.717539" lon="-116.507578"><ele>2116.086</ele><time>2026-06-28T16:24:46Z</time></trkpt><trkpt lat="51.717549" lon="-116.507595"><ele>2116.011</ele><time>2026-06-28T16:24:49Z</time></trkpt><trkpt lat="51.71755" lon="-116.507597"><ele>2116.075</ele><time>2026-06-28T16:24:50Z</time></trkpt><trkpt lat="51.717565" lon="-116.507623"><ele>2115.461</ele><time>2026-06-28T16:24:56Z</time></trkpt><trkpt lat="51.717564" lon="-116.507639"><ele>2115.889</ele><time>2026-06-28T16:25:06Z</time></trkpt><trkpt lat="51.717563" lon="-116.507636"><ele>2115.821</ele><time>2026-06-28T16:25:09Z</time></trkpt><trkpt lat="51.717564" lon="-116.507636"><ele>2115.664</ele><time>2026-06-28T16:25:12Z</time></trkpt><trkpt lat="51.717567" lon="-116.50764"><ele>2115.611</ele><time>2026-06-28T16:25:17Z</time></trkpt><trkpt lat="51.717557" lon="-116.507622"><ele>2114.834</ele><time>2026-06-28T16:25:27Z</time></trkpt><trkpt lat="51.717556" lon="-116.507621"><ele>2114.858</ele><time>2026-06-28T16:25:28Z</time></trkpt><trkpt lat="51.717554" lon="-116.50762"><ele>2115.052</ele><time>2026-06-28T16:25:30Z</time></trkpt><trkpt lat="51.717561" lon="-116.507625"><ele>2115.017</ele><time>2026-06-28T16:25:43Z</time></trkpt><trkpt lat="51.717571" lon="-116.507622"><ele>2115.009</ele><time>2026-06-28T16:25:48Z</time></trkpt><trkpt lat="51.717577" lon="-116.507617"><ele>2114.877</ele><time>2026-06-28T16:25:56Z</time></trkpt><trkpt lat="51.717559" lon="-116.5076"><ele>2114.082</ele><time>2026-06-28T16:26:07Z</time></trkpt><trkpt lat="51.717563" lon="-116.507595"><ele>2114.646</ele><time>2026-06-28T16:26:18Z</time></trkpt><trkpt lat="51.717546" lon="-116.507588"><ele>2115.092</ele><time>2026-06-28T16:26:26Z</time></trkpt><trkpt lat="51.71754" lon="-116.5076"><ele>2114.690</ele><time>2026-06-28T16:26:36Z</time></trkpt><trkpt lat="51.71754" lon="-116.507589"><ele>2114.892</ele><time>2026-06-28T16:26:47Z</time></trkpt><trkpt lat="51.717541" lon="-116.507566"><ele>2116.085</ele><time>2026-06-28T16:26:55Z</time></trkpt><trkpt lat="51.717531" lon="-116.507527"><ele>2115.852</ele><time>2026-06-28T16:27:00Z</time></trkpt><trkpt lat="51.71752" lon="-116.507515"><ele>2114.665</ele><time>2026-06-28T16:27:03Z</time></trkpt><trkpt lat="51.717527" lon="-116.507514"><ele>2114.268</ele><time>2026-06-28T16:27:12Z</time></trkpt><trkpt lat="51.717505" lon="-116.507486"><ele>2114.642</ele><time>2026-06-28T16:27:21Z</time></trkpt><trkpt lat="51.71745" lon="-116.507455"><ele>2115.426</ele><time>2026-06-28T16:27:29Z</time></trkpt><trkpt lat="51.717436" lon="-116.507443"><ele>2114.809</ele><time>2026-06-28T16:27:36Z</time></trkpt><trkpt lat="51.717363" lon="-116.5074"><ele>2115.428</ele><time>2026-06-28T16:27:45Z</time></trkpt><trkpt lat="51.717353" lon="-116.507396"><ele>2115.623</ele><time>2026-06-28T16:27:46Z</time></trkpt><trkpt lat="51.717311" lon="-116.50739"><ele>2115.487</ele><time>2026-06-28T16:27:53Z</time></trkpt><trkpt lat="51.717251" lon="-116.507395"><ele>2115.823</ele><time>2026-06-28T16:28:01Z</time></trkpt><trkpt lat="51.717219" lon="-116.507379"><ele>2116.051</ele><time>2026-06-28T16:28:09Z</time></trkpt><trkpt lat="51.717218" lon="-116.507397"><ele>2115.833</ele><time>2026-06-28T16:28:16Z</time></trkpt><trkpt lat="51.717213" lon="-116.507396"><ele>2116.046</ele><time>2026-06-28T16:28:27Z</time></trkpt><trkpt lat="51.717197" lon="-116.507388"><ele>2116.253</ele><time>2026-06-28T16:28:37Z</time></trkpt><trkpt lat="51.71716" lon="-116.507375"><ele>2116.466</ele><time>2026-06-28T16:28:46Z</time></trkpt><trkpt lat="51.717152" lon="-116.507371"><ele>2116.864</ele><time>2026-06-28T16:28:48Z</time></trkpt><trkpt lat="51.717137" lon="-116.507367"><ele>2116.806</ele><time>2026-06-28T16:28:56Z</time></trkpt><trkpt lat="51.717131" lon="-116.507365"><ele>2116.616</ele><time>2026-06-28T16:28:57Z</time></trkpt><trkpt lat="51.717093" lon="-116.507336"><ele>2117.409</ele><time>2026-06-28T16:29:03Z</time></trkpt><trkpt lat="51.717076" lon="-116.507321"><ele>2117.698</ele><time>2026-06-28T16:29:06Z</time></trkpt><trkpt lat="51.717062" lon="-116.507312"><ele>2117.883</ele><time>2026-06-28T16:29:08Z</time></trkpt><trkpt lat="51.717026" lon="-116.507277"><ele>2118.047</ele><time>2026-06-28T16:29:17Z</time></trkpt><trkpt lat="51.717022" lon="-116.507272"><ele>2117.813</ele><time>2026-06-28T16:29:26Z</time></trkpt><trkpt lat="51.717019" lon="-116.507287"><ele>2118.041</ele><time>2026-06-28T16:29:32Z</time></trkpt><trkpt lat="51.717016" lon="-116.507283"><ele>2118.483</ele><time>2026-06-28T16:29:34Z</time></trkpt><trkpt lat="51.717014" lon="-116.507283"><ele>2118.656</ele><time>2026-06-28T16:29:35Z</time></trkpt><trkpt lat="51.716995" lon="-116.507277"><ele>2117.863</ele><time>2026-06-28T16:29:44Z</time></trkpt><trkpt lat="51.716935" lon="-116.507226"><ele>2118.866</ele><time>2026-06-28T16:29:53Z</time></trkpt><trkpt lat="51.716922" lon="-116.507211"><ele>2119.265</ele><time>2026-06-28T16:29:55Z</time></trkpt><trkpt lat="51.716907" lon="-116.507194"><ele>2119.868</ele><time>2026-06-28T16:29:57Z</time></trkpt><trkpt lat="51.71687" lon="-116.507177"><ele>2120.614</ele><time>2026-06-28T16:30:01Z</time></trkpt><trkpt lat="51.716844" lon="-116.50717"><ele>2120.609</ele><time>2026-06-28T16:30:04Z</time></trkpt><trkpt lat="51.716823" lon="-116.507161"><ele>2120.418</ele><time>2026-06-28T16:30:07Z</time></trkpt><trkpt lat="51.716782" lon="-116.507127"><ele>2121.063</ele><time>2026-06-28T16:30:13Z</time></trkpt><trkpt lat="51.716756" lon="-116.507101"><ele>2121.477</ele><time>2026-06-28T16:30:17Z</time></trkpt><trkpt lat="51.716742" lon="-116.507092"><ele>2122.053</ele><time>2026-06-28T16:30:19Z</time></trkpt><trkpt lat="51.716718" lon="-116.507081"><ele>2123.081</ele><time>2026-06-28T16:30:22Z</time></trkpt><trkpt lat="51.716703" lon="-116.507076"><ele>2124.273</ele><time>2026-06-28T16:30:24Z</time></trkpt><trkpt lat="51.716677" lon="-116.507072"><ele>2124.846</ele><time>2026-06-28T16:30:28Z</time></trkpt><trkpt lat="51.716637" lon="-116.507073"><ele>2124.033</ele><time>2026-06-28T16:30:34Z</time></trkpt><trkpt lat="51.716626" lon="-116.507068"><ele>2123.886</ele><time>2026-06-28T16:30:37Z</time></trkpt><trkpt lat="51.716551" lon="-116.507095"><ele>2124.617</ele><time>2026-06-28T16:30:48Z</time></trkpt><trkpt lat="51.716526" lon="-116.507095"><ele>2125.287</ele><time>2026-06-28T16:30:53Z</time></trkpt><trkpt lat="51.716491" lon="-116.507083"><ele>2125.615</ele><time>2026-06-28T16:30:59Z</time></trkpt><trkpt lat="51.716398" lon="-116.507093"><ele>2125.609</ele><time>2026-06-28T16:31:10Z</time></trkpt><trkpt lat="51.716371" lon="-116.507086"><ele>2126.263</ele><time>2026-06-28T16:31:14Z</time></trkpt><trkpt lat="51.716344" lon="-116.507082"><ele>2127.418</ele><time>2026-06-28T16:31:17Z</time></trkpt><trkpt lat="51.716322" lon="-116.507068"><ele>2127.672</ele><time>2026-06-28T16:31:20Z</time></trkpt><trkpt lat="51.71627" lon="-116.507074"><ele>2127.418</ele><time>2026-06-28T16:31:30Z</time></trkpt><trkpt lat="51.716221" lon="-116.507097"><ele>2128.086</ele><time>2026-06-28T16:31:41Z</time></trkpt><trkpt lat="51.716138" lon="-116.507113"><ele>2128.098</ele><time>2026-06-28T16:31:52Z</time></trkpt><trkpt lat="51.716093" lon="-116.507095"><ele>2128.281</ele><time>2026-06-28T16:31:59Z</time></trkpt><trkpt lat="51.716087" lon="-116.507094"><ele>2128.498</ele><time>2026-06-28T16:32:00Z</time></trkpt><trkpt lat="51.716073" lon="-116.507095"><ele>2128.491</ele><time>2026-06-28T16:32:03Z</time></trkpt><trkpt lat="51.716056" lon="-116.507093"><ele>2128.485</ele><time>2026-06-28T16:32:10Z</time></trkpt><trkpt lat="51.716016" lon="-116.50709"><ele>2128.689</ele><time>2026-06-28T16:32:20Z</time></trkpt><trkpt lat="51.716008" lon="-116.507104"><ele>2129.017</ele><time>2026-06-28T16:32:26Z</time></trkpt><trkpt lat="51.716" lon="-116.507101"><ele>2128.809</ele><time>2026-06-28T16:32:30Z</time></trkpt><trkpt lat="51.715989" lon="-116.507095"><ele>2128.820</ele><time>2026-06-28T16:32:32Z</time></trkpt><trkpt lat="51.715937" lon="-116.507061"><ele>2129.455</ele><time>2026-06-28T16:32:38Z</time></trkpt><trkpt lat="51.715912" lon="-116.507048"><ele>2129.269</ele><time>2026-06-28T16:32:41Z</time></trkpt><trkpt lat="51.715866" lon="-116.507"><ele>2130.425</ele><time>2026-06-28T16:32:51Z</time></trkpt><trkpt lat="51.715865" lon="-116.506996"><ele>2130.653</ele><time>2026-06-28T16:32:52Z</time></trkpt><trkpt lat="51.715863" lon="-116.506983"><ele>2131.235</ele><time>2026-06-28T16:32:55Z</time></trkpt><trkpt lat="51.715855" lon="-116.506967"><ele>2131.638</ele><time>2026-06-28T16:32:57Z</time></trkpt><trkpt lat="51.715839" lon="-116.50693"><ele>2132.085</ele><time>2026-06-28T16:33:02Z</time></trkpt><trkpt lat="51.715792" lon="-116.506864"><ele>2132.658</ele><time>2026-06-28T16:33:13Z</time></trkpt><trkpt lat="51.715788" lon="-116.50686"><ele>2132.622</ele><time>2026-06-28T16:33:14Z</time></trkpt><trkpt lat="51.715775" lon="-116.506831"><ele>2133.862</ele><time>2026-06-28T16:33:22Z</time></trkpt><trkpt lat="51.715766" lon="-116.506821"><ele>2134.208</ele><time>2026-06-28T16:33:24Z</time></trkpt><trkpt lat="51.715733" lon="-116.506772"><ele>2134.809</ele><time>2026-06-28T16:33:32Z</time></trkpt><trkpt lat="51.715731" lon="-116.506766"><ele>2135.024</ele><time>2026-06-28T16:33:33Z</time></trkpt><trkpt lat="51.715725" lon="-116.506747"><ele>2136.039</ele><time>2026-06-28T16:33:39Z</time></trkpt><trkpt lat="51.715713" lon="-116.506741"><ele>2136.043</ele><time>2026-06-28T16:33:41Z</time></trkpt><trkpt lat="51.715611" lon="-116.50669"><ele>2137.039</ele><time>2026-06-28T16:33:53Z</time></trkpt><trkpt lat="51.715567" lon="-116.506691"><ele>2138.237</ele><time>2026-06-28T16:33:58Z</time></trkpt><trkpt lat="51.715518" lon="-116.506664"><ele>2139.219</ele><time>2026-06-28T16:34:04Z</time></trkpt><trkpt lat="51.715506" lon="-116.506654"><ele>2139.442</ele><time>2026-06-28T16:34:05Z</time></trkpt><trkpt lat="51.715462" lon="-116.506632"><ele>2140.419</ele><time>2026-06-28T16:34:09Z</time></trkpt><trkpt lat="51.7154" lon="-116.5066"><ele>2141.282</ele><time>2026-06-28T16:34:15Z</time></trkpt><trkpt lat="51.715374" lon="-116.506601"><ele>2141.642</ele><time>2026-06-28T16:34:18Z</time></trkpt><trkpt lat="51.715348" lon="-116.5066"><ele>2142.222</ele><time>2026-06-28T16:34:21Z</time></trkpt><trkpt lat="51.715339" lon="-116.506598"><ele>2142.614</ele><time>2026-06-28T16:34:22Z</time></trkpt><trkpt lat="51.71533" lon="-116.506589"><ele>2142.809</ele><time>2026-06-28T16:34:24Z</time></trkpt><trkpt lat="51.715319" lon="-116.506573"><ele>2142.616</ele><time>2026-06-28T16:34:26Z</time></trkpt><trkpt lat="51.715296" lon="-116.506545"><ele>2142.241</ele><time>2026-06-28T16:34:29Z</time></trkpt><trkpt lat="51.715259" lon="-116.506495"><ele>2143.685</ele><time>2026-06-28T16:34:36Z</time></trkpt><trkpt lat="51.715251" lon="-116.506491"><ele>2143.861</ele><time>2026-06-28T16:34:37Z</time></trkpt><trkpt lat="51.715221" lon="-116.50648"><ele>2144.229</ele><time>2026-06-28T16:34:46Z</time></trkpt><trkpt lat="51.715219" lon="-116.506481"><ele>2144.411</ele><time>2026-06-28T16:34:50Z</time></trkpt><trkpt lat="51.715214" lon="-116.506479"><ele>2144.444</ele><time>2026-06-28T16:34:52Z</time></trkpt><trkpt lat="51.715208" lon="-116.506474"><ele>2144.471</ele><time>2026-06-28T16:34:56Z</time></trkpt><trkpt lat="51.715178" lon="-116.506475"><ele>2144.814</ele><time>2026-06-28T16:35:00Z</time></trkpt><trkpt lat="51.715151" lon="-116.50647"><ele>2145.295</ele><time>2026-06-28T16:35:05Z</time></trkpt><trkpt lat="51.715151" lon="-116.506468"><ele>2145.649</ele><time>2026-06-28T16:35:07Z</time></trkpt><trkpt lat="51.715145" lon="-116.506471"><ele>2145.823</ele><time>2026-06-28T16:35:09Z</time></trkpt><trkpt lat="51.715143" lon="-116.506473"><ele>2145.809</ele><time>2026-06-28T16:35:10Z</time></trkpt><trkpt lat="51.715138" lon="-116.506476"><ele>2146.091</ele><time>2026-06-28T16:35:11Z</time></trkpt><trkpt lat="51.715137" lon="-116.506479"><ele>2146.076</ele><time>2026-06-28T16:35:12Z</time></trkpt><trkpt lat="51.715134" lon="-116.506482"><ele>2145.850</ele><time>2026-06-28T16:35:13Z</time></trkpt><trkpt lat="51.715136" lon="-116.506483"><ele>2145.486</ele><time>2026-06-28T16:35:19Z</time></trkpt><trkpt lat="51.715118" lon="-116.506474"><ele>2144.844</ele><time>2026-06-28T16:35:24Z</time></trkpt><trkpt lat="51.7151" lon="-116.506465"><ele>2145.016</ele><time>2026-06-28T16:35:28Z</time></trkpt><trkpt lat="51.715109" lon="-116.506447"><ele>2145.639</ele><time>2026-06-28T16:35:36Z</time></trkpt><trkpt lat="51.715112" lon="-116.506446"><ele>2145.666</ele><time>2026-06-28T16:35:38Z</time></trkpt><trkpt lat="51.715117" lon="-116.506431"><ele>2145.239</ele><time>2026-06-28T16:35:46Z</time></trkpt><trkpt lat="51.715117" lon="-116.506428"><ele>2145.227</ele><time>2026-06-28T16:35:47Z</time></trkpt><trkpt lat="51.71512" lon="-116.506453"><ele>2145.268</ele><time>2026-06-28T16:35:54Z</time></trkpt><trkpt lat="51.715114" lon="-116.506424"><ele>2145.814</ele><time>2026-06-28T16:36:00Z</time></trkpt><trkpt lat="51.71511" lon="-116.506417"><ele>2146.009</ele><time>2026-06-28T16:36:02Z</time></trkpt><trkpt lat="51.715087" lon="-116.506392"><ele>2146.494</ele><time>2026-06-28T16:36:08Z</time></trkpt><trkpt lat="51.715057" lon="-116.506395"><ele>2146.639</ele><time>2026-06-28T16:36:12Z</time></trkpt><trkpt lat="51.71502" lon="-116.506411"><ele>2146.453</ele><time>2026-06-28T16:36:17Z</time></trkpt><trkpt lat="51.714981" lon="-116.506422"><ele>2147.079</ele><time>2026-06-28T16:36:21Z</time></trkpt><trkpt lat="51.71493" lon="-116.506437"><ele>2147.447</ele><time>2026-06-28T16:36:27Z</time></trkpt><trkpt lat="51.714841" lon="-116.506468"><ele>2146.879</ele><time>2026-06-28T16:36:38Z</time></trkpt><trkpt lat="51.714785" lon="-116.506407"><ele>2146.812</ele><time>2026-06-28T16:36:48Z</time></trkpt><trkpt lat="51.714727" lon="-116.506373"><ele>2146.899</ele><time>2026-06-28T16:36:58Z</time></trkpt><trkpt lat="51.714724" lon="-116.506442"><ele>2146.862</ele><time>2026-06-28T16:37:03Z</time></trkpt><trkpt lat="51.714724" lon="-116.506457"><ele>2146.621</ele><time>2026-06-28T16:37:04Z</time></trkpt><trkpt lat="51.714724" lon="-116.506488"><ele>2146.041</ele><time>2026-06-28T16:37:06Z</time></trkpt><trkpt lat="51.714724" lon="-116.506504"><ele>2145.605</ele><time>2026-06-28T16:37:07Z</time></trkpt><trkpt lat="51.714706" lon="-116.506526"><ele>2146.009</ele><time>2026-06-28T16:37:13Z</time></trkpt><trkpt lat="51.714697" lon="-116.506558"><ele>2146.434</ele><time>2026-06-28T16:37:16Z</time></trkpt><trkpt lat="51.714694" lon="-116.50657"><ele>2146.429</ele><time>2026-06-28T16:37:17Z</time></trkpt><trkpt lat="51.714682" lon="-116.506623"><ele>2146.823</ele><time>2026-06-28T16:37:21Z</time></trkpt><trkpt lat="51.714661" lon="-116.506693"><ele>2148.049</ele><time>2026-06-28T16:37:27Z</time></trkpt><trkpt lat="51.714654" lon="-116.506716"><ele>2148.887</ele><time>2026-06-28T16:37:29Z</time></trkpt><trkpt lat="51.714651" lon="-116.506727"><ele>2149.229</ele><time>2026-06-28T16:37:30Z</time></trkpt><trkpt lat="51.714647" lon="-116.506738"><ele>2149.632</ele><time>2026-06-28T16:37:31Z</time></trkpt><trkpt lat="51.714609" lon="-116.506805"><ele>2150.219</ele><time>2026-06-28T16:37:39Z</time></trkpt><trkpt lat="51.714594" lon="-116.506822"><ele>2150.662</ele><time>2026-06-28T16:37:41Z</time></trkpt><trkpt lat="51.714577" lon="-116.506863"><ele>2151.278</ele><time>2026-06-28T16:37:44Z</time></trkpt><trkpt lat="51.714572" lon="-116.506878"><ele>2151.233</ele><time>2026-06-28T16:37:45Z</time></trkpt><trkpt lat="51.714566" lon="-116.506904"><ele>2151.426</ele><time>2026-06-28T16:37:47Z</time></trkpt><trkpt lat="51.714553" lon="-116.506946"><ele>2151.409</ele><time>2026-06-28T16:37:50Z</time></trkpt><trkpt lat="51.714541" lon="-116.507024"><ele>2152.499</ele><time>2026-06-28T16:37:55Z</time></trkpt><trkpt lat="51.714518" lon="-116.507122"><ele>2151.844</ele><time>2026-06-28T16:38:01Z</time></trkpt><trkpt lat="51.714459" lon="-116.507337"><ele>2152.848</ele><time>2026-06-28T16:38:14Z</time></trkpt><trkpt lat="51.714432" lon="-116.507461"><ele>2153.054</ele><time>2026-06-28T16:38:21Z</time></trkpt><trkpt lat="51.714413" lon="-116.507526"><ele>2152.642</ele><time>2026-06-28T16:38:25Z</time></trkpt><trkpt lat="51.714348" lon="-116.507665"><ele>2153.254</ele><time>2026-06-28T16:38:36Z</time></trkpt><trkpt lat="51.714341" lon="-116.50768"><ele>2153.477</ele><time>2026-06-28T16:38:37Z</time></trkpt><trkpt lat="51.714327" lon="-116.507716"><ele>2154.044</ele><time>2026-06-28T16:38:40Z</time></trkpt><trkpt lat="51.714333" lon="-116.507739"><ele>2154.277</ele><time>2026-06-28T16:38:43Z</time></trkpt><trkpt lat="51.714333" lon="-116.507761"><ele>2153.655</ele><time>2026-06-28T16:38:45Z</time></trkpt><trkpt lat="51.714333" lon="-116.507898"><ele>2152.607</ele><time>2026-06-28T16:38:54Z</time></trkpt><trkpt lat="51.714336" lon="-116.507913"><ele>2152.417</ele><time>2026-06-28T16:38:55Z</time></trkpt><trkpt lat="51.714339" lon="-116.507925"><ele>2152.209</ele><time>2026-06-28T16:38:56Z</time></trkpt><trkpt lat="51.714342" lon="-116.508"><ele>2151.217</ele><time>2026-06-28T16:39:03Z</time></trkpt><trkpt lat="51.71434" lon="-116.508012"><ele>2151.022</ele><time>2026-06-28T16:39:04Z</time></trkpt><trkpt lat="51.714336" lon="-116.508039"><ele>2150.426</ele><time>2026-06-28T16:39:06Z</time></trkpt><trkpt lat="51.714333" lon="-116.508068"><ele>2149.882</ele><time>2026-06-28T16:39:08Z</time></trkpt><trkpt lat="51.714322" lon="-116.508182"><ele>2148.630</ele><time>2026-06-28T16:39:14Z</time></trkpt><trkpt lat="51.714308" lon="-116.508207"><ele>2148.412</ele><time>2026-06-28T16:39:16Z</time></trkpt><trkpt lat="51.714236" lon="-116.508328"><ele>2148.235</ele><time>2026-06-28T16:39:26Z</time></trkpt><trkpt lat="51.714228" lon="-116.508352"><ele>2147.492</ele><time>2026-06-28T16:39:28Z</time></trkpt><trkpt lat="51.714209" lon="-116.508405"><ele>2146.255</ele><time>2026-06-28T16:39:32Z</time></trkpt><trkpt lat="51.714192" lon="-116.508482"><ele>2145.445</ele><time>2026-06-28T16:39:37Z</time></trkpt><trkpt lat="51.714167" lon="-116.508562"><ele>2145.047</ele><time>2026-06-28T16:39:43Z</time></trkpt><trkpt lat="51.714163" lon="-116.508601"><ele>2144.411</ele><time>2026-06-28T16:39:46Z</time></trkpt><trkpt lat="51.714162" lon="-116.508638"><ele>2143.809</ele><time>2026-06-28T16:39:48Z</time></trkpt><trkpt lat="51.714169" lon="-116.508699"><ele>2142.676</ele><time>2026-06-28T16:39:52Z</time></trkpt><trkpt lat="51.714159" lon="-116.50874"><ele>2141.461</ele><time>2026-06-28T16:39:55Z</time></trkpt><trkpt lat="51.714151" lon="-116.508752"><ele>2141.085</ele><time>2026-06-28T16:39:56Z</time></trkpt><trkpt lat="51.714139" lon="-116.508775"><ele>2140.241</ele><time>2026-06-28T16:39:58Z</time></trkpt><trkpt lat="51.714125" lon="-116.508882"><ele>2139.239</ele><time>2026-06-28T16:40:04Z</time></trkpt><trkpt lat="51.714121" lon="-116.50892"><ele>2138.691</ele><time>2026-06-28T16:40:06Z</time></trkpt><trkpt lat="51.714109" lon="-116.508969"><ele>2138.074</ele><time>2026-06-28T16:40:09Z</time></trkpt><trkpt lat="51.714083" lon="-116.509027"><ele>2136.891</ele><time>2026-06-28T16:40:13Z</time></trkpt><trkpt lat="51.714055" lon="-116.509062"><ele>2136.424</ele><time>2026-06-28T16:40:16Z</time></trkpt><trkpt lat="51.714003" lon="-116.509166"><ele>2135.825</ele><time>2026-06-28T16:40:24Z</time></trkpt><trkpt lat="51.713978" lon="-116.509197"><ele>2135.626</ele><time>2026-06-28T16:40:27Z</time></trkpt><trkpt lat="51.713944" lon="-116.509262"><ele>2134.608</ele><time>2026-06-28T16:40:32Z</time></trkpt><trkpt lat="51.713933" lon="-116.509326"><ele>2134.009</ele><time>2026-06-28T16:40:36Z</time></trkpt><trkpt lat="51.713945" lon="-116.509357"><ele>2133.244</ele><time>2026-06-28T16:40:38Z</time></trkpt><trkpt lat="51.713967" lon="-116.509378"><ele>2132.059</ele><time>2026-06-28T16:40:41Z</time></trkpt><trkpt lat="51.713976" lon="-116.509392"><ele>2131.623</ele><time>2026-06-28T16:40:42Z</time></trkpt><trkpt lat="51.714008" lon="-116.509429"><ele>2131.459</ele><time>2026-06-28T16:40:46Z</time></trkpt><trkpt lat="51.714025" lon="-116.509439"><ele>2131.697</ele><time>2026-06-28T16:40:50Z</time></trkpt><trkpt lat="51.714023" lon="-116.509438"><ele>2131.819</ele><time>2026-06-28T16:41:00Z</time></trkpt><trkpt lat="51.714025" lon="-116.509437"><ele>2131.882</ele><time>2026-06-28T16:41:08Z</time></trkpt><trkpt lat="51.714001" lon="-116.509476"><ele>2131.679</ele><time>2026-06-28T16:41:19Z</time></trkpt><trkpt lat="51.714008" lon="-116.509495"><ele>2131.672</ele><time>2026-06-28T16:41:25Z</time></trkpt><trkpt lat="51.71401" lon="-116.509484"><ele>2131.653</ele><time>2026-06-28T16:41:35Z</time></trkpt><trkpt lat="51.714011" lon="-116.509486"><ele>2131.404</ele><time>2026-06-28T16:41:41Z</time></trkpt><trkpt lat="51.714011" lon="-116.509503"><ele>2131.614</ele><time>2026-06-28T16:41:47Z</time></trkpt><trkpt lat="51.714009" lon="-116.509499"><ele>2132.009</ele><time>2026-06-28T16:41:49Z</time></trkpt><trkpt lat="51.714" lon="-116.50947"><ele>2131.897</ele><time>2026-06-28T16:41:54Z</time></trkpt><trkpt lat="51.713989" lon="-116.509474"><ele>2132.492</ele><time>2026-06-28T16:42:01Z</time></trkpt><trkpt lat="51.713991" lon="-116.509478"><ele>2132.616</ele><time>2026-06-28T16:42:12Z</time></trkpt><trkpt lat="51.713991" lon="-116.509478"><ele>2131.812</ele><time>2026-06-28T16:42:28Z</time></trkpt><trkpt lat="51.713992" lon="-116.509483"><ele>2131.490</ele><time>2026-06-28T16:42:42Z</time></trkpt><trkpt lat="51.713991" lon="-116.509478"><ele>2131.612</ele><time>2026-06-28T16:42:53Z</time></trkpt><trkpt lat="51.713993" lon="-116.509482"><ele>2131.635</ele><time>2026-06-28T16:42:55Z</time></trkpt><trkpt lat="51.713986" lon="-116.509462"><ele>2131.682</ele><time>2026-06-28T16:42:57Z</time></trkpt><trkpt lat="51.713984" lon="-116.509456"><ele>2131.865</ele><time>2026-06-28T16:42:58Z</time></trkpt><trkpt lat="51.713982" lon="-116.509442"><ele>2132.641</ele><time>2026-06-28T16:43:05Z</time></trkpt><trkpt lat="51.713973" lon="-116.509434"><ele>2131.681</ele><time>2026-06-28T16:43:11Z</time></trkpt><trkpt lat="51.713986" lon="-116.509459"><ele>2131.809</ele><time>2026-06-28T16:43:17Z</time></trkpt><trkpt lat="51.713987" lon="-116.509456"><ele>2132.209</ele><time>2026-06-28T16:43:26Z</time></trkpt><trkpt lat="51.713986" lon="-116.509456"><ele>2132.276</ele><time>2026-06-28T16:43:27Z</time></trkpt><trkpt lat="51.713997" lon="-116.509428"><ele>2132.451</ele><time>2026-06-28T16:43:28Z</time></trkpt><trkpt lat="51.714003" lon="-116.509405"><ele>2132.095</ele><time>2026-06-28T16:43:32Z</time></trkpt><trkpt lat="51.714008" lon="-116.509414"><ele>2132.241</ele><time>2026-06-28T16:43:38Z</time></trkpt><trkpt lat="51.71402" lon="-116.509437"><ele>2132.219</ele><time>2026-06-28T16:43:40Z</time></trkpt><trkpt lat="51.713992" lon="-116.509438"><ele>2131.851</ele><time>2026-06-28T16:43:45Z</time></trkpt><trkpt lat="51.713989" lon="-116.509435"><ele>2131.634</ele><time>2026-06-28T16:43:48Z</time></trkpt><trkpt lat="51.713989" lon="-116.509435"><ele>2131.691</ele><time>2026-06-28T16:43:51Z</time></trkpt><trkpt lat="51.713987" lon="-116.509465"><ele>2131.264</ele><time>2026-06-28T16:43:58Z</time></trkpt><trkpt lat="51.714002" lon="-116.509511"><ele>2131.434</ele><time>2026-06-28T16:44:03Z</time></trkpt><trkpt lat="51.714004" lon="-116.509503"><ele>2131.855</ele><time>2026-06-28T16:44:07Z</time></trkpt><trkpt lat="51.714009" lon="-116.509492"><ele>2131.810</ele><time>2026-06-28T16:44:19Z</time></trkpt><trkpt lat="51.714005" lon="-116.509512"><ele>2132.009</ele><time>2026-06-28T16:44:30Z</time></trkpt><trkpt lat="51.714001" lon="-116.509507"><ele>2131.625</ele><time>2026-06-28T16:44:39Z</time></trkpt><trkpt lat="51.713999" lon="-116.509449"><ele>2131.050</ele><time>2026-06-28T16:44:46Z</time></trkpt><trkpt lat="51.713998" lon="-116.509449"><ele>2131.224</ele><time>2026-06-28T16:44:49Z</time></trkpt><trkpt lat="51.713998" lon="-116.509449"><ele>2131.080</ele><time>2026-06-28T16:44:57Z</time></trkpt><trkpt lat="51.713998" lon="-116.509449"><ele>2130.838</ele><time>2026-06-28T16:44:58Z</time></trkpt><trkpt lat="51.713998" lon="-116.509449"><ele>2131.060</ele><time>2026-06-28T16:45:12Z</time></trkpt><trkpt lat="51.714002" lon="-116.509457"><ele>2131.223</ele><time>2026-06-28T16:45:22Z</time></trkpt><trkpt lat="51.714005" lon="-116.509453"><ele>2131.490</ele><time>2026-06-28T16:45:24Z</time></trkpt><trkpt lat="51.714009" lon="-116.509469"><ele>2131.463</ele><time>2026-06-28T16:45:29Z</time></trkpt><trkpt lat="51.714011" lon="-116.509466"><ele>2131.092</ele><time>2026-06-28T16:45:34Z</time></trkpt><trkpt lat="51.714008" lon="-116.509463"><ele>2131.273</ele><time>2026-06-28T16:45:39Z</time></trkpt><trkpt lat="51.714008" lon="-116.509464"><ele>2131.220</ele><time>2026-06-28T16:45:41Z</time></trkpt><trkpt lat="51.714006" lon="-116.50947"><ele>2131.009</ele><time>2026-06-28T16:45:43Z</time></trkpt><trkpt lat="51.71401" lon="-116.509448"><ele>2131.681</ele><time>2026-06-28T16:45:49Z</time></trkpt><trkpt lat="51.714021" lon="-116.509426"><ele>2131.476</ele><time>2026-06-28T16:45:53Z</time></trkpt><trkpt lat="51.714007" lon="-116.509455"><ele>2130.820</ele><time>2026-06-28T16:45:59Z</time></trkpt><trkpt lat="51.714" lon="-116.509454"><ele>2130.836</ele><time>2026-06-28T16:46:04Z</time></trkpt><trkpt lat="51.713997" lon="-116.509461"><ele>2131.014</ele><time>2026-06-28T16:46:07Z</time></trkpt><trkpt lat="51.714005" lon="-116.509452"><ele>2131.876</ele><time>2026-06-28T16:46:14Z</time></trkpt><trkpt lat="51.713995" lon="-116.509463"><ele>2131.269</ele><time>2026-06-28T16:46:20Z</time></trkpt><trkpt lat="51.713995" lon="-116.509464"><ele>2130.876</ele><time>2026-06-28T16:46:24Z</time></trkpt><trkpt lat="51.714011" lon="-116.509466"><ele>2130.439</ele><time>2026-06-28T16:46:30Z</time></trkpt><trkpt lat="51.714011" lon="-116.509466"><ele>2130.689</ele><time>2026-06-28T16:46:33Z</time></trkpt><trkpt lat="51.714011" lon="-116.509466"><ele>2130.806</ele><time>2026-06-28T16:46:46Z</time></trkpt><trkpt lat="51.714011" lon="-116.509466"><ele>2131.026</ele><time>2026-06-28T16:46:51Z</time></trkpt><trkpt lat="51.714" lon="-116.509472"><ele>2131.209</ele><time>2026-06-28T16:46:53Z</time></trkpt><trkpt lat="51.713996" lon="-116.50947"><ele>2131.690</ele><time>2026-06-28T16:46:55Z</time></trkpt><trkpt lat="51.713995" lon="-116.509473"><ele>2132.015</ele><time>2026-06-28T16:46:58Z</time></trkpt><trkpt lat="51.713994" lon="-116.509474"><ele>2131.869</ele><time>2026-06-28T16:47:03Z</time></trkpt><trkpt lat="51.713995" lon="-116.509474"><ele>2131.415</ele><time>2026-06-28T16:47:13Z</time></trkpt><trkpt lat="51.713995" lon="-116.509474"><ele>2131.493</ele><time>2026-06-28T16:47:27Z</time></trkpt><trkpt lat="51.713995" lon="-116.509474"><ele>2131.425</ele><time>2026-06-28T16:47:31Z</time></trkpt><trkpt lat="51.713995" lon="-116.509474"><ele>2131.258</ele><time>2026-06-28T16:47:40Z</time></trkpt><trkpt lat="51.713995" lon="-116.509474"><ele>2131.295</ele><time>2026-06-28T16:47:49Z</time></trkpt><trkpt lat="51.713995" lon="-116.509474"><ele>2130.848</ele><time>2026-06-28T16:47:52Z</time></trkpt><trkpt lat="51.713995" lon="-116.509474"><ele>2130.626</ele><time>2026-06-28T16:47:54Z</time></trkpt><trkpt lat="51.713995" lon="-116.509474"><ele>2130.247</ele><time>2026-06-28T16:47:56Z</time></trkpt><trkpt lat="51.713995" lon="-116.509474"><ele>2130.611</ele><time>2026-06-28T16:48:09Z</time></trkpt><trkpt lat="51.713995" lon="-116.509474"><ele>2130.609</ele><time>2026-06-28T16:48:29Z</time></trkpt><trkpt lat="51.713995" lon="-116.509474"><ele>2131.094</ele><time>2026-06-28T16:48:38Z</time></trkpt><trkpt lat="51.713995" lon="-116.509474"><ele>2130.899</ele><time>2026-06-28T16:48:48Z</time></trkpt><trkpt lat="51.713995" lon="-116.509474"><ele>2131.043</ele><time>2026-06-28T16:49:03Z</time></trkpt><trkpt lat="51.713995" lon="-116.509474"><ele>2130.899</ele><time>2026-06-28T16:49:17Z</time></trkpt><trkpt lat="51.713995" lon="-116.509474"><ele>2130.847</ele><time>2026-06-28T16:49:18Z</time></trkpt><trkpt lat="51.713995" lon="-116.509474"><ele>2130.859</ele><time>2026-06-28T16:49:19Z</time></trkpt><trkpt lat="51.713995" lon="-116.509474"><ele>2130.662</ele><time>2026-06-28T16:49:24Z</time></trkpt><trkpt lat="51.713995" lon="-116.509474"><ele>2131.079</ele><time>2026-06-28T16:49:46Z</time></trkpt><trkpt lat="51.713995" lon="-116.509474"><ele>2130.852</ele><time>2026-06-28T16:49:55Z</time></trkpt><trkpt lat="51.713995" lon="-116.509474"><ele>2130.627</ele><time>2026-06-28T16:49:57Z</time></trkpt><trkpt lat="51.713995" lon="-116.509474"><ele>2130.668</ele><time>2026-06-28T16:49:58Z</time></trkpt><trkpt lat="51.713995" lon="-116.509474"><ele>2130.614</ele><time>2026-06-28T16:49:59Z</time></trkpt><trkpt lat="51.713995" lon="-116.509474"><ele>2130.809</ele><time>2026-06-28T16:50:06Z</time></trkpt><trkpt lat="51.713995" lon="-116.509474"><ele>2130.854</ele><time>2026-06-28T16:50:19Z</time></trkpt><trkpt lat="51.713995" lon="-116.509474"><ele>2131.079</ele><time>2026-06-28T16:50:28Z</time></trkpt><trkpt lat="51.713995" lon="-116.509474"><ele>2131.213</ele><time>2026-06-28T16:50:38Z</time></trkpt><trkpt lat="51.713995" lon="-116.509474"><ele>2130.619</ele><time>2026-06-28T16:50:49Z</time></trkpt><trkpt lat="51.713982" lon="-116.509467"><ele>2131.087</ele><time>2026-06-28T16:50:59Z</time></trkpt><trkpt lat="51.713982" lon="-116.509469"><ele>2131.279</ele><time>2026-06-28T16:51:13Z</time></trkpt><trkpt lat="51.713982" lon="-116.509469"><ele>2131.032</ele><time>2026-06-28T16:51:18Z</time></trkpt><trkpt lat="51.713982" lon="-116.509469"><ele>2131.269</ele><time>2026-06-28T16:51:30Z</time></trkpt><trkpt lat="51.713982" lon="-116.509469"><ele>2131.062</ele><time>2026-06-28T16:51:37Z</time></trkpt><trkpt lat="51.713982" lon="-116.509469"><ele>2131.291</ele><time>2026-06-28T16:51:45Z</time></trkpt><trkpt lat="51.713982" lon="-116.509469"><ele>2131.081</ele><time>2026-06-28T16:51:48Z</time></trkpt><trkpt lat="51.713982" lon="-116.509469"><ele>2131.019</ele><time>2026-06-28T16:51:49Z</time></trkpt><trkpt lat="51.713982" lon="-116.509469"><ele>2131.009</ele><time>2026-06-28T16:51:50Z</time></trkpt><trkpt lat="51.713982" lon="-116.509467"><ele>2131.211</ele><time>2026-06-28T16:52:06Z</time></trkpt><trkpt lat="51.713986" lon="-116.509469"><ele>2131.486</ele><time>2026-06-28T16:52:09Z</time></trkpt><trkpt lat="51.713982" lon="-116.509468"><ele>2131.240</ele><time>2026-06-28T16:52:12Z</time></trkpt><trkpt lat="51.713981" lon="-116.509469"><ele>2131.046</ele><time>2026-06-28T16:52:14Z</time></trkpt><trkpt lat="51.713982" lon="-116.509469"><ele>2130.864</ele><time>2026-06-28T16:52:25Z</time></trkpt><trkpt lat="51.713982" lon="-116.509469"><ele>2131.456</ele><time>2026-06-28T16:52:37Z</time></trkpt><trkpt lat="51.713982" lon="-116.509469"><ele>2131.449</ele><time>2026-06-28T16:52:55Z</time></trkpt><trkpt lat="51.713982" lon="-116.509469"><ele>2131.246</ele><time>2026-06-28T16:53:05Z</time></trkpt><trkpt lat="51.713982" lon="-116.509469"><ele>2131.289</ele><time>2026-06-28T16:53:10Z</time></trkpt><trkpt lat="51.713982" lon="-116.509469"><ele>2131.257</ele><time>2026-06-28T16:53:18Z</time></trkpt><trkpt lat="51.713982" lon="-116.509469"><ele>2131.200</ele><time>2026-06-28T16:53:19Z</time></trkpt><trkpt lat="51.713982" lon="-116.509469"><ele>2131.020</ele><time>2026-06-28T16:53:25Z</time></trkpt><trkpt lat="51.714" lon="-116.509477"><ele>2131.209</ele><time>2026-06-28T16:53:36Z</time></trkpt><trkpt lat="51.714" lon="-116.509477"><ele>2131.037</ele><time>2026-06-28T16:54:05Z</time></trkpt><trkpt lat="51.714" lon="-116.509477"><ele>2131.462</ele><time>2026-06-28T16:54:19Z</time></trkpt><trkpt lat="51.714" lon="-116.509477"><ele>2131.686</ele><time>2026-06-28T16:54:27Z</time></trkpt><trkpt lat="51.714" lon="-116.509477"><ele>2131.222</ele><time>2026-06-28T16:54:37Z</time></trkpt><trkpt lat="51.714" lon="-116.509477"><ele>2131.090</ele><time>2026-06-28T16:54:40Z</time></trkpt><trkpt lat="51.714" lon="-116.509477"><ele>2130.812</ele><time>2026-06-28T16:54:45Z</time></trkpt><trkpt lat="51.714" lon="-116.509477"><ele>2130.835</ele><time>2026-06-28T16:54:49Z</time></trkpt><trkpt lat="51.714" lon="-116.509477"><ele>2130.692</ele><time>2026-06-28T16:55:01Z</time></trkpt><trkpt lat="51.713993" lon="-116.509462"><ele>2131.275</ele><time>2026-06-28T16:55:08Z</time></trkpt><trkpt lat="51.713981" lon="-116.509469"><ele>2131.496</ele><time>2026-06-28T16:55:19Z</time></trkpt><trkpt lat="51.713982" lon="-116.50947"><ele>2131.031</ele><time>2026-06-28T16:55:31Z</time></trkpt><trkpt lat="51.713982" lon="-116.50947"><ele>2131.424</ele><time>2026-06-28T16:55:51Z</time></trkpt><trkpt lat="51.713982" lon="-116.50947"><ele>2131.409</ele><time>2026-06-28T16:55:56Z</time></trkpt><trkpt lat="51.713982" lon="-116.50947"><ele>2131.461</ele><time>2026-06-28T16:55:57Z</time></trkpt><trkpt lat="51.713982" lon="-116.50947"><ele>2131.296</ele><time>2026-06-28T16:56:10Z</time></trkpt><trkpt lat="51.713982" lon="-116.50947"><ele>2131.250</ele><time>2026-06-28T16:56:11Z</time></trkpt><trkpt lat="51.713982" lon="-116.50947"><ele>2131.086</ele><time>2026-06-28T16:56:23Z</time></trkpt><trkpt lat="51.713982" lon="-116.50947"><ele>2130.824</ele><time>2026-06-28T16:56:26Z</time></trkpt><trkpt lat="51.713982" lon="-116.50947"><ele>2131.236</ele><time>2026-06-28T16:56:30Z</time></trkpt><trkpt lat="51.71401" lon="-116.509455"><ele>2131.869</ele><time>2026-06-28T16:56:37Z</time></trkpt><trkpt lat="51.714033" lon="-116.509455"><ele>2131.086</ele><time>2026-06-28T16:56:44Z</time></trkpt><trkpt lat="51.714034" lon="-116.509458"><ele>2130.499</ele><time>2026-06-28T16:56:45Z</time></trkpt><trkpt lat="51.714029" lon="-116.509457"><ele>2131.051</ele><time>2026-06-28T16:56:56Z</time></trkpt><trkpt lat="51.713999" lon="-116.509459"><ele>2131.401</ele><time>2026-06-28T16:57:02Z</time></trkpt><trkpt lat="51.714004" lon="-116.509463"><ele>2131.611</ele><time>2026-06-28T16:57:06Z</time></trkpt><trkpt lat="51.714014" lon="-116.509473"><ele>2131.809</ele><time>2026-06-28T16:57:08Z</time></trkpt><trkpt lat="51.714018" lon="-116.509484"><ele>2131.657</ele><time>2026-06-28T16:57:09Z</time></trkpt><trkpt lat="51.714022" lon="-116.509508"><ele>2131.282</ele><time>2026-06-28T16:57:16Z</time></trkpt><trkpt lat="51.714022" lon="-116.509508"><ele>2131.236</ele><time>2026-06-28T16:57:17Z</time></trkpt><trkpt lat="51.714011" lon="-116.509479"><ele>2131.812</ele><time>2026-06-28T16:57:24Z</time></trkpt><trkpt lat="51.714009" lon="-116.509475"><ele>2132.230</ele><time>2026-06-28T16:57:25Z</time></trkpt><trkpt lat="51.714007" lon="-116.509463"><ele>2132.622</ele><time>2026-06-28T16:57:27Z</time></trkpt><trkpt lat="51.714006" lon="-116.509453"><ele>2132.045</ele><time>2026-06-28T16:57:34Z</time></trkpt><trkpt lat="51.714006" lon="-116.509452"><ele>2131.662</ele><time>2026-06-28T16:57:37Z</time></trkpt><trkpt lat="51.713996" lon="-116.509432"><ele>2131.625</ele><time>2026-06-28T16:57:41Z</time></trkpt><trkpt lat="51.713996" lon="-116.509424"><ele>2131.629</ele><time>2026-06-28T16:57:50Z</time></trkpt><trkpt lat="51.713984" lon="-116.509387"><ele>2130.800</ele><time>2026-06-28T16:57:57Z</time></trkpt><trkpt lat="51.71397" lon="-116.509352"><ele>2131.820</ele><time>2026-06-28T16:58:03Z</time></trkpt><trkpt lat="51.713966" lon="-116.509349"><ele>2131.809</ele><time>2026-06-28T16:58:04Z</time></trkpt><trkpt lat="51.713953" lon="-116.50934"><ele>2132.484</ele><time>2026-06-28T16:58:09Z</time></trkpt><trkpt lat="51.713948" lon="-116.509334"><ele>2132.669</ele><time>2026-06-28T16:58:10Z</time></trkpt><trkpt lat="51.713944" lon="-116.50931"><ele>2133.293</ele><time>2026-06-28T16:58:14Z</time></trkpt><trkpt lat="51.713944" lon="-116.509278"><ele>2133.619</ele><time>2026-06-28T16:58:17Z</time></trkpt><trkpt lat="51.713952" lon="-116.509245"><ele>2134.697</ele><time>2026-06-28T16:58:21Z</time></trkpt><trkpt lat="51.713954" lon="-116.509239"><ele>2134.839</ele><time>2026-06-28T16:58:22Z</time></trkpt><trkpt lat="51.713979" lon="-116.50921"><ele>2135.052</ele><time>2026-06-28T16:58:29Z</time></trkpt><trkpt lat="51.714003" lon="-116.509174"><ele>2135.659</ele><time>2026-06-28T16:58:34Z</time></trkpt><trkpt lat="51.713998" lon="-116.509167"><ele>2135.642</ele><time>2026-06-28T16:58:38Z</time></trkpt><trkpt lat="51.714012" lon="-116.509156"><ele>2135.025</ele><time>2026-06-28T16:58:43Z</time></trkpt><trkpt lat="51.71403" lon="-116.509142"><ele>2135.826</ele><time>2026-06-28T16:58:48Z</time></trkpt><trkpt lat="51.714038" lon="-116.509105"><ele>2135.808</ele><time>2026-06-28T16:58:54Z</time></trkpt><trkpt lat="51.714045" lon="-116.50909"><ele>2135.609</ele><time>2026-06-28T16:58:58Z</time></trkpt><trkpt lat="51.714065" lon="-116.50908"><ele>2136.844</ele><time>2026-06-28T16:59:05Z</time></trkpt><trkpt lat="51.714069" lon="-116.509073"><ele>2137.059</ele><time>2026-06-28T16:59:06Z</time></trkpt><trkpt lat="51.714087" lon="-116.50904"><ele>2137.873</ele><time>2026-06-28T16:59:10Z</time></trkpt><trkpt lat="51.714103" lon="-116.508999"><ele>2137.039</ele><time>2026-06-28T16:59:18Z</time></trkpt><trkpt lat="51.714122" lon="-116.508947"><ele>2138.087</ele><time>2026-06-28T16:59:25Z</time></trkpt><trkpt lat="51.714128" lon="-116.508929"><ele>2138.649</ele><time>2026-06-28T16:59:27Z</time></trkpt><trkpt lat="51.714146" lon="-116.508892"><ele>2138.442</ele><time>2026-06-28T16:59:35Z</time></trkpt><trkpt lat="51.714142" lon="-116.508818"><ele>2139.449</ele><time>2026-06-28T16:59:43Z</time></trkpt><trkpt lat="51.714157" lon="-116.508785"><ele>2140.692</ele><time>2026-06-28T16:59:49Z</time></trkpt><trkpt lat="51.714164" lon="-116.508763"><ele>2141.079</ele><time>2026-06-28T16:59:51Z</time></trkpt><trkpt lat="51.714201" lon="-116.508714"><ele>2141.805</ele><time>2026-06-28T16:59:59Z</time></trkpt><trkpt lat="51.714219" lon="-116.508643"><ele>2142.625</ele><time>2026-06-28T17:00:07Z</time></trkpt><trkpt lat="51.714227" lon="-116.508629"><ele>2142.809</ele><time>2026-06-28T17:00:10Z</time></trkpt><trkpt lat="51.714237" lon="-116.508604"><ele>2143.099</ele><time>2026-06-28T17:00:16Z</time></trkpt><trkpt lat="51.714253" lon="-116.508564"><ele>2143.254</ele><time>2026-06-28T17:00:21Z</time></trkpt><trkpt lat="51.714265" lon="-116.50854"><ele>2143.428</ele><time>2026-06-28T17:00:24Z</time></trkpt><trkpt lat="51.714269" lon="-116.508531"><ele>2143.614</ele><time>2026-06-28T17:00:25Z</time></trkpt><trkpt lat="51.71428" lon="-116.508506"><ele>2144.052</ele><time>2026-06-28T17:00:29Z</time></trkpt><trkpt lat="51.714292" lon="-116.508477"><ele>2144.264</ele><time>2026-06-28T17:00:33Z</time></trkpt><trkpt lat="51.714315" lon="-116.50843"><ele>2143.817</ele><time>2026-06-28T17:00:40Z</time></trkpt><trkpt lat="51.71432" lon="-116.508375"><ele>2144.234</ele><time>2026-06-28T17:00:48Z</time></trkpt><trkpt lat="51.714323" lon="-116.508355"><ele>2145.067</ele><time>2026-06-28T17:00:52Z</time></trkpt><trkpt lat="51.714324" lon="-116.508332"><ele>2145.811</ele><time>2026-06-28T17:00:57Z</time></trkpt><trkpt lat="51.714336" lon="-116.508305"><ele>2146.021</ele><time>2026-06-28T17:01:03Z</time></trkpt><trkpt lat="51.714345" lon="-116.508281"><ele>2146.203</ele><time>2026-06-28T17:01:07Z</time></trkpt><trkpt lat="51.714373" lon="-116.508218"><ele>2145.609</ele><time>2026-06-28T17:01:15Z</time></trkpt><trkpt lat="51.714411" lon="-116.50814"><ele>2145.043</ele><time>2026-06-28T17:01:25Z</time></trkpt><trkpt lat="51.714445" lon="-116.508081"><ele>2145.828</ele><time>2026-06-28T17:01:35Z</time></trkpt><trkpt lat="51.714453" lon="-116.508049"><ele>2145.662</ele><time>2026-06-28T17:01:43Z</time></trkpt><trkpt lat="51.714455" lon="-116.508001"><ele>2146.068</ele><time>2026-06-28T17:01:53Z</time></trkpt><trkpt lat="51.714471" lon="-116.507934"><ele>2147.056</ele><time>2026-06-28T17:02:03Z</time></trkpt><trkpt lat="51.714484" lon="-116.507903"><ele>2145.838</ele><time>2026-06-28T17:02:12Z</time></trkpt><trkpt lat="51.714509" lon="-116.507826"><ele>2144.821</ele><time>2026-06-28T17:02:20Z</time></trkpt><trkpt lat="51.714517" lon="-116.507817"><ele>2144.838</ele><time>2026-06-28T17:02:21Z</time></trkpt><trkpt lat="51.714549" lon="-116.507764"><ele>2145.471</ele><time>2026-06-28T17:02:28Z</time></trkpt><trkpt lat="51.7146" lon="-116.507674"><ele>2145.625</ele><time>2026-06-28T17:02:37Z</time></trkpt><trkpt lat="51.714658" lon="-116.507596"><ele>2143.826</ele><time>2026-06-28T17:02:45Z</time></trkpt><trkpt lat="51.714712" lon="-116.507533"><ele>2143.208</ele><time>2026-06-28T17:02:53Z</time></trkpt><trkpt lat="51.714739" lon="-116.507506"><ele>2142.609</ele><time>2026-06-28T17:02:57Z</time></trkpt><trkpt lat="51.714791" lon="-116.50748"><ele>2141.614</ele><time>2026-06-28T17:03:02Z</time></trkpt><trkpt lat="51.7148" lon="-116.507476"><ele>2141.469</ele><time>2026-06-28T17:03:03Z</time></trkpt><trkpt lat="51.714894" lon="-116.507439"><ele>2141.213</ele><time>2026-06-28T17:03:12Z</time></trkpt><trkpt lat="51.714985" lon="-116.507386"><ele>2141.039</ele><time>2026-06-28T17:03:21Z</time></trkpt><trkpt lat="51.715014" lon="-116.507374"><ele>2140.287</ele><time>2026-06-28T17:03:24Z</time></trkpt><trkpt lat="51.715047" lon="-116.507345"><ele>2139.229</ele><time>2026-06-28T17:03:28Z</time></trkpt><trkpt lat="51.715056" lon="-116.507334"><ele>2138.822</ele><time>2026-06-28T17:03:29Z</time></trkpt><trkpt lat="51.715064" lon="-116.507325"><ele>2138.639</ele><time>2026-06-28T17:03:30Z</time></trkpt><trkpt lat="51.715087" lon="-116.507291"><ele>2138.062</ele><time>2026-06-28T17:03:33Z</time></trkpt><trkpt lat="51.715143" lon="-116.507226"><ele>2137.853</ele><time>2026-06-28T17:03:39Z</time></trkpt><trkpt lat="51.715225" lon="-116.507193"><ele>2137.604</ele><time>2026-06-28T17:03:48Z</time></trkpt><trkpt lat="51.715289" lon="-116.507169"><ele>2138.814</ele><time>2026-06-28T17:03:55Z</time></trkpt><trkpt lat="51.715372" lon="-116.507166"><ele>2138.609</ele><time>2026-06-28T17:04:04Z</time></trkpt><trkpt lat="51.715443" lon="-116.507145"><ele>2137.057</ele><time>2026-06-28T17:04:11Z</time></trkpt><trkpt lat="51.715468" lon="-116.507132"><ele>2137.622</ele><time>2026-06-28T17:04:14Z</time></trkpt><trkpt lat="51.715538" lon="-116.507126"><ele>2137.486</ele><time>2026-06-28T17:04:22Z</time></trkpt><trkpt lat="51.715597" lon="-116.507097"><ele>2137.042</ele><time>2026-06-28T17:04:29Z</time></trkpt><trkpt lat="51.715607" lon="-116.507116"><ele>2136.860</ele><time>2026-06-28T17:04:31Z</time></trkpt><trkpt lat="51.715639" lon="-116.507175"><ele>2136.092</ele><time>2026-06-28T17:04:36Z</time></trkpt><trkpt lat="51.715647" lon="-116.507185"><ele>2136.075</ele><time>2026-06-28T17:04:37Z</time></trkpt><trkpt lat="51.715692" lon="-116.507233"><ele>2134.862</ele><time>2026-06-28T17:04:43Z</time></trkpt><trkpt lat="51.715776" lon="-116.507203"><ele>2134.095</ele><time>2026-06-28T17:04:51Z</time></trkpt><trkpt lat="51.715796" lon="-116.507202"><ele>2134.037</ele><time>2026-06-28T17:04:54Z</time></trkpt><trkpt lat="51.715807" lon="-116.507207"><ele>2134.049</ele><time>2026-06-28T17:04:55Z</time></trkpt><trkpt lat="51.715829" lon="-116.507209"><ele>2133.613</ele><time>2026-06-28T17:04:57Z</time></trkpt><trkpt lat="51.715847" lon="-116.507198"><ele>2133.009</ele><time>2026-06-28T17:04:59Z</time></trkpt><trkpt lat="51.715876" lon="-116.507186"><ele>2132.465</ele><time>2026-06-28T17:05:02Z</time></trkpt><trkpt lat="51.715939" lon="-116.507103"><ele>2132.660</ele><time>2026-06-28T17:05:09Z</time></trkpt><trkpt lat="51.715957" lon="-116.507104"><ele>2132.834</ele><time>2026-06-28T17:05:11Z</time></trkpt><trkpt lat="51.716" lon="-116.507141"><ele>2132.860</ele><time>2026-06-28T17:05:16Z</time></trkpt><trkpt lat="51.716082" lon="-116.50715"><ele>2133.288</ele><time>2026-06-28T17:05:25Z</time></trkpt><trkpt lat="51.716078" lon="-116.50714"><ele>2132.850</ele><time>2026-06-28T17:05:30Z</time></trkpt><trkpt lat="51.71607" lon="-116.507111"><ele>2132.823</ele><time>2026-06-28T17:05:32Z</time></trkpt><trkpt lat="51.716068" lon="-116.507033"><ele>2133.640</ele><time>2026-06-28T17:05:36Z</time></trkpt><trkpt lat="51.71608" lon="-116.50702"><ele>2134.263</ele><time>2026-06-28T17:05:38Z</time></trkpt><trkpt lat="51.716085" lon="-116.50701"><ele>2134.438</ele><time>2026-06-28T17:05:39Z</time></trkpt><trkpt lat="51.7161" lon="-116.506985"><ele>2134.670</ele><time>2026-06-28T17:05:41Z</time></trkpt><trkpt lat="51.716126" lon="-116.506935"><ele>2135.217</ele><time>2026-06-28T17:05:45Z</time></trkpt><trkpt lat="51.716139" lon="-116.506904"><ele>2135.409</ele><time>2026-06-28T17:05:47Z</time></trkpt><trkpt lat="51.716149" lon="-116.506857"><ele>2135.885</ele><time>2026-06-28T17:05:50Z</time></trkpt><trkpt lat="51.716161" lon="-116.50676"><ele>2136.840</ele><time>2026-06-28T17:05:57Z</time></trkpt><trkpt lat="51.716217" lon="-116.506643"><ele>2137.444</ele><time>2026-06-28T17:06:06Z</time></trkpt><trkpt lat="51.71625" lon="-116.50662"><ele>2137.280</ele><time>2026-06-28T17:06:09Z</time></trkpt><trkpt lat="51.716297" lon="-116.506606"><ele>2136.698</ele><time>2026-06-28T17:06:13Z</time></trkpt><trkpt lat="51.716371" lon="-116.506628"><ele>2137.080</ele><time>2026-06-28T17:06:20Z</time></trkpt><trkpt lat="51.716433" lon="-116.506672"><ele>2135.833</ele><time>2026-06-28T17:06:26Z</time></trkpt><trkpt lat="51.716493" lon="-116.506759"><ele>2135.670</ele><time>2026-06-28T17:06:35Z</time></trkpt><trkpt lat="51.716499" lon="-116.506786"><ele>2134.853</ele><time>2026-06-28T17:06:41Z</time></trkpt><trkpt lat="51.716499" lon="-116.506789"><ele>2134.867</ele><time>2026-06-28T17:06:42Z</time></trkpt><trkpt lat="51.716497" lon="-116.506793"><ele>2134.481</ele><time>2026-06-28T17:06:44Z</time></trkpt><trkpt lat="51.716504" lon="-116.506813"><ele>2134.819</ele><time>2026-06-28T17:06:55Z</time></trkpt><trkpt lat="51.716525" lon="-116.506816"><ele>2134.809</ele><time>2026-06-28T17:07:03Z</time></trkpt><trkpt lat="51.716525" lon="-116.506816"><ele>2134.678</ele><time>2026-06-28T17:07:05Z</time></trkpt><trkpt lat="51.716544" lon="-116.506795"><ele>2134.613</ele><time>2026-06-28T17:07:09Z</time></trkpt><trkpt lat="51.716602" lon="-116.506776"><ele>2134.297</ele><time>2026-06-28T17:07:13Z</time></trkpt><trkpt lat="51.716636" lon="-116.50674"><ele>2133.653</ele><time>2026-06-28T17:07:17Z</time></trkpt><trkpt lat="51.716679" lon="-116.506719"><ele>2133.481</ele><time>2026-06-28T17:07:22Z</time></trkpt><trkpt lat="51.71674" lon="-116.506675"><ele>2133.283</ele><time>2026-06-28T17:07:29Z</time></trkpt><trkpt lat="51.716764" lon="-116.506652"><ele>2132.816</ele><time>2026-06-28T17:07:32Z</time></trkpt><trkpt lat="51.716779" lon="-116.506637"><ele>2132.643</ele><time>2026-06-28T17:07:34Z</time></trkpt><trkpt lat="51.716851" lon="-116.506558"><ele>2131.626</ele><time>2026-06-28T17:07:42Z</time></trkpt><trkpt lat="51.716867" lon="-116.506527"><ele>2131.651</ele><time>2026-06-28T17:07:44Z</time></trkpt><trkpt lat="51.7169" lon="-116.506467"><ele>2131.801</ele><time>2026-06-28T17:07:48Z</time></trkpt><trkpt lat="51.716906" lon="-116.506453"><ele>2131.811</ele><time>2026-06-28T17:07:49Z</time></trkpt><trkpt lat="51.716938" lon="-116.506373"><ele>2131.209</ele><time>2026-06-28T17:07:54Z</time></trkpt><trkpt lat="51.716967" lon="-116.506335"><ele>2131.077</ele><time>2026-06-28T17:08:00Z</time></trkpt><trkpt lat="51.71696" lon="-116.506351"><ele>2131.042</ele><time>2026-06-28T17:08:13Z</time></trkpt><trkpt lat="51.716935" lon="-116.506361"><ele>2131.016</ele><time>2026-06-28T17:08:17Z</time></trkpt><trkpt lat="51.716928" lon="-116.506364"><ele>2131.032</ele><time>2026-06-28T17:08:19Z</time></trkpt><trkpt lat="51.716936" lon="-116.506355"><ele>2131.010</ele><time>2026-06-28T17:08:24Z</time></trkpt><trkpt lat="51.716959" lon="-116.506293"><ele>2130.812</ele><time>2026-06-28T17:08:33Z</time></trkpt><trkpt lat="51.716993" lon="-116.50619"><ele>2130.415</ele><time>2026-06-28T17:08:38Z</time></trkpt><trkpt lat="51.717013" lon="-116.506138"><ele>2130.072</ele><time>2026-06-28T17:08:41Z</time></trkpt><trkpt lat="51.71704" lon="-116.506079"><ele>2129.495</ele><time>2026-06-28T17:08:46Z</time></trkpt><trkpt lat="51.717053" lon="-116.506047"><ele>2129.077</ele><time>2026-06-28T17:08:48Z</time></trkpt><trkpt lat="51.717049" lon="-116.505992"><ele>2129.661</ele><time>2026-06-28T17:08:54Z</time></trkpt><trkpt lat="51.717038" lon="-116.505976"><ele>2129.427</ele><time>2026-06-28T17:09:04Z</time></trkpt><trkpt lat="51.717038" lon="-116.505976"><ele>2129.009</ele><time>2026-06-28T17:09:12Z</time></trkpt><trkpt lat="51.717038" lon="-116.505976"><ele>2129.229</ele><time>2026-06-28T17:09:22Z</time></trkpt><trkpt lat="51.717052" lon="-116.505941"><ele>2129.214</ele><time>2026-06-28T17:09:29Z</time></trkpt><trkpt lat="51.71707" lon="-116.505878"><ele>2129.088</ele><time>2026-06-28T17:09:38Z</time></trkpt><trkpt lat="51.717093" lon="-116.505729"><ele>2128.234</ele><time>2026-06-28T17:09:47Z</time></trkpt><trkpt lat="51.717093" lon="-116.505711"><ele>2128.222</ele><time>2026-06-28T17:09:48Z</time></trkpt><trkpt lat="51.717086" lon="-116.505683"><ele>2127.864</ele><time>2026-06-28T17:09:51Z</time></trkpt><trkpt lat="51.717083" lon="-116.50569"><ele>2127.837</ele><time>2026-06-28T17:09:52Z</time></trkpt><trkpt lat="51.717082" lon="-116.505697"><ele>2127.894</ele><time>2026-06-28T17:09:54Z</time></trkpt><trkpt lat="51.7171" lon="-116.505685"><ele>2127.897</ele><time>2026-06-28T17:10:03Z</time></trkpt><trkpt lat="51.717101" lon="-116.505686"><ele>2127.811</ele><time>2026-06-28T17:10:21Z</time></trkpt><trkpt lat="51.717101" lon="-116.505686"><ele>2127.821</ele><time>2026-06-28T17:10:24Z</time></trkpt><trkpt lat="51.717102" lon="-116.505631"><ele>2127.803</ele><time>2026-06-28T17:10:38Z</time></trkpt><trkpt lat="51.717124" lon="-116.505572"><ele>2127.209</ele><time>2026-06-28T17:10:42Z</time></trkpt><trkpt lat="51.71714" lon="-116.505567"><ele>2126.863</ele><time>2026-06-28T17:10:44Z</time></trkpt><trkpt lat="51.717149" lon="-116.505576"><ele>2126.868</ele><time>2026-06-28T17:10:45Z</time></trkpt><trkpt lat="51.717155" lon="-116.50559"><ele>2126.672</ele><time>2026-06-28T17:10:46Z</time></trkpt><trkpt lat="51.71718" lon="-116.505659"><ele>2126.098</ele><time>2026-06-28T17:10:50Z</time></trkpt><trkpt lat="51.717211" lon="-116.505693"><ele>2125.646</ele><time>2026-06-28T17:10:54Z</time></trkpt><trkpt lat="51.717216" lon="-116.505687"><ele>2125.418</ele><time>2026-06-28T17:10:55Z</time></trkpt><trkpt lat="51.71722" lon="-116.505645"><ele>2125.081</ele><time>2026-06-28T17:10:58Z</time></trkpt><trkpt lat="51.717221" lon="-116.505614"><ele>2124.668</ele><time>2026-06-28T17:11:00Z</time></trkpt><trkpt lat="51.717222" lon="-116.505542"><ele>2124.011</ele><time>2026-06-28T17:11:05Z</time></trkpt><trkpt lat="51.71723" lon="-116.505471"><ele>2122.862</ele><time>2026-06-28T17:11:11Z</time></trkpt><trkpt lat="51.717233" lon="-116.505371"><ele>2121.883</ele><time>2026-06-28T17:11:16Z</time></trkpt><trkpt lat="51.717236" lon="-116.50528"><ele>2120.611</ele><time>2026-06-28T17:11:21Z</time></trkpt><trkpt lat="51.717244" lon="-116.505201"><ele>2119.409</ele><time>2026-06-28T17:11:25Z</time></trkpt><trkpt lat="51.717249" lon="-116.505126"><ele>2118.498</ele><time>2026-06-28T17:11:29Z</time></trkpt><trkpt lat="51.717248" lon="-116.505105"><ele>2118.293</ele><time>2026-06-28T17:11:30Z</time></trkpt><trkpt lat="51.717236" lon="-116.504975"><ele>2117.237</ele><time>2026-06-28T17:11:35Z</time></trkpt><trkpt lat="51.717233" lon="-116.504953"><ele>2117.233</ele><time>2026-06-28T17:11:36Z</time></trkpt><trkpt lat="51.71723" lon="-116.504779"><ele>2116.821</ele><time>2026-06-28T17:11:44Z</time></trkpt><trkpt lat="51.717229" lon="-116.504557"><ele>2117.043</ele><time>2026-06-28T17:11:55Z</time></trkpt><trkpt lat="51.717236" lon="-116.504403"><ele>2116.856</ele><time>2026-06-28T17:12:03Z</time></trkpt><trkpt lat="51.717256" lon="-116.504294"><ele>2116.063</ele><time>2026-06-28T17:12:09Z</time></trkpt><trkpt lat="51.717265" lon="-116.504239"><ele>2115.836</ele><time>2026-06-28T17:12:12Z</time></trkpt><trkpt lat="51.717268" lon="-116.504094"><ele>2115.076</ele><time>2026-06-28T17:12:19Z</time></trkpt><trkpt lat="51.717257" lon="-116.504024"><ele>2114.890</ele><time>2026-06-28T17:12:22Z</time></trkpt><trkpt lat="51.717239" lon="-116.503935"><ele>2114.819</ele><time>2026-06-28T17:12:27Z</time></trkpt><trkpt lat="51.717234" lon="-116.503906"><ele>2114.609</ele><time>2026-06-28T17:12:29Z</time></trkpt><trkpt lat="51.717221" lon="-116.503785"><ele>2114.029</ele><time>2026-06-28T17:12:36Z</time></trkpt><trkpt lat="51.717221" lon="-116.503747"><ele>2113.824</ele><time>2026-06-28T17:12:38Z</time></trkpt><trkpt lat="51.717221" lon="-116.503633"><ele>2113.828</ele><time>2026-06-28T17:12:44Z</time></trkpt><trkpt lat="51.717228" lon="-116.50355"><ele>2113.064</ele><time>2026-06-28T17:12:49Z</time></trkpt><trkpt lat="51.717243" lon="-116.503458"><ele>2112.612</ele><time>2026-06-28T17:12:54Z</time></trkpt><trkpt lat="51.717254" lon="-116.503383"><ele>2111.834</ele><time>2026-06-28T17:12:58Z</time></trkpt><trkpt lat="51.717255" lon="-116.503301"><ele>2110.897</ele><time>2026-06-28T17:13:02Z</time></trkpt><trkpt lat="51.717257" lon="-116.503263"><ele>2110.484</ele><time>2026-06-28T17:13:04Z</time></trkpt><trkpt lat="51.717284" lon="-116.503158"><ele>2110.657</ele><time>2026-06-28T17:13:11Z</time></trkpt><trkpt lat="51.717293" lon="-116.503111"><ele>2109.897</ele><time>2026-06-28T17:13:15Z</time></trkpt><trkpt lat="51.717298" lon="-116.503099"><ele>2109.623</ele><time>2026-06-28T17:13:17Z</time></trkpt><trkpt lat="51.717324" lon="-116.503028"><ele>2109.025</ele><time>2026-06-28T17:13:22Z</time></trkpt><trkpt lat="51.71733" lon="-116.503013"><ele>2108.609</ele><time>2026-06-28T17:13:23Z</time></trkpt><trkpt lat="51.717334" lon="-116.502996"><ele>2108.211</ele><time>2026-06-28T17:13:24Z</time></trkpt><trkpt lat="51.717352" lon="-116.502936"><ele>2107.286</ele><time>2026-06-28T17:13:28Z</time></trkpt><trkpt lat="51.717363" lon="-116.50287"><ele>2106.220</ele><time>2026-06-28T17:13:32Z</time></trkpt><trkpt lat="51.717369" lon="-116.50284"><ele>2105.676</ele><time>2026-06-28T17:13:34Z</time></trkpt><trkpt lat="51.717378" lon="-116.502787"><ele>2104.854</ele><time>2026-06-28T17:13:37Z</time></trkpt><trkpt lat="51.717362" lon="-116.502704"><ele>2103.836</ele><time>2026-06-28T17:13:41Z</time></trkpt><trkpt lat="51.71735" lon="-116.502667"><ele>2103.679</ele><time>2026-06-28T17:13:43Z</time></trkpt><trkpt lat="51.717329" lon="-116.502567"><ele>2103.066</ele><time>2026-06-28T17:13:49Z</time></trkpt><trkpt lat="51.717328" lon="-116.502548"><ele>2102.699</ele><time>2026-06-28T17:13:50Z</time></trkpt><trkpt lat="51.717321" lon="-116.502489"><ele>2102.075</ele><time>2026-06-28T17:13:53Z</time></trkpt><trkpt lat="51.717313" lon="-116.502453"><ele>2101.628</ele><time>2026-06-28T17:13:55Z</time></trkpt><trkpt lat="51.717291" lon="-116.502326"><ele>2100.420</ele><time>2026-06-28T17:14:02Z</time></trkpt><trkpt lat="51.717293" lon="-116.502287"><ele>2100.009</ele><time>2026-06-28T17:14:04Z</time></trkpt><trkpt lat="51.717303" lon="-116.502225"><ele>2099.499</ele><time>2026-06-28T17:14:07Z</time></trkpt><trkpt lat="51.717321" lon="-116.502118"><ele>2098.664</ele><time>2026-06-28T17:14:13Z</time></trkpt><trkpt lat="51.717317" lon="-116.502078"><ele>2098.218</ele><time>2026-06-28T17:14:15Z</time></trkpt><trkpt lat="51.717295" lon="-116.501942"><ele>2097.244</ele><time>2026-06-28T17:14:22Z</time></trkpt><trkpt lat="51.717289" lon="-116.501922"><ele>2097.072</ele><time>2026-06-28T17:14:23Z</time></trkpt><trkpt lat="51.717266" lon="-116.50183"><ele>2096.094</ele><time>2026-06-28T17:14:28Z</time></trkpt><trkpt lat="51.71725" lon="-116.50176"><ele>2094.847</ele><time>2026-06-28T17:14:32Z</time></trkpt><trkpt lat="51.717235" lon="-116.5017"><ele>2093.844</ele><time>2026-06-28T17:14:35Z</time></trkpt><trkpt lat="51.717189" lon="-116.501586"><ele>2092.817</ele><time>2026-06-28T17:14:42Z</time></trkpt><trkpt lat="51.71717" lon="-116.501539"><ele>2092.853</ele><time>2026-06-28T17:14:45Z</time></trkpt><trkpt lat="51.717127" lon="-116.501394"><ele>2093.004</ele><time>2026-06-28T17:14:53Z</time></trkpt><trkpt lat="51.7171" lon="-116.501241"><ele>2093.414</ele><time>2026-06-28T17:15:01Z</time></trkpt><trkpt lat="51.717097" lon="-116.501224"><ele>2093.409</ele><time>2026-06-28T17:15:02Z</time></trkpt><trkpt lat="51.717087" lon="-116.501171"><ele>2093.817</ele><time>2026-06-28T17:15:05Z</time></trkpt><trkpt lat="51.717089" lon="-116.501047"><ele>2093.692</ele><time>2026-06-28T17:15:11Z</time></trkpt><trkpt lat="51.717112" lon="-116.500862"><ele>2093.446</ele><time>2026-06-28T17:15:20Z</time></trkpt><trkpt lat="51.717115" lon="-116.500838"><ele>2093.042</ele><time>2026-06-28T17:15:21Z</time></trkpt><trkpt lat="51.717116" lon="-116.500816"><ele>2092.670</ele><time>2026-06-28T17:15:22Z</time></trkpt><trkpt lat="51.717115" lon="-116.500797"><ele>2092.462</ele><time>2026-06-28T17:15:23Z</time></trkpt><trkpt lat="51.717113" lon="-116.500775"><ele>2092.025</ele><time>2026-06-28T17:15:24Z</time></trkpt><trkpt lat="51.717091" lon="-116.500658"><ele>2092.212</ele><time>2026-06-28T17:15:30Z</time></trkpt><trkpt lat="51.717109" lon="-116.500492"><ele>2091.655</ele><time>2026-06-28T17:15:39Z</time></trkpt><trkpt lat="51.717112" lon="-116.500477"><ele>2091.272</ele><time>2026-06-28T17:15:40Z</time></trkpt><trkpt lat="51.717119" lon="-116.500425"><ele>2090.413</ele><time>2026-06-28T17:15:43Z</time></trkpt><trkpt lat="51.717116" lon="-116.500364"><ele>2090.014</ele><time>2026-06-28T17:15:46Z</time></trkpt><trkpt lat="51.717109" lon="-116.500293"><ele>2089.609</ele><time>2026-06-28T17:15:50Z</time></trkpt><trkpt lat="51.717107" lon="-116.500251"><ele>2089.469</ele><time>2026-06-28T17:15:52Z</time></trkpt><trkpt lat="51.717101" lon="-116.5001"><ele>2088.284</ele><time>2026-06-28T17:15:59Z</time></trkpt><trkpt lat="51.717098" lon="-116.50008"><ele>2088.258</ele><time>2026-06-28T17:16:00Z</time></trkpt><trkpt lat="51.717069" lon="-116.499906"><ele>2087.634</ele><time>2026-06-28T17:16:08Z</time></trkpt><trkpt lat="51.717059" lon="-116.499853"><ele>2087.622</ele><time>2026-06-28T17:16:11Z</time></trkpt><trkpt lat="51.71701" lon="-116.499646"><ele>2087.464</ele><time>2026-06-28T17:16:21Z</time></trkpt><trkpt lat="51.716946" lon="-116.49955"><ele>2088.447</ele><time>2026-06-28T17:16:28Z</time></trkpt><trkpt lat="51.716936" lon="-116.49951"><ele>2088.684</ele><time>2026-06-28T17:16:30Z</time></trkpt><trkpt lat="51.716958" lon="-116.49938"><ele>2088.497</ele><time>2026-06-28T17:16:37Z</time></trkpt><trkpt lat="51.716966" lon="-116.499362"><ele>2088.424</ele><time>2026-06-28T17:16:38Z</time></trkpt><trkpt lat="51.716971" lon="-116.499222"><ele>2088.404</ele><time>2026-06-28T17:16:45Z</time></trkpt><trkpt lat="51.716955" lon="-116.499185"><ele>2088.614</ele><time>2026-06-28T17:16:47Z</time></trkpt><trkpt lat="51.716867" lon="-116.498997"><ele>2089.009</ele><time>2026-06-28T17:16:59Z</time></trkpt><trkpt lat="51.716814" lon="-116.498891"><ele>2089.474</ele><time>2026-06-28T17:17:06Z</time></trkpt><trkpt lat="51.71677" lon="-116.498797"><ele>2089.839</ele><time>2026-06-28T17:17:12Z</time></trkpt><trkpt lat="51.716679" lon="-116.498593"><ele>2090.643</ele><time>2026-06-28T17:17:24Z</time></trkpt><trkpt lat="51.716633" lon="-116.498446"><ele>2090.899</ele><time>2026-06-28T17:17:35Z</time></trkpt><trkpt lat="51.716631" lon="-116.498387"><ele>2090.877</ele><time>2026-06-28T17:17:42Z</time></trkpt><trkpt lat="51.716628" lon="-116.49839"><ele>2091.089</ele><time>2026-06-28T17:17:47Z</time></trkpt><trkpt lat="51.716631" lon="-116.498381"><ele>2091.042</ele><time>2026-06-28T17:17:50Z</time></trkpt><trkpt lat="51.716645" lon="-116.498378"><ele>2090.839</ele><time>2026-06-28T17:18:00Z</time></trkpt><trkpt lat="51.716645" lon="-116.498377"><ele>2090.862</ele><time>2026-06-28T17:18:01Z</time></trkpt><trkpt lat="51.716646" lon="-116.498396"><ele>2090.612</ele><time>2026-06-28T17:18:07Z</time></trkpt></trkseg></trk></gpx>