<?xml version="1.0" encoding="UTF-8"?><gpx creator="Wikiloc - http://www.wikiloc.com" version="1.1" xmlns="http://www.topografix.com/GPX/1/1" xmlns:xsi="http://www.w3.org/2001/XMLSchema-instance" xsi:schemaLocation="http://www.topografix.com/GPX/1/1 http://www.topografix.com/GPX/1/1/gpx.xsd"><trk><name><![CDATA[Drakes Beach]]></name><cmt><![CDATA[Point Reyes (historical)]]></cmt><desc><![CDATA[Point Reyes (historical)]]></desc><trkseg><trkpt lat="38.016019" lon="-122.976505"><ele>3.084</ele><time>2026-09-07T23:20:03Z</time></trkpt><trkpt lat="38.016022" lon="-122.976584"><ele>3.207</ele><time>2026-09-07T23:20:09Z</time></trkpt><trkpt lat="38.016022" lon="-122.976588"><ele>3.217</ele><time>2026-09-07T23:20:10Z</time></trkpt><trkpt lat="38.016027" lon="-122.976587"><ele>3.009</ele><time>2026-09-07T23:20:13Z</time></trkpt><trkpt lat="38.016058" lon="-122.976558"><ele>2.810</ele><time>2026-09-07T23:20:17Z</time></trkpt><trkpt lat="38.016106" lon="-122.97651"><ele>2.846</ele><time>2026-09-07T23:20:27Z</time></trkpt><trkpt lat="38.016119" lon="-122.976474"><ele>3.062</ele><time>2026-09-07T23:20:31Z</time></trkpt><trkpt lat="38.016129" lon="-122.97645"><ele>3.263</ele><time>2026-09-07T23:20:34Z</time></trkpt><trkpt lat="38.016155" lon="-122.976393"><ele>3.025</ele><time>2026-09-07T23:20:42Z</time></trkpt><trkpt lat="38.016163" lon="-122.97638"><ele>2.886</ele><time>2026-09-07T23:20:48Z</time></trkpt><trkpt lat="38.016164" lon="-122.976377"><ele>2.869</ele><time>2026-09-07T23:20:49Z</time></trkpt><trkpt lat="38.016183" lon="-122.976368"><ele>3.831</ele><time>2026-09-07T23:20:55Z</time></trkpt><trkpt lat="38.016197" lon="-122.976361"><ele>3.025</ele><time>2026-09-07T23:21:00Z</time></trkpt><trkpt lat="38.016182" lon="-122.97636"><ele>2.828</ele><time>2026-09-07T23:21:06Z</time></trkpt><trkpt lat="38.016169" lon="-122.976352"><ele>2.889</ele><time>2026-09-07T23:21:11Z</time></trkpt><trkpt lat="38.016172" lon="-122.976351"><ele>3.017</ele><time>2026-09-07T23:21:12Z</time></trkpt><trkpt lat="38.016183" lon="-122.976345"><ele>3.409</ele><time>2026-09-07T23:21:18Z</time></trkpt><trkpt lat="38.016187" lon="-122.976342"><ele>3.464</ele><time>2026-09-07T23:21:20Z</time></trkpt><trkpt lat="38.016188" lon="-122.976326"><ele>3.660</ele><time>2026-09-07T23:21:26Z</time></trkpt><trkpt lat="38.016189" lon="-122.976323"><ele>3.446</ele><time>2026-09-07T23:21:28Z</time></trkpt><trkpt lat="38.016191" lon="-122.976329"><ele>3.047</ele><time>2026-09-07T23:21:31Z</time></trkpt><trkpt lat="38.016182" lon="-122.976329"><ele>2.829</ele><time>2026-09-07T23:21:37Z</time></trkpt><trkpt lat="38.016196" lon="-122.976319"><ele>2.640</ele><time>2026-09-07T23:21:44Z</time></trkpt><trkpt lat="38.016193" lon="-122.976305"><ele>2.893</ele><time>2026-09-07T23:21:50Z</time></trkpt><trkpt lat="38.01622" lon="-122.976347"><ele>3.035</ele><time>2026-09-07T23:21:55Z</time></trkpt><trkpt lat="38.016207" lon="-122.976304"><ele>3.239</ele><time>2026-09-07T23:21:59Z</time></trkpt><trkpt lat="38.016197" lon="-122.976288"><ele>3.027</ele><time>2026-09-07T23:22:06Z</time></trkpt><trkpt lat="38.016188" lon="-122.976276"><ele>2.868</ele><time>2026-09-07T23:22:13Z</time></trkpt><trkpt lat="38.016185" lon="-122.976305"><ele>2.614</ele><time>2026-09-07T23:22:21Z</time></trkpt><trkpt lat="38.016187" lon="-122.976309"><ele>2.609</ele><time>2026-09-07T23:22:23Z</time></trkpt><trkpt lat="38.016193" lon="-122.97632"><ele>2.824</ele><time>2026-09-07T23:22:30Z</time></trkpt><trkpt lat="38.016193" lon="-122.97632"><ele>2.680</ele><time>2026-09-07T23:22:35Z</time></trkpt><trkpt lat="38.016191" lon="-122.976315"><ele>2.486</ele><time>2026-09-07T23:22:37Z</time></trkpt><trkpt lat="38.016187" lon="-122.97632"><ele>2.667</ele><time>2026-09-07T23:22:40Z</time></trkpt><trkpt lat="38.01616" lon="-122.976316"><ele>3.089</ele><time>2026-09-07T23:22:49Z</time></trkpt><trkpt lat="38.016164" lon="-122.976329"><ele>3.230</ele><time>2026-09-07T23:22:57Z</time></trkpt><trkpt lat="38.016218" lon="-122.976273"><ele>3.053</ele><time>2026-09-07T23:23:03Z</time></trkpt><trkpt lat="38.016278" lon="-122.976233"><ele>2.835</ele><time>2026-09-07T23:23:08Z</time></trkpt><trkpt lat="38.01631" lon="-122.976214"><ele>3.099</ele><time>2026-09-07T23:23:11Z</time></trkpt><trkpt lat="38.016332" lon="-122.976202"><ele>3.213</ele><time>2026-09-07T23:23:13Z</time></trkpt><trkpt lat="38.016382" lon="-122.976143"><ele>3.443</ele><time>2026-09-07T23:23:20Z</time></trkpt><trkpt lat="38.016439" lon="-122.976064"><ele>3.007</ele><time>2026-09-07T23:23:28Z</time></trkpt><trkpt lat="38.016487" lon="-122.976032"><ele>3.409</ele><time>2026-09-07T23:23:36Z</time></trkpt><trkpt lat="38.016486" lon="-122.976029"><ele>3.883</ele><time>2026-09-07T23:23:44Z</time></trkpt><trkpt lat="38.016486" lon="-122.976029"><ele>4.059</ele><time>2026-09-07T23:23:45Z</time></trkpt><trkpt lat="38.016491" lon="-122.976017"><ele>3.415</ele><time>2026-09-07T23:23:49Z</time></trkpt><trkpt lat="38.016486" lon="-122.976022"><ele>3.276</ele><time>2026-09-07T23:23:52Z</time></trkpt><trkpt lat="38.016453" lon="-122.976036"><ele>4.048</ele><time>2026-09-07T23:23:56Z</time></trkpt><trkpt lat="38.016457" lon="-122.976062"><ele>3.649</ele><time>2026-09-07T23:24:03Z</time></trkpt><trkpt lat="38.016461" lon="-122.976063"><ele>3.672</ele><time>2026-09-07T23:24:04Z</time></trkpt><trkpt lat="38.01647" lon="-122.976047"><ele>3.664</ele><time>2026-09-07T23:24:11Z</time></trkpt><trkpt lat="38.016466" lon="-122.976046"><ele>3.678</ele><time>2026-09-07T23:24:17Z</time></trkpt><trkpt lat="38.016458" lon="-122.976026"><ele>3.828</ele><time>2026-09-07T23:24:25Z</time></trkpt><trkpt lat="38.016477" lon="-122.975991"><ele>3.289</ele><time>2026-09-07T23:24:34Z</time></trkpt><trkpt lat="38.016488" lon="-122.975975"><ele>3.217</ele><time>2026-09-07T23:24:41Z</time></trkpt><trkpt lat="38.01649" lon="-122.975982"><ele>3.209</ele><time>2026-09-07T23:24:44Z</time></trkpt><trkpt lat="38.016494" lon="-122.975991"><ele>3.664</ele><time>2026-09-07T23:24:48Z</time></trkpt><trkpt lat="38.016497" lon="-122.975994"><ele>3.660</ele><time>2026-09-07T23:24:50Z</time></trkpt><trkpt lat="38.016507" lon="-122.975986"><ele>4.296</ele><time>2026-09-07T23:24:55Z</time></trkpt><trkpt lat="38.016502" lon="-122.975998"><ele>4.047</ele><time>2026-09-07T23:25:00Z</time></trkpt><trkpt lat="38.016495" lon="-122.976007"><ele>4.269</ele><time>2026-09-07T23:25:02Z</time></trkpt><trkpt lat="38.016486" lon="-122.976013"><ele>4.060</ele><time>2026-09-07T23:25:06Z</time></trkpt><trkpt lat="38.016489" lon="-122.976008"><ele>4.243</ele><time>2026-09-07T23:25:13Z</time></trkpt><trkpt lat="38.016473" lon="-122.976009"><ele>4.615</ele><time>2026-09-07T23:25:24Z</time></trkpt><trkpt lat="38.016473" lon="-122.976017"><ele>5.249</ele><time>2026-09-07T23:25:27Z</time></trkpt><trkpt lat="38.016494" lon="-122.976003"><ele>5.899</ele><time>2026-09-07T23:25:32Z</time></trkpt><trkpt lat="38.016517" lon="-122.975979"><ele>6.007</ele><time>2026-09-07T23:25:36Z</time></trkpt><trkpt lat="38.016523" lon="-122.97596"><ele>4.827</ele><time>2026-09-07T23:25:39Z</time></trkpt><trkpt lat="38.016526" lon="-122.975956"><ele>4.609</ele><time>2026-09-07T23:25:40Z</time></trkpt><trkpt lat="38.016544" lon="-122.975935"><ele>4.631</ele><time>2026-09-07T23:25:49Z</time></trkpt><trkpt lat="38.016584" lon="-122.975889"><ele>4.487</ele><time>2026-09-07T23:25:58Z</time></trkpt><trkpt lat="38.016614" lon="-122.975863"><ele>3.853</ele><time>2026-09-07T23:26:03Z</time></trkpt><trkpt lat="38.016635" lon="-122.975852"><ele>4.454</ele><time>2026-09-07T23:26:08Z</time></trkpt><trkpt lat="38.016656" lon="-122.975836"><ele>5.086</ele><time>2026-09-07T23:26:11Z</time></trkpt><trkpt lat="38.016681" lon="-122.975811"><ele>5.017</ele><time>2026-09-07T23:26:17Z</time></trkpt><trkpt lat="38.016704" lon="-122.975765"><ele>5.210</ele><time>2026-09-07T23:26:26Z</time></trkpt><trkpt lat="38.016742" lon="-122.975722"><ele>3.842</ele><time>2026-09-07T23:26:33Z</time></trkpt><trkpt lat="38.016749" lon="-122.975712"><ele>3.846</ele><time>2026-09-07T23:26:34Z</time></trkpt><trkpt lat="38.016788" lon="-122.97567"><ele>4.263</ele><time>2026-09-07T23:26:40Z</time></trkpt><trkpt lat="38.016815" lon="-122.975641"><ele>4.844</ele><time>2026-09-07T23:26:43Z</time></trkpt><trkpt lat="38.016822" lon="-122.975631"><ele>4.818</ele><time>2026-09-07T23:26:44Z</time></trkpt><trkpt lat="38.016862" lon="-122.975585"><ele>3.809</ele><time>2026-09-07T23:26:53Z</time></trkpt><trkpt lat="38.016869" lon="-122.975575"><ele>3.068</ele><time>2026-09-07T23:26:56Z</time></trkpt><trkpt lat="38.01688" lon="-122.975559"><ele>3.824</ele><time>2026-09-07T23:27:00Z</time></trkpt><trkpt lat="38.016889" lon="-122.975515"><ele>3.890</ele><time>2026-09-07T23:27:08Z</time></trkpt><trkpt lat="38.016921" lon="-122.975502"><ele>3.011</ele><time>2026-09-07T23:27:16Z</time></trkpt><trkpt lat="38.016942" lon="-122.9755"><ele>3.013</ele><time>2026-09-07T23:27:23Z</time></trkpt><trkpt lat="38.01694" lon="-122.9755"><ele>3.054</ele><time>2026-09-07T23:27:24Z</time></trkpt><trkpt lat="38.016939" lon="-122.975497"><ele>3.047</ele><time>2026-09-07T23:27:26Z</time></trkpt><trkpt lat="38.016956" lon="-122.975467"><ele>4.449</ele><time>2026-09-07T23:27:30Z</time></trkpt><trkpt lat="38.016961" lon="-122.975462"><ele>4.693</ele><time>2026-09-07T23:27:31Z</time></trkpt><trkpt lat="38.01701" lon="-122.975424"><ele>5.414</ele><time>2026-09-07T23:27:38Z</time></trkpt><trkpt lat="38.017022" lon="-122.975399"><ele>5.254</ele><time>2026-09-07T23:27:42Z</time></trkpt><trkpt lat="38.017024" lon="-122.975403"><ele>4.609</ele><time>2026-09-07T23:27:45Z</time></trkpt><trkpt lat="38.017017" lon="-122.975405"><ele>3.409</ele><time>2026-09-07T23:27:49Z</time></trkpt><trkpt lat="38.017012" lon="-122.975405"><ele>2.653</ele><time>2026-09-07T23:27:51Z</time></trkpt><trkpt lat="38.017016" lon="-122.975399"><ele>4.469</ele><time>2026-09-07T23:27:58Z</time></trkpt><trkpt lat="38.01702" lon="-122.975396"><ele>4.475</ele><time>2026-09-07T23:27:59Z</time></trkpt><trkpt lat="38.017037" lon="-122.975385"><ele>3.646</ele><time>2026-09-07T23:28:06Z</time></trkpt><trkpt lat="38.01707" lon="-122.975348"><ele>4.238</ele><time>2026-09-07T23:28:15Z</time></trkpt><trkpt lat="38.017068" lon="-122.975346"><ele>3.479</ele><time>2026-09-07T23:28:18Z</time></trkpt><trkpt lat="38.01707" lon="-122.975343"><ele>3.082</ele><time>2026-09-07T23:28:22Z</time></trkpt><trkpt lat="38.017082" lon="-122.975346"><ele>5.054</ele><time>2026-09-07T23:28:24Z</time></trkpt><trkpt lat="38.017115" lon="-122.975317"><ele>4.238</ele><time>2026-09-07T23:28:28Z</time></trkpt><trkpt lat="38.017096" lon="-122.975288"><ele>4.012</ele><time>2026-09-07T23:28:30Z</time></trkpt><trkpt lat="38.017115" lon="-122.975248"><ele>3.832</ele><time>2026-09-07T23:28:32Z</time></trkpt><trkpt lat="38.017134" lon="-122.975258"><ele>3.805</ele><time>2026-09-07T23:28:34Z</time></trkpt><trkpt lat="38.017163" lon="-122.975243"><ele>4.009</ele><time>2026-09-07T23:28:37Z</time></trkpt><trkpt lat="38.017189" lon="-122.97521"><ele>5.273</ele><time>2026-09-07T23:28:41Z</time></trkpt><trkpt lat="38.017188" lon="-122.975186"><ele>5.479</ele><time>2026-09-07T23:28:42Z</time></trkpt><trkpt lat="38.017204" lon="-122.975187"><ele>5.685</ele><time>2026-09-07T23:28:44Z</time></trkpt><trkpt lat="38.017216" lon="-122.975192"><ele>6.256</ele><time>2026-09-07T23:28:46Z</time></trkpt><trkpt lat="38.017247" lon="-122.975165"><ele>4.628</ele><time>2026-09-07T23:28:51Z</time></trkpt><trkpt lat="38.017254" lon="-122.975154"><ele>4.499</ele><time>2026-09-07T23:28:52Z</time></trkpt><trkpt lat="38.017323" lon="-122.975095"><ele>3.282</ele><time>2026-09-07T23:28:59Z</time></trkpt><trkpt lat="38.017327" lon="-122.975062"><ele>3.034</ele><time>2026-09-07T23:29:00Z</time></trkpt><trkpt lat="38.017347" lon="-122.975021"><ele>4.468</ele><time>2026-09-07T23:29:02Z</time></trkpt><trkpt lat="38.017359" lon="-122.97501"><ele>4.629</ele><time>2026-09-07T23:29:03Z</time></trkpt><trkpt lat="38.017405" lon="-122.974972"><ele>4.600</ele><time>2026-09-07T23:29:07Z</time></trkpt><trkpt lat="38.017424" lon="-122.97497"><ele>4.420</ele><time>2026-09-07T23:29:08Z</time></trkpt><trkpt lat="38.017437" lon="-122.974958"><ele>4.409</ele><time>2026-09-07T23:29:09Z</time></trkpt><trkpt lat="38.017466" lon="-122.974904"><ele>5.214</ele><time>2026-09-07T23:29:13Z</time></trkpt><trkpt lat="38.017482" lon="-122.974901"><ele>5.480</ele><time>2026-09-07T23:29:14Z</time></trkpt><trkpt lat="38.017502" lon="-122.97485"><ele>4.026</ele><time>2026-09-07T23:29:18Z</time></trkpt><trkpt lat="38.017507" lon="-122.974837"><ele>3.277</ele><time>2026-09-07T23:29:19Z</time></trkpt><trkpt lat="38.017511" lon="-122.974825"><ele>1.829</ele><time>2026-09-07T23:29:20Z</time></trkpt><trkpt lat="38.017533" lon="-122.974793"><ele>0.850</ele><time>2026-09-07T23:29:24Z</time></trkpt><trkpt lat="38.017562" lon="-122.974775"><ele>1.033</ele><time>2026-09-07T23:29:28Z</time></trkpt><trkpt lat="38.017605" lon="-122.974748"><ele>2.095</ele><time>2026-09-07T23:29:33Z</time></trkpt><trkpt lat="38.017627" lon="-122.974732"><ele>2.439</ele><time>2026-09-07T23:29:35Z</time></trkpt><trkpt lat="38.017666" lon="-122.974693"><ele>2.067</ele><time>2026-09-07T23:29:42Z</time></trkpt><trkpt lat="38.017707" lon="-122.974622"><ele>2.481</ele><time>2026-09-07T23:29:49Z</time></trkpt><trkpt lat="38.017709" lon="-122.974607"><ele>3.019</ele><time>2026-09-07T23:29:55Z</time></trkpt><trkpt lat="38.017707" lon="-122.974617"><ele>3.009</ele><time>2026-09-07T23:29:56Z</time></trkpt><trkpt lat="38.017711" lon="-122.974585"><ele>2.678</ele><time>2026-09-07T23:30:00Z</time></trkpt><trkpt lat="38.017722" lon="-122.974539"><ele>2.084</ele><time>2026-09-07T23:30:04Z</time></trkpt><trkpt lat="38.017748" lon="-122.974522"><ele>2.090</ele><time>2026-09-07T23:30:08Z</time></trkpt><trkpt lat="38.017747" lon="-122.974523"><ele>3.241</ele><time>2026-09-07T23:30:12Z</time></trkpt><trkpt lat="38.01775" lon="-122.974519"><ele>3.413</ele><time>2026-09-07T23:30:14Z</time></trkpt><trkpt lat="38.017748" lon="-122.974509"><ele>3.024</ele><time>2026-09-07T23:30:26Z</time></trkpt><trkpt lat="38.017753" lon="-122.974512"><ele>2.497</ele><time>2026-09-07T23:30:35Z</time></trkpt><trkpt lat="38.017738" lon="-122.97452"><ele>2.259</ele><time>2026-09-07T23:30:41Z</time></trkpt><trkpt lat="38.017738" lon="-122.974524"><ele>2.263</ele><time>2026-09-07T23:30:42Z</time></trkpt><trkpt lat="38.017743" lon="-122.974522"><ele>2.057</ele><time>2026-09-07T23:30:43Z</time></trkpt><trkpt lat="38.017766" lon="-122.974477"><ele>1.200</ele><time>2026-09-07T23:30:49Z</time></trkpt><trkpt lat="38.017769" lon="-122.974477"><ele>1.420</ele><time>2026-09-07T23:30:53Z</time></trkpt><trkpt lat="38.017825" lon="-122.974448"><ele>2.609</ele><time>2026-09-07T23:31:01Z</time></trkpt><trkpt lat="38.01789" lon="-122.974398"><ele>2.617</ele><time>2026-09-07T23:31:09Z</time></trkpt><trkpt lat="38.017938" lon="-122.97435"><ele>3.263</ele><time>2026-09-07T23:31:16Z</time></trkpt><trkpt lat="38.017952" lon="-122.974355"><ele>3.289</ele><time>2026-09-07T23:31:20Z</time></trkpt><trkpt lat="38.017953" lon="-122.974359"><ele>3.240</ele><time>2026-09-07T23:31:22Z</time></trkpt><trkpt lat="38.017951" lon="-122.974362"><ele>3.252</ele><time>2026-09-07T23:31:23Z</time></trkpt><trkpt lat="38.017956" lon="-122.974359"><ele>3.683</ele><time>2026-09-07T23:31:32Z</time></trkpt><trkpt lat="38.017954" lon="-122.974359"><ele>3.656</ele><time>2026-09-07T23:31:33Z</time></trkpt><trkpt lat="38.017967" lon="-122.974347"><ele>3.448</ele><time>2026-09-07T23:31:43Z</time></trkpt><trkpt lat="38.017976" lon="-122.974342"><ele>3.482</ele><time>2026-09-07T23:31:44Z</time></trkpt><trkpt lat="38.01797" lon="-122.974363"><ele>3.489</ele><time>2026-09-07T23:31:50Z</time></trkpt><trkpt lat="38.017974" lon="-122.974368"><ele>3.206</ele><time>2026-09-07T23:31:59Z</time></trkpt><trkpt lat="38.017972" lon="-122.974364"><ele>3.226</ele><time>2026-09-07T23:32:05Z</time></trkpt><trkpt lat="38.017972" lon="-122.974371"><ele>3.209</ele><time>2026-09-07T23:32:14Z</time></trkpt><trkpt lat="38.017987" lon="-122.974363"><ele>2.670</ele><time>2026-09-07T23:32:26Z</time></trkpt><trkpt lat="38.017983" lon="-122.974354"><ele>2.876</ele><time>2026-09-07T23:32:27Z</time></trkpt><trkpt lat="38.018047" lon="-122.974308"><ele>3.262</ele><time>2026-09-07T23:32:34Z</time></trkpt><trkpt lat="38.018154" lon="-122.974242"><ele>3.043</ele><time>2026-09-07T23:32:41Z</time></trkpt><trkpt lat="38.018162" lon="-122.974213"><ele>3.215</ele><time>2026-09-07T23:32:42Z</time></trkpt><trkpt lat="38.018192" lon="-122.974147"><ele>3.856</ele><time>2026-09-07T23:32:45Z</time></trkpt><trkpt lat="38.01827" lon="-122.974097"><ele>3.619</ele><time>2026-09-07T23:32:49Z</time></trkpt><trkpt lat="38.01831" lon="-122.974027"><ele>3.491</ele><time>2026-09-07T23:32:52Z</time></trkpt><trkpt lat="38.018332" lon="-122.974019"><ele>3.295</ele><time>2026-09-07T23:32:53Z</time></trkpt><trkpt lat="38.018376" lon="-122.973964"><ele>3.215</ele><time>2026-09-07T23:32:56Z</time></trkpt><trkpt lat="38.018397" lon="-122.973934"><ele>3.265</ele><time>2026-09-07T23:32:58Z</time></trkpt><trkpt lat="38.018427" lon="-122.973921"><ele>3.011</ele><time>2026-09-07T23:33:00Z</time></trkpt><trkpt lat="38.018446" lon="-122.973902"><ele>3.009</ele><time>2026-09-07T23:33:02Z</time></trkpt><trkpt lat="38.018468" lon="-122.973878"><ele>3.023</ele><time>2026-09-07T23:33:04Z</time></trkpt><trkpt lat="38.018509" lon="-122.973848"><ele>2.669</ele><time>2026-09-07T23:33:10Z</time></trkpt><trkpt lat="38.018523" lon="-122.973835"><ele>2.615</ele><time>2026-09-07T23:33:14Z</time></trkpt><trkpt lat="38.018531" lon="-122.973828"><ele>2.676</ele><time>2026-09-07T23:33:15Z</time></trkpt><trkpt lat="38.018591" lon="-122.973761"><ele>2.468</ele><time>2026-09-07T23:33:24Z</time></trkpt><trkpt lat="38.018662" lon="-122.973709"><ele>2.649</ele><time>2026-09-07T23:33:31Z</time></trkpt><trkpt lat="38.018721" lon="-122.973654"><ele>2.812</ele><time>2026-09-07T23:33:37Z</time></trkpt><trkpt lat="38.018745" lon="-122.973634"><ele>2.894</ele><time>2026-09-07T23:33:40Z</time></trkpt><trkpt lat="38.018787" lon="-122.973619"><ele>3.218</ele><time>2026-09-07T23:33:45Z</time></trkpt><trkpt lat="38.018793" lon="-122.973612"><ele>3.088</ele><time>2026-09-07T23:33:46Z</time></trkpt><trkpt lat="38.018845" lon="-122.973557"><ele>3.024</ele><time>2026-09-07T23:33:53Z</time></trkpt><trkpt lat="38.018906" lon="-122.973514"><ele>2.826</ele><time>2026-09-07T23:34:01Z</time></trkpt><trkpt lat="38.018951" lon="-122.973492"><ele>3.009</ele><time>2026-09-07T23:34:07Z</time></trkpt><trkpt lat="38.019044" lon="-122.97344"><ele>3.040</ele><time>2026-09-07T23:34:17Z</time></trkpt><trkpt lat="38.019121" lon="-122.973392"><ele>3.016</ele><time>2026-09-07T23:34:26Z</time></trkpt><trkpt lat="38.019131" lon="-122.973388"><ele>3.232</ele><time>2026-09-07T23:34:27Z</time></trkpt><trkpt lat="38.019187" lon="-122.973315"><ele>3.283</ele><time>2026-09-07T23:34:36Z</time></trkpt><trkpt lat="38.019197" lon="-122.97331"><ele>3.465</ele><time>2026-09-07T23:34:37Z</time></trkpt><trkpt lat="38.019288" lon="-122.973248"><ele>3.096</ele><time>2026-09-07T23:34:47Z</time></trkpt><trkpt lat="38.019356" lon="-122.973189"><ele>3.439</ele><time>2026-09-07T23:34:56Z</time></trkpt><trkpt lat="38.019466" lon="-122.973137"><ele>3.661</ele><time>2026-09-07T23:35:07Z</time></trkpt><trkpt lat="38.019529" lon="-122.973109"><ele>4.285</ele><time>2026-09-07T23:35:14Z</time></trkpt><trkpt lat="38.019609" lon="-122.973054"><ele>3.287</ele><time>2026-09-07T23:35:24Z</time></trkpt><trkpt lat="38.019641" lon="-122.973026"><ele>3.242</ele><time>2026-09-07T23:35:31Z</time></trkpt><trkpt lat="38.01966" lon="-122.973017"><ele>3.426</ele><time>2026-09-07T23:35:33Z</time></trkpt><trkpt lat="38.01976" lon="-122.972944"><ele>4.009</ele><time>2026-09-07T23:35:44Z</time></trkpt><trkpt lat="38.019804" lon="-122.972916"><ele>4.210</ele><time>2026-09-07T23:35:49Z</time></trkpt><trkpt lat="38.019837" lon="-122.972879"><ele>4.266</ele><time>2026-09-07T23:35:53Z</time></trkpt><trkpt lat="38.019874" lon="-122.972842"><ele>4.232</ele><time>2026-09-07T23:35:58Z</time></trkpt><trkpt lat="38.019909" lon="-122.972819"><ele>4.253</ele><time>2026-09-07T23:36:02Z</time></trkpt><trkpt lat="38.019988" lon="-122.972741"><ele>4.695</ele><time>2026-09-07T23:36:11Z</time></trkpt><trkpt lat="38.020068" lon="-122.972694"><ele>4.896</ele><time>2026-09-07T23:36:21Z</time></trkpt><trkpt lat="38.020116" lon="-122.972642"><ele>4.849</ele><time>2026-09-07T23:36:28Z</time></trkpt><trkpt lat="38.020188" lon="-122.972575"><ele>4.861</ele><time>2026-09-07T23:36:37Z</time></trkpt><trkpt lat="38.020231" lon="-122.972533"><ele>5.285</ele><time>2026-09-07T23:36:43Z</time></trkpt><trkpt lat="38.020238" lon="-122.972527"><ele>5.283</ele><time>2026-09-07T23:36:44Z</time></trkpt><trkpt lat="38.020297" lon="-122.972473"><ele>5.825</ele><time>2026-09-07T23:36:51Z</time></trkpt><trkpt lat="38.020331" lon="-122.972433"><ele>5.417</ele><time>2026-09-07T23:36:56Z</time></trkpt><trkpt lat="38.020378" lon="-122.97238"><ele>5.409</ele><time>2026-09-07T23:37:02Z</time></trkpt><trkpt lat="38.02047" lon="-122.972315"><ele>5.270</ele><time>2026-09-07T23:37:12Z</time></trkpt><trkpt lat="38.020543" lon="-122.972263"><ele>5.066</ele><time>2026-09-07T23:37:23Z</time></trkpt><trkpt lat="38.020614" lon="-122.972207"><ele>5.252</ele><time>2026-09-07T23:37:32Z</time></trkpt><trkpt lat="38.020657" lon="-122.972141"><ele>6.243</ele><time>2026-09-07T23:37:40Z</time></trkpt><trkpt lat="38.020663" lon="-122.972133"><ele>6.455</ele><time>2026-09-07T23:37:41Z</time></trkpt><trkpt lat="38.020701" lon="-122.972097"><ele>6.016</ele><time>2026-09-07T23:37:45Z</time></trkpt><trkpt lat="38.02077" lon="-122.972017"><ele>6.839</ele><time>2026-09-07T23:37:54Z</time></trkpt><trkpt lat="38.020796" lon="-122.971998"><ele>6.071</ele><time>2026-09-07T23:38:02Z</time></trkpt><trkpt lat="38.020792" lon="-122.971999"><ele>6.645</ele><time>2026-09-07T23:38:11Z</time></trkpt><trkpt lat="38.020835" lon="-122.971959"><ele>6.474</ele><time>2026-09-07T23:38:20Z</time></trkpt><trkpt lat="38.020876" lon="-122.971915"><ele>5.856</ele><time>2026-09-07T23:38:28Z</time></trkpt><trkpt lat="38.020892" lon="-122.971892"><ele>6.021</ele><time>2026-09-07T23:38:36Z</time></trkpt><trkpt lat="38.020963" lon="-122.971796"><ele>6.409</ele><time>2026-09-07T23:38:46Z</time></trkpt><trkpt lat="38.021005" lon="-122.971736"><ele>7.039</ele><time>2026-09-07T23:38:53Z</time></trkpt><trkpt lat="38.021012" lon="-122.971732"><ele>6.885</ele><time>2026-09-07T23:38:54Z</time></trkpt><trkpt lat="38.021085" lon="-122.971661"><ele>6.031</ele><time>2026-09-07T23:39:02Z</time></trkpt><trkpt lat="38.021136" lon="-122.971613"><ele>6.662</ele><time>2026-09-07T23:39:08Z</time></trkpt><trkpt lat="38.021156" lon="-122.971574"><ele>6.474</ele><time>2026-09-07T23:39:12Z</time></trkpt><trkpt lat="38.021157" lon="-122.971568"><ele>6.245</ele><time>2026-09-07T23:39:13Z</time></trkpt><trkpt lat="38.021201" lon="-122.971481"><ele>6.668</ele><time>2026-09-07T23:39:21Z</time></trkpt><trkpt lat="38.021247" lon="-122.971421"><ele>6.440</ele><time>2026-09-07T23:39:28Z</time></trkpt><trkpt lat="38.021288" lon="-122.971367"><ele>7.484</ele><time>2026-09-07T23:39:33Z</time></trkpt><trkpt lat="38.021306" lon="-122.971343"><ele>8.018</ele><time>2026-09-07T23:39:36Z</time></trkpt><trkpt lat="38.021342" lon="-122.971295"><ele>8.298</ele><time>2026-09-07T23:39:41Z</time></trkpt><trkpt lat="38.021373" lon="-122.971262"><ele>8.417</ele><time>2026-09-07T23:39:45Z</time></trkpt><trkpt lat="38.021397" lon="-122.971232"><ele>7.609</ele><time>2026-09-07T23:39:49Z</time></trkpt><trkpt lat="38.021412" lon="-122.971218"><ele>7.263</ele><time>2026-09-07T23:39:51Z</time></trkpt><trkpt lat="38.021417" lon="-122.971209"><ele>5.689</ele><time>2026-09-07T23:39:52Z</time></trkpt><trkpt lat="38.021422" lon="-122.971198"><ele>4.665</ele><time>2026-09-07T23:39:53Z</time></trkpt><trkpt lat="38.021427" lon="-122.971189"><ele>4.216</ele><time>2026-09-07T23:39:54Z</time></trkpt><trkpt lat="38.021504" lon="-122.971102"><ele>4.678</ele><time>2026-09-07T23:40:04Z</time></trkpt><trkpt lat="38.021555" lon="-122.971027"><ele>5.099</ele><time>2026-09-07T23:40:13Z</time></trkpt><trkpt lat="38.021561" lon="-122.971022"><ele>5.232</ele><time>2026-09-07T23:40:14Z</time></trkpt><trkpt lat="38.021567" lon="-122.971015"><ele>6.274</ele><time>2026-09-07T23:40:19Z</time></trkpt><trkpt lat="38.021569" lon="-122.971015"><ele>6.088</ele><time>2026-09-07T23:40:20Z</time></trkpt><trkpt lat="38.021595" lon="-122.970984"><ele>5.616</ele><time>2026-09-07T23:40:26Z</time></trkpt><trkpt lat="38.02165" lon="-122.970914"><ele>5.076</ele><time>2026-09-07T23:40:34Z</time></trkpt><trkpt lat="38.021702" lon="-122.970832"><ele>4.813</ele><time>2026-09-07T23:40:43Z</time></trkpt><trkpt lat="38.02175" lon="-122.97074"><ele>4.809</ele><time>2026-09-07T23:40:51Z</time></trkpt><trkpt lat="38.021775" lon="-122.970684"><ele>4.813</ele><time>2026-09-07T23:40:57Z</time></trkpt><trkpt lat="38.021781" lon="-122.970675"><ele>4.839</ele><time>2026-09-07T23:40:58Z</time></trkpt><trkpt lat="38.021789" lon="-122.970665"><ele>5.075</ele><time>2026-09-07T23:40:59Z</time></trkpt><trkpt lat="38.021795" lon="-122.970659"><ele>5.096</ele><time>2026-09-07T23:41:00Z</time></trkpt><trkpt lat="38.0218" lon="-122.970651"><ele>5.288</ele><time>2026-09-07T23:41:01Z</time></trkpt><trkpt lat="38.021847" lon="-122.970575"><ele>4.819</ele><time>2026-09-07T23:41:09Z</time></trkpt><trkpt lat="38.021893" lon="-122.970513"><ele>5.092</ele><time>2026-09-07T23:41:15Z</time></trkpt><trkpt lat="38.021906" lon="-122.970493"><ele>5.244</ele><time>2026-09-07T23:41:17Z</time></trkpt><trkpt lat="38.021967" lon="-122.970399"><ele>5.018</ele><time>2026-09-07T23:41:27Z</time></trkpt><trkpt lat="38.022038" lon="-122.970317"><ele>4.889</ele><time>2026-09-07T23:41:37Z</time></trkpt><trkpt lat="38.022098" lon="-122.970237"><ele>4.606</ele><time>2026-09-07T23:41:45Z</time></trkpt><trkpt lat="38.022151" lon="-122.970137"><ele>4.426</ele><time>2026-09-07T23:41:54Z</time></trkpt><trkpt lat="38.022205" lon="-122.970045"><ele>5.009</ele><time>2026-09-07T23:42:03Z</time></trkpt><trkpt lat="38.022283" lon="-122.969936"><ele>5.440</ele><time>2026-09-07T23:42:14Z</time></trkpt><trkpt lat="38.022318" lon="-122.969893"><ele>5.656</ele><time>2026-09-07T23:42:19Z</time></trkpt><trkpt lat="38.022337" lon="-122.969865"><ele>6.062</ele><time>2026-09-07T23:42:22Z</time></trkpt><trkpt lat="38.022372" lon="-122.969779"><ele>6.293</ele><time>2026-09-07T23:42:29Z</time></trkpt><trkpt lat="38.022382" lon="-122.969754"><ele>6.675</ele><time>2026-09-07T23:42:31Z</time></trkpt><trkpt lat="38.022405" lon="-122.969702"><ele>7.026</ele><time>2026-09-07T23:42:36Z</time></trkpt><trkpt lat="38.022427" lon="-122.969663"><ele>6.489</ele><time>2026-09-07T23:42:40Z</time></trkpt><trkpt lat="38.022448" lon="-122.969626"><ele>6.021</ele><time>2026-09-07T23:42:44Z</time></trkpt><trkpt lat="38.022509" lon="-122.969527"><ele>6.025</ele><time>2026-09-07T23:42:53Z</time></trkpt><trkpt lat="38.022516" lon="-122.96952"><ele>6.083</ele><time>2026-09-07T23:42:54Z</time></trkpt><trkpt lat="38.022556" lon="-122.969444"><ele>6.625</ele><time>2026-09-07T23:43:01Z</time></trkpt><trkpt lat="38.02257" lon="-122.969398"><ele>6.617</ele><time>2026-09-07T23:43:05Z</time></trkpt><trkpt lat="38.02259" lon="-122.969353"><ele>6.809</ele><time>2026-09-07T23:43:09Z</time></trkpt><trkpt lat="38.022648" lon="-122.969273"><ele>6.210</ele><time>2026-09-07T23:43:18Z</time></trkpt><trkpt lat="38.022699" lon="-122.969196"><ele>6.646</ele><time>2026-09-07T23:43:26Z</time></trkpt><trkpt lat="38.022739" lon="-122.969113"><ele>6.242</ele><time>2026-09-07T23:43:34Z</time></trkpt><trkpt lat="38.022793" lon="-122.969021"><ele>6.263</ele><time>2026-09-07T23:43:44Z</time></trkpt><trkpt lat="38.022863" lon="-122.968913"><ele>6.255</ele><time>2026-09-07T23:43:55Z</time></trkpt><trkpt lat="38.022927" lon="-122.968837"><ele>6.256</ele><time>2026-09-07T23:44:04Z</time></trkpt><trkpt lat="38.022994" lon="-122.968735"><ele>6.419</ele><time>2026-09-07T23:44:14Z</time></trkpt><trkpt lat="38.023044" lon="-122.968657"><ele>6.461</ele><time>2026-09-07T23:44:22Z</time></trkpt><trkpt lat="38.023079" lon="-122.968579"><ele>6.475</ele><time>2026-09-07T23:44:30Z</time></trkpt><trkpt lat="38.02311" lon="-122.968537"><ele>6.492</ele><time>2026-09-07T23:44:35Z</time></trkpt><trkpt lat="38.023149" lon="-122.968494"><ele>6.673</ele><time>2026-09-07T23:44:40Z</time></trkpt><trkpt lat="38.023232" lon="-122.968388"><ele>6.220</ele><time>2026-09-07T23:44:50Z</time></trkpt><trkpt lat="38.023291" lon="-122.968294"><ele>6.209</ele><time>2026-09-07T23:44:59Z</time></trkpt><trkpt lat="38.02336" lon="-122.968191"><ele>6.681</ele><time>2026-09-07T23:45:09Z</time></trkpt><trkpt lat="38.023412" lon="-122.968105"><ele>7.057</ele><time>2026-09-07T23:45:17Z</time></trkpt><trkpt lat="38.023463" lon="-122.968023"><ele>6.843</ele><time>2026-09-07T23:45:26Z</time></trkpt><trkpt lat="38.023534" lon="-122.967925"><ele>7.024</ele><time>2026-09-07T23:45:35Z</time></trkpt><trkpt lat="38.02358" lon="-122.967849"><ele>7.246</ele><time>2026-09-07T23:45:42Z</time></trkpt><trkpt lat="38.023608" lon="-122.967814"><ele>7.627</ele><time>2026-09-07T23:45:46Z</time></trkpt><trkpt lat="38.023673" lon="-122.967756"><ele>7.650</ele><time>2026-09-07T23:45:53Z</time></trkpt><trkpt lat="38.023682" lon="-122.967744"><ele>7.622</ele><time>2026-09-07T23:45:54Z</time></trkpt><trkpt lat="38.023744" lon="-122.967654"><ele>7.836</ele><time>2026-09-07T23:46:03Z</time></trkpt><trkpt lat="38.023772" lon="-122.967602"><ele>7.617</ele><time>2026-09-07T23:46:08Z</time></trkpt><trkpt lat="38.023785" lon="-122.967574"><ele>7.887</ele><time>2026-09-07T23:46:11Z</time></trkpt><trkpt lat="38.023794" lon="-122.967561"><ele>8.015</ele><time>2026-09-07T23:46:12Z</time></trkpt><trkpt lat="38.023801" lon="-122.967555"><ele>8.009</ele><time>2026-09-07T23:46:13Z</time></trkpt><trkpt lat="38.023852" lon="-122.96748"><ele>8.253</ele><time>2026-09-07T23:46:20Z</time></trkpt><trkpt lat="38.02392" lon="-122.967379"><ele>7.839</ele><time>2026-09-07T23:46:30Z</time></trkpt><trkpt lat="38.023994" lon="-122.967275"><ele>8.025</ele><time>2026-09-07T23:46:41Z</time></trkpt><trkpt lat="38.024044" lon="-122.967189"><ele>8.296</ele><time>2026-09-07T23:46:49Z</time></trkpt><trkpt lat="38.024052" lon="-122.967176"><ele>8.498</ele><time>2026-09-07T23:46:51Z</time></trkpt><trkpt lat="38.024118" lon="-122.967093"><ele>8.269</ele><time>2026-09-07T23:47:00Z</time></trkpt><trkpt lat="38.024156" lon="-122.967019"><ele>8.062</ele><time>2026-09-07T23:47:07Z</time></trkpt><trkpt lat="38.024173" lon="-122.966986"><ele>8.254</ele><time>2026-09-07T23:47:10Z</time></trkpt><trkpt lat="38.024217" lon="-122.966899"><ele>8.258</ele><time>2026-09-07T23:47:18Z</time></trkpt><trkpt lat="38.024265" lon="-122.966803"><ele>8.673</ele><time>2026-09-07T23:47:27Z</time></trkpt><trkpt lat="38.0243" lon="-122.966732"><ele>8.485</ele><time>2026-09-07T23:47:34Z</time></trkpt><trkpt lat="38.024313" lon="-122.966709"><ele>8.413</ele><time>2026-09-07T23:47:36Z</time></trkpt><trkpt lat="38.024341" lon="-122.966658"><ele>8.409</ele><time>2026-09-07T23:47:41Z</time></trkpt><trkpt lat="38.024379" lon="-122.966595"><ele>8.239</ele><time>2026-09-07T23:47:47Z</time></trkpt><trkpt lat="38.024429" lon="-122.966512"><ele>8.455</ele><time>2026-09-07T23:47:55Z</time></trkpt><trkpt lat="38.024464" lon="-122.966419"><ele>8.831</ele><time>2026-09-07T23:48:03Z</time></trkpt><trkpt lat="38.024536" lon="-122.966277"><ele>8.892</ele><time>2026-09-07T23:48:15Z</time></trkpt><trkpt lat="38.024584" lon="-122.966179"><ele>8.814</ele><time>2026-09-07T23:48:23Z</time></trkpt><trkpt lat="38.024629" lon="-122.96612"><ele>9.265</ele><time>2026-09-07T23:48:30Z</time></trkpt><trkpt lat="38.02464" lon="-122.966102"><ele>9.228</ele><time>2026-09-07T23:48:32Z</time></trkpt><trkpt lat="38.024667" lon="-122.966053"><ele>8.870</ele><time>2026-09-07T23:48:36Z</time></trkpt><trkpt lat="38.024705" lon="-122.965966"><ele>8.634</ele><time>2026-09-07T23:48:43Z</time></trkpt><trkpt lat="38.024752" lon="-122.965868"><ele>8.855</ele><time>2026-09-07T23:48:52Z</time></trkpt><trkpt lat="38.024816" lon="-122.965751"><ele>9.007</ele><time>2026-09-07T23:49:01Z</time></trkpt><trkpt lat="38.024864" lon="-122.965675"><ele>9.017</ele><time>2026-09-07T23:49:09Z</time></trkpt><trkpt lat="38.024895" lon="-122.965563"><ele>8.809</ele><time>2026-09-07T23:49:17Z</time></trkpt><trkpt lat="38.024928" lon="-122.965474"><ele>9.267</ele><time>2026-09-07T23:49:26Z</time></trkpt><trkpt lat="38.024964" lon="-122.96539"><ele>9.023</ele><time>2026-09-07T23:49:33Z</time></trkpt><trkpt lat="38.024974" lon="-122.965367"><ele>9.299</ele><time>2026-09-07T23:49:35Z</time></trkpt><trkpt lat="38.024987" lon="-122.965335"><ele>9.060</ele><time>2026-09-07T23:49:37Z</time></trkpt><trkpt lat="38.025019" lon="-122.96527"><ele>8.842</ele><time>2026-09-07T23:49:43Z</time></trkpt><trkpt lat="38.025029" lon="-122.965233"><ele>9.043</ele><time>2026-09-07T23:49:46Z</time></trkpt><trkpt lat="38.025041" lon="-122.965203"><ele>9.016</ele><time>2026-09-07T23:49:49Z</time></trkpt><trkpt lat="38.025057" lon="-122.965169"><ele>9.258</ele><time>2026-09-07T23:49:53Z</time></trkpt><trkpt lat="38.025145" lon="-122.965108"><ele>9.022</ele><time>2026-09-07T23:50:03Z</time></trkpt><trkpt lat="38.02519" lon="-122.965037"><ele>9.029</ele><time>2026-09-07T23:50:11Z</time></trkpt><trkpt lat="38.025204" lon="-122.964979"><ele>9.400</ele><time>2026-09-07T23:50:15Z</time></trkpt><trkpt lat="38.025207" lon="-122.964929"><ele>9.420</ele><time>2026-09-07T23:50:19Z</time></trkpt><trkpt lat="38.025229" lon="-122.964867"><ele>8.809</ele><time>2026-09-07T23:50:24Z</time></trkpt><trkpt lat="38.025256" lon="-122.964817"><ele>9.254</ele><time>2026-09-07T23:50:29Z</time></trkpt><trkpt lat="38.02529" lon="-122.964751"><ele>9.020</ele><time>2026-09-07T23:50:35Z</time></trkpt><trkpt lat="38.025304" lon="-122.964711"><ele>8.886</ele><time>2026-09-07T23:50:38Z</time></trkpt><trkpt lat="38.025307" lon="-122.9647"><ele>8.897</ele><time>2026-09-07T23:50:39Z</time></trkpt><trkpt lat="38.02535" lon="-122.964592"><ele>9.019</ele><time>2026-09-07T23:50:48Z</time></trkpt><trkpt lat="38.025397" lon="-122.964517"><ele>9.280</ele><time>2026-09-07T23:50:56Z</time></trkpt><trkpt lat="38.025439" lon="-122.964415"><ele>9.093</ele><time>2026-09-07T23:51:04Z</time></trkpt><trkpt lat="38.025449" lon="-122.964391"><ele>9.095</ele><time>2026-09-07T23:51:06Z</time></trkpt><trkpt lat="38.025488" lon="-122.964304"><ele>9.249</ele><time>2026-09-07T23:51:13Z</time></trkpt><trkpt lat="38.025493" lon="-122.964291"><ele>9.228</ele><time>2026-09-07T23:51:14Z</time></trkpt><trkpt lat="38.025504" lon="-122.964254"><ele>9.089</ele><time>2026-09-07T23:51:17Z</time></trkpt><trkpt lat="38.025523" lon="-122.964207"><ele>9.417</ele><time>2026-09-07T23:51:21Z</time></trkpt><trkpt lat="38.02558" lon="-122.964115"><ele>9.609</ele><time>2026-09-07T23:51:30Z</time></trkpt><trkpt lat="38.02564" lon="-122.964038"><ele>9.294</ele><time>2026-09-07T23:51:39Z</time></trkpt><trkpt lat="38.025683" lon="-122.96394"><ele>9.490</ele><time>2026-09-07T23:51:48Z</time></trkpt><trkpt lat="38.025726" lon="-122.963847"><ele>9.466</ele><time>2026-09-07T23:51:56Z</time></trkpt><trkpt lat="38.025755" lon="-122.963772"><ele>9.687</ele><time>2026-09-07T23:52:03Z</time></trkpt><trkpt lat="38.025801" lon="-122.963727"><ele>9.469</ele><time>2026-09-07T23:52:09Z</time></trkpt><trkpt lat="38.025854" lon="-122.96365"><ele>9.060</ele><time>2026-09-07T23:52:17Z</time></trkpt><trkpt lat="38.025884" lon="-122.963559"><ele>9.283</ele><time>2026-09-07T23:52:24Z</time></trkpt><trkpt lat="38.025886" lon="-122.963533"><ele>9.235</ele><time>2026-09-07T23:52:26Z</time></trkpt><trkpt lat="38.025919" lon="-122.963461"><ele>9.899</ele><time>2026-09-07T23:52:32Z</time></trkpt><trkpt lat="38.02598" lon="-122.963359"><ele>9.698</ele><time>2026-09-07T23:52:42Z</time></trkpt><trkpt lat="38.02602" lon="-122.963273"><ele>9.015</ele><time>2026-09-07T23:52:50Z</time></trkpt><trkpt lat="38.026072" lon="-122.963169"><ele>9.026</ele><time>2026-09-07T23:52:59Z</time></trkpt><trkpt lat="38.026123" lon="-122.963062"><ele>9.209</ele><time>2026-09-07T23:53:09Z</time></trkpt><trkpt lat="38.026186" lon="-122.962977"><ele>9.411</ele><time>2026-09-07T23:53:20Z</time></trkpt><trkpt lat="38.026218" lon="-122.962903"><ele>9.437</ele><time>2026-09-07T23:53:26Z</time></trkpt><trkpt lat="38.02622" lon="-122.962891"><ele>9.463</ele><time>2026-09-07T23:53:27Z</time></trkpt><trkpt lat="38.026225" lon="-122.962784"><ele>9.264</ele><time>2026-09-07T23:53:35Z</time></trkpt><trkpt lat="38.026274" lon="-122.962732"><ele>9.876</ele><time>2026-09-07T23:53:42Z</time></trkpt><trkpt lat="38.026288" lon="-122.962715"><ele>10.067</ele><time>2026-09-07T23:53:44Z</time></trkpt><trkpt lat="38.026295" lon="-122.962706"><ele>10.030</ele><time>2026-09-07T23:53:45Z</time></trkpt><trkpt lat="38.0263" lon="-122.962696"><ele>9.862</ele><time>2026-09-07T23:53:46Z</time></trkpt><trkpt lat="38.026331" lon="-122.962621"><ele>9.876</ele><time>2026-09-07T23:53:52Z</time></trkpt><trkpt lat="38.026371" lon="-122.962513"><ele>9.263</ele><time>2026-09-07T23:54:00Z</time></trkpt><trkpt lat="38.026418" lon="-122.962419"><ele>8.644</ele><time>2026-09-07T23:54:09Z</time></trkpt><trkpt lat="38.026473" lon="-122.962325"><ele>8.618</ele><time>2026-09-07T23:54:18Z</time></trkpt><trkpt lat="38.026506" lon="-122.962257"><ele>8.409</ele><time>2026-09-07T23:54:24Z</time></trkpt><trkpt lat="38.026513" lon="-122.962236"><ele>8.278</ele><time>2026-09-07T23:54:26Z</time></trkpt><trkpt lat="38.026569" lon="-122.962149"><ele>8.494</ele><time>2026-09-07T23:54:36Z</time></trkpt><trkpt lat="38.026576" lon="-122.962129"><ele>8.860</ele><time>2026-09-07T23:54:38Z</time></trkpt><trkpt lat="38.026567" lon="-122.962117"><ele>8.851</ele><time>2026-09-07T23:54:41Z</time></trkpt><trkpt lat="38.026561" lon="-122.962113"><ele>8.223</ele><time>2026-09-07T23:54:43Z</time></trkpt><trkpt lat="38.026561" lon="-122.962097"><ele>7.624</ele><time>2026-09-07T23:54:53Z</time></trkpt><trkpt lat="38.026576" lon="-122.962096"><ele>8.477</ele><time>2026-09-07T23:55:01Z</time></trkpt><trkpt lat="38.026573" lon="-122.962096"><ele>8.029</ele><time>2026-09-07T23:55:05Z</time></trkpt></trkseg></trk></gpx>