<?xml version="1.0" encoding="UTF-8"?><gpx creator="Wikiloc - http://www.wikiloc.com" version="1.1" xmlns="http://www.topografix.com/GPX/1/1" xmlns:xsi="http://www.w3.org/2001/XMLSchema-instance" xsi:schemaLocation="http://www.topografix.com/GPX/1/1 http://www.topografix.com/GPX/1/1/gpx.xsd"><trk><name><![CDATA[Glacier National Park: Sun Point - Baring Falls - Sun Point]]></name><cmt><![CDATA[Ruta circular des de Rising Sun passant per:
- Baring Falls (1.6 km)]]></cmt><desc><![CDATA[Ruta circular des de Rising Sun passant per:
- Baring Falls (1.6 km)]]></desc><trkseg><trkpt lat="48.676212" lon="-113.579933"><ele>1386.124</ele><time>2026-06-02T23:30:00Z</time></trkpt><trkpt lat="48.67617" lon="-113.579833"><ele>1386.104</ele><time>2026-06-02T23:53:58Z</time></trkpt><trkpt lat="48.676132" lon="-113.579743"><ele>1386.014</ele><time>2026-06-02T23:56:38Z</time></trkpt><trkpt lat="48.676094" lon="-113.579657"><ele>1386.109</ele><time>2026-06-02T23:57:39Z</time></trkpt><trkpt lat="48.676092" lon="-113.57963"><ele>1386.194</ele><time>2026-06-02T23:57:45Z</time></trkpt><trkpt lat="48.676068" lon="-113.579539"><ele>1386.188</ele><time>2026-06-02T23:58:11Z</time></trkpt><trkpt lat="48.676073" lon="-113.5795"><ele>1386.069</ele><time>2026-06-02T23:58:14Z</time></trkpt><trkpt lat="48.676068" lon="-113.579488"><ele>1386.077</ele><time>2026-06-02T23:58:17Z</time></trkpt><trkpt lat="48.676041" lon="-113.579402"><ele>1385.536</ele><time>2026-06-02T23:58:33Z</time></trkpt><trkpt lat="48.676025" lon="-113.579344"><ele>1385.490</ele><time>2026-06-02T23:58:41Z</time></trkpt><trkpt lat="48.675989" lon="-113.579257"><ele>1385.183</ele><time>2026-06-02T23:58:52Z</time></trkpt><trkpt lat="48.675975" lon="-113.579216"><ele>1384.824</ele><time>2026-06-02T23:58:56Z</time></trkpt><trkpt lat="48.67595" lon="-113.579135"><ele>1384.152</ele><time>2026-06-02T23:59:02Z</time></trkpt><trkpt lat="48.675927" lon="-113.579085"><ele>1384.179</ele><time>2026-06-02T23:59:06Z</time></trkpt><trkpt lat="48.675914" lon="-113.579056"><ele>1384.005</ele><time>2026-06-02T23:59:08Z</time></trkpt><trkpt lat="48.675887" lon="-113.578987"><ele>1383.525</ele><time>2026-06-02T23:59:12Z</time></trkpt><trkpt lat="48.675859" lon="-113.578925"><ele>1383.409</ele><time>2026-06-02T23:59:15Z</time></trkpt><trkpt lat="48.675834" lon="-113.578864"><ele>1382.849</ele><time>2026-06-02T23:59:18Z</time></trkpt><trkpt lat="48.675788" lon="-113.578779"><ele>1382.053</ele><time>2026-06-02T23:59:22Z</time></trkpt><trkpt lat="48.675781" lon="-113.578764"><ele>1381.844</ele><time>2026-06-02T23:59:22Z</time></trkpt><trkpt lat="48.675762" lon="-113.578735"><ele>1381.552</ele><time>2026-06-02T23:59:24Z</time></trkpt><trkpt lat="48.67571" lon="-113.578701"><ele>1380.871</ele><time>2026-06-02T23:59:26Z</time></trkpt><trkpt lat="48.675692" lon="-113.578697"><ele>1380.435</ele><time>2026-06-02T23:59:27Z</time></trkpt><trkpt lat="48.67566" lon="-113.57866"><ele>1379.528</ele><time>2026-06-02T23:59:29Z</time></trkpt><trkpt lat="48.675598" lon="-113.57859"><ele>1378.439</ele><time>2026-06-02T23:59:31Z</time></trkpt><trkpt lat="48.675548" lon="-113.578573"><ele>1377.457</ele><time>2026-06-02T23:59:33Z</time></trkpt><trkpt lat="48.675523" lon="-113.578565"><ele>1376.199</ele><time>2026-06-02T23:59:34Z</time></trkpt><trkpt lat="48.675515" lon="-113.578564"><ele>1376.107</ele><time>2026-06-02T23:59:34Z</time></trkpt><trkpt lat="48.675483" lon="-113.578527"><ele>1375.827</ele><time>2026-06-02T23:59:35Z</time></trkpt><trkpt lat="48.675394" lon="-113.578403"><ele>1375.409</ele><time>2026-06-02T23:59:38Z</time></trkpt><trkpt lat="48.675378" lon="-113.578247"><ele>1376.071</ele><time>2026-06-02T23:59:38Z</time></trkpt><trkpt lat="48.675376" lon="-113.578204"><ele>1377.125</ele><time>2026-06-02T23:59:39Z</time></trkpt><trkpt lat="48.675362" lon="-113.578174"><ele>1378.436</ele><time>2026-06-02T23:59:39Z</time></trkpt><trkpt lat="48.675349" lon="-113.578137"><ele>1379.144</ele><time>2026-06-02T23:59:39Z</time></trkpt><trkpt lat="48.675344" lon="-113.578133"><ele>1379.493</ele><time>2026-06-02T23:59:39Z</time></trkpt><trkpt lat="48.675339" lon="-113.578113"><ele>1379.827</ele><time>2026-06-02T23:59:39Z</time></trkpt><trkpt lat="48.675338" lon="-113.5781"><ele>1380.460</ele><time>2026-06-02T23:59:39Z</time></trkpt><trkpt lat="48.675339" lon="-113.578072"><ele>1381.171</ele><time>2026-06-02T23:59:40Z</time></trkpt><trkpt lat="48.675336" lon="-113.578059"><ele>1381.589</ele><time>2026-06-02T23:59:40Z</time></trkpt><trkpt lat="48.675303" lon="-113.578021"><ele>1382.823</ele><time>2026-06-02T23:59:40Z</time></trkpt><trkpt lat="48.675296" lon="-113.578013"><ele>1383.083</ele><time>2026-06-02T23:59:40Z</time></trkpt><trkpt lat="48.67528" lon="-113.577955"><ele>1383.811</ele><time>2026-06-02T23:59:41Z</time></trkpt><trkpt lat="48.675271" lon="-113.577907"><ele>1384.409</ele><time>2026-06-02T23:59:41Z</time></trkpt><trkpt lat="48.675258" lon="-113.57787"><ele>1385.014</ele><time>2026-06-02T23:59:41Z</time></trkpt><trkpt lat="48.675241" lon="-113.57784"><ele>1386.048</ele><time>2026-06-02T23:59:42Z</time></trkpt><trkpt lat="48.675223" lon="-113.577827"><ele>1387.049</ele><time>2026-06-02T23:59:42Z</time></trkpt><trkpt lat="48.675215" lon="-113.577823"><ele>1387.487</ele><time>2026-06-02T23:59:42Z</time></trkpt><trkpt lat="48.675165" lon="-113.577811"><ele>1388.176</ele><time>2026-06-02T23:59:43Z</time></trkpt><trkpt lat="48.675146" lon="-113.577797"><ele>1388.460</ele><time>2026-06-02T23:59:43Z</time></trkpt><trkpt lat="48.675141" lon="-113.577792"><ele>1388.433</ele><time>2026-06-02T23:59:43Z</time></trkpt><trkpt lat="48.675128" lon="-113.577761"><ele>1389.164</ele><time>2026-06-02T23:59:43Z</time></trkpt><trkpt lat="48.675123" lon="-113.577733"><ele>1389.012</ele><time>2026-06-02T23:59:43Z</time></trkpt><trkpt lat="48.675119" lon="-113.57769"><ele>1388.517</ele><time>2026-06-02T23:59:43Z</time></trkpt><trkpt lat="48.675123" lon="-113.57763"><ele>1388.587</ele><time>2026-06-02T23:59:43Z</time></trkpt><trkpt lat="48.675132" lon="-113.577606"><ele>1389.515</ele><time>2026-06-02T23:59:43Z</time></trkpt><trkpt lat="48.675132" lon="-113.577606"><ele>1389.509</ele><time>2026-06-02T23:59:43Z</time></trkpt><trkpt lat="48.675129" lon="-113.577609"><ele>1389.113</ele><time>2026-06-02T23:59:43Z</time></trkpt><trkpt lat="48.675106" lon="-113.577657"><ele>1388.177</ele><time>2026-06-02T23:59:44Z</time></trkpt><trkpt lat="48.675122" lon="-113.577698"><ele>1388.498</ele><time>2026-06-02T23:59:43Z</time></trkpt><trkpt lat="48.675131" lon="-113.577677"><ele>1389.126</ele><time>2026-06-02T23:59:43Z</time></trkpt><trkpt lat="48.675142" lon="-113.577756"><ele>1388.875</ele><time>2026-06-02T23:59:43Z</time></trkpt><trkpt lat="48.675155" lon="-113.57783"><ele>1389.429</ele><time>2026-06-02T23:59:43Z</time></trkpt><trkpt lat="48.67516" lon="-113.577831"><ele>1389.852</ele><time>2026-06-02T23:59:43Z</time></trkpt><trkpt lat="48.675156" lon="-113.577832"><ele>1389.843</ele><time>2026-06-02T23:59:43Z</time></trkpt><trkpt lat="48.675152" lon="-113.577855"><ele>1389.571</ele><time>2026-06-02T23:59:43Z</time></trkpt><trkpt lat="48.675139" lon="-113.577869"><ele>1390.183</ele><time>2026-06-02T23:59:43Z</time></trkpt><trkpt lat="48.675123" lon="-113.57792"><ele>1389.825</ele><time>2026-06-02T23:59:43Z</time></trkpt><trkpt lat="48.675122" lon="-113.577921"><ele>1390.417</ele><time>2026-06-02T23:59:43Z</time></trkpt><trkpt lat="48.675132" lon="-113.57793"><ele>1389.409</ele><time>2026-06-02T23:59:43Z</time></trkpt><trkpt lat="48.675108" lon="-113.577984"><ele>1388.540</ele><time>2026-06-02T23:59:43Z</time></trkpt><trkpt lat="48.675113" lon="-113.577975"><ele>1388.134</ele><time>2026-06-02T23:59:43Z</time></trkpt><trkpt lat="48.67513" lon="-113.577952"><ele>1388.855</ele><time>2026-06-02T23:59:43Z</time></trkpt><trkpt lat="48.675134" lon="-113.577934"><ele>1389.463</ele><time>2026-06-02T23:59:43Z</time></trkpt><trkpt lat="48.675138" lon="-113.577931"><ele>1389.842</ele><time>2026-06-02T23:59:43Z</time></trkpt><trkpt lat="48.675124" lon="-113.57798"><ele>1389.416</ele><time>2026-06-02T23:59:43Z</time></trkpt><trkpt lat="48.67512" lon="-113.577995"><ele>1389.129</ele><time>2026-06-02T23:59:43Z</time></trkpt><trkpt lat="48.675119" lon="-113.578056"><ele>1388.090</ele><time>2026-06-02T23:59:43Z</time></trkpt><trkpt lat="48.675123" lon="-113.578104"><ele>1387.468</ele><time>2026-06-02T23:59:43Z</time></trkpt><trkpt lat="48.675126" lon="-113.578137"><ele>1387.023</ele><time>2026-06-02T23:59:43Z</time></trkpt><trkpt lat="48.675112" lon="-113.578201"><ele>1385.883</ele><time>2026-06-02T23:59:43Z</time></trkpt><trkpt lat="48.67511" lon="-113.578219"><ele>1385.511</ele><time>2026-06-02T23:59:43Z</time></trkpt><trkpt lat="48.67511" lon="-113.578313"><ele>1384.509</ele><time>2026-06-02T23:59:44Z</time></trkpt><trkpt lat="48.675113" lon="-113.578335"><ele>1384.474</ele><time>2026-06-02T23:59:44Z</time></trkpt><trkpt lat="48.675115" lon="-113.578355"><ele>1384.148</ele><time>2026-06-02T23:59:44Z</time></trkpt><trkpt lat="48.675116" lon="-113.578386"><ele>1383.819</ele><time>2026-06-02T23:59:44Z</time></trkpt><trkpt lat="48.675117" lon="-113.578404"><ele>1383.587</ele><time>2026-06-02T23:59:44Z</time></trkpt><trkpt lat="48.67512" lon="-113.578482"><ele>1383.466</ele><time>2026-06-02T23:59:44Z</time></trkpt><trkpt lat="48.67513" lon="-113.578495"><ele>1383.070</ele><time>2026-06-02T23:59:44Z</time></trkpt><trkpt lat="48.675147" lon="-113.578508"><ele>1383.083</ele><time>2026-06-02T23:59:43Z</time></trkpt><trkpt lat="48.67519" lon="-113.578545"><ele>1382.454</ele><time>2026-06-02T23:59:43Z</time></trkpt><trkpt lat="48.67521" lon="-113.578563"><ele>1382.182</ele><time>2026-06-02T23:59:42Z</time></trkpt><trkpt lat="48.67523" lon="-113.578636"><ele>1381.192</ele><time>2026-06-02T23:59:42Z</time></trkpt><trkpt lat="48.67523" lon="-113.57865"><ele>1381.173</ele><time>2026-06-02T23:59:42Z</time></trkpt><trkpt lat="48.675223" lon="-113.578712"><ele>1380.020</ele><time>2026-06-02T23:59:43Z</time></trkpt><trkpt lat="48.675231" lon="-113.578736"><ele>1379.409</ele><time>2026-06-02T23:59:43Z</time></trkpt><trkpt lat="48.675237" lon="-113.578736"><ele>1379.121</ele><time>2026-06-02T23:59:42Z</time></trkpt><trkpt lat="48.675244" lon="-113.578738"><ele>1378.895</ele><time>2026-06-02T23:59:42Z</time></trkpt><trkpt lat="48.675272" lon="-113.578747"><ele>1377.826</ele><time>2026-06-02T23:59:42Z</time></trkpt><trkpt lat="48.675293" lon="-113.578759"><ele>1377.124</ele><time>2026-06-02T23:59:41Z</time></trkpt><trkpt lat="48.675305" lon="-113.578777"><ele>1377.033</ele><time>2026-06-02T23:59:41Z</time></trkpt><trkpt lat="48.67532" lon="-113.578807"><ele>1376.837</ele><time>2026-06-02T23:59:41Z</time></trkpt><trkpt lat="48.675327" lon="-113.578887"><ele>1376.840</ele><time>2026-06-02T23:59:41Z</time></trkpt><trkpt lat="48.67537" lon="-113.578964"><ele>1378.051</ele><time>2026-06-02T23:59:40Z</time></trkpt><trkpt lat="48.675396" lon="-113.578993"><ele>1378.519</ele><time>2026-06-02T23:59:40Z</time></trkpt><trkpt lat="48.675416" lon="-113.579013"><ele>1379.051</ele><time>2026-06-02T23:59:39Z</time></trkpt><trkpt lat="48.675427" lon="-113.579047"><ele>1380.001</ele><time>2026-06-02T23:59:39Z</time></trkpt><trkpt lat="48.67543" lon="-113.579057"><ele>1380.111</ele><time>2026-06-02T23:59:39Z</time></trkpt><trkpt lat="48.675432" lon="-113.579064"><ele>1380.409</ele><time>2026-06-02T23:59:39Z</time></trkpt><trkpt lat="48.675442" lon="-113.579132"><ele>1381.097</ele><time>2026-06-02T23:59:40Z</time></trkpt><trkpt lat="48.675461" lon="-113.579231"><ele>1380.891</ele><time>2026-06-02T23:59:40Z</time></trkpt><trkpt lat="48.675482" lon="-113.579332"><ele>1381.442</ele><time>2026-06-02T23:59:42Z</time></trkpt><trkpt lat="48.675491" lon="-113.579365"><ele>1381.410</ele><time>2026-06-02T23:59:42Z</time></trkpt><trkpt lat="48.675514" lon="-113.579461"><ele>1381.899</ele><time>2026-06-02T23:59:44Z</time></trkpt><trkpt lat="48.675519" lon="-113.579505"><ele>1382.093</ele><time>2026-06-02T23:59:45Z</time></trkpt><trkpt lat="48.675523" lon="-113.579553"><ele>1382.056</ele><time>2026-06-02T23:59:47Z</time></trkpt><trkpt lat="48.675526" lon="-113.57963"><ele>1382.167</ele><time>2026-06-02T23:59:51Z</time></trkpt><trkpt lat="48.675532" lon="-113.579771"><ele>1382.155</ele><time>2026-06-02T23:59:58Z</time></trkpt><trkpt lat="48.675539" lon="-113.579913"><ele>1382.022</ele><time>2026-06-03T00:00:06Z</time></trkpt><trkpt lat="48.675569" lon="-113.580068"><ele>1382.162</ele><time>2026-06-03T00:00:17Z</time></trkpt><trkpt lat="48.67565" lon="-113.580188"><ele>1382.108</ele><time>2026-06-03T00:00:29Z</time></trkpt><trkpt lat="48.675708" lon="-113.580265"><ele>1382.009</ele><time>2026-06-03T00:00:40Z</time></trkpt><trkpt lat="48.675715" lon="-113.5803"><ele>1382.074</ele><time>2026-06-03T00:00:43Z</time></trkpt><trkpt lat="48.675704" lon="-113.580336"><ele>1382.038</ele><time>2026-06-03T00:00:43Z</time></trkpt><trkpt lat="48.675668" lon="-113.580414"><ele>1382.139</ele><time>2026-06-03T00:00:42Z</time></trkpt><trkpt lat="48.67568" lon="-113.580547"><ele>1382.437</ele><time>2026-06-03T00:00:46Z</time></trkpt><trkpt lat="48.675684" lon="-113.580582"><ele>1382.486</ele><time>2026-06-03T00:00:46Z</time></trkpt><trkpt lat="48.675684" lon="-113.580583"><ele>1382.470</ele><time>2026-06-03T00:00:46Z</time></trkpt><trkpt lat="48.67568" lon="-113.580586"><ele>1382.483</ele><time>2026-06-03T00:00:46Z</time></trkpt><trkpt lat="48.67571" lon="-113.580647"><ele>1382.564</ele><time>2026-06-03T00:00:49Z</time></trkpt><trkpt lat="48.675752" lon="-113.580719"><ele>1382.572</ele><time>2026-06-03T00:00:52Z</time></trkpt><trkpt lat="48.675788" lon="-113.580772"><ele>1382.442</ele><time>2026-06-03T00:00:54Z</time></trkpt><trkpt lat="48.675803" lon="-113.58079"><ele>1382.522</ele><time>2026-06-03T00:00:55Z</time></trkpt><trkpt lat="48.675813" lon="-113.580795"><ele>1382.514</ele><time>2026-06-03T00:00:56Z</time></trkpt><trkpt lat="48.675807" lon="-113.58079"><ele>1382.409</ele><time>2026-06-03T00:00:56Z</time></trkpt><trkpt lat="48.675814" lon="-113.580811"><ele>1382.466</ele><time>2026-06-03T00:00:56Z</time></trkpt><trkpt lat="48.675819" lon="-113.580826"><ele>1382.420</ele><time>2026-06-03T00:00:55Z</time></trkpt><trkpt lat="48.675824" lon="-113.580839"><ele>1382.551</ele><time>2026-06-03T00:00:55Z</time></trkpt><trkpt lat="48.675837" lon="-113.580877"><ele>1382.859</ele><time>2026-06-03T00:00:55Z</time></trkpt><trkpt lat="48.675856" lon="-113.58099"><ele>1382.558</ele><time>2026-06-03T00:00:53Z</time></trkpt><trkpt lat="48.675861" lon="-113.58104"><ele>1383.062</ele><time>2026-06-03T00:00:51Z</time></trkpt><trkpt lat="48.67588" lon="-113.581154"><ele>1382.565</ele><time>2026-06-03T00:00:48Z</time></trkpt><trkpt lat="48.675895" lon="-113.581241"><ele>1382.116</ele><time>2026-06-03T00:00:46Z</time></trkpt><trkpt lat="48.675904" lon="-113.581291"><ele>1382.044</ele><time>2026-06-03T00:00:45Z</time></trkpt><trkpt lat="48.675917" lon="-113.581345"><ele>1382.049</ele><time>2026-06-03T00:00:44Z</time></trkpt><trkpt lat="48.675923" lon="-113.581393"><ele>1381.802</ele><time>2026-06-03T00:00:42Z</time></trkpt><trkpt lat="48.675932" lon="-113.581451"><ele>1381.122</ele><time>2026-06-03T00:00:41Z</time></trkpt><trkpt lat="48.675953" lon="-113.5816"><ele>1380.409</ele><time>2026-06-03T00:00:38Z</time></trkpt><trkpt lat="48.675955" lon="-113.581621"><ele>1380.166</ele><time>2026-06-03T00:00:37Z</time></trkpt><trkpt lat="48.675943" lon="-113.581731"><ele>1379.140</ele><time>2026-06-03T00:00:35Z</time></trkpt><trkpt lat="48.675946" lon="-113.581859"><ele>1378.091</ele><time>2026-06-03T00:00:33Z</time></trkpt><trkpt lat="48.675946" lon="-113.581899"><ele>1377.589</ele><time>2026-06-03T00:00:32Z</time></trkpt><trkpt lat="48.67595" lon="-113.581959"><ele>1377.028</ele><time>2026-06-03T00:00:31Z</time></trkpt><trkpt lat="48.675956" lon="-113.581981"><ele>1376.892</ele><time>2026-06-03T00:00:31Z</time></trkpt><trkpt lat="48.675975" lon="-113.582089"><ele>1376.155</ele><time>2026-06-03T00:00:29Z</time></trkpt><trkpt lat="48.67599" lon="-113.58215"><ele>1375.846</ele><time>2026-06-03T00:00:29Z</time></trkpt><trkpt lat="48.676019" lon="-113.582272"><ele>1375.034</ele><time>2026-06-03T00:00:27Z</time></trkpt><trkpt lat="48.676023" lon="-113.582301"><ele>1374.883</ele><time>2026-06-03T00:00:27Z</time></trkpt><trkpt lat="48.676032" lon="-113.582363"><ele>1374.525</ele><time>2026-06-03T00:00:26Z</time></trkpt><trkpt lat="48.676039" lon="-113.582384"><ele>1374.517</ele><time>2026-06-03T00:00:26Z</time></trkpt><trkpt lat="48.676086" lon="-113.582521"><ele>1373.809</ele><time>2026-06-03T00:00:25Z</time></trkpt><trkpt lat="48.676095" lon="-113.582533"><ele>1373.810</ele><time>2026-06-03T00:00:24Z</time></trkpt><trkpt lat="48.67616" lon="-113.582592"><ele>1372.824</ele><time>2026-06-03T00:00:24Z</time></trkpt><trkpt lat="48.676183" lon="-113.582622"><ele>1372.585</ele><time>2026-06-03T00:00:23Z</time></trkpt><trkpt lat="48.676195" lon="-113.582691"><ele>1372.413</ele><time>2026-06-03T00:00:23Z</time></trkpt><trkpt lat="48.676193" lon="-113.582706"><ele>1372.412</ele><time>2026-06-03T00:00:23Z</time></trkpt><trkpt lat="48.676223" lon="-113.582829"><ele>1372.446</ele><time>2026-06-03T00:00:22Z</time></trkpt><trkpt lat="48.676271" lon="-113.582947"><ele>1372.839</ele><time>2026-06-03T00:00:21Z</time></trkpt><trkpt lat="48.676312" lon="-113.583048"><ele>1372.810</ele><time>2026-06-03T00:00:20Z</time></trkpt><trkpt lat="48.676324" lon="-113.583077"><ele>1372.568</ele><time>2026-06-03T00:00:20Z</time></trkpt><trkpt lat="48.676342" lon="-113.583106"><ele>1372.823</ele><time>2026-06-03T00:00:19Z</time></trkpt><trkpt lat="48.676373" lon="-113.583141"><ele>1372.883</ele><time>2026-06-03T00:00:19Z</time></trkpt><trkpt lat="48.676412" lon="-113.583194"><ele>1373.011</ele><time>2026-06-03T00:00:19Z</time></trkpt><trkpt lat="48.676489" lon="-113.583311"><ele>1373.109</ele><time>2026-06-03T00:00:18Z</time></trkpt><trkpt lat="48.676522" lon="-113.583332"><ele>1373.164</ele><time>2026-06-03T00:00:18Z</time></trkpt><trkpt lat="48.676546" lon="-113.583339"><ele>1373.018</ele><time>2026-06-03T00:00:17Z</time></trkpt><trkpt lat="48.67658" lon="-113.583374"><ele>1373.049</ele><time>2026-06-03T00:00:17Z</time></trkpt><trkpt lat="48.676611" lon="-113.583488"><ele>1373.477</ele><time>2026-06-03T00:00:16Z</time></trkpt><trkpt lat="48.676633" lon="-113.583564"><ele>1373.566</ele><time>2026-06-03T00:00:16Z</time></trkpt><trkpt lat="48.676652" lon="-113.583621"><ele>1373.580</ele><time>2026-06-03T00:00:16Z</time></trkpt><trkpt lat="48.676707" lon="-113.583789"><ele>1373.813</ele><time>2026-06-03T00:00:15Z</time></trkpt><trkpt lat="48.676733" lon="-113.583913"><ele>1374.114</ele><time>2026-06-03T00:00:14Z</time></trkpt><trkpt lat="48.676749" lon="-113.5841"><ele>1374.542</ele><time>2026-06-03T00:00:14Z</time></trkpt><trkpt lat="48.676746" lon="-113.584279"><ele>1374.183</ele><time>2026-06-03T00:00:13Z</time></trkpt><trkpt lat="48.676772" lon="-113.58438"><ele>1374.425</ele><time>2026-06-03T00:00:13Z</time></trkpt><trkpt lat="48.676777" lon="-113.584403"><ele>1374.817</ele><time>2026-06-03T00:00:13Z</time></trkpt><trkpt lat="48.676787" lon="-113.584485"><ele>1375.809</ele><time>2026-06-03T00:00:13Z</time></trkpt><trkpt lat="48.676788" lon="-113.584501"><ele>1376.060</ele><time>2026-06-03T00:00:13Z</time></trkpt><trkpt lat="48.676834" lon="-113.58465"><ele>1376.024</ele><time>2026-06-03T00:00:12Z</time></trkpt><trkpt lat="48.676859" lon="-113.584784"><ele>1376.545</ele><time>2026-06-03T00:00:12Z</time></trkpt><trkpt lat="48.676848" lon="-113.584906"><ele>1376.023</ele><time>2026-06-03T00:00:11Z</time></trkpt><trkpt lat="48.676873" lon="-113.585031"><ele>1376.042</ele><time>2026-06-03T00:00:11Z</time></trkpt><trkpt lat="48.6769" lon="-113.585197"><ele>1376.486</ele><time>2026-06-03T00:00:11Z</time></trkpt><trkpt lat="48.676913" lon="-113.585236"><ele>1376.479</ele><time>2026-06-03T00:00:11Z</time></trkpt><trkpt lat="48.676925" lon="-113.585303"><ele>1376.570</ele><time>2026-06-03T00:00:11Z</time></trkpt><trkpt lat="48.676951" lon="-113.585417"><ele>1376.488</ele><time>2026-06-03T00:00:10Z</time></trkpt><trkpt lat="48.676976" lon="-113.585473"><ele>1376.125</ele><time>2026-06-03T00:00:10Z</time></trkpt><trkpt lat="48.676988" lon="-113.585509"><ele>1376.126</ele><time>2026-06-03T00:00:10Z</time></trkpt><trkpt lat="48.677006" lon="-113.585566"><ele>1375.808</ele><time>2026-06-03T00:00:10Z</time></trkpt><trkpt lat="48.677037" lon="-113.5857"><ele>1375.109</ele><time>2026-06-03T00:00:10Z</time></trkpt><trkpt lat="48.677051" lon="-113.585773"><ele>1375.414</ele><time>2026-06-03T00:00:10Z</time></trkpt><trkpt lat="48.67707" lon="-113.585797"><ele>1376.018</ele><time>2026-06-03T00:00:09Z</time></trkpt><trkpt lat="48.67708" lon="-113.585837"><ele>1376.149</ele><time>2026-06-03T00:00:09Z</time></trkpt><trkpt lat="48.677126" lon="-113.585982"><ele>1376.517</ele><time>2026-06-03T00:00:09Z</time></trkpt><trkpt lat="48.677161" lon="-113.586083"><ele>1376.496</ele><time>2026-06-03T00:00:09Z</time></trkpt><trkpt lat="48.677172" lon="-113.586232"><ele>1376.010</ele><time>2026-06-03T00:00:09Z</time></trkpt><trkpt lat="48.677163" lon="-113.586382"><ele>1375.883</ele><time>2026-06-03T00:00:09Z</time></trkpt><trkpt lat="48.677172" lon="-113.586437"><ele>1376.074</ele><time>2026-06-03T00:00:08Z</time></trkpt><trkpt lat="48.677179" lon="-113.586573"><ele>1375.872</ele><time>2026-06-03T00:00:08Z</time></trkpt><trkpt lat="48.677207" lon="-113.586694"><ele>1376.097</ele><time>2026-06-03T00:00:08Z</time></trkpt><trkpt lat="48.677212" lon="-113.586802"><ele>1376.123</ele><time>2026-06-03T00:00:08Z</time></trkpt><trkpt lat="48.677209" lon="-113.586877"><ele>1376.025</ele><time>2026-06-03T00:00:08Z</time></trkpt><trkpt lat="48.677226" lon="-113.586955"><ele>1376.409</ele><time>2026-06-03T00:00:08Z</time></trkpt><trkpt lat="48.677242" lon="-113.587009"><ele>1377.051</ele><time>2026-06-03T00:00:08Z</time></trkpt><trkpt lat="48.677265" lon="-113.587095"><ele>1377.495</ele><time>2026-06-03T00:00:08Z</time></trkpt><trkpt lat="48.677283" lon="-113.587265"><ele>1377.516</ele><time>2026-06-03T00:00:07Z</time></trkpt><trkpt lat="48.677312" lon="-113.587448"><ele>1377.444</ele><time>2026-06-03T00:00:07Z</time></trkpt><trkpt lat="48.677334" lon="-113.587583"><ele>1377.093</ele><time>2026-06-03T00:00:07Z</time></trkpt><trkpt lat="48.677368" lon="-113.587759"><ele>1376.867</ele><time>2026-06-03T00:00:07Z</time></trkpt><trkpt lat="48.677379" lon="-113.587815"><ele>1377.020</ele><time>2026-06-03T00:00:07Z</time></trkpt><trkpt lat="48.677393" lon="-113.587892"><ele>1377.191</ele><time>2026-06-03T00:00:07Z</time></trkpt><trkpt lat="48.677411" lon="-113.588031"><ele>1378.099</ele><time>2026-06-03T00:00:07Z</time></trkpt><trkpt lat="48.677416" lon="-113.588039"><ele>1378.199</ele><time>2026-06-03T00:00:07Z</time></trkpt><trkpt lat="48.677428" lon="-113.588089"><ele>1379.107</ele><time>2026-06-03T00:00:07Z</time></trkpt><trkpt lat="48.67743" lon="-113.588103"><ele>1379.427</ele><time>2026-06-03T00:00:07Z</time></trkpt><trkpt lat="48.677445" lon="-113.588162"><ele>1380.009</ele><time>2026-06-03T00:00:07Z</time></trkpt><trkpt lat="48.677451" lon="-113.588182"><ele>1380.041</ele><time>2026-06-03T00:00:07Z</time></trkpt><trkpt lat="48.677459" lon="-113.588213"><ele>1380.135</ele><time>2026-06-03T00:00:07Z</time></trkpt><trkpt lat="48.677463" lon="-113.588225"><ele>1380.136</ele><time>2026-06-03T00:00:07Z</time></trkpt><trkpt lat="48.677467" lon="-113.588355"><ele>1379.854</ele><time>2026-06-03T00:00:06Z</time></trkpt><trkpt lat="48.677478" lon="-113.588475"><ele>1379.563</ele><time>2026-06-03T00:00:06Z</time></trkpt><trkpt lat="48.677487" lon="-113.588526"><ele>1379.497</ele><time>2026-06-03T00:00:06Z</time></trkpt><trkpt lat="48.677496" lon="-113.588568"><ele>1379.430</ele><time>2026-06-03T00:00:06Z</time></trkpt><trkpt lat="48.677521" lon="-113.588685"><ele>1380.051</ele><time>2026-06-03T00:00:06Z</time></trkpt><trkpt lat="48.677541" lon="-113.588791"><ele>1380.469</ele><time>2026-06-03T00:00:06Z</time></trkpt><trkpt lat="48.677543" lon="-113.588804"><ele>1380.518</ele><time>2026-06-03T00:00:06Z</time></trkpt><trkpt lat="48.677569" lon="-113.588934"><ele>1381.198</ele><time>2026-06-03T00:00:06Z</time></trkpt><trkpt lat="48.67758" lon="-113.588985"><ele>1381.417</ele><time>2026-06-03T00:00:06Z</time></trkpt><trkpt lat="48.677594" lon="-113.589015"><ele>1381.809</ele><time>2026-06-03T00:00:06Z</time></trkpt><trkpt lat="48.677619" lon="-113.589104"><ele>1382.423</ele><time>2026-06-03T00:00:06Z</time></trkpt><trkpt lat="48.677622" lon="-113.589113"><ele>1382.577</ele><time>2026-06-03T00:00:06Z</time></trkpt><trkpt lat="48.677617" lon="-113.58919"><ele>1383.028</ele><time>2026-06-03T00:00:06Z</time></trkpt><trkpt lat="48.677612" lon="-113.589315"><ele>1383.446</ele><time>2026-06-03T00:00:06Z</time></trkpt><trkpt lat="48.677614" lon="-113.589391"><ele>1383.535</ele><time>2026-06-03T00:00:06Z</time></trkpt><trkpt lat="48.677603" lon="-113.589423"><ele>1383.849</ele><time>2026-06-03T00:00:06Z</time></trkpt><trkpt lat="48.677561" lon="-113.589524"><ele>1384.132</ele><time>2026-06-03T00:00:06Z</time></trkpt><trkpt lat="48.677529" lon="-113.589622"><ele>1384.593</ele><time>2026-06-03T00:00:06Z</time></trkpt><trkpt lat="48.677518" lon="-113.589653"><ele>1385.061</ele><time>2026-06-03T00:00:06Z</time></trkpt><trkpt lat="48.677504" lon="-113.589739"><ele>1385.547</ele><time>2026-06-03T00:00:06Z</time></trkpt><trkpt lat="48.677507" lon="-113.589757"><ele>1385.829</ele><time>2026-06-03T00:00:06Z</time></trkpt><trkpt lat="48.677508" lon="-113.589955"><ele>1385.421</ele><time>2026-06-03T00:00:05Z</time></trkpt><trkpt lat="48.677504" lon="-113.590132"><ele>1385.009</ele><time>2026-06-03T00:00:05Z</time></trkpt><trkpt lat="48.677473" lon="-113.590283"><ele>1384.826</ele><time>2026-06-03T00:00:05Z</time></trkpt><trkpt lat="48.677459" lon="-113.590347"><ele>1384.850</ele><time>2026-06-03T00:00:05Z</time></trkpt><trkpt lat="48.677445" lon="-113.590435"><ele>1385.021</ele><time>2026-06-03T00:00:05Z</time></trkpt><trkpt lat="48.677441" lon="-113.59042"><ele>1385.029</ele><time>2026-06-03T00:00:05Z</time></trkpt><trkpt lat="48.677438" lon="-113.590463"><ele>1384.858</ele><time>2026-06-03T00:00:05Z</time></trkpt><trkpt lat="48.677443" lon="-113.590582"><ele>1384.812</ele><time>2026-06-03T00:00:05Z</time></trkpt><trkpt lat="48.677471" lon="-113.59071"><ele>1384.895</ele><time>2026-06-03T00:00:05Z</time></trkpt><trkpt lat="48.677479" lon="-113.590836"><ele>1385.136</ele><time>2026-06-03T00:00:05Z</time></trkpt><trkpt lat="48.67748" lon="-113.590906"><ele>1385.164</ele><time>2026-06-03T00:00:05Z</time></trkpt><trkpt lat="48.677485" lon="-113.590935"><ele>1385.184</ele><time>2026-06-03T00:00:05Z</time></trkpt><trkpt lat="48.677489" lon="-113.590971"><ele>1385.107</ele><time>2026-06-03T00:00:05Z</time></trkpt><trkpt lat="48.677496" lon="-113.591036"><ele>1384.817</ele><time>2026-06-03T00:00:05Z</time></trkpt><trkpt lat="48.677501" lon="-113.591048"><ele>1384.809</ele><time>2026-06-03T00:00:05Z</time></trkpt><trkpt lat="48.677505" lon="-113.591066"><ele>1384.540</ele><time>2026-06-03T00:00:05Z</time></trkpt><trkpt lat="48.677514" lon="-113.591134"><ele>1384.164</ele><time>2026-06-03T00:00:05Z</time></trkpt><trkpt lat="48.677534" lon="-113.591207"><ele>1383.545</ele><time>2026-06-03T00:00:05Z</time></trkpt><trkpt lat="48.677542" lon="-113.59129"><ele>1383.563</ele><time>2026-06-03T00:00:05Z</time></trkpt><trkpt lat="48.677587" lon="-113.591444"><ele>1383.042</ele><time>2026-06-03T00:00:05Z</time></trkpt><trkpt lat="48.677602" lon="-113.591549"><ele>1382.746</ele><time>2026-06-03T00:00:05Z</time></trkpt><trkpt lat="48.677606" lon="-113.591576"><ele>1382.699</ele><time>2026-06-03T00:00:05Z</time></trkpt><trkpt lat="48.677591" lon="-113.591603"><ele>1382.570</ele><time>2026-06-03T00:00:05Z</time></trkpt><trkpt lat="48.677512" lon="-113.591667"><ele>1382.818</ele><time>2026-06-03T00:00:05Z</time></trkpt><trkpt lat="48.67742" lon="-113.591716"><ele>1383.089</ele><time>2026-06-03T00:00:05Z</time></trkpt><trkpt lat="48.67739" lon="-113.59174"><ele>1382.806</ele><time>2026-06-03T00:00:05Z</time></trkpt><trkpt lat="48.677369" lon="-113.591758"><ele>1382.526</ele><time>2026-06-03T00:00:05Z</time></trkpt><trkpt lat="48.677327" lon="-113.591802"><ele>1381.809</ele><time>2026-06-03T00:00:05Z</time></trkpt><trkpt lat="48.677307" lon="-113.591828"><ele>1381.450</ele><time>2026-06-03T00:00:05Z</time></trkpt><trkpt lat="48.677296" lon="-113.59184"><ele>1381.154</ele><time>2026-06-03T00:00:05Z</time></trkpt><trkpt lat="48.677208" lon="-113.591921"><ele>1380.595</ele><time>2026-06-03T00:00:05Z</time></trkpt><trkpt lat="48.677175" lon="-113.591973"><ele>1380.133</ele><time>2026-06-03T00:00:05Z</time></trkpt><trkpt lat="48.677131" lon="-113.592039"><ele>1379.812</ele><time>2026-06-03T00:00:05Z</time></trkpt><trkpt lat="48.677083" lon="-113.592102"><ele>1379.176</ele><time>2026-06-03T00:00:05Z</time></trkpt><trkpt lat="48.677052" lon="-113.592169"><ele>1378.889</ele><time>2026-06-03T00:00:05Z</time></trkpt><trkpt lat="48.677034" lon="-113.592205"><ele>1378.150</ele><time>2026-06-03T00:00:05Z</time></trkpt><trkpt lat="48.677014" lon="-113.592237"><ele>1377.438</ele><time>2026-06-03T00:00:05Z</time></trkpt><trkpt lat="48.676984" lon="-113.592298"><ele>1377.131</ele><time>2026-06-03T00:00:05Z</time></trkpt><trkpt lat="48.676967" lon="-113.592328"><ele>1377.061</ele><time>2026-06-03T00:00:05Z</time></trkpt><trkpt lat="48.676956" lon="-113.592361"><ele>1376.507</ele><time>2026-06-03T00:00:05Z</time></trkpt><trkpt lat="48.676942" lon="-113.592408"><ele>1376.009</ele><time>2026-06-03T00:00:04Z</time></trkpt><trkpt lat="48.676885" lon="-113.592548"><ele>1375.535</ele><time>2026-06-03T00:00:04Z</time></trkpt><trkpt lat="48.67685" lon="-113.592639"><ele>1375.529</ele><time>2026-06-03T00:00:04Z</time></trkpt><trkpt lat="48.676834" lon="-113.592711"><ele>1375.020</ele><time>2026-06-03T00:00:04Z</time></trkpt><trkpt lat="48.676794" lon="-113.592887"><ele>1374.848</ele><time>2026-06-03T00:00:04Z</time></trkpt><trkpt lat="48.676789" lon="-113.593031"><ele>1375.117</ele><time>2026-06-03T00:00:04Z</time></trkpt><trkpt lat="48.676764" lon="-113.593099"><ele>1375.421</ele><time>2026-06-03T00:00:04Z</time></trkpt><trkpt lat="48.67668" lon="-113.593189"><ele>1375.474</ele><time>2026-06-03T00:00:04Z</time></trkpt><trkpt lat="48.676671" lon="-113.593254"><ele>1375.425</ele><time>2026-06-03T00:00:04Z</time></trkpt><trkpt lat="48.676664" lon="-113.593306"><ele>1375.493</ele><time>2026-06-03T00:00:04Z</time></trkpt><trkpt lat="48.676682" lon="-113.59335"><ele>1375.566</ele><time>2026-06-03T00:00:04Z</time></trkpt><trkpt lat="48.676691" lon="-113.59337"><ele>1375.829</ele><time>2026-06-03T00:00:04Z</time></trkpt><trkpt lat="48.676697" lon="-113.593378"><ele>1376.021</ele><time>2026-06-03T00:00:04Z</time></trkpt><trkpt lat="48.676701" lon="-113.593385"><ele>1376.109</ele><time>2026-06-03T00:00:04Z</time></trkpt><trkpt lat="48.676722" lon="-113.593416"><ele>1376.418</ele><time>2026-06-03T00:00:04Z</time></trkpt><trkpt lat="48.676754" lon="-113.593444"><ele>1377.172</ele><time>2026-06-03T00:00:04Z</time></trkpt><trkpt lat="48.676761" lon="-113.59345"><ele>1377.153</ele><time>2026-06-03T00:00:04Z</time></trkpt><trkpt lat="48.676767" lon="-113.59346"><ele>1377.161</ele><time>2026-06-03T00:00:04Z</time></trkpt><trkpt lat="48.676793" lon="-113.593511"><ele>1377.050</ele><time>2026-06-03T00:00:04Z</time></trkpt><trkpt lat="48.676812" lon="-113.593587"><ele>1377.424</ele><time>2026-06-03T00:00:04Z</time></trkpt><trkpt lat="48.676816" lon="-113.593596"><ele>1377.517</ele><time>2026-06-03T00:00:04Z</time></trkpt><trkpt lat="48.676839" lon="-113.593632"><ele>1378.488</ele><time>2026-06-03T00:00:04Z</time></trkpt><trkpt lat="48.67685" lon="-113.593634"><ele>1378.446</ele><time>2026-06-03T00:00:04Z</time></trkpt><trkpt lat="48.676865" lon="-113.593632"><ele>1378.066</ele><time>2026-06-03T00:00:04Z</time></trkpt><trkpt lat="48.676863" lon="-113.593629"><ele>1378.429</ele><time>2026-06-03T00:00:04Z</time></trkpt><trkpt lat="48.676836" lon="-113.593641"><ele>1378.521</ele><time>2026-06-03T00:00:04Z</time></trkpt><trkpt lat="48.676843" lon="-113.593626"><ele>1378.809</ele><time>2026-06-03T00:00:04Z</time></trkpt><trkpt lat="48.676879" lon="-113.593597"><ele>1379.088</ele><time>2026-06-03T00:00:04Z</time></trkpt><trkpt lat="48.676881" lon="-113.593639"><ele>1378.872</ele><time>2026-06-03T00:00:04Z</time></trkpt><trkpt lat="48.676879" lon="-113.593643"><ele>1379.083</ele><time>2026-06-03T00:00:04Z</time></trkpt><trkpt lat="48.676871" lon="-113.593632"><ele>1379.041</ele><time>2026-06-03T00:00:04Z</time></trkpt><trkpt lat="48.676869" lon="-113.593605"><ele>1379.060</ele><time>2026-06-03T00:00:04Z</time></trkpt><trkpt lat="48.676866" lon="-113.593606"><ele>1379.464</ele><time>2026-06-03T00:00:04Z</time></trkpt><trkpt lat="48.676879" lon="-113.593635"><ele>1378.827</ele><time>2026-06-03T00:00:04Z</time></trkpt><trkpt lat="48.676866" lon="-113.593644"><ele>1379.018</ele><time>2026-06-03T00:00:04Z</time></trkpt><trkpt lat="48.676858" lon="-113.593654"><ele>1379.186</ele><time>2026-06-03T00:00:04Z</time></trkpt><trkpt lat="48.676854" lon="-113.593648"><ele>1379.126</ele><time>2026-06-03T00:00:04Z</time></trkpt><trkpt lat="48.676838" lon="-113.593641"><ele>1379.847</ele><time>2026-06-03T00:00:04Z</time></trkpt><trkpt lat="48.676842" lon="-113.593647"><ele>1379.411</ele><time>2026-06-03T00:00:04Z</time></trkpt><trkpt lat="48.676862" lon="-113.593626"><ele>1379.009</ele><time>2026-06-03T00:00:04Z</time></trkpt><trkpt lat="48.676876" lon="-113.593634"><ele>1379.434</ele><time>2026-06-03T00:00:04Z</time></trkpt><trkpt lat="48.676871" lon="-113.593643"><ele>1379.488</ele><time>2026-06-03T00:00:04Z</time></trkpt><trkpt lat="48.676808" lon="-113.593609"><ele>1379.469</ele><time>2026-06-03T00:00:04Z</time></trkpt><trkpt lat="48.676821" lon="-113.59361"><ele>1379.047</ele><time>2026-06-03T00:00:04Z</time></trkpt><trkpt lat="48.676816" lon="-113.593639"><ele>1379.146</ele><time>2026-06-03T00:00:04Z</time></trkpt><trkpt lat="48.67683" lon="-113.593649"><ele>1379.410</ele><time>2026-06-03T00:00:04Z</time></trkpt><trkpt lat="48.676813" lon="-113.593597"><ele>1379.133</ele><time>2026-06-03T00:00:04Z</time></trkpt><trkpt lat="48.676788" lon="-113.593556"><ele>1378.484</ele><time>2026-06-03T00:00:04Z</time></trkpt><trkpt lat="48.676779" lon="-113.593532"><ele>1378.152</ele><time>2026-06-03T00:00:04Z</time></trkpt><trkpt lat="48.67676" lon="-113.593414"><ele>1378.193</ele><time>2026-06-03T00:00:04Z</time></trkpt><trkpt lat="48.676684" lon="-113.593356"><ele>1377.565</ele><time>2026-06-03T00:00:04Z</time></trkpt><trkpt lat="48.67667" lon="-113.593287"><ele>1377.121</ele><time>2026-06-03T00:00:04Z</time></trkpt><trkpt lat="48.676681" lon="-113.593247"><ele>1377.109</ele><time>2026-06-03T00:00:04Z</time></trkpt><trkpt lat="48.67669" lon="-113.593145"><ele>1377.021</ele><time>2026-06-03T00:00:04Z</time></trkpt><trkpt lat="48.676699" lon="-113.593142"><ele>1377.065</ele><time>2026-06-03T00:00:04Z</time></trkpt><trkpt lat="48.67677" lon="-113.593086"><ele>1377.196</ele><time>2026-06-03T00:00:04Z</time></trkpt><trkpt lat="48.676779" lon="-113.593076"><ele>1377.144</ele><time>2026-06-03T00:00:04Z</time></trkpt><trkpt lat="48.676793" lon="-113.593032"><ele>1377.123</ele><time>2026-06-03T00:00:04Z</time></trkpt><trkpt lat="48.676802" lon="-113.592995"><ele>1377.147</ele><time>2026-06-03T00:00:04Z</time></trkpt><trkpt lat="48.676799" lon="-113.592892"><ele>1377.140</ele><time>2026-06-03T00:00:04Z</time></trkpt><trkpt lat="48.676799" lon="-113.592876"><ele>1377.111</ele><time>2026-06-03T00:00:04Z</time></trkpt><trkpt lat="48.676811" lon="-113.592781"><ele>1377.049</ele><time>2026-06-03T00:00:04Z</time></trkpt><trkpt lat="48.676814" lon="-113.59273"><ele>1376.814</ele><time>2026-06-03T00:00:04Z</time></trkpt><trkpt lat="48.676838" lon="-113.592643"><ele>1377.154</ele><time>2026-06-03T00:00:04Z</time></trkpt><trkpt lat="48.676874" lon="-113.592579"><ele>1378.009</ele><time>2026-06-03T00:00:04Z</time></trkpt><trkpt lat="48.676902" lon="-113.592504"><ele>1377.809</ele><time>2026-06-03T00:00:04Z</time></trkpt><trkpt lat="48.676899" lon="-113.592501"><ele>1378.093</ele><time>2026-06-03T00:00:04Z</time></trkpt><trkpt lat="48.676899" lon="-113.592494"><ele>1378.077</ele><time>2026-06-03T00:00:04Z</time></trkpt><trkpt lat="48.676913" lon="-113.592504"><ele>1377.848</ele><time>2026-06-03T00:00:04Z</time></trkpt><trkpt lat="48.676919" lon="-113.592492"><ele>1378.026</ele><time>2026-06-03T00:00:04Z</time></trkpt><trkpt lat="48.676945" lon="-113.592415"><ele>1378.465</ele><time>2026-06-03T00:00:04Z</time></trkpt><trkpt lat="48.676948" lon="-113.5924"><ele>1378.559</ele><time>2026-06-03T00:00:04Z</time></trkpt><trkpt lat="48.676994" lon="-113.59228"><ele>1379.492</ele><time>2026-06-03T00:00:05Z</time></trkpt><trkpt lat="48.677002" lon="-113.592267"><ele>1379.583</ele><time>2026-06-03T00:00:05Z</time></trkpt><trkpt lat="48.677045" lon="-113.592196"><ele>1380.451</ele><time>2026-06-03T00:00:05Z</time></trkpt><trkpt lat="48.677052" lon="-113.592185"><ele>1380.573</ele><time>2026-06-03T00:00:05Z</time></trkpt><trkpt lat="48.677078" lon="-113.59215"><ele>1381.185</ele><time>2026-06-03T00:00:05Z</time></trkpt><trkpt lat="48.677102" lon="-113.592105"><ele>1381.513</ele><time>2026-06-03T00:00:05Z</time></trkpt><trkpt lat="48.677111" lon="-113.592084"><ele>1382.009</ele><time>2026-06-03T00:00:05Z</time></trkpt><trkpt lat="48.677139" lon="-113.592032"><ele>1382.529</ele><time>2026-06-03T00:00:05Z</time></trkpt><trkpt lat="48.677148" lon="-113.592013"><ele>1382.813</ele><time>2026-06-03T00:00:05Z</time></trkpt><trkpt lat="48.677186" lon="-113.591949"><ele>1382.874</ele><time>2026-06-03T00:00:05Z</time></trkpt><trkpt lat="48.677221" lon="-113.591903"><ele>1383.422</ele><time>2026-06-03T00:00:05Z</time></trkpt><trkpt lat="48.677261" lon="-113.591852"><ele>1383.811</ele><time>2026-06-03T00:00:05Z</time></trkpt><trkpt lat="48.677293" lon="-113.59183"><ele>1383.855</ele><time>2026-06-03T00:00:05Z</time></trkpt><trkpt lat="48.67739" lon="-113.591763"><ele>1385.018</ele><time>2026-06-03T00:00:05Z</time></trkpt><trkpt lat="48.677415" lon="-113.591744"><ele>1385.429</ele><time>2026-06-03T00:00:05Z</time></trkpt><trkpt lat="48.677453" lon="-113.591715"><ele>1385.817</ele><time>2026-06-03T00:00:05Z</time></trkpt><trkpt lat="48.677462" lon="-113.591705"><ele>1386.092</ele><time>2026-06-03T00:00:05Z</time></trkpt><trkpt lat="48.677506" lon="-113.591664"><ele>1386.173</ele><time>2026-06-03T00:00:05Z</time></trkpt><trkpt lat="48.677612" lon="-113.591568"><ele>1386.420</ele><time>2026-06-03T00:00:05Z</time></trkpt><trkpt lat="48.677606" lon="-113.59147"><ele>1386.409</ele><time>2026-06-03T00:00:05Z</time></trkpt><trkpt lat="48.677558" lon="-113.591334"><ele>1386.581</ele><time>2026-06-03T00:00:05Z</time></trkpt><trkpt lat="48.677546" lon="-113.591227"><ele>1386.515</ele><time>2026-06-03T00:00:05Z</time></trkpt><trkpt lat="48.67753" lon="-113.591142"><ele>1387.026</ele><time>2026-06-03T00:00:05Z</time></trkpt><trkpt lat="48.677518" lon="-113.591077"><ele>1387.494</ele><time>2026-06-03T00:00:05Z</time></trkpt><trkpt lat="48.67749" lon="-113.590971"><ele>1388.063</ele><time>2026-06-03T00:00:05Z</time></trkpt><trkpt lat="48.677483" lon="-113.590899"><ele>1388.457</ele><time>2026-06-03T00:00:05Z</time></trkpt><trkpt lat="48.677482" lon="-113.590757"><ele>1388.440</ele><time>2026-06-03T00:00:05Z</time></trkpt><trkpt lat="48.677455" lon="-113.590633"><ele>1388.031</ele><time>2026-06-03T00:00:05Z</time></trkpt><trkpt lat="48.677444" lon="-113.590465"><ele>1387.859</ele><time>2026-06-03T00:00:05Z</time></trkpt><trkpt lat="48.677453" lon="-113.590334"><ele>1387.552</ele><time>2026-06-03T00:00:05Z</time></trkpt><trkpt lat="48.677464" lon="-113.590295"><ele>1387.553</ele><time>2026-06-03T00:00:05Z</time></trkpt><trkpt lat="48.677477" lon="-113.590258"><ele>1387.408</ele><time>2026-06-03T00:00:05Z</time></trkpt><trkpt lat="48.677493" lon="-113.590194"><ele>1387.509</ele><time>2026-06-03T00:00:05Z</time></trkpt><trkpt lat="48.677513" lon="-113.590022"><ele>1388.097</ele><time>2026-06-03T00:00:05Z</time></trkpt><trkpt lat="48.6775" lon="-113.589867"><ele>1388.561</ele><time>2026-06-03T00:00:05Z</time></trkpt><trkpt lat="48.677501" lon="-113.589737"><ele>1389.142</ele><time>2026-06-03T00:00:06Z</time></trkpt><trkpt lat="48.677523" lon="-113.589639"><ele>1388.550</ele><time>2026-06-03T00:00:06Z</time></trkpt><trkpt lat="48.677543" lon="-113.589592"><ele>1388.039</ele><time>2026-06-03T00:00:06Z</time></trkpt><trkpt lat="48.677572" lon="-113.589508"><ele>1388.033</ele><time>2026-06-03T00:00:06Z</time></trkpt><trkpt lat="48.677584" lon="-113.589473"><ele>1387.886</ele><time>2026-06-03T00:00:06Z</time></trkpt><trkpt lat="48.677614" lon="-113.58935"><ele>1387.427</ele><time>2026-06-03T00:00:06Z</time></trkpt><trkpt lat="48.677613" lon="-113.589331"><ele>1387.485</ele><time>2026-06-03T00:00:06Z</time></trkpt><trkpt lat="48.677616" lon="-113.58919"><ele>1387.084</ele><time>2026-06-03T00:00:06Z</time></trkpt><trkpt lat="48.677616" lon="-113.589169"><ele>1386.807</ele><time>2026-06-03T00:00:06Z</time></trkpt><trkpt lat="48.677599" lon="-113.58903"><ele>1386.417</ele><time>2026-06-03T00:00:06Z</time></trkpt><trkpt lat="48.677575" lon="-113.588954"><ele>1385.809</ele><time>2026-06-03T00:00:06Z</time></trkpt><trkpt lat="48.677551" lon="-113.588883"><ele>1385.460</ele><time>2026-06-03T00:00:06Z</time></trkpt><trkpt lat="48.677535" lon="-113.58877"><ele>1384.844</ele><time>2026-06-03T00:00:06Z</time></trkpt><trkpt lat="48.677534" lon="-113.588737"><ele>1384.445</ele><time>2026-06-03T00:00:06Z</time></trkpt><trkpt lat="48.677503" lon="-113.588581"><ele>1384.063</ele><time>2026-06-03T00:00:06Z</time></trkpt><trkpt lat="48.677484" lon="-113.588512"><ele>1383.582</ele><time>2026-06-03T00:00:06Z</time></trkpt><trkpt lat="48.677477" lon="-113.588447"><ele>1383.516</ele><time>2026-06-03T00:00:06Z</time></trkpt><trkpt lat="48.677467" lon="-113.588274"><ele>1384.039</ele><time>2026-06-03T00:00:06Z</time></trkpt><trkpt lat="48.677464" lon="-113.588233"><ele>1383.850</ele><time>2026-06-03T00:00:07Z</time></trkpt><trkpt lat="48.677462" lon="-113.588219"><ele>1384.028</ele><time>2026-06-03T00:00:07Z</time></trkpt><trkpt lat="48.677438" lon="-113.588147"><ele>1384.116</ele><time>2026-06-03T00:00:07Z</time></trkpt><trkpt lat="48.677416" lon="-113.588042"><ele>1383.176</ele><time>2026-06-03T00:00:07Z</time></trkpt><trkpt lat="48.677401" lon="-113.587967"><ele>1382.513</ele><time>2026-06-03T00:00:07Z</time></trkpt><trkpt lat="48.677388" lon="-113.587902"><ele>1382.109</ele><time>2026-06-03T00:00:07Z</time></trkpt><trkpt lat="48.677387" lon="-113.587884"><ele>1382.173</ele><time>2026-06-03T00:00:07Z</time></trkpt><trkpt lat="48.677363" lon="-113.587734"><ele>1381.877</ele><time>2026-06-03T00:00:07Z</time></trkpt><trkpt lat="48.677357" lon="-113.587689"><ele>1381.568</ele><time>2026-06-03T00:00:07Z</time></trkpt><trkpt lat="48.677338" lon="-113.587599"><ele>1382.086</ele><time>2026-06-03T00:00:07Z</time></trkpt><trkpt lat="48.677311" lon="-113.587445"><ele>1382.445</ele><time>2026-06-03T00:00:07Z</time></trkpt><trkpt lat="48.677307" lon="-113.587407"><ele>1382.579</ele><time>2026-06-03T00:00:07Z</time></trkpt><trkpt lat="48.677283" lon="-113.587267"><ele>1382.572</ele><time>2026-06-03T00:00:07Z</time></trkpt><trkpt lat="48.677266" lon="-113.587123"><ele>1383.423</ele><time>2026-06-03T00:00:08Z</time></trkpt><trkpt lat="48.677259" lon="-113.587105"><ele>1383.451</ele><time>2026-06-03T00:00:08Z</time></trkpt><trkpt lat="48.677219" lon="-113.586946"><ele>1383.057</ele><time>2026-06-03T00:00:08Z</time></trkpt><trkpt lat="48.677214" lon="-113.586853"><ele>1382.000</ele><time>2026-06-03T00:00:08Z</time></trkpt><trkpt lat="48.677206" lon="-113.58676"><ele>1381.820</ele><time>2026-06-03T00:00:08Z</time></trkpt><trkpt lat="48.677189" lon="-113.586665"><ele>1382.109</ele><time>2026-06-03T00:00:08Z</time></trkpt><trkpt lat="48.677185" lon="-113.586631"><ele>1382.027</ele><time>2026-06-03T00:00:08Z</time></trkpt><trkpt lat="48.67717" lon="-113.586479"><ele>1382.121</ele><time>2026-06-03T00:00:08Z</time></trkpt><trkpt lat="48.677174" lon="-113.586354"><ele>1382.192</ele><time>2026-06-03T00:00:09Z</time></trkpt><trkpt lat="48.677175" lon="-113.586297"><ele>1382.110</ele><time>2026-06-03T00:00:09Z</time></trkpt><trkpt lat="48.677171" lon="-113.58622"><ele>1382.819</ele><time>2026-06-03T00:00:09Z</time></trkpt><trkpt lat="48.677151" lon="-113.586084"><ele>1383.153</ele><time>2026-06-03T00:00:09Z</time></trkpt><trkpt lat="48.677112" lon="-113.585973"><ele>1383.576</ele><time>2026-06-03T00:00:09Z</time></trkpt><trkpt lat="48.677111" lon="-113.585962"><ele>1383.567</ele><time>2026-06-03T00:00:09Z</time></trkpt><trkpt lat="48.67707" lon="-113.58582"><ele>1383.435</ele><time>2026-06-03T00:00:09Z</time></trkpt><trkpt lat="48.677063" lon="-113.585806"><ele>1383.463</ele><time>2026-06-03T00:00:09Z</time></trkpt><trkpt lat="48.67703" lon="-113.585695"><ele>1383.144</ele><time>2026-06-03T00:00:10Z</time></trkpt><trkpt lat="48.677022" lon="-113.585662"><ele>1383.418</ele><time>2026-06-03T00:00:10Z</time></trkpt><trkpt lat="48.676993" lon="-113.585528"><ele>1383.509</ele><time>2026-06-03T00:00:10Z</time></trkpt><trkpt lat="48.676969" lon="-113.585452"><ele>1384.438</ele><time>2026-06-03T00:00:10Z</time></trkpt><trkpt lat="48.676957" lon="-113.585421"><ele>1384.532</ele><time>2026-06-03T00:00:10Z</time></trkpt><trkpt lat="48.676953" lon="-113.585404"><ele>1384.533</ele><time>2026-06-03T00:00:10Z</time></trkpt><trkpt lat="48.676939" lon="-113.585351"><ele>1385.161</ele><time>2026-06-03T00:00:10Z</time></trkpt><trkpt lat="48.676927" lon="-113.585269"><ele>1385.020</ele><time>2026-06-03T00:00:11Z</time></trkpt><trkpt lat="48.676905" lon="-113.585187"><ele>1385.094</ele><time>2026-06-03T00:00:11Z</time></trkpt><trkpt lat="48.676925" lon="-113.585143"><ele>1385.847</ele><time>2026-06-03T00:00:11Z</time></trkpt><trkpt lat="48.676916" lon="-113.585136"><ele>1385.878</ele><time>2026-06-03T00:00:11Z</time></trkpt><trkpt lat="48.676889" lon="-113.585142"><ele>1385.476</ele><time>2026-06-03T00:00:11Z</time></trkpt><trkpt lat="48.6769" lon="-113.585145"><ele>1385.068</ele><time>2026-06-03T00:00:11Z</time></trkpt><trkpt lat="48.676877" lon="-113.585042"><ele>1385.442</ele><time>2026-06-03T00:00:11Z</time></trkpt><trkpt lat="48.676845" lon="-113.58491"><ele>1385.126</ele><time>2026-06-03T00:00:11Z</time></trkpt><trkpt lat="48.676844" lon="-113.584851"><ele>1385.109</ele><time>2026-06-03T00:00:12Z</time></trkpt><trkpt lat="48.676866" lon="-113.584767"><ele>1385.538</ele><time>2026-06-03T00:00:12Z</time></trkpt><trkpt lat="48.676809" lon="-113.584604"><ele>1385.512</ele><time>2026-06-03T00:00:12Z</time></trkpt><trkpt lat="48.676806" lon="-113.584588"><ele>1385.553</ele><time>2026-06-03T00:00:12Z</time></trkpt><trkpt lat="48.676794" lon="-113.584541"><ele>1385.451</ele><time>2026-06-03T00:00:12Z</time></trkpt><trkpt lat="48.676784" lon="-113.584452"><ele>1385.550</ele><time>2026-06-03T00:00:13Z</time></trkpt><trkpt lat="48.676774" lon="-113.584359"><ele>1385.094</ele><time>2026-06-03T00:00:13Z</time></trkpt><trkpt lat="48.676771" lon="-113.584327"><ele>1384.587</ele><time>2026-06-03T00:00:13Z</time></trkpt><trkpt lat="48.676769" lon="-113.584283"><ele>1384.048</ele><time>2026-06-03T00:00:13Z</time></trkpt><trkpt lat="48.676763" lon="-113.584143"><ele>1384.546</ele><time>2026-06-03T00:00:14Z</time></trkpt><trkpt lat="48.676756" lon="-113.584065"><ele>1385.036</ele><time>2026-06-03T00:00:14Z</time></trkpt><trkpt lat="48.676744" lon="-113.583935"><ele>1385.017</ele><time>2026-06-03T00:00:14Z</time></trkpt><trkpt lat="48.676701" lon="-113.583801"><ele>1384.818</ele><time>2026-06-03T00:00:15Z</time></trkpt><trkpt lat="48.676665" lon="-113.583632"><ele>1384.809</ele><time>2026-06-03T00:00:16Z</time></trkpt><trkpt lat="48.676648" lon="-113.583536"><ele>1385.085</ele><time>2026-06-03T00:00:16Z</time></trkpt><trkpt lat="48.67662" lon="-113.583467"><ele>1385.499</ele><time>2026-06-03T00:00:17Z</time></trkpt><trkpt lat="48.676559" lon="-113.583366"><ele>1385.030</ele><time>2026-06-03T00:00:17Z</time></trkpt><trkpt lat="48.676482" lon="-113.583322"><ele>1385.048</ele><time>2026-06-03T00:00:18Z</time></trkpt><trkpt lat="48.676446" lon="-113.583269"><ele>1385.557</ele><time>2026-06-03T00:00:18Z</time></trkpt><trkpt lat="48.676413" lon="-113.583214"><ele>1385.511</ele><time>2026-06-03T00:00:19Z</time></trkpt><trkpt lat="48.676343" lon="-113.583121"><ele>1385.494</ele><time>2026-06-03T00:00:19Z</time></trkpt><trkpt lat="48.676285" lon="-113.582975"><ele>1385.475</ele><time>2026-06-03T00:00:20Z</time></trkpt><trkpt lat="48.676219" lon="-113.582852"><ele>1385.593</ele><time>2026-06-03T00:00:21Z</time></trkpt><trkpt lat="48.676207" lon="-113.582758"><ele>1385.123</ele><time>2026-06-03T00:00:22Z</time></trkpt><trkpt lat="48.676146" lon="-113.582599"><ele>1385.183</ele><time>2026-06-03T00:00:24Z</time></trkpt><trkpt lat="48.67607" lon="-113.582516"><ele>1386.111</ele><time>2026-06-03T00:00:25Z</time></trkpt><trkpt lat="48.67606" lon="-113.582476"><ele>1386.509</ele><time>2026-06-03T00:00:25Z</time></trkpt><trkpt lat="48.676057" lon="-113.58246"><ele>1386.884</ele><time>2026-06-03T00:00:25Z</time></trkpt><trkpt lat="48.676043" lon="-113.582375"><ele>1387.488</ele><time>2026-06-03T00:00:26Z</time></trkpt><trkpt lat="48.676027" lon="-113.582303"><ele>1387.829</ele><time>2026-06-03T00:00:27Z</time></trkpt><trkpt lat="48.676008" lon="-113.58224"><ele>1388.037</ele><time>2026-06-03T00:00:28Z</time></trkpt><trkpt lat="48.675974" lon="-113.582083"><ele>1388.816</ele><time>2026-06-03T00:00:29Z</time></trkpt><trkpt lat="48.675973" lon="-113.582074"><ele>1388.810</ele><time>2026-06-03T00:00:30Z</time></trkpt><trkpt lat="48.675958" lon="-113.58198"><ele>1389.193</ele><time>2026-06-03T00:00:31Z</time></trkpt><trkpt lat="48.675953" lon="-113.581922"><ele>1390.044</ele><time>2026-06-03T00:00:32Z</time></trkpt><trkpt lat="48.675946" lon="-113.58184"><ele>1390.522</ele><time>2026-06-03T00:00:33Z</time></trkpt><trkpt lat="48.675942" lon="-113.5818"><ele>1391.015</ele><time>2026-06-03T00:00:34Z</time></trkpt><trkpt lat="48.67596" lon="-113.581743"><ele>1391.465</ele><time>2026-06-03T00:00:35Z</time></trkpt><trkpt lat="48.675966" lon="-113.581736"><ele>1391.411</ele><time>2026-06-03T00:00:35Z</time></trkpt><trkpt lat="48.676005" lon="-113.581733"><ele>1392.109</ele><time>2026-06-03T00:00:35Z</time></trkpt><trkpt lat="48.676028" lon="-113.581718"><ele>1393.013</ele><time>2026-06-03T00:00:36Z</time></trkpt><trkpt lat="48.676045" lon="-113.581693"><ele>1393.137</ele><time>2026-06-03T00:00:36Z</time></trkpt><trkpt lat="48.676065" lon="-113.581608"><ele>1393.468</ele><time>2026-06-03T00:00:38Z</time></trkpt><trkpt lat="48.676044" lon="-113.581523"><ele>1394.416</ele><time>2026-06-03T00:00:40Z</time></trkpt><trkpt lat="48.676041" lon="-113.581508"><ele>1394.435</ele><time>2026-06-03T00:00:41Z</time></trkpt><trkpt lat="48.676053" lon="-113.581443"><ele>1395.489</ele><time>2026-06-03T00:00:43Z</time></trkpt><trkpt lat="48.676073" lon="-113.581406"><ele>1396.142</ele><time>2026-06-03T00:00:44Z</time></trkpt><trkpt lat="48.676088" lon="-113.581389"><ele>1396.523</ele><time>2026-06-03T00:00:44Z</time></trkpt><trkpt lat="48.676121" lon="-113.581337"><ele>1397.831</ele><time>2026-06-03T00:00:46Z</time></trkpt><trkpt lat="48.676118" lon="-113.581306"><ele>1398.193</ele><time>2026-06-03T00:00:47Z</time></trkpt><trkpt lat="48.676127" lon="-113.581228"><ele>1398.365</ele><time>2026-06-03T00:00:50Z</time></trkpt><trkpt lat="48.676159" lon="-113.581083"><ele>1398.721</ele><time>2026-06-03T00:00:57Z</time></trkpt><trkpt lat="48.676113" lon="-113.58094"><ele>1399.109</ele><time>2026-06-03T00:01:05Z</time></trkpt><trkpt lat="48.676109" lon="-113.580779"><ele>1399.541</ele><time>2026-06-03T00:01:18Z</time></trkpt><trkpt lat="48.676105" lon="-113.580702"><ele>1400.095</ele><time>2026-06-03T00:01:25Z</time></trkpt><trkpt lat="48.676116" lon="-113.580598"><ele>1400.046</ele><time>2026-06-03T00:01:39Z</time></trkpt><trkpt lat="48.676153" lon="-113.580448"><ele>1400.444</ele><time>2026-06-03T00:02:12Z</time></trkpt><trkpt lat="48.676157" lon="-113.580285"><ele>1400.453</ele><time>2026-06-03T00:03:16Z</time></trkpt><trkpt lat="48.67616" lon="-113.580109"><ele>1400.027</ele><time>2026-06-03T00:06:23Z</time></trkpt><trkpt lat="48.676194" lon="-113.580009"><ele>1400.160</ele><time>2026-06-03T00:20:04Z</time></trkpt><trkpt lat="48.676205" lon="-113.580012"><ele>1399.841</ele><time>2026-06-03T00:24:12Z</time></trkpt><trkpt lat="48.676198" lon="-113.580009"><ele>1400.019</ele><time>2026-06-03T00:22:18Z</time></trkpt><trkpt lat="48.676204" lon="-113.58001"><ele>1400.068</ele><time>2026-06-03T00:25:33Z</time></trkpt><trkpt lat="48.676214" lon="-113.580006"><ele>1399.842</ele><time>2026-06-03T00:20:04Z</time></trkpt><trkpt lat="48.676203" lon="-113.58"><ele>1399.826</ele><time>2026-06-03T00:26:06Z</time></trkpt><trkpt lat="48.676204" lon="-113.580004"><ele>1400.009</ele><time>2026-06-03T00:30:00Z</time></trkpt></trkseg></trk></gpx>