<?xml version="1.0" encoding="UTF-8"?><gpx creator="Wikiloc - http://www.wikiloc.com" version="1.1" xmlns="http://www.topografix.com/GPX/1/1" xmlns:xsi="http://www.w3.org/2001/XMLSchema-instance" xsi:schemaLocation="http://www.topografix.com/GPX/1/1 http://www.topografix.com/GPX/1/1/gpx.xsd"><trk><name><![CDATA[Glacier View - Nature Trail Matanuska Glacier - Glacier View]]></name><cmt><![CDATA[Glacier View]]></cmt><desc><![CDATA[Glacier View]]></desc><trkseg><trkpt lat="61.799712" lon="-147.81457"><ele>504.286</ele><time>2026-07-16T01:30:00Z</time></trkpt><trkpt lat="61.799553" lon="-147.814404"><ele>503.760</ele><time>2026-07-16T01:30:35Z</time></trkpt><trkpt lat="61.799495" lon="-147.814409"><ele>503.626</ele><time>2026-07-16T01:30:45Z</time></trkpt><trkpt lat="61.799325" lon="-147.81406"><ele>504.509</ele><time>2026-07-16T01:31:30Z</time></trkpt><trkpt lat="61.799213" lon="-147.814034"><ele>503.780</ele><time>2026-07-16T01:31:49Z</time></trkpt><trkpt lat="61.799155" lon="-147.813937"><ele>503.045</ele><time>2026-07-16T01:32:04Z</time></trkpt><trkpt lat="61.799114" lon="-147.813953"><ele>502.752</ele><time>2026-07-16T01:32:10Z</time></trkpt><trkpt lat="61.799069" lon="-147.813841"><ele>502.482</ele><time>2026-07-16T01:32:22Z</time></trkpt><trkpt lat="61.798998" lon="-147.813653"><ele>500.599</ele><time>2026-07-16T01:32:43Z</time></trkpt><trkpt lat="61.798942" lon="-147.813438"><ele>497.685</ele><time>2026-07-16T01:33:04Z</time></trkpt><trkpt lat="61.798945" lon="-147.813116"><ele>494.786</ele><time>2026-07-16T01:33:23Z</time></trkpt><trkpt lat="61.798962" lon="-147.813009"><ele>493.948</ele><time>2026-07-16T01:33:28Z</time></trkpt><trkpt lat="61.799038" lon="-147.812977"><ele>493.680</ele><time>2026-07-16T01:33:20Z</time></trkpt><trkpt lat="61.79914" lon="-147.812837"><ele>495.149</ele><time>2026-07-16T01:33:18Z</time></trkpt><trkpt lat="61.799185" lon="-147.812703"><ele>497.402</ele><time>2026-07-16T01:33:23Z</time></trkpt><trkpt lat="61.799132" lon="-147.812381"><ele>500.322</ele><time>2026-07-16T01:33:55Z</time></trkpt><trkpt lat="61.799051" lon="-147.812178"><ele>502.109</ele><time>2026-07-16T01:34:19Z</time></trkpt><trkpt lat="61.798993" lon="-147.811979"><ele>503.646</ele><time>2026-07-16T01:34:41Z</time></trkpt><trkpt lat="61.798899" lon="-147.811936"><ele>504.351</ele><time>2026-07-16T01:34:55Z</time></trkpt><trkpt lat="61.79881" lon="-147.811845"><ele>505.748</ele><time>2026-07-16T01:35:12Z</time></trkpt><trkpt lat="61.79881" lon="-147.811582"><ele>506.638</ele><time>2026-07-16T01:35:32Z</time></trkpt><trkpt lat="61.798767" lon="-147.811362"><ele>507.415</ele><time>2026-07-16T01:35:54Z</time></trkpt><trkpt lat="61.798686" lon="-147.811105"><ele>505.731</ele><time>2026-07-16T01:36:23Z</time></trkpt><trkpt lat="61.798643" lon="-147.810869"><ele>505.642</ele><time>2026-07-16T01:36:46Z</time></trkpt><trkpt lat="61.798631" lon="-147.810434"><ele>505.514</ele><time>2026-07-16T01:37:21Z</time></trkpt><trkpt lat="61.798554" lon="-147.810289"><ele>506.496</ele><time>2026-07-16T01:37:40Z</time></trkpt><trkpt lat="61.798504" lon="-147.809962"><ele>507.666</ele><time>2026-07-16T01:38:11Z</time></trkpt><trkpt lat="61.798499" lon="-147.809753"><ele>508.329</ele><time>2026-07-16T01:38:27Z</time></trkpt><trkpt lat="61.798575" lon="-147.80993"><ele>506.121</ele><time>2026-07-16T01:38:05Z</time></trkpt><trkpt lat="61.798568" lon="-147.80979"><ele>506.409</ele><time>2026-07-16T01:38:16Z</time></trkpt><trkpt lat="61.79856" lon="-147.809646"><ele>506.978</ele><time>2026-07-16T01:38:28Z</time></trkpt><trkpt lat="61.798527" lon="-147.809924"><ele>507.233</ele><time>2026-07-16T01:38:11Z</time></trkpt><trkpt lat="61.798527" lon="-147.809801"><ele>507.410</ele><time>2026-07-16T01:38:20Z</time></trkpt><trkpt lat="61.798587" lon="-147.809833"><ele>505.880</ele><time>2026-07-16T01:38:11Z</time></trkpt><trkpt lat="61.798628" lon="-147.809849"><ele>504.947</ele><time>2026-07-16T01:38:05Z</time></trkpt><trkpt lat="61.798473" lon="-147.809785"><ele>508.833</ele><time>2026-07-16T01:38:28Z</time></trkpt><trkpt lat="61.798453" lon="-147.809753"><ele>508.714</ele><time>2026-07-16T01:38:32Z</time></trkpt><trkpt lat="61.798428" lon="-147.809699"><ele>508.736</ele><time>2026-07-16T01:38:39Z</time></trkpt><trkpt lat="61.798302" lon="-147.809511"><ele>507.718</ele><time>2026-07-16T01:39:08Z</time></trkpt><trkpt lat="61.798286" lon="-147.809501"><ele>507.561</ele><time>2026-07-16T01:39:10Z</time></trkpt><trkpt lat="61.798187" lon="-147.809444"><ele>506.421</ele><time>2026-07-16T01:39:26Z</time></trkpt><trkpt lat="61.798099" lon="-147.809308"><ele>505.113</ele><time>2026-07-16T01:39:47Z</time></trkpt><trkpt lat="61.798007" lon="-147.809125"><ele>504.409</ele><time>2026-07-16T01:40:12Z</time></trkpt><trkpt lat="61.798006" lon="-147.80901"><ele>505.158</ele><time>2026-07-16T01:40:20Z</time></trkpt><trkpt lat="61.797983" lon="-147.808954"><ele>504.813</ele><time>2026-07-16T01:40:27Z</time></trkpt><trkpt lat="61.797926" lon="-147.808798"><ele>504.310</ele><time>2026-07-16T01:40:46Z</time></trkpt><trkpt lat="61.797877" lon="-147.808709"><ele>503.690</ele><time>2026-07-16T01:40:58Z</time></trkpt><trkpt lat="61.797847" lon="-147.808709"><ele>502.917</ele><time>2026-07-16T01:41:02Z</time></trkpt><trkpt lat="61.797836" lon="-147.80861"><ele>503.243</ele><time>2026-07-16T01:41:10Z</time></trkpt><trkpt lat="61.797817" lon="-147.808524"><ele>503.354</ele><time>2026-07-16T01:41:19Z</time></trkpt><trkpt lat="61.797781" lon="-147.8085"><ele>502.636</ele><time>2026-07-16T01:41:25Z</time></trkpt><trkpt lat="61.797658" lon="-147.808401"><ele>500.448</ele><time>2026-07-16T01:41:48Z</time></trkpt><trkpt lat="61.797599" lon="-147.808288"><ele>499.431</ele><time>2026-07-16T01:42:03Z</time></trkpt><trkpt lat="61.797516" lon="-147.808111"><ele>498.361</ele><time>2026-07-16T01:42:26Z</time></trkpt><trkpt lat="61.797437" lon="-147.808052"><ele>496.707</ele><time>2026-07-16T01:42:40Z</time></trkpt><trkpt lat="61.797361" lon="-147.807714"><ele>496.909</ele><time>2026-07-16T01:43:15Z</time></trkpt><trkpt lat="61.797392" lon="-147.807596"><ele>498.425</ele><time>2026-07-16T01:43:20Z</time></trkpt><trkpt lat="61.797293" lon="-147.807392"><ele>496.430</ele><time>2026-07-16T01:43:47Z</time></trkpt><trkpt lat="61.797199" lon="-147.807339"><ele>494.267</ele><time>2026-07-16T01:44:02Z</time></trkpt><trkpt lat="61.797194" lon="-147.807173"><ele>495.287</ele><time>2026-07-16T01:44:15Z</time></trkpt><trkpt lat="61.797159" lon="-147.807076"><ele>495.094</ele><time>2026-07-16T01:44:27Z</time></trkpt><trkpt lat="61.797077" lon="-147.807049"><ele>493.180</ele><time>2026-07-16T01:44:38Z</time></trkpt><trkpt lat="61.796989" lon="-147.806776"><ele>491.781</ele><time>2026-07-16T01:45:10Z</time></trkpt><trkpt lat="61.796963" lon="-147.806523"><ele>492.833</ele><time>2026-07-16T01:45:31Z</time></trkpt><trkpt lat="61.796951" lon="-147.806309"><ele>494.165</ele><time>2026-07-16T01:45:48Z</time></trkpt><trkpt lat="61.79689" lon="-147.806185"><ele>493.235</ele><time>2026-07-16T01:46:05Z</time></trkpt><trkpt lat="61.796854" lon="-147.806062"><ele>492.986</ele><time>2026-07-16T01:46:18Z</time></trkpt><trkpt lat="61.796791" lon="-147.806062"><ele>491.214</ele><time>2026-07-16T01:46:26Z</time></trkpt><trkpt lat="61.796743" lon="-147.805971"><ele>489.809</ele><time>2026-07-16T01:46:39Z</time></trkpt><trkpt lat="61.796751" lon="-147.805848"><ele>490.775</ele><time>2026-07-16T01:46:46Z</time></trkpt><trkpt lat="61.79668" lon="-147.805837"><ele>488.230</ele><time>2026-07-16T01:46:57Z</time></trkpt><trkpt lat="61.796626" lon="-147.805719"><ele>487.187</ele><time>2026-07-16T01:47:12Z</time></trkpt><trkpt lat="61.796578" lon="-147.80573"><ele>485.437</ele><time>2026-07-16T01:47:16Z</time></trkpt><trkpt lat="61.796578" lon="-147.805617"><ele>486.144</ele><time>2026-07-16T01:47:25Z</time></trkpt><trkpt lat="61.796512" lon="-147.805531"><ele>484.090</ele><time>2026-07-16T01:47:39Z</time></trkpt><trkpt lat="61.796491" lon="-147.80544"><ele>483.491</ele><time>2026-07-16T01:47:48Z</time></trkpt><trkpt lat="61.796498" lon="-147.805381"><ele>484.033</ele><time>2026-07-16T01:47:53Z</time></trkpt><trkpt lat="61.796483" lon="-147.805328"><ele>483.315</ele><time>2026-07-16T01:47:59Z</time></trkpt><trkpt lat="61.796428" lon="-147.80526"><ele>480.434</ele><time>2026-07-16T01:48:02Z</time></trkpt><trkpt lat="61.796407" lon="-147.805204"><ele>479.555</ele><time>2026-07-16T01:48:07Z</time></trkpt><trkpt lat="61.796366" lon="-147.805166"><ele>477.510</ele><time>2026-07-16T01:48:16Z</time></trkpt><trkpt lat="61.796363" lon="-147.805203"><ele>477.209</ele><time>2026-07-16T01:48:20Z</time></trkpt><trkpt lat="61.796365" lon="-147.805208"><ele>477.375</ele><time>2026-07-16T01:48:23Z</time></trkpt><trkpt lat="61.796372" lon="-147.805226"><ele>477.680</ele><time>2026-07-16T01:48:27Z</time></trkpt><trkpt lat="61.796383" lon="-147.805232"><ele>478.177</ele><time>2026-07-16T01:48:32Z</time></trkpt><trkpt lat="61.796377" lon="-147.80524"><ele>477.857</ele><time>2026-07-16T01:48:39Z</time></trkpt><trkpt lat="61.796376" lon="-147.805248"><ele>477.774</ele><time>2026-07-16T01:48:47Z</time></trkpt><trkpt lat="61.796373" lon="-147.805279"><ele>477.390</ele><time>2026-07-16T01:48:55Z</time></trkpt><trkpt lat="61.79637" lon="-147.80527"><ele>477.281</ele><time>2026-07-16T01:49:00Z</time></trkpt><trkpt lat="61.796364" lon="-147.80524"><ele>477.023</ele><time>2026-07-16T01:49:03Z</time></trkpt><trkpt lat="61.796371" lon="-147.805228"><ele>477.535</ele><time>2026-07-16T01:49:08Z</time></trkpt><trkpt lat="61.796366" lon="-147.805244"><ele>477.112</ele><time>2026-07-16T01:49:15Z</time></trkpt><trkpt lat="61.796356" lon="-147.805232"><ele>476.732</ele><time>2026-07-16T01:49:26Z</time></trkpt><trkpt lat="61.796361" lon="-147.805217"><ele>477.005</ele><time>2026-07-16T01:49:33Z</time></trkpt><trkpt lat="61.796377" lon="-147.805218"><ele>477.909</ele><time>2026-07-16T01:49:40Z</time></trkpt><trkpt lat="61.796377" lon="-147.805225"><ele>477.833</ele><time>2026-07-16T01:49:43Z</time></trkpt><trkpt lat="61.796376" lon="-147.805225"><ele>477.898</ele><time>2026-07-16T01:49:44Z</time></trkpt><trkpt lat="61.79637" lon="-147.805226"><ele>477.445</ele><time>2026-07-16T01:49:45Z</time></trkpt><trkpt lat="61.796363" lon="-147.805214"><ele>477.145</ele><time>2026-07-16T01:49:48Z</time></trkpt><trkpt lat="61.796363" lon="-147.80522"><ele>477.182</ele><time>2026-07-16T01:49:50Z</time></trkpt><trkpt lat="61.796372" lon="-147.805217"><ele>477.628</ele><time>2026-07-16T01:50:00Z</time></trkpt><trkpt lat="61.796378" lon="-147.805219"><ele>477.949</ele><time>2026-07-16T01:50:02Z</time></trkpt><trkpt lat="61.796382" lon="-147.805221"><ele>478.191</ele><time>2026-07-16T01:50:04Z</time></trkpt><trkpt lat="61.79638" lon="-147.805231"><ele>478.053</ele><time>2026-07-16T01:50:11Z</time></trkpt><trkpt lat="61.796383" lon="-147.805261"><ele>478.022</ele><time>2026-07-16T01:50:22Z</time></trkpt><trkpt lat="61.796384" lon="-147.805248"><ele>478.162</ele><time>2026-07-16T01:50:30Z</time></trkpt><trkpt lat="61.796379" lon="-147.805251"><ele>477.808</ele><time>2026-07-16T01:50:37Z</time></trkpt><trkpt lat="61.796358" lon="-147.805254"><ele>476.709</ele><time>2026-07-16T01:50:40Z</time></trkpt><trkpt lat="61.796366" lon="-147.805253"><ele>477.114</ele><time>2026-07-16T01:50:50Z</time></trkpt><trkpt lat="61.796369" lon="-147.805195"><ele>477.589</ele><time>2026-07-16T01:50:57Z</time></trkpt><trkpt lat="61.796369" lon="-147.80521"><ele>477.576</ele><time>2026-07-16T01:50:58Z</time></trkpt><trkpt lat="61.796371" lon="-147.805256"><ele>477.326</ele><time>2026-07-16T01:51:05Z</time></trkpt><trkpt lat="61.796381" lon="-147.805236"><ele>478.013</ele><time>2026-07-16T01:51:16Z</time></trkpt><trkpt lat="61.796378" lon="-147.805236"><ele>477.849</ele><time>2026-07-16T01:51:18Z</time></trkpt><trkpt lat="61.79639" lon="-147.805226"><ele>478.550</ele><time>2026-07-16T01:51:27Z</time></trkpt><trkpt lat="61.796393" lon="-147.805244"><ele>478.632</ele><time>2026-07-16T01:51:36Z</time></trkpt><trkpt lat="61.796364" lon="-147.805266"><ele>476.984</ele><time>2026-07-16T01:51:48Z</time></trkpt><trkpt lat="61.796377" lon="-147.805255"><ele>477.788</ele><time>2026-07-16T01:51:49Z</time></trkpt><trkpt lat="61.796378" lon="-147.805161"><ele>478.224</ele><time>2026-07-16T01:51:56Z</time></trkpt><trkpt lat="61.796373" lon="-147.805126"><ele>478.126</ele><time>2026-07-16T01:51:58Z</time></trkpt><trkpt lat="61.796355" lon="-147.805075"><ele>477.509</ele><time>2026-07-16T01:52:05Z</time></trkpt><trkpt lat="61.796355" lon="-147.805114"><ele>477.260</ele><time>2026-07-16T01:52:14Z</time></trkpt><trkpt lat="61.796353" lon="-147.805106"><ele>477.265</ele><time>2026-07-16T01:52:15Z</time></trkpt><trkpt lat="61.796348" lon="-147.805101"><ele>477.092</ele><time>2026-07-16T01:52:16Z</time></trkpt><trkpt lat="61.796344" lon="-147.805095"><ele>476.862</ele><time>2026-07-16T01:52:17Z</time></trkpt><trkpt lat="61.796341" lon="-147.805091"><ele>476.759</ele><time>2026-07-16T01:52:18Z</time></trkpt><trkpt lat="61.796336" lon="-147.805084"><ele>476.515</ele><time>2026-07-16T01:52:22Z</time></trkpt><trkpt lat="61.796356" lon="-147.805069"><ele>477.516</ele><time>2026-07-16T01:52:34Z</time></trkpt><trkpt lat="61.796354" lon="-147.805064"><ele>477.548</ele><time>2026-07-16T01:52:35Z</time></trkpt><trkpt lat="61.796352" lon="-147.805056"><ele>477.460</ele><time>2026-07-16T01:52:36Z</time></trkpt><trkpt lat="61.796351" lon="-147.805057"><ele>477.474</ele><time>2026-07-16T01:52:44Z</time></trkpt><trkpt lat="61.796357" lon="-147.805141"><ele>477.256</ele><time>2026-07-16T01:52:55Z</time></trkpt><trkpt lat="61.796368" lon="-147.805214"><ele>477.421</ele><time>2026-07-16T01:53:04Z</time></trkpt><trkpt lat="61.796367" lon="-147.805284"><ele>477.009</ele><time>2026-07-16T01:53:14Z</time></trkpt><trkpt lat="61.79637" lon="-147.80524"><ele>477.419</ele><time>2026-07-16T01:53:21Z</time></trkpt><trkpt lat="61.796388" lon="-147.805215"><ele>478.524</ele><time>2026-07-16T01:53:31Z</time></trkpt><trkpt lat="61.796388" lon="-147.805241"><ele>478.321</ele><time>2026-07-16T01:53:40Z</time></trkpt><trkpt lat="61.796377" lon="-147.805231"><ele>477.861</ele><time>2026-07-16T01:53:49Z</time></trkpt><trkpt lat="61.796394" lon="-147.805203"><ele>478.878</ele><time>2026-07-16T01:53:52Z</time></trkpt><trkpt lat="61.796429" lon="-147.805087"><ele>481.154</ele><time>2026-07-16T01:53:57Z</time></trkpt><trkpt lat="61.79645" lon="-147.804981"><ele>482.555</ele><time>2026-07-16T01:54:02Z</time></trkpt><trkpt lat="61.796462" lon="-147.80489"><ele>483.487</ele><time>2026-07-16T01:54:06Z</time></trkpt><trkpt lat="61.796467" lon="-147.804808"><ele>483.869</ele><time>2026-07-16T01:54:09Z</time></trkpt><trkpt lat="61.796452" lon="-147.80465"><ele>483.722</ele><time>2026-07-16T01:54:16Z</time></trkpt><trkpt lat="61.796431" lon="-147.80439"><ele>483.362</ele><time>2026-07-16T01:54:25Z</time></trkpt><trkpt lat="61.796465" lon="-147.804157"><ele>485.208</ele><time>2026-07-16T01:54:34Z</time></trkpt><trkpt lat="61.796468" lon="-147.804136"><ele>485.309</ele><time>2026-07-16T01:54:35Z</time></trkpt><trkpt lat="61.796475" lon="-147.804041"><ele>485.854</ele><time>2026-07-16T01:54:38Z</time></trkpt><trkpt lat="61.796473" lon="-147.803974"><ele>485.859</ele><time>2026-07-16T01:54:40Z</time></trkpt><trkpt lat="61.796471" lon="-147.803888"><ele>485.836</ele><time>2026-07-16T01:54:43Z</time></trkpt><trkpt lat="61.79647" lon="-147.803863"><ele>485.846</ele><time>2026-07-16T01:54:44Z</time></trkpt><trkpt lat="61.796473" lon="-147.803788"><ele>486.083</ele><time>2026-07-16T01:54:47Z</time></trkpt><trkpt lat="61.796475" lon="-147.803716"><ele>486.149</ele><time>2026-07-16T01:54:50Z</time></trkpt><trkpt lat="61.796476" lon="-147.803617"><ele>486.220</ele><time>2026-07-16T01:54:54Z</time></trkpt><trkpt lat="61.796478" lon="-147.803594"><ele>486.352</ele><time>2026-07-16T01:54:55Z</time></trkpt><trkpt lat="61.796457" lon="-147.803263"><ele>485.134</ele><time>2026-07-16T01:55:07Z</time></trkpt><trkpt lat="61.796458" lon="-147.803006"><ele>485.129</ele><time>2026-07-16T01:55:17Z</time></trkpt><trkpt lat="61.796482" lon="-147.802791"><ele>485.700</ele><time>2026-07-16T01:55:26Z</time></trkpt><trkpt lat="61.796489" lon="-147.80252"><ele>485.220</ele><time>2026-07-16T01:55:37Z</time></trkpt><trkpt lat="61.796423" lon="-147.802345"><ele>481.209</ele><time>2026-07-16T01:55:46Z</time></trkpt><trkpt lat="61.796417" lon="-147.802328"><ele>480.864</ele><time>2026-07-16T01:55:47Z</time></trkpt><trkpt lat="61.796406" lon="-147.802283"><ele>480.249</ele><time>2026-07-16T01:55:51Z</time></trkpt><trkpt lat="61.796409" lon="-147.802277"><ele>480.326</ele><time>2026-07-16T01:55:55Z</time></trkpt><trkpt lat="61.79641" lon="-147.802304"><ele>480.466</ele><time>2026-07-16T01:56:06Z</time></trkpt><trkpt lat="61.796409" lon="-147.802322"><ele>480.443</ele><time>2026-07-16T01:56:11Z</time></trkpt><trkpt lat="61.79641" lon="-147.802319"><ele>480.449</ele><time>2026-07-16T01:56:12Z</time></trkpt><trkpt lat="61.796413" lon="-147.80232"><ele>480.630</ele><time>2026-07-16T01:56:13Z</time></trkpt><trkpt lat="61.796415" lon="-147.802311"><ele>480.752</ele><time>2026-07-16T01:56:14Z</time></trkpt><trkpt lat="61.796428" lon="-147.802302"><ele>481.424</ele><time>2026-07-16T01:56:16Z</time></trkpt><trkpt lat="61.796474" lon="-147.80218"><ele>484.171</ele><time>2026-07-16T01:56:24Z</time></trkpt><trkpt lat="61.796476" lon="-147.802155"><ele>484.241</ele><time>2026-07-16T01:56:25Z</time></trkpt><trkpt lat="61.796507" lon="-147.801962"><ele>486.315</ele><time>2026-07-16T01:56:33Z</time></trkpt><trkpt lat="61.79654" lon="-147.801894"><ele>488.109</ele><time>2026-07-16T01:56:37Z</time></trkpt><trkpt lat="61.796567" lon="-147.801791"><ele>489.019</ele><time>2026-07-16T01:56:42Z</time></trkpt><trkpt lat="61.796568" lon="-147.801743"><ele>489.054</ele><time>2026-07-16T01:56:44Z</time></trkpt><trkpt lat="61.796572" lon="-147.801535"><ele>488.731</ele><time>2026-07-16T01:56:52Z</time></trkpt><trkpt lat="61.796551" lon="-147.801258"><ele>486.921</ele><time>2026-07-16T01:57:03Z</time></trkpt><trkpt lat="61.796504" lon="-147.801013"><ele>483.218</ele><time>2026-07-16T01:57:11Z</time></trkpt><trkpt lat="61.796504" lon="-147.800986"><ele>483.164</ele><time>2026-07-16T01:57:12Z</time></trkpt><trkpt lat="61.796523" lon="-147.80096"><ele>484.635</ele><time>2026-07-16T01:57:15Z</time></trkpt><trkpt lat="61.796551" lon="-147.800978"><ele>485.977</ele><time>2026-07-16T01:57:18Z</time></trkpt><trkpt lat="61.796578" lon="-147.800949"><ele>486.739</ele><time>2026-07-16T01:57:22Z</time></trkpt><trkpt lat="61.796608" lon="-147.800833"><ele>487.299</ele><time>2026-07-16T01:57:26Z</time></trkpt><trkpt lat="61.796601" lon="-147.800642"><ele>485.507</ele><time>2026-07-16T01:57:34Z</time></trkpt><trkpt lat="61.796543" lon="-147.800566"><ele>482.127</ele><time>2026-07-16T01:57:40Z</time></trkpt><trkpt lat="61.79654" lon="-147.800558"><ele>481.909</ele><time>2026-07-16T01:57:42Z</time></trkpt><trkpt lat="61.796533" lon="-147.800546"><ele>481.441</ele><time>2026-07-16T01:57:53Z</time></trkpt><trkpt lat="61.796521" lon="-147.800519"><ele>480.386</ele><time>2026-07-16T01:57:59Z</time></trkpt><trkpt lat="61.796519" lon="-147.800553"><ele>480.673</ele><time>2026-07-16T01:58:09Z</time></trkpt><trkpt lat="61.796529" lon="-147.800564"><ele>481.543</ele><time>2026-07-16T01:58:12Z</time></trkpt><trkpt lat="61.796536" lon="-147.800579"><ele>482.110</ele><time>2026-07-16T01:58:13Z</time></trkpt><trkpt lat="61.796542" lon="-147.800596"><ele>482.686</ele><time>2026-07-16T01:58:14Z</time></trkpt><trkpt lat="61.796558" lon="-147.800625"><ele>483.687</ele><time>2026-07-16T01:58:17Z</time></trkpt><trkpt lat="61.7966" lon="-147.800674"><ele>485.949</ele><time>2026-07-16T01:58:21Z</time></trkpt><trkpt lat="61.796631" lon="-147.800661"><ele>486.941</ele><time>2026-07-16T01:58:25Z</time></trkpt><trkpt lat="61.796638" lon="-147.800647"><ele>487.022</ele><time>2026-07-16T01:58:26Z</time></trkpt><trkpt lat="61.796689" lon="-147.800565"><ele>488.162</ele><time>2026-07-16T01:58:32Z</time></trkpt><trkpt lat="61.796709" lon="-147.800545"><ele>488.808</ele><time>2026-07-16T01:58:34Z</time></trkpt><trkpt lat="61.796769" lon="-147.800515"><ele>491.009</ele><time>2026-07-16T01:58:41Z</time></trkpt><trkpt lat="61.796784" lon="-147.800528"><ele>491.824</ele><time>2026-07-16T01:58:43Z</time></trkpt><trkpt lat="61.7968" lon="-147.800548"><ele>492.689</ele><time>2026-07-16T01:58:45Z</time></trkpt><trkpt lat="61.796846" lon="-147.800608"><ele>493.276</ele><time>2026-07-16T01:58:51Z</time></trkpt><trkpt lat="61.796851" lon="-147.800618"><ele>493.266</ele><time>2026-07-16T01:58:52Z</time></trkpt><trkpt lat="61.796857" lon="-147.800633"><ele>493.443</ele><time>2026-07-16T01:58:53Z</time></trkpt><trkpt lat="61.79687" lon="-147.800664"><ele>493.659</ele><time>2026-07-16T01:58:55Z</time></trkpt><trkpt lat="61.7969" lon="-147.800756"><ele>494.350</ele><time>2026-07-16T01:59:00Z</time></trkpt><trkpt lat="61.79691" lon="-147.800799"><ele>494.722</ele><time>2026-07-16T01:59:02Z</time></trkpt><trkpt lat="61.796944" lon="-147.801053"><ele>496.654</ele><time>2026-07-16T01:59:13Z</time></trkpt><trkpt lat="61.796946" lon="-147.801071"><ele>496.725</ele><time>2026-07-16T01:59:14Z</time></trkpt><trkpt lat="61.796953" lon="-147.801111"><ele>497.026</ele><time>2026-07-16T01:59:16Z</time></trkpt><trkpt lat="61.796981" lon="-147.801213"><ele>497.908</ele><time>2026-07-16T01:59:21Z</time></trkpt><trkpt lat="61.796992" lon="-147.801241"><ele>498.209</ele><time>2026-07-16T01:59:23Z</time></trkpt><trkpt lat="61.797" lon="-147.80126"><ele>498.444</ele><time>2026-07-16T01:59:24Z</time></trkpt><trkpt lat="61.797006" lon="-147.80138"><ele>498.519</ele><time>2026-07-16T01:59:35Z</time></trkpt><trkpt lat="61.796987" lon="-147.801377"><ele>498.266</ele><time>2026-07-16T01:59:37Z</time></trkpt><trkpt lat="61.796967" lon="-147.801341"><ele>497.916</ele><time>2026-07-16T01:59:42Z</time></trkpt><trkpt lat="61.796964" lon="-147.80133"><ele>497.853</ele><time>2026-07-16T01:59:43Z</time></trkpt><trkpt lat="61.796982" lon="-147.80132"><ele>498.129</ele><time>2026-07-16T01:59:48Z</time></trkpt><trkpt lat="61.796986" lon="-147.801331"><ele>498.290</ele><time>2026-07-16T01:59:49Z</time></trkpt><trkpt lat="61.796994" lon="-147.801346"><ele>498.392</ele><time>2026-07-16T01:59:50Z</time></trkpt><trkpt lat="61.797008" lon="-147.801458"><ele>498.654</ele><time>2026-07-16T01:59:58Z</time></trkpt><trkpt lat="61.796998" lon="-147.801476"><ele>498.416</ele><time>2026-07-16T02:00:03Z</time></trkpt><trkpt lat="61.796999" lon="-147.801447"><ele>498.576</ele><time>2026-07-16T02:00:08Z</time></trkpt><trkpt lat="61.79696" lon="-147.801488"><ele>497.813</ele><time>2026-07-16T02:00:16Z</time></trkpt><trkpt lat="61.796958" lon="-147.801486"><ele>497.809</ele><time>2026-07-16T02:00:20Z</time></trkpt><trkpt lat="61.796944" lon="-147.80147"><ele>497.513</ele><time>2026-07-16T02:00:24Z</time></trkpt><trkpt lat="61.796942" lon="-147.801467"><ele>497.598</ele><time>2026-07-16T02:00:25Z</time></trkpt><trkpt lat="61.796942" lon="-147.801459"><ele>497.535</ele><time>2026-07-16T02:00:26Z</time></trkpt><trkpt lat="61.796922" lon="-147.801423"><ele>497.295</ele><time>2026-07-16T02:00:31Z</time></trkpt><trkpt lat="61.796905" lon="-147.80141"><ele>496.922</ele><time>2026-07-16T02:00:35Z</time></trkpt><trkpt lat="61.796874" lon="-147.801453"><ele>496.438</ele><time>2026-07-16T02:00:43Z</time></trkpt><trkpt lat="61.796865" lon="-147.80151"><ele>496.289</ele><time>2026-07-16T02:00:51Z</time></trkpt><trkpt lat="61.796863" lon="-147.80154"><ele>496.231</ele><time>2026-07-16T02:01:01Z</time></trkpt><trkpt lat="61.79687" lon="-147.801558"><ele>496.363</ele><time>2026-07-16T02:01:05Z</time></trkpt><trkpt lat="61.796877" lon="-147.801573"><ele>496.574</ele><time>2026-07-16T02:01:08Z</time></trkpt><trkpt lat="61.796876" lon="-147.801587"><ele>496.556</ele><time>2026-07-16T02:01:11Z</time></trkpt><trkpt lat="61.796856" lon="-147.801601"><ele>496.221</ele><time>2026-07-16T02:01:17Z</time></trkpt><trkpt lat="61.796854" lon="-147.801616"><ele>496.209</ele><time>2026-07-16T02:01:21Z</time></trkpt><trkpt lat="61.796858" lon="-147.801597"><ele>496.229</ele><time>2026-07-16T02:01:31Z</time></trkpt><trkpt lat="61.796859" lon="-147.801591"><ele>496.254</ele><time>2026-07-16T02:01:32Z</time></trkpt><trkpt lat="61.796886" lon="-147.801527"><ele>496.531</ele><time>2026-07-16T02:01:42Z</time></trkpt><trkpt lat="61.796863" lon="-147.801558"><ele>496.261</ele><time>2026-07-16T02:01:50Z</time></trkpt><trkpt lat="61.796846" lon="-147.801566"><ele>495.938</ele><time>2026-07-16T02:02:00Z</time></trkpt><trkpt lat="61.796893" lon="-147.801593"><ele>496.894</ele><time>2026-07-16T02:02:09Z</time></trkpt><trkpt lat="61.796901" lon="-147.801597"><ele>497.085</ele><time>2026-07-16T02:02:14Z</time></trkpt><trkpt lat="61.796904" lon="-147.801594"><ele>497.017</ele><time>2026-07-16T02:02:17Z</time></trkpt><trkpt lat="61.796902" lon="-147.801593"><ele>497.049</ele><time>2026-07-16T02:02:19Z</time></trkpt><trkpt lat="61.796921" lon="-147.801579"><ele>497.372</ele><time>2026-07-16T02:02:31Z</time></trkpt><trkpt lat="61.79688" lon="-147.801625"><ele>496.713</ele><time>2026-07-16T02:02:41Z</time></trkpt><trkpt lat="61.796905" lon="-147.801635"><ele>497.114</ele><time>2026-07-16T02:02:51Z</time></trkpt><trkpt lat="61.796886" lon="-147.801594"><ele>496.709</ele><time>2026-07-16T02:02:56Z</time></trkpt><trkpt lat="61.796896" lon="-147.801575"><ele>496.859</ele><time>2026-07-16T02:03:01Z</time></trkpt><trkpt lat="61.796914" lon="-147.801576"><ele>497.184</ele><time>2026-07-16T02:03:05Z</time></trkpt><trkpt lat="61.796912" lon="-147.801599"><ele>497.211</ele><time>2026-07-16T02:03:11Z</time></trkpt><trkpt lat="61.796886" lon="-147.801604"><ele>496.751</ele><time>2026-07-16T02:03:20Z</time></trkpt><trkpt lat="61.796901" lon="-147.801606"><ele>497.018</ele><time>2026-07-16T02:03:32Z</time></trkpt><trkpt lat="61.796902" lon="-147.801594"><ele>497.074</ele><time>2026-07-16T02:03:34Z</time></trkpt><trkpt lat="61.796891" lon="-147.801587"><ele>496.835</ele><time>2026-07-16T02:03:44Z</time></trkpt><trkpt lat="61.796891" lon="-147.801587"><ele>496.877</ele><time>2026-07-16T02:03:45Z</time></trkpt><trkpt lat="61.796911" lon="-147.801579"><ele>497.199</ele><time>2026-07-16T02:03:53Z</time></trkpt><trkpt lat="61.796927" lon="-147.801508"><ele>497.283</ele><time>2026-07-16T02:04:03Z</time></trkpt><trkpt lat="61.796987" lon="-147.8014"><ele>498.225</ele><time>2026-07-16T02:04:12Z</time></trkpt><trkpt lat="61.797017" lon="-147.801384"><ele>498.717</ele><time>2026-07-16T02:04:16Z</time></trkpt><trkpt lat="61.797032" lon="-147.801414"><ele>499.009</ele><time>2026-07-16T02:04:19Z</time></trkpt><trkpt lat="61.797033" lon="-147.801456"><ele>499.060</ele><time>2026-07-16T02:04:27Z</time></trkpt><trkpt lat="61.797017" lon="-147.801438"><ele>498.715</ele><time>2026-07-16T02:04:32Z</time></trkpt><trkpt lat="61.797021" lon="-147.801436"><ele>498.882</ele><time>2026-07-16T02:04:35Z</time></trkpt><trkpt lat="61.797032" lon="-147.801472"><ele>499.092</ele><time>2026-07-16T02:04:39Z</time></trkpt><trkpt lat="61.797037" lon="-147.801486"><ele>499.129</ele><time>2026-07-16T02:04:40Z</time></trkpt><trkpt lat="61.797047" lon="-147.801518"><ele>499.385</ele><time>2026-07-16T02:04:42Z</time></trkpt><trkpt lat="61.797055" lon="-147.801534"><ele>499.526</ele><time>2026-07-16T02:04:43Z</time></trkpt><trkpt lat="61.797073" lon="-147.801591"><ele>500.058</ele><time>2026-07-16T02:04:46Z</time></trkpt><trkpt lat="61.797105" lon="-147.801715"><ele>500.490</ele><time>2026-07-16T02:04:52Z</time></trkpt><trkpt lat="61.797158" lon="-147.801909"><ele>500.884</ele><time>2026-07-16T02:05:01Z</time></trkpt><trkpt lat="61.797171" lon="-147.801954"><ele>501.007</ele><time>2026-07-16T02:05:03Z</time></trkpt><trkpt lat="61.79718" lon="-147.80199"><ele>501.117</ele><time>2026-07-16T02:05:05Z</time></trkpt><trkpt lat="61.79723" lon="-147.802156"><ele>502.009</ele><time>2026-07-16T02:05:13Z</time></trkpt><trkpt lat="61.797234" lon="-147.802172"><ele>502.120</ele><time>2026-07-16T02:05:14Z</time></trkpt><trkpt lat="61.797247" lon="-147.802271"><ele>502.845</ele><time>2026-07-16T02:05:19Z</time></trkpt><trkpt lat="61.797256" lon="-147.802336"><ele>503.352</ele><time>2026-07-16T02:05:22Z</time></trkpt><trkpt lat="61.797274" lon="-147.802445"><ele>504.372</ele><time>2026-07-16T02:05:27Z</time></trkpt><trkpt lat="61.797284" lon="-147.802513"><ele>504.969</ele><time>2026-07-16T02:05:30Z</time></trkpt><trkpt lat="61.797295" lon="-147.802585"><ele>505.735</ele><time>2026-07-16T02:05:33Z</time></trkpt><trkpt lat="61.797333" lon="-147.802709"><ele>507.096</ele><time>2026-07-16T02:05:39Z</time></trkpt><trkpt lat="61.797359" lon="-147.802788"><ele>507.898</ele><time>2026-07-16T02:05:43Z</time></trkpt><trkpt lat="61.797369" lon="-147.802815"><ele>507.760</ele><time>2026-07-16T02:05:45Z</time></trkpt><trkpt lat="61.797411" lon="-147.802928"><ele>507.071</ele><time>2026-07-16T02:05:53Z</time></trkpt><trkpt lat="61.797423" lon="-147.802956"><ele>506.841</ele><time>2026-07-16T02:05:56Z</time></trkpt><trkpt lat="61.797439" lon="-147.803018"><ele>506.615</ele><time>2026-07-16T02:06:02Z</time></trkpt><trkpt lat="61.797444" lon="-147.803034"><ele>506.609</ele><time>2026-07-16T02:06:03Z</time></trkpt><trkpt lat="61.797465" lon="-147.803127"><ele>506.639</ele><time>2026-07-16T02:06:13Z</time></trkpt><trkpt lat="61.797461" lon="-147.803143"><ele>506.724</ele><time>2026-07-16T02:06:17Z</time></trkpt><trkpt lat="61.797454" lon="-147.803132"><ele>506.841</ele><time>2026-07-16T02:06:23Z</time></trkpt><trkpt lat="61.797449" lon="-147.803146"><ele>506.971</ele><time>2026-07-16T02:06:30Z</time></trkpt><trkpt lat="61.79745" lon="-147.803152"><ele>506.948</ele><time>2026-07-16T02:06:34Z</time></trkpt><trkpt lat="61.79745" lon="-147.803153"><ele>506.934</ele><time>2026-07-16T02:06:35Z</time></trkpt><trkpt lat="61.797449" lon="-147.803154"><ele>507.085</ele><time>2026-07-16T02:06:36Z</time></trkpt><trkpt lat="61.797444" lon="-147.803155"><ele>507.027</ele><time>2026-07-16T02:06:44Z</time></trkpt><trkpt lat="61.79744" lon="-147.803169"><ele>507.229</ele><time>2026-07-16T02:06:53Z</time></trkpt><trkpt lat="61.797438" lon="-147.803161"><ele>507.254</ele><time>2026-07-16T02:06:55Z</time></trkpt><trkpt lat="61.797436" lon="-147.803159"><ele>507.256</ele><time>2026-07-16T02:06:56Z</time></trkpt><trkpt lat="61.797433" lon="-147.803179"><ele>507.311</ele><time>2026-07-16T02:07:03Z</time></trkpt><trkpt lat="61.797431" lon="-147.803197"><ele>507.409</ele><time>2026-07-16T02:07:08Z</time></trkpt><trkpt lat="61.797427" lon="-147.80318"><ele>507.497</ele><time>2026-07-16T02:07:11Z</time></trkpt><trkpt lat="61.797427" lon="-147.803177"><ele>507.442</ele><time>2026-07-16T02:07:12Z</time></trkpt><trkpt lat="61.797427" lon="-147.803182"><ele>507.449</ele><time>2026-07-16T02:07:13Z</time></trkpt><trkpt lat="61.797444" lon="-147.803191"><ele>507.239</ele><time>2026-07-16T02:07:21Z</time></trkpt><trkpt lat="61.797444" lon="-147.803178"><ele>507.166</ele><time>2026-07-16T02:07:23Z</time></trkpt><trkpt lat="61.797455" lon="-147.803203"><ele>507.072</ele><time>2026-07-16T02:07:35Z</time></trkpt><trkpt lat="61.797463" lon="-147.803194"><ele>506.973</ele><time>2026-07-16T02:07:45Z</time></trkpt><trkpt lat="61.797464" lon="-147.803224"><ele>506.995</ele><time>2026-07-16T02:07:48Z</time></trkpt><trkpt lat="61.797476" lon="-147.803298"><ele>506.777</ele><time>2026-07-16T02:07:52Z</time></trkpt><trkpt lat="61.797484" lon="-147.803475"><ele>506.558</ele><time>2026-07-16T02:08:00Z</time></trkpt><trkpt lat="61.797507" lon="-147.8036"><ele>506.252</ele><time>2026-07-16T02:08:06Z</time></trkpt><trkpt lat="61.797539" lon="-147.803702"><ele>506.017</ele><time>2026-07-16T02:08:10Z</time></trkpt><trkpt lat="61.797563" lon="-147.803844"><ele>506.509</ele><time>2026-07-16T02:08:17Z</time></trkpt><trkpt lat="61.79757" lon="-147.803878"><ele>506.777</ele><time>2026-07-16T02:08:19Z</time></trkpt><trkpt lat="61.797579" lon="-147.803911"><ele>506.972</ele><time>2026-07-16T02:08:21Z</time></trkpt><trkpt lat="61.797602" lon="-147.804077"><ele>508.069</ele><time>2026-07-16T02:08:28Z</time></trkpt><trkpt lat="61.797632" lon="-147.804182"><ele>508.719</ele><time>2026-07-16T02:08:33Z</time></trkpt><trkpt lat="61.797659" lon="-147.804282"><ele>508.516</ele><time>2026-07-16T02:08:37Z</time></trkpt><trkpt lat="61.797676" lon="-147.804363"><ele>508.152</ele><time>2026-07-16T02:08:40Z</time></trkpt><trkpt lat="61.797697" lon="-147.804505"><ele>507.413</ele><time>2026-07-16T02:08:46Z</time></trkpt><trkpt lat="61.797742" lon="-147.804711"><ele>506.285</ele><time>2026-07-16T02:08:55Z</time></trkpt><trkpt lat="61.797748" lon="-147.804756"><ele>506.257</ele><time>2026-07-16T02:08:57Z</time></trkpt><trkpt lat="61.797751" lon="-147.804775"><ele>506.147</ele><time>2026-07-16T02:08:58Z</time></trkpt><trkpt lat="61.797757" lon="-147.804816"><ele>506.029</ele><time>2026-07-16T02:09:00Z</time></trkpt><trkpt lat="61.797786" lon="-147.804992"><ele>505.921</ele><time>2026-07-16T02:09:07Z</time></trkpt><trkpt lat="61.797799" lon="-147.805048"><ele>505.909</ele><time>2026-07-16T02:09:10Z</time></trkpt><trkpt lat="61.797805" lon="-147.805214"><ele>506.476</ele><time>2026-07-16T02:09:17Z</time></trkpt><trkpt lat="61.797824" lon="-147.805487"><ele>507.481</ele><time>2026-07-16T02:09:27Z</time></trkpt><trkpt lat="61.797827" lon="-147.80554"><ele>507.668</ele><time>2026-07-16T02:09:29Z</time></trkpt><trkpt lat="61.79784" lon="-147.805695"><ele>508.248</ele><time>2026-07-16T02:09:35Z</time></trkpt><trkpt lat="61.797845" lon="-147.80577"><ele>508.715</ele><time>2026-07-16T02:09:38Z</time></trkpt><trkpt lat="61.79787" lon="-147.805934"><ele>509.761</ele><time>2026-07-16T02:09:44Z</time></trkpt><trkpt lat="61.797885" lon="-147.806047"><ele>510.372</ele><time>2026-07-16T02:09:50Z</time></trkpt><trkpt lat="61.797889" lon="-147.806085"><ele>510.574</ele><time>2026-07-16T02:09:52Z</time></trkpt><trkpt lat="61.797912" lon="-147.806201"><ele>511.216</ele><time>2026-07-16T02:09:58Z</time></trkpt><trkpt lat="61.79792" lon="-147.806273"><ele>511.574</ele><time>2026-07-16T02:10:02Z</time></trkpt><trkpt lat="61.797929" lon="-147.806308"><ele>511.356</ele><time>2026-07-16T02:10:04Z</time></trkpt><trkpt lat="61.797951" lon="-147.806357"><ele>510.721</ele><time>2026-07-16T02:10:08Z</time></trkpt><trkpt lat="61.79796" lon="-147.806352"><ele>510.409</ele><time>2026-07-16T02:10:10Z</time></trkpt><trkpt lat="61.797979" lon="-147.806357"><ele>509.829</ele><time>2026-07-16T02:10:14Z</time></trkpt><trkpt lat="61.797974" lon="-147.806346"><ele>509.944</ele><time>2026-07-16T02:10:21Z</time></trkpt><trkpt lat="61.798007" lon="-147.806309"><ele>508.681</ele><time>2026-07-16T02:10:32Z</time></trkpt><trkpt lat="61.797991" lon="-147.806337"><ele>509.341</ele><time>2026-07-16T02:10:41Z</time></trkpt><trkpt lat="61.797988" lon="-147.806334"><ele>509.418</ele><time>2026-07-16T02:10:42Z</time></trkpt><trkpt lat="61.797985" lon="-147.806323"><ele>509.424</ele><time>2026-07-16T02:10:45Z</time></trkpt><trkpt lat="61.797972" lon="-147.806324"><ele>509.995</ele><time>2026-07-16T02:10:54Z</time></trkpt><trkpt lat="61.797968" lon="-147.806317"><ele>510.087</ele><time>2026-07-16T02:11:05Z</time></trkpt><trkpt lat="61.797966" lon="-147.806314"><ele>510.189</ele><time>2026-07-16T02:11:07Z</time></trkpt><trkpt lat="61.797964" lon="-147.806316"><ele>510.111</ele><time>2026-07-16T02:11:09Z</time></trkpt><trkpt lat="61.797965" lon="-147.80632"><ele>510.121</ele><time>2026-07-16T02:11:11Z</time></trkpt><trkpt lat="61.797966" lon="-147.806319"><ele>510.103</ele><time>2026-07-16T02:11:13Z</time></trkpt><trkpt lat="61.797973" lon="-147.806324"><ele>509.909</ele><time>2026-07-16T02:11:17Z</time></trkpt><trkpt lat="61.79798" lon="-147.806318"><ele>509.683</ele><time>2026-07-16T02:11:19Z</time></trkpt><trkpt lat="61.797991" lon="-147.806308"><ele>509.278</ele><time>2026-07-16T02:11:27Z</time></trkpt><trkpt lat="61.797992" lon="-147.806319"><ele>509.225</ele><time>2026-07-16T02:11:29Z</time></trkpt><trkpt lat="61.798" lon="-147.80633"><ele>509.025</ele><time>2026-07-16T02:11:41Z</time></trkpt><trkpt lat="61.797996" lon="-147.806319"><ele>509.052</ele><time>2026-07-16T02:11:45Z</time></trkpt><trkpt lat="61.797995" lon="-147.806311"><ele>509.188</ele><time>2026-07-16T02:11:50Z</time></trkpt><trkpt lat="61.797992" lon="-147.806305"><ele>509.189</ele><time>2026-07-16T02:11:52Z</time></trkpt><trkpt lat="61.797994" lon="-147.806308"><ele>509.121</ele><time>2026-07-16T02:11:55Z</time></trkpt><trkpt lat="61.797996" lon="-147.806316"><ele>509.023</ele><time>2026-07-16T02:11:57Z</time></trkpt><trkpt lat="61.797997" lon="-147.806324"><ele>509.013</ele><time>2026-07-16T02:12:00Z</time></trkpt><trkpt lat="61.797996" lon="-147.806327"><ele>509.143</ele><time>2026-07-16T02:12:05Z</time></trkpt><trkpt lat="61.798003" lon="-147.806278"><ele>508.607</ele><time>2026-07-16T02:12:18Z</time></trkpt><trkpt lat="61.798001" lon="-147.80628"><ele>508.709</ele><time>2026-07-16T02:12:27Z</time></trkpt><trkpt lat="61.797967" lon="-147.806364"><ele>510.213</ele><time>2026-07-16T02:12:36Z</time></trkpt><trkpt lat="61.79797" lon="-147.806446"><ele>510.448</ele><time>2026-07-16T02:12:40Z</time></trkpt><trkpt lat="61.797993" lon="-147.806538"><ele>510.075</ele><time>2026-07-16T02:12:44Z</time></trkpt><trkpt lat="61.798007" lon="-147.80674"><ele>510.595</ele><time>2026-07-16T02:12:52Z</time></trkpt><trkpt lat="61.798015" lon="-147.806969"><ele>511.082</ele><time>2026-07-16T02:13:02Z</time></trkpt><trkpt lat="61.798028" lon="-147.807138"><ele>510.868</ele><time>2026-07-16T02:13:10Z</time></trkpt><trkpt lat="61.798071" lon="-147.807297"><ele>509.819</ele><time>2026-07-16T02:13:19Z</time></trkpt><trkpt lat="61.798133" lon="-147.807534"><ele>509.331</ele><time>2026-07-16T02:13:29Z</time></trkpt><trkpt lat="61.798153" lon="-147.807733"><ele>509.723</ele><time>2026-07-16T02:13:38Z</time></trkpt><trkpt lat="61.798175" lon="-147.807967"><ele>510.775</ele><time>2026-07-16T02:13:48Z</time></trkpt><trkpt lat="61.798222" lon="-147.808206"><ele>510.528</ele><time>2026-07-16T02:13:57Z</time></trkpt><trkpt lat="61.798232" lon="-147.808253"><ele>510.220</ele><time>2026-07-16T02:13:59Z</time></trkpt><trkpt lat="61.79827" lon="-147.808476"><ele>509.509</ele><time>2026-07-16T02:14:08Z</time></trkpt><trkpt lat="61.798324" lon="-147.808691"><ele>508.949</ele><time>2026-07-16T02:14:17Z</time></trkpt><trkpt lat="61.798338" lon="-147.808922"><ele>508.654</ele><time>2026-07-16T02:14:26Z</time></trkpt><trkpt lat="61.798375" lon="-147.809193"><ele>508.471</ele><time>2026-07-16T02:14:37Z</time></trkpt><trkpt lat="61.798431" lon="-147.809434"><ele>509.131</ele><time>2026-07-16T02:14:47Z</time></trkpt><trkpt lat="61.798463" lon="-147.809621"><ele>509.688</ele><time>2026-07-16T02:14:57Z</time></trkpt><trkpt lat="61.79847" lon="-147.809659"><ele>509.544</ele><time>2026-07-16T02:15:00Z</time></trkpt><trkpt lat="61.798476" lon="-147.809695"><ele>509.215</ele><time>2026-07-16T02:15:03Z</time></trkpt><trkpt lat="61.798481" lon="-147.809746"><ele>508.887</ele><time>2026-07-16T02:15:07Z</time></trkpt><trkpt lat="61.798486" lon="-147.809769"><ele>508.639</ele><time>2026-07-16T02:15:09Z</time></trkpt><trkpt lat="61.798491" lon="-147.809833"><ele>508.232</ele><time>2026-07-16T02:15:15Z</time></trkpt><trkpt lat="61.79849" lon="-147.809859"><ele>508.192</ele><time>2026-07-16T02:15:18Z</time></trkpt><trkpt lat="61.798503" lon="-147.809917"><ele>507.711</ele><time>2026-07-16T02:15:29Z</time></trkpt><trkpt lat="61.798527" lon="-147.809975"><ele>507.109</ele><time>2026-07-16T02:15:37Z</time></trkpt><trkpt lat="61.798551" lon="-147.810078"><ele>506.785</ele><time>2026-07-16T02:15:46Z</time></trkpt><trkpt lat="61.798549" lon="-147.810093"><ele>506.730</ele><time>2026-07-16T02:15:49Z</time></trkpt><trkpt lat="61.798546" lon="-147.810125"><ele>506.897</ele><time>2026-07-16T02:15:55Z</time></trkpt><trkpt lat="61.79855" lon="-147.810136"><ele>506.767</ele><time>2026-07-16T02:16:05Z</time></trkpt><trkpt lat="61.798546" lon="-147.809942"><ele>506.874</ele><time>2026-07-16T02:16:17Z</time></trkpt><trkpt lat="61.798534" lon="-147.809907"><ele>507.090</ele><time>2026-07-16T02:16:25Z</time></trkpt><trkpt lat="61.798532" lon="-147.809893"><ele>507.151</ele><time>2026-07-16T02:16:27Z</time></trkpt><trkpt lat="61.798548" lon="-147.809843"><ele>506.853</ele><time>2026-07-16T02:16:33Z</time></trkpt><trkpt lat="61.798559" lon="-147.809837"><ele>506.525</ele><time>2026-07-16T02:16:35Z</time></trkpt><trkpt lat="61.798577" lon="-147.80983"><ele>506.146</ele><time>2026-07-16T02:16:39Z</time></trkpt><trkpt lat="61.798588" lon="-147.809818"><ele>505.888</ele><time>2026-07-16T02:16:46Z</time></trkpt><trkpt lat="61.798582" lon="-147.809841"><ele>505.916</ele><time>2026-07-16T02:16:57Z</time></trkpt><trkpt lat="61.798583" lon="-147.809836"><ele>505.909</ele><time>2026-07-16T02:16:58Z</time></trkpt><trkpt lat="61.798589" lon="-147.809832"><ele>505.816</ele><time>2026-07-16T02:17:02Z</time></trkpt><trkpt lat="61.798597" lon="-147.809814"><ele>505.631</ele><time>2026-07-16T02:17:07Z</time></trkpt><trkpt lat="61.798627" lon="-147.809846"><ele>504.998</ele><time>2026-07-16T02:17:16Z</time></trkpt><trkpt lat="61.798631" lon="-147.809848"><ele>504.848</ele><time>2026-07-16T02:17:18Z</time></trkpt><trkpt lat="61.798623" lon="-147.809834"><ele>505.025</ele><time>2026-07-16T02:17:21Z</time></trkpt><trkpt lat="61.798602" lon="-147.809841"><ele>505.571</ele><time>2026-07-16T02:17:27Z</time></trkpt><trkpt lat="61.798574" lon="-147.809803"><ele>506.232</ele><time>2026-07-16T02:17:35Z</time></trkpt><trkpt lat="61.798571" lon="-147.809798"><ele>506.364</ele><time>2026-07-16T02:17:36Z</time></trkpt><trkpt lat="61.798543" lon="-147.809773"><ele>507.176</ele><time>2026-07-16T02:17:42Z</time></trkpt><trkpt lat="61.79852" lon="-147.809735"><ele>507.815</ele><time>2026-07-16T02:17:46Z</time></trkpt><trkpt lat="61.798459" lon="-147.809635"><ele>509.565</ele><time>2026-07-16T02:17:53Z</time></trkpt><trkpt lat="61.798451" lon="-147.809642"><ele>509.311</ele><time>2026-07-16T02:17:54Z</time></trkpt><trkpt lat="61.798443" lon="-147.80965"><ele>509.209</ele><time>2026-07-16T02:17:55Z</time></trkpt><trkpt lat="61.798438" lon="-147.809659"><ele>509.173</ele><time>2026-07-16T02:17:57Z</time></trkpt><trkpt lat="61.798442" lon="-147.809653"><ele>509.138</ele><time>2026-07-16T02:18:00Z</time></trkpt><trkpt lat="61.798447" lon="-147.809647"><ele>509.215</ele><time>2026-07-16T02:18:01Z</time></trkpt><trkpt lat="61.798492" lon="-147.809697"><ele>508.855</ele><time>2026-07-16T02:18:08Z</time></trkpt><trkpt lat="61.798498" lon="-147.809719"><ele>508.532</ele><time>2026-07-16T02:18:09Z</time></trkpt><trkpt lat="61.798517" lon="-147.809782"><ele>507.788</ele><time>2026-07-16T02:18:12Z</time></trkpt><trkpt lat="61.798526" lon="-147.809906"><ele>507.279</ele><time>2026-07-16T02:18:18Z</time></trkpt><trkpt lat="61.798513" lon="-147.809925"><ele>507.521</ele><time>2026-07-16T02:18:21Z</time></trkpt><trkpt lat="61.798497" lon="-147.80995"><ele>507.893</ele><time>2026-07-16T02:18:25Z</time></trkpt><trkpt lat="61.798486" lon="-147.809949"><ele>508.053</ele><time>2026-07-16T02:18:28Z</time></trkpt><trkpt lat="61.798483" lon="-147.809943"><ele>508.104</ele><time>2026-07-16T02:18:30Z</time></trkpt><trkpt lat="61.79848" lon="-147.80996"><ele>508.114</ele><time>2026-07-16T02:18:36Z</time></trkpt><trkpt lat="61.798489" lon="-147.809978"><ele>507.909</ele><time>2026-07-16T02:18:39Z</time></trkpt><trkpt lat="61.798493" lon="-147.809982"><ele>507.887</ele><time>2026-07-16T02:18:40Z</time></trkpt><trkpt lat="61.798497" lon="-147.809977"><ele>507.732</ele><time>2026-07-16T02:18:43Z</time></trkpt><trkpt lat="61.798509" lon="-147.80997"><ele>507.579</ele><time>2026-07-16T02:18:47Z</time></trkpt><trkpt lat="61.798516" lon="-147.809984"><ele>507.439</ele><time>2026-07-16T02:18:48Z</time></trkpt><trkpt lat="61.798522" lon="-147.810001"><ele>507.226</ele><time>2026-07-16T02:18:49Z</time></trkpt><trkpt lat="61.798587" lon="-147.810227"><ele>506.082</ele><time>2026-07-16T02:18:58Z</time></trkpt><trkpt lat="61.798611" lon="-147.810388"><ele>505.793</ele><time>2026-07-16T02:19:05Z</time></trkpt><trkpt lat="61.798616" lon="-147.810485"><ele>505.785</ele><time>2026-07-16T02:19:09Z</time></trkpt><trkpt lat="61.798628" lon="-147.810609"><ele>506.017</ele><time>2026-07-16T02:19:14Z</time></trkpt><trkpt lat="61.798651" lon="-147.810742"><ele>506.065</ele><time>2026-07-16T02:19:19Z</time></trkpt><trkpt lat="61.7987" lon="-147.810967"><ele>506.068</ele><time>2026-07-16T02:19:29Z</time></trkpt><trkpt lat="61.798691" lon="-147.810988"><ele>505.914</ele><time>2026-07-16T02:19:38Z</time></trkpt><trkpt lat="61.798692" lon="-147.810998"><ele>505.909</ele><time>2026-07-16T02:19:46Z</time></trkpt><trkpt lat="61.798689" lon="-147.811004"><ele>505.898</ele><time>2026-07-16T02:19:49Z</time></trkpt><trkpt lat="61.798688" lon="-147.811006"><ele>505.813</ele><time>2026-07-16T02:19:50Z</time></trkpt><trkpt lat="61.798692" lon="-147.811001"><ele>505.930</ele><time>2026-07-16T02:20:00Z</time></trkpt><trkpt lat="61.798691" lon="-147.81098"><ele>505.990</ele><time>2026-07-16T02:20:09Z</time></trkpt><trkpt lat="61.798693" lon="-147.810992"><ele>505.967</ele><time>2026-07-16T02:20:10Z</time></trkpt><trkpt lat="61.798696" lon="-147.811005"><ele>505.933</ele><time>2026-07-16T02:20:11Z</time></trkpt><trkpt lat="61.798699" lon="-147.81102"><ele>506.064</ele><time>2026-07-16T02:20:12Z</time></trkpt><trkpt lat="61.798702" lon="-147.811039"><ele>506.086</ele><time>2026-07-16T02:20:13Z</time></trkpt><trkpt lat="61.798717" lon="-147.811108"><ele>506.478</ele><time>2026-07-16T02:20:16Z</time></trkpt><trkpt lat="61.798741" lon="-147.811374"><ele>507.559</ele><time>2026-07-16T02:20:25Z</time></trkpt><trkpt lat="61.798774" lon="-147.811602"><ele>507.303</ele><time>2026-07-16T02:20:34Z</time></trkpt><trkpt lat="61.798826" lon="-147.811864"><ele>505.423</ele><time>2026-07-16T02:20:44Z</time></trkpt><trkpt lat="61.798932" lon="-147.811976"><ele>503.909</ele><time>2026-07-16T02:20:53Z</time></trkpt><trkpt lat="61.799016" lon="-147.812093"><ele>503.257</ele><time>2026-07-16T02:21:02Z</time></trkpt><trkpt lat="61.799027" lon="-147.812131"><ele>502.972</ele><time>2026-07-16T02:21:04Z</time></trkpt><trkpt lat="61.799052" lon="-147.81223"><ele>501.619</ele><time>2026-07-16T02:21:08Z</time></trkpt><trkpt lat="61.799094" lon="-147.81237"><ele>500.359</ele><time>2026-07-16T02:21:15Z</time></trkpt><trkpt lat="61.799106" lon="-147.812422"><ele>499.766</ele><time>2026-07-16T02:21:17Z</time></trkpt><trkpt lat="61.799117" lon="-147.812492"><ele>498.842</ele><time>2026-07-16T02:21:20Z</time></trkpt><trkpt lat="61.799134" lon="-147.812555"><ele>498.223</ele><time>2026-07-16T02:21:23Z</time></trkpt><trkpt lat="61.799141" lon="-147.81258"><ele>498.195</ele><time>2026-07-16T02:21:24Z</time></trkpt><trkpt lat="61.799147" lon="-147.812603"><ele>497.917</ele><time>2026-07-16T02:21:25Z</time></trkpt><trkpt lat="61.799163" lon="-147.812791"><ele>496.094</ele><time>2026-07-16T02:21:33Z</time></trkpt><trkpt lat="61.799148" lon="-147.812836"><ele>495.257</ele><time>2026-07-16T02:21:35Z</time></trkpt><trkpt lat="61.799114" lon="-147.812903"><ele>494.022</ele><time>2026-07-16T02:21:38Z</time></trkpt><trkpt lat="61.799065" lon="-147.812947"><ele>493.609</ele><time>2026-07-16T02:21:42Z</time></trkpt><trkpt lat="61.799054" lon="-147.812952"><ele>493.561</ele><time>2026-07-16T02:21:43Z</time></trkpt><trkpt lat="61.799028" lon="-147.812962"><ele>493.376</ele><time>2026-07-16T02:21:45Z</time></trkpt><trkpt lat="61.79896" lon="-147.813109"><ele>494.783</ele><time>2026-07-16T02:21:53Z</time></trkpt><trkpt lat="61.798962" lon="-147.813346"><ele>497.013</ele><time>2026-07-16T02:22:01Z</time></trkpt><trkpt lat="61.798993" lon="-147.813647"><ele>500.340</ele><time>2026-07-16T02:22:12Z</time></trkpt><trkpt lat="61.799069" lon="-147.813914"><ele>502.416</ele><time>2026-07-16T02:22:24Z</time></trkpt><trkpt lat="61.799094" lon="-147.814093"><ele>502.187</ele><time>2026-07-16T02:22:31Z</time></trkpt><trkpt lat="61.799113" lon="-147.814178"><ele>501.669</ele><time>2026-07-16T02:22:36Z</time></trkpt><trkpt lat="61.799113" lon="-147.8142"><ele>501.571</ele><time>2026-07-16T02:22:38Z</time></trkpt><trkpt lat="61.799112" lon="-147.814203"><ele>501.484</ele><time>2026-07-16T02:22:39Z</time></trkpt><trkpt lat="61.799126" lon="-147.814193"><ele>501.707</ele><time>2026-07-16T02:22:42Z</time></trkpt><trkpt lat="61.799151" lon="-147.814162"><ele>502.217</ele><time>2026-07-16T02:22:45Z</time></trkpt><trkpt lat="61.799171" lon="-147.814159"><ele>502.509</ele><time>2026-07-16T02:22:49Z</time></trkpt><trkpt lat="61.799168" lon="-147.814173"><ele>502.480</ele><time>2026-07-16T02:22:51Z</time></trkpt><trkpt lat="61.799183" lon="-147.81418"><ele>502.675</ele><time>2026-07-16T02:22:59Z</time></trkpt><trkpt lat="61.799166" lon="-147.81423"><ele>502.072</ele><time>2026-07-16T02:23:07Z</time></trkpt><trkpt lat="61.799166" lon="-147.814226"><ele>502.142</ele><time>2026-07-16T02:23:08Z</time></trkpt><trkpt lat="61.799195" lon="-147.81409"><ele>503.239</ele><time>2026-07-16T02:23:15Z</time></trkpt><trkpt lat="61.799212" lon="-147.814057"><ele>503.555</ele><time>2026-07-16T02:23:16Z</time></trkpt><trkpt lat="61.799297" lon="-147.814061"><ele>504.426</ele><time>2026-07-16T02:23:23Z</time></trkpt><trkpt lat="61.799376" lon="-147.814271"><ele>504.138</ele><time>2026-07-16T02:23:32Z</time></trkpt><trkpt lat="61.799466" lon="-147.814447"><ele>503.430</ele><time>2026-07-16T02:23:41Z</time></trkpt><trkpt lat="61.799572" lon="-147.814441"><ele>503.671</ele><time>2026-07-16T02:23:49Z</time></trkpt><trkpt lat="61.799658" lon="-147.814496"><ele>504.041</ele><time>2026-07-16T02:23:56Z</time></trkpt><trkpt lat="61.799689" lon="-147.81452"><ele>504.215</ele><time>2026-07-16T02:23:58Z</time></trkpt><trkpt lat="61.799723" lon="-147.814551"><ele>504.309</ele><time>2026-07-16T02:24:02Z</time></trkpt></trkseg></trk></gpx>