<?xml version="1.0" encoding="UTF-8"?><gpx creator="Wikiloc - http://www.wikiloc.com" version="1.1" xmlns="http://www.topografix.com/GPX/1/1" xmlns:xsi="http://www.w3.org/2001/XMLSchema-instance" xsi:schemaLocation="http://www.topografix.com/GPX/1/1 http://www.topografix.com/GPX/1/1/gpx.xsd"><trk><name><![CDATA[Horseshoe Lake (GCD6)]]></name><cmt><![CDATA[Vista Verde]]></cmt><desc><![CDATA[Vista Verde]]></desc><trkseg><trkpt lat="37.310321" lon="-122.172422"><ele>639.451</ele><time>2026-09-08T21:17:37Z</time></trkpt><trkpt lat="37.31028" lon="-122.172411"><ele>639.401</ele><time>2026-09-08T21:17:41Z</time></trkpt><trkpt lat="37.310289" lon="-122.172392"><ele>638.811</ele><time>2026-09-08T21:17:44Z</time></trkpt><trkpt lat="37.310281" lon="-122.172377"><ele>638.409</ele><time>2026-09-08T21:17:46Z</time></trkpt><trkpt lat="37.310271" lon="-122.172371"><ele>638.257</ele><time>2026-09-08T21:17:47Z</time></trkpt><trkpt lat="37.310218" lon="-122.172356"><ele>637.663</ele><time>2026-09-08T21:17:52Z</time></trkpt><trkpt lat="37.310166" lon="-122.172358"><ele>637.049</ele><time>2026-09-08T21:17:57Z</time></trkpt><trkpt lat="37.310145" lon="-122.172363"><ele>636.842</ele><time>2026-09-08T21:17:59Z</time></trkpt><trkpt lat="37.3101" lon="-122.172375"><ele>636.268</ele><time>2026-09-08T21:18:05Z</time></trkpt><trkpt lat="37.310077" lon="-122.172378"><ele>636.069</ele><time>2026-09-08T21:18:08Z</time></trkpt><trkpt lat="37.310029" lon="-122.172398"><ele>635.849</ele><time>2026-09-08T21:18:13Z</time></trkpt><trkpt lat="37.309949" lon="-122.17244"><ele>635.035</ele><time>2026-09-08T21:18:22Z</time></trkpt><trkpt lat="37.309881" lon="-122.172478"><ele>634.292</ele><time>2026-09-08T21:18:29Z</time></trkpt><trkpt lat="37.309843" lon="-122.172493"><ele>633.819</ele><time>2026-09-08T21:18:34Z</time></trkpt><trkpt lat="37.309833" lon="-122.172499"><ele>633.409</ele><time>2026-09-08T21:18:36Z</time></trkpt><trkpt lat="37.309805" lon="-122.172519"><ele>633.019</ele><time>2026-09-08T21:18:43Z</time></trkpt><trkpt lat="37.309791" lon="-122.172527"><ele>632.809</ele><time>2026-09-08T21:18:45Z</time></trkpt><trkpt lat="37.309733" lon="-122.172542"><ele>632.023</ele><time>2026-09-08T21:18:52Z</time></trkpt><trkpt lat="37.309704" lon="-122.172551"><ele>631.889</ele><time>2026-09-08T21:18:56Z</time></trkpt><trkpt lat="37.309677" lon="-122.172558"><ele>631.665</ele><time>2026-09-08T21:18:59Z</time></trkpt><trkpt lat="37.309601" lon="-122.172603"><ele>630.858</ele><time>2026-09-08T21:19:08Z</time></trkpt><trkpt lat="37.309563" lon="-122.172636"><ele>630.684</ele><time>2026-09-08T21:19:11Z</time></trkpt><trkpt lat="37.309492" lon="-122.172691"><ele>630.485</ele><time>2026-09-08T21:19:17Z</time></trkpt><trkpt lat="37.309422" lon="-122.172748"><ele>629.615</ele><time>2026-09-08T21:19:22Z</time></trkpt><trkpt lat="37.309418" lon="-122.172753"><ele>629.481</ele><time>2026-09-08T21:19:23Z</time></trkpt><trkpt lat="37.309383" lon="-122.172781"><ele>629.068</ele><time>2026-09-08T21:19:29Z</time></trkpt><trkpt lat="37.309338" lon="-122.172841"><ele>628.466</ele><time>2026-09-08T21:19:35Z</time></trkpt><trkpt lat="37.309331" lon="-122.172852"><ele>628.229</ele><time>2026-09-08T21:19:36Z</time></trkpt><trkpt lat="37.309288" lon="-122.172886"><ele>627.421</ele><time>2026-09-08T21:19:43Z</time></trkpt><trkpt lat="37.309288" lon="-122.17289"><ele>627.409</ele><time>2026-09-08T21:19:44Z</time></trkpt><trkpt lat="37.309247" lon="-122.172929"><ele>627.258</ele><time>2026-09-08T21:19:50Z</time></trkpt><trkpt lat="37.309196" lon="-122.172956"><ele>627.044</ele><time>2026-09-08T21:19:57Z</time></trkpt><trkpt lat="37.309115" lon="-122.172999"><ele>626.480</ele><time>2026-09-08T21:20:07Z</time></trkpt><trkpt lat="37.309109" lon="-122.173003"><ele>626.483</ele><time>2026-09-08T21:20:08Z</time></trkpt><trkpt lat="37.30909" lon="-122.173005"><ele>626.229</ele><time>2026-09-08T21:20:14Z</time></trkpt><trkpt lat="37.3091" lon="-122.173002"><ele>626.240</ele><time>2026-09-08T21:20:21Z</time></trkpt><trkpt lat="37.309097" lon="-122.173001"><ele>626.490</ele><time>2026-09-08T21:20:23Z</time></trkpt><trkpt lat="37.309093" lon="-122.172996"><ele>626.016</ele><time>2026-09-08T21:20:37Z</time></trkpt><trkpt lat="37.309086" lon="-122.17301"><ele>626.243</ele><time>2026-09-08T21:20:50Z</time></trkpt><trkpt lat="37.309092" lon="-122.17301"><ele>626.276</ele><time>2026-09-08T21:20:57Z</time></trkpt><trkpt lat="37.309097" lon="-122.17301"><ele>626.090</ele><time>2026-09-08T21:21:05Z</time></trkpt><trkpt lat="37.309086" lon="-122.173009"><ele>626.219</ele><time>2026-09-08T21:21:09Z</time></trkpt><trkpt lat="37.30907" lon="-122.17301"><ele>625.809</ele><time>2026-09-08T21:21:14Z</time></trkpt><trkpt lat="37.309081" lon="-122.173015"><ele>626.029</ele><time>2026-09-08T21:21:19Z</time></trkpt><trkpt lat="37.309033" lon="-122.173034"><ele>626.055</ele><time>2026-09-08T21:21:25Z</time></trkpt><trkpt lat="37.309022" lon="-122.173039"><ele>626.081</ele><time>2026-09-08T21:21:26Z</time></trkpt><trkpt lat="37.308935" lon="-122.173077"><ele>625.454</ele><time>2026-09-08T21:21:33Z</time></trkpt><trkpt lat="37.308893" lon="-122.173096"><ele>625.060</ele><time>2026-09-08T21:21:37Z</time></trkpt><trkpt lat="37.308871" lon="-122.173096"><ele>624.691</ele><time>2026-09-08T21:21:40Z</time></trkpt><trkpt lat="37.308788" lon="-122.173089"><ele>624.681</ele><time>2026-09-08T21:21:46Z</time></trkpt><trkpt lat="37.308744" lon="-122.173006"><ele>624.887</ele><time>2026-09-08T21:21:52Z</time></trkpt><trkpt lat="37.308728" lon="-122.172936"><ele>624.224</ele><time>2026-09-08T21:21:56Z</time></trkpt><trkpt lat="37.308717" lon="-122.172886"><ele>624.267</ele><time>2026-09-08T21:21:59Z</time></trkpt><trkpt lat="37.308724" lon="-122.172766"><ele>623.881</ele><time>2026-09-08T21:22:06Z</time></trkpt><trkpt lat="37.308726" lon="-122.172737"><ele>623.619</ele><time>2026-09-08T21:22:08Z</time></trkpt><trkpt lat="37.308727" lon="-122.172622"><ele>623.209</ele><time>2026-09-08T21:22:15Z</time></trkpt><trkpt lat="37.308734" lon="-122.172555"><ele>623.098</ele><time>2026-09-08T21:22:19Z</time></trkpt><trkpt lat="37.308739" lon="-122.172515"><ele>622.884</ele><time>2026-09-08T21:22:22Z</time></trkpt><trkpt lat="37.308748" lon="-122.172435"><ele>622.250</ele><time>2026-09-08T21:22:27Z</time></trkpt><trkpt lat="37.308748" lon="-122.172411"><ele>622.043</ele><time>2026-09-08T21:22:28Z</time></trkpt><trkpt lat="37.308768" lon="-122.172343"><ele>621.669</ele><time>2026-09-08T21:22:33Z</time></trkpt><trkpt lat="37.308777" lon="-122.172317"><ele>621.480</ele><time>2026-09-08T21:22:35Z</time></trkpt><trkpt lat="37.308786" lon="-122.172274"><ele>621.290</ele><time>2026-09-08T21:22:38Z</time></trkpt><trkpt lat="37.308789" lon="-122.172263"><ele>621.066</ele><time>2026-09-08T21:22:39Z</time></trkpt><trkpt lat="37.308794" lon="-122.1722"><ele>620.883</ele><time>2026-09-08T21:22:43Z</time></trkpt><trkpt lat="37.308759" lon="-122.172068"><ele>620.093</ele><time>2026-09-08T21:22:51Z</time></trkpt><trkpt lat="37.308692" lon="-122.171979"><ele>619.865</ele><time>2026-09-08T21:22:59Z</time></trkpt><trkpt lat="37.308667" lon="-122.171984"><ele>620.021</ele><time>2026-09-08T21:23:01Z</time></trkpt><trkpt lat="37.3086" lon="-122.171999"><ele>620.609</ele><time>2026-09-08T21:23:06Z</time></trkpt><trkpt lat="37.308519" lon="-122.171961"><ele>620.661</ele><time>2026-09-08T21:23:15Z</time></trkpt><trkpt lat="37.308442" lon="-122.17199"><ele>620.657</ele><time>2026-09-08T21:23:22Z</time></trkpt><trkpt lat="37.308416" lon="-122.172057"><ele>620.883</ele><time>2026-09-08T21:23:27Z</time></trkpt><trkpt lat="37.308424" lon="-122.172098"><ele>621.096</ele><time>2026-09-08T21:23:30Z</time></trkpt><trkpt lat="37.308423" lon="-122.172207"><ele>621.232</ele><time>2026-09-08T21:23:38Z</time></trkpt><trkpt lat="37.30844" lon="-122.172396"><ele>620.053</ele><time>2026-09-08T21:23:49Z</time></trkpt><trkpt lat="37.308445" lon="-122.172528"><ele>619.043</ele><time>2026-09-08T21:23:58Z</time></trkpt><trkpt lat="37.308446" lon="-122.172546"><ele>618.829</ele><time>2026-09-08T21:23:59Z</time></trkpt><trkpt lat="37.308433" lon="-122.172628"><ele>618.866</ele><time>2026-09-08T21:24:04Z</time></trkpt><trkpt lat="37.308425" lon="-122.172666"><ele>618.824</ele><time>2026-09-08T21:24:06Z</time></trkpt><trkpt lat="37.308422" lon="-122.172681"><ele>618.804</ele><time>2026-09-08T21:24:07Z</time></trkpt><trkpt lat="37.308393" lon="-122.172807"><ele>618.814</ele><time>2026-09-08T21:24:15Z</time></trkpt><trkpt lat="37.308325" lon="-122.172905"><ele>618.809</ele><time>2026-09-08T21:24:23Z</time></trkpt><trkpt lat="37.308285" lon="-122.172958"><ele>618.884</ele><time>2026-09-08T21:24:27Z</time></trkpt><trkpt lat="37.308258" lon="-122.173014"><ele>619.060</ele><time>2026-09-08T21:24:31Z</time></trkpt><trkpt lat="37.308185" lon="-122.173111"><ele>619.016</ele><time>2026-09-08T21:24:41Z</time></trkpt><trkpt lat="37.308161" lon="-122.17314"><ele>619.019</ele><time>2026-09-08T21:24:43Z</time></trkpt><trkpt lat="37.308094" lon="-122.173239"><ele>619.225</ele><time>2026-09-08T21:24:51Z</time></trkpt><trkpt lat="37.308069" lon="-122.173291"><ele>619.046</ele><time>2026-09-08T21:24:54Z</time></trkpt><trkpt lat="37.308023" lon="-122.173364"><ele>619.066</ele><time>2026-09-08T21:25:00Z</time></trkpt><trkpt lat="37.307974" lon="-122.173448"><ele>618.812</ele><time>2026-09-08T21:25:07Z</time></trkpt><trkpt lat="37.307869" lon="-122.173538"><ele>618.889</ele><time>2026-09-08T21:25:17Z</time></trkpt><trkpt lat="37.307775" lon="-122.173616"><ele>619.095</ele><time>2026-09-08T21:25:25Z</time></trkpt><trkpt lat="37.307699" lon="-122.173653"><ele>619.449</ele><time>2026-09-08T21:25:34Z</time></trkpt><trkpt lat="37.307618" lon="-122.173704"><ele>619.823</ele><time>2026-09-08T21:25:41Z</time></trkpt><trkpt lat="37.307507" lon="-122.17373"><ele>620.209</ele><time>2026-09-08T21:25:50Z</time></trkpt><trkpt lat="37.307406" lon="-122.173767"><ele>620.891</ele><time>2026-09-08T21:26:00Z</time></trkpt><trkpt lat="37.307395" lon="-122.173774"><ele>621.067</ele><time>2026-09-08T21:26:01Z</time></trkpt><trkpt lat="37.307316" lon="-122.173842"><ele>621.663</ele><time>2026-09-08T21:26:10Z</time></trkpt><trkpt lat="37.307297" lon="-122.17383"><ele>621.876</ele><time>2026-09-08T21:26:13Z</time></trkpt><trkpt lat="37.307296" lon="-122.173823"><ele>622.092</ele><time>2026-09-08T21:26:14Z</time></trkpt><trkpt lat="37.307296" lon="-122.173804"><ele>622.493</ele><time>2026-09-08T21:26:17Z</time></trkpt><trkpt lat="37.307311" lon="-122.173797"><ele>622.433</ele><time>2026-09-08T21:26:19Z</time></trkpt><trkpt lat="37.307342" lon="-122.173761"><ele>622.829</ele><time>2026-09-08T21:26:23Z</time></trkpt><trkpt lat="37.307349" lon="-122.173752"><ele>623.076</ele><time>2026-09-08T21:26:24Z</time></trkpt><trkpt lat="37.30737" lon="-122.173717"><ele>623.414</ele><time>2026-09-08T21:26:28Z</time></trkpt><trkpt lat="37.307395" lon="-122.173675"><ele>623.654</ele><time>2026-09-08T21:26:32Z</time></trkpt><trkpt lat="37.307428" lon="-122.173639"><ele>624.009</ele><time>2026-09-08T21:26:36Z</time></trkpt><trkpt lat="37.307474" lon="-122.173613"><ele>624.409</ele><time>2026-09-08T21:26:40Z</time></trkpt><trkpt lat="37.307521" lon="-122.173599"><ele>625.073</ele><time>2026-09-08T21:26:45Z</time></trkpt><trkpt lat="37.307538" lon="-122.173591"><ele>625.249</ele><time>2026-09-08T21:26:47Z</time></trkpt><trkpt lat="37.307551" lon="-122.173581"><ele>625.475</ele><time>2026-09-08T21:26:49Z</time></trkpt><trkpt lat="37.307622" lon="-122.173523"><ele>625.618</ele><time>2026-09-08T21:26:58Z</time></trkpt><trkpt lat="37.307685" lon="-122.173464"><ele>626.214</ele><time>2026-09-08T21:27:04Z</time></trkpt><trkpt lat="37.307704" lon="-122.173444"><ele>626.445</ele><time>2026-09-08T21:27:06Z</time></trkpt><trkpt lat="37.307713" lon="-122.173435"><ele>626.665</ele><time>2026-09-08T21:27:07Z</time></trkpt><trkpt lat="37.307785" lon="-122.173378"><ele>627.221</ele><time>2026-09-08T21:27:15Z</time></trkpt><trkpt lat="37.307806" lon="-122.173363"><ele>627.648</ele><time>2026-09-08T21:27:18Z</time></trkpt><trkpt lat="37.307832" lon="-122.173327"><ele>628.435</ele><time>2026-09-08T21:27:23Z</time></trkpt><trkpt lat="37.307854" lon="-122.173273"><ele>629.286</ele><time>2026-09-08T21:27:28Z</time></trkpt><trkpt lat="37.30786" lon="-122.17325"><ele>629.414</ele><time>2026-09-08T21:27:30Z</time></trkpt><trkpt lat="37.307882" lon="-122.173157"><ele>630.209</ele><time>2026-09-08T21:27:38Z</time></trkpt><trkpt lat="37.307897" lon="-122.173105"><ele>630.435</ele><time>2026-09-08T21:27:42Z</time></trkpt><trkpt lat="37.307916" lon="-122.173069"><ele>630.611</ele><time>2026-09-08T21:27:45Z</time></trkpt><trkpt lat="37.307947" lon="-122.17299"><ele>630.817</ele><time>2026-09-08T21:27:51Z</time></trkpt><trkpt lat="37.307981" lon="-122.172904"><ele>631.640</ele><time>2026-09-08T21:27:59Z</time></trkpt><trkpt lat="37.307988" lon="-122.172894"><ele>631.636</ele><time>2026-09-08T21:28:00Z</time></trkpt><trkpt lat="37.308019" lon="-122.172838"><ele>632.637</ele><time>2026-09-08T21:28:06Z</time></trkpt><trkpt lat="37.308045" lon="-122.17279"><ele>633.027</ele><time>2026-09-08T21:28:11Z</time></trkpt><trkpt lat="37.308058" lon="-122.172768"><ele>633.653</ele><time>2026-09-08T21:28:14Z</time></trkpt><trkpt lat="37.308075" lon="-122.172727"><ele>634.060</ele><time>2026-09-08T21:28:19Z</time></trkpt><trkpt lat="37.308099" lon="-122.172664"><ele>634.857</ele><time>2026-09-08T21:28:25Z</time></trkpt><trkpt lat="37.308105" lon="-122.172644"><ele>635.000</ele><time>2026-09-08T21:28:27Z</time></trkpt><trkpt lat="37.308125" lon="-122.172598"><ele>635.620</ele><time>2026-09-08T21:28:32Z</time></trkpt><trkpt lat="37.30813" lon="-122.172584"><ele>635.809</ele><time>2026-09-08T21:28:33Z</time></trkpt><trkpt lat="37.308139" lon="-122.172568"><ele>636.017</ele><time>2026-09-08T21:28:35Z</time></trkpt><trkpt lat="37.308145" lon="-122.172507"><ele>637.093</ele><time>2026-09-08T21:28:41Z</time></trkpt><trkpt lat="37.308142" lon="-122.1725"><ele>637.039</ele><time>2026-09-08T21:28:42Z</time></trkpt><trkpt lat="37.308124" lon="-122.172433"><ele>638.012</ele><time>2026-09-08T21:28:49Z</time></trkpt><trkpt lat="37.308117" lon="-122.172411"><ele>638.488</ele><time>2026-09-08T21:28:51Z</time></trkpt><trkpt lat="37.308087" lon="-122.172304"><ele>639.099</ele><time>2026-09-08T21:29:00Z</time></trkpt><trkpt lat="37.308071" lon="-122.172269"><ele>639.289</ele><time>2026-09-08T21:29:04Z</time></trkpt><trkpt lat="37.308049" lon="-122.172227"><ele>639.855</ele><time>2026-09-08T21:29:09Z</time></trkpt><trkpt lat="37.308031" lon="-122.17218"><ele>640.242</ele><time>2026-09-08T21:29:13Z</time></trkpt><trkpt lat="37.308007" lon="-122.172138"><ele>640.473</ele><time>2026-09-08T21:29:18Z</time></trkpt><trkpt lat="37.307984" lon="-122.172089"><ele>641.285</ele><time>2026-09-08T21:29:24Z</time></trkpt><trkpt lat="37.307971" lon="-122.172065"><ele>641.613</ele><time>2026-09-08T21:29:27Z</time></trkpt><trkpt lat="37.307948" lon="-122.172027"><ele>642.009</ele><time>2026-09-08T21:29:31Z</time></trkpt><trkpt lat="37.307925" lon="-122.171998"><ele>642.469</ele><time>2026-09-08T21:29:34Z</time></trkpt><trkpt lat="37.307909" lon="-122.17198"><ele>642.645</ele><time>2026-09-08T21:29:36Z</time></trkpt><trkpt lat="37.307865" lon="-122.171935"><ele>643.491</ele><time>2026-09-08T21:29:43Z</time></trkpt><trkpt lat="37.307852" lon="-122.171918"><ele>643.834</ele><time>2026-09-08T21:29:46Z</time></trkpt><trkpt lat="37.307843" lon="-122.171905"><ele>644.010</ele><time>2026-09-08T21:29:48Z</time></trkpt><trkpt lat="37.307829" lon="-122.171894"><ele>644.261</ele><time>2026-09-08T21:29:50Z</time></trkpt><trkpt lat="37.307804" lon="-122.171868"><ele>644.491</ele><time>2026-09-08T21:29:54Z</time></trkpt><trkpt lat="37.307792" lon="-122.171854"><ele>644.837</ele><time>2026-09-08T21:29:56Z</time></trkpt><trkpt lat="37.307788" lon="-122.171848"><ele>644.884</ele><time>2026-09-08T21:29:57Z</time></trkpt><trkpt lat="37.307763" lon="-122.171822"><ele>645.462</ele><time>2026-09-08T21:30:02Z</time></trkpt><trkpt lat="37.307753" lon="-122.171799"><ele>645.883</ele><time>2026-09-08T21:30:05Z</time></trkpt><trkpt lat="37.307725" lon="-122.171739"><ele>646.611</ele><time>2026-09-08T21:30:11Z</time></trkpt><trkpt lat="37.307721" lon="-122.171729"><ele>646.609</ele><time>2026-09-08T21:30:12Z</time></trkpt><trkpt lat="37.307708" lon="-122.171656"><ele>647.678</ele><time>2026-09-08T21:30:21Z</time></trkpt><trkpt lat="37.307678" lon="-122.17158"><ele>648.824</ele><time>2026-09-08T21:30:30Z</time></trkpt><trkpt lat="37.307669" lon="-122.171558"><ele>649.020</ele><time>2026-09-08T21:30:32Z</time></trkpt><trkpt lat="37.30764" lon="-122.171494"><ele>649.833</ele><time>2026-09-08T21:30:39Z</time></trkpt><trkpt lat="37.307616" lon="-122.171441"><ele>650.669</ele><time>2026-09-08T21:30:45Z</time></trkpt><trkpt lat="37.307609" lon="-122.171428"><ele>650.850</ele><time>2026-09-08T21:30:47Z</time></trkpt><trkpt lat="37.307577" lon="-122.171373"><ele>651.620</ele><time>2026-09-08T21:30:54Z</time></trkpt><trkpt lat="37.307567" lon="-122.171363"><ele>651.826</ele><time>2026-09-08T21:30:56Z</time></trkpt><trkpt lat="37.307561" lon="-122.171357"><ele>652.073</ele><time>2026-09-08T21:30:57Z</time></trkpt><trkpt lat="37.307506" lon="-122.171289"><ele>653.058</ele><time>2026-09-08T21:31:06Z</time></trkpt><trkpt lat="37.307468" lon="-122.171225"><ele>654.252</ele><time>2026-09-08T21:31:15Z</time></trkpt><trkpt lat="37.307435" lon="-122.171162"><ele>655.217</ele><time>2026-09-08T21:31:23Z</time></trkpt><trkpt lat="37.307423" lon="-122.171146"><ele>655.409</ele><time>2026-09-08T21:31:25Z</time></trkpt><trkpt lat="37.307393" lon="-122.17108"><ele>656.287</ele><time>2026-09-08T21:31:33Z</time></trkpt><trkpt lat="37.307379" lon="-122.171057"><ele>656.693</ele><time>2026-09-08T21:31:36Z</time></trkpt><trkpt lat="37.307352" lon="-122.171022"><ele>657.299</ele><time>2026-09-08T21:31:41Z</time></trkpt><trkpt lat="37.307321" lon="-122.170977"><ele>658.092</ele><time>2026-09-08T21:31:46Z</time></trkpt><trkpt lat="37.307308" lon="-122.170944"><ele>658.438</ele><time>2026-09-08T21:31:50Z</time></trkpt><trkpt lat="37.307284" lon="-122.170896"><ele>659.039</ele><time>2026-09-08T21:31:57Z</time></trkpt><trkpt lat="37.307253" lon="-122.170866"><ele>659.469</ele><time>2026-09-08T21:32:02Z</time></trkpt><trkpt lat="37.307217" lon="-122.170844"><ele>659.865</ele><time>2026-09-08T21:32:06Z</time></trkpt><trkpt lat="37.307164" lon="-122.17081"><ele>660.472</ele><time>2026-09-08T21:32:11Z</time></trkpt><trkpt lat="37.307119" lon="-122.170782"><ele>661.234</ele><time>2026-09-08T21:32:17Z</time></trkpt><trkpt lat="37.307111" lon="-122.170771"><ele>661.455</ele><time>2026-09-08T21:32:19Z</time></trkpt><trkpt lat="37.307065" lon="-122.170742"><ele>662.210</ele><time>2026-09-08T21:32:26Z</time></trkpt><trkpt lat="37.30705" lon="-122.170733"><ele>662.409</ele><time>2026-09-08T21:32:28Z</time></trkpt><trkpt lat="37.307016" lon="-122.170718"><ele>663.455</ele><time>2026-09-08T21:32:36Z</time></trkpt><trkpt lat="37.30701" lon="-122.170717"><ele>663.641</ele><time>2026-09-08T21:32:37Z</time></trkpt><trkpt lat="37.30696" lon="-122.170702"><ele>664.637</ele><time>2026-09-08T21:32:45Z</time></trkpt><trkpt lat="37.306953" lon="-122.1707"><ele>664.880</ele><time>2026-09-08T21:32:46Z</time></trkpt><trkpt lat="37.306886" lon="-122.170653"><ele>665.616</ele><time>2026-09-08T21:32:55Z</time></trkpt><trkpt lat="37.306876" lon="-122.170652"><ele>665.867</ele><time>2026-09-08T21:32:56Z</time></trkpt><trkpt lat="37.306831" lon="-122.170626"><ele>666.657</ele><time>2026-09-08T21:33:04Z</time></trkpt><trkpt lat="37.306825" lon="-122.170623"><ele>666.813</ele><time>2026-09-08T21:33:05Z</time></trkpt><trkpt lat="37.306803" lon="-122.170594"><ele>667.660</ele><time>2026-09-08T21:33:11Z</time></trkpt><trkpt lat="37.306794" lon="-122.170587"><ele>667.896</ele><time>2026-09-08T21:33:13Z</time></trkpt><trkpt lat="37.306781" lon="-122.170582"><ele>668.231</ele><time>2026-09-08T21:33:15Z</time></trkpt><trkpt lat="37.306739" lon="-122.170533"><ele>669.024</ele><time>2026-09-08T21:33:22Z</time></trkpt><trkpt lat="37.306726" lon="-122.170527"><ele>669.209</ele><time>2026-09-08T21:33:24Z</time></trkpt><trkpt lat="37.306664" lon="-122.170486"><ele>670.061</ele><time>2026-09-08T21:33:33Z</time></trkpt><trkpt lat="37.306656" lon="-122.170477"><ele>670.237</ele><time>2026-09-08T21:33:35Z</time></trkpt><trkpt lat="37.306612" lon="-122.17046"><ele>671.093</ele><time>2026-09-08T21:33:42Z</time></trkpt><trkpt lat="37.306588" lon="-122.170448"><ele>671.646</ele><time>2026-09-08T21:33:45Z</time></trkpt><trkpt lat="37.306529" lon="-122.170426"><ele>672.222</ele><time>2026-09-08T21:33:52Z</time></trkpt><trkpt lat="37.306506" lon="-122.170418"><ele>672.463</ele><time>2026-09-08T21:33:54Z</time></trkpt><trkpt lat="37.306456" lon="-122.170399"><ele>672.813</ele><time>2026-09-08T21:33:59Z</time></trkpt><trkpt lat="37.306431" lon="-122.170385"><ele>673.229</ele><time>2026-09-08T21:34:03Z</time></trkpt><trkpt lat="37.306423" lon="-122.170379"><ele>673.236</ele><time>2026-09-08T21:34:05Z</time></trkpt><trkpt lat="37.306363" lon="-122.170364"><ele>674.281</ele><time>2026-09-08T21:34:14Z</time></trkpt><trkpt lat="37.306355" lon="-122.17036"><ele>674.261</ele><time>2026-09-08T21:34:15Z</time></trkpt><trkpt lat="37.306282" lon="-122.170337"><ele>675.217</ele><time>2026-09-08T21:34:24Z</time></trkpt><trkpt lat="37.306273" lon="-122.170326"><ele>675.809</ele><time>2026-09-08T21:34:27Z</time></trkpt><trkpt lat="37.306263" lon="-122.170326"><ele>676.290</ele><time>2026-09-08T21:34:29Z</time></trkpt><trkpt lat="37.306248" lon="-122.170324"><ele>676.436</ele><time>2026-09-08T21:34:32Z</time></trkpt><trkpt lat="37.306229" lon="-122.170302"><ele>677.072</ele><time>2026-09-08T21:34:38Z</time></trkpt><trkpt lat="37.306221" lon="-122.170295"><ele>677.215</ele><time>2026-09-08T21:34:40Z</time></trkpt><trkpt lat="37.306173" lon="-122.170276"><ele>678.231</ele><time>2026-09-08T21:34:48Z</time></trkpt><trkpt lat="37.306169" lon="-122.170273"><ele>678.462</ele><time>2026-09-08T21:34:49Z</time></trkpt><trkpt lat="37.306154" lon="-122.170264"><ele>678.642</ele><time>2026-09-08T21:34:51Z</time></trkpt><trkpt lat="37.306108" lon="-122.170244"><ele>679.418</ele><time>2026-09-08T21:34:57Z</time></trkpt><trkpt lat="37.306107" lon="-122.170239"><ele>679.475</ele><time>2026-09-08T21:34:58Z</time></trkpt><trkpt lat="37.306054" lon="-122.170166"><ele>680.495</ele><time>2026-09-08T21:35:08Z</time></trkpt><trkpt lat="37.30605" lon="-122.170159"><ele>680.649</ele><time>2026-09-08T21:35:09Z</time></trkpt><trkpt lat="37.306006" lon="-122.170125"><ele>681.623</ele><time>2026-09-08T21:35:18Z</time></trkpt><trkpt lat="37.306" lon="-122.170122"><ele>681.809</ele><time>2026-09-08T21:35:19Z</time></trkpt><trkpt lat="37.305957" lon="-122.170094"><ele>682.681</ele><time>2026-09-08T21:35:27Z</time></trkpt><trkpt lat="37.30594" lon="-122.170076"><ele>683.067</ele><time>2026-09-08T21:35:30Z</time></trkpt><trkpt lat="37.305891" lon="-122.170044"><ele>683.853</ele><time>2026-09-08T21:35:38Z</time></trkpt><trkpt lat="37.305884" lon="-122.170044"><ele>683.856</ele><time>2026-09-08T21:35:39Z</time></trkpt><trkpt lat="37.305803" lon="-122.170051"><ele>684.882</ele><time>2026-09-08T21:35:49Z</time></trkpt><trkpt lat="37.305714" lon="-122.170036"><ele>685.883</ele><time>2026-09-08T21:35:59Z</time></trkpt><trkpt lat="37.305698" lon="-122.170035"><ele>686.053</ele><time>2026-09-08T21:36:01Z</time></trkpt><trkpt lat="37.305634" lon="-122.17004"><ele>686.419</ele><time>2026-09-08T21:36:11Z</time></trkpt><trkpt lat="37.305603" lon="-122.170029"><ele>686.416</ele><time>2026-09-08T21:36:20Z</time></trkpt><trkpt lat="37.305625" lon="-122.170021"><ele>686.454</ele><time>2026-09-08T21:36:25Z</time></trkpt><trkpt lat="37.305615" lon="-122.170019"><ele>686.656</ele><time>2026-09-08T21:36:30Z</time></trkpt><trkpt lat="37.305611" lon="-122.170015"><ele>686.411</ele><time>2026-09-08T21:36:33Z</time></trkpt><trkpt lat="37.305639" lon="-122.169992"><ele>686.409</ele><time>2026-09-08T21:36:42Z</time></trkpt><trkpt lat="37.305591" lon="-122.169992"><ele>686.687</ele><time>2026-09-08T21:36:51Z</time></trkpt><trkpt lat="37.305568" lon="-122.169993"><ele>686.663</ele><time>2026-09-08T21:36:53Z</time></trkpt><trkpt lat="37.305562" lon="-122.170008"><ele>686.639</ele><time>2026-09-08T21:36:55Z</time></trkpt><trkpt lat="37.30557" lon="-122.170011"><ele>686.692</ele><time>2026-09-08T21:36:57Z</time></trkpt><trkpt lat="37.305569" lon="-122.170024"><ele>686.488</ele><time>2026-09-08T21:36:59Z</time></trkpt><trkpt lat="37.305569" lon="-122.17003"><ele>686.419</ele><time>2026-09-08T21:37:00Z</time></trkpt><trkpt lat="37.30559" lon="-122.17003"><ele>686.019</ele><time>2026-09-08T21:37:09Z</time></trkpt><trkpt lat="37.305597" lon="-122.170032"><ele>686.035</ele><time>2026-09-08T21:37:11Z</time></trkpt><trkpt lat="37.305601" lon="-122.170036"><ele>686.082</ele><time>2026-09-08T21:37:12Z</time></trkpt><trkpt lat="37.305612" lon="-122.170037"><ele>686.026</ele><time>2026-09-08T21:37:13Z</time></trkpt><trkpt lat="37.305614" lon="-122.17006"><ele>686.247</ele><time>2026-09-08T21:37:16Z</time></trkpt><trkpt lat="37.305612" lon="-122.17006"><ele>686.411</ele><time>2026-09-08T21:37:17Z</time></trkpt><trkpt lat="37.305616" lon="-122.17009"><ele>686.209</ele><time>2026-09-08T21:37:22Z</time></trkpt><trkpt lat="37.305623" lon="-122.170086"><ele>686.244</ele><time>2026-09-08T21:37:26Z</time></trkpt><trkpt lat="37.305631" lon="-122.170077"><ele>685.830</ele><time>2026-09-08T21:37:36Z</time></trkpt><trkpt lat="37.305644" lon="-122.170055"><ele>685.636</ele><time>2026-09-08T21:37:43Z</time></trkpt><trkpt lat="37.305647" lon="-122.170058"><ele>685.679</ele><time>2026-09-08T21:37:44Z</time></trkpt><trkpt lat="37.305644" lon="-122.170069"><ele>686.065</ele><time>2026-09-08T21:37:47Z</time></trkpt><trkpt lat="37.305633" lon="-122.1701"><ele>685.896</ele><time>2026-09-08T21:37:53Z</time></trkpt><trkpt lat="37.305598" lon="-122.170148"><ele>685.866</ele><time>2026-09-08T21:37:57Z</time></trkpt><trkpt lat="37.305568" lon="-122.17014"><ele>685.642</ele><time>2026-09-08T21:38:03Z</time></trkpt><trkpt lat="37.305556" lon="-122.170151"><ele>685.849</ele><time>2026-09-08T21:38:11Z</time></trkpt><trkpt lat="37.305557" lon="-122.170151"><ele>685.645</ele><time>2026-09-08T21:38:14Z</time></trkpt><trkpt lat="37.305532" lon="-122.170159"><ele>685.647</ele><time>2026-09-08T21:38:19Z</time></trkpt><trkpt lat="37.305506" lon="-122.170143"><ele>685.211</ele><time>2026-09-08T21:38:30Z</time></trkpt><trkpt lat="37.305492" lon="-122.170186"><ele>685.009</ele><time>2026-09-08T21:38:43Z</time></trkpt><trkpt lat="37.305475" lon="-122.170161"><ele>685.076</ele><time>2026-09-08T21:38:54Z</time></trkpt><trkpt lat="37.305483" lon="-122.170127"><ele>684.852</ele><time>2026-09-08T21:38:57Z</time></trkpt><trkpt lat="37.305482" lon="-122.17012"><ele>684.688</ele><time>2026-09-08T21:39:01Z</time></trkpt><trkpt lat="37.305484" lon="-122.170126"><ele>684.651</ele><time>2026-09-08T21:39:05Z</time></trkpt><trkpt lat="37.305414" lon="-122.170116"><ele>684.067</ele><time>2026-09-08T21:39:16Z</time></trkpt><trkpt lat="37.305402" lon="-122.170114"><ele>684.078</ele><time>2026-09-08T21:39:24Z</time></trkpt><trkpt lat="37.305419" lon="-122.170137"><ele>684.228</ele><time>2026-09-08T21:39:28Z</time></trkpt><trkpt lat="37.305431" lon="-122.170143"><ele>683.894</ele><time>2026-09-08T21:39:35Z</time></trkpt><trkpt lat="37.305424" lon="-122.170141"><ele>683.841</ele><time>2026-09-08T21:39:36Z</time></trkpt><trkpt lat="37.305391" lon="-122.170173"><ele>682.624</ele><time>2026-09-08T21:39:43Z</time></trkpt><trkpt lat="37.305385" lon="-122.170191"><ele>682.604</ele><time>2026-09-08T21:39:45Z</time></trkpt><trkpt lat="37.305359" lon="-122.170258"><ele>681.414</ele><time>2026-09-08T21:39:56Z</time></trkpt><trkpt lat="37.305346" lon="-122.170282"><ele>681.009</ele><time>2026-09-08T21:40:00Z</time></trkpt><trkpt lat="37.305358" lon="-122.170302"><ele>680.224</ele><time>2026-09-08T21:40:04Z</time></trkpt><trkpt lat="37.305384" lon="-122.170288"><ele>680.850</ele><time>2026-09-08T21:40:12Z</time></trkpt><trkpt lat="37.305338" lon="-122.170256"><ele>680.696</ele><time>2026-09-08T21:40:18Z</time></trkpt><trkpt lat="37.30538" lon="-122.17026"><ele>680.699</ele><time>2026-09-08T21:40:23Z</time></trkpt><trkpt lat="37.305394" lon="-122.170255"><ele>681.445</ele><time>2026-09-08T21:40:25Z</time></trkpt><trkpt lat="37.305393" lon="-122.170241"><ele>682.266</ele><time>2026-09-08T21:40:29Z</time></trkpt><trkpt lat="37.305393" lon="-122.170241"><ele>682.456</ele><time>2026-09-08T21:40:30Z</time></trkpt><trkpt lat="37.305339" lon="-122.170275"><ele>681.452</ele><time>2026-09-08T21:40:38Z</time></trkpt><trkpt lat="37.305322" lon="-122.170235"><ele>680.889</ele><time>2026-09-08T21:40:45Z</time></trkpt><trkpt lat="37.305322" lon="-122.170238"><ele>680.278</ele><time>2026-09-08T21:40:51Z</time></trkpt><trkpt lat="37.305319" lon="-122.170238"><ele>680.233</ele><time>2026-09-08T21:40:53Z</time></trkpt><trkpt lat="37.30533" lon="-122.170219"><ele>679.826</ele><time>2026-09-08T21:41:04Z</time></trkpt><trkpt lat="37.305337" lon="-122.170212"><ele>679.209</ele><time>2026-09-08T21:41:08Z</time></trkpt><trkpt lat="37.305338" lon="-122.170214"><ele>679.299</ele><time>2026-09-08T21:41:11Z</time></trkpt><trkpt lat="37.305344" lon="-122.170219"><ele>679.465</ele><time>2026-09-08T21:41:13Z</time></trkpt><trkpt lat="37.305356" lon="-122.170219"><ele>679.281</ele><time>2026-09-08T21:41:22Z</time></trkpt><trkpt lat="37.305354" lon="-122.170224"><ele>679.264</ele><time>2026-09-08T21:41:27Z</time></trkpt><trkpt lat="37.305356" lon="-122.170225"><ele>679.240</ele><time>2026-09-08T21:41:29Z</time></trkpt><trkpt lat="37.305356" lon="-122.170225"><ele>679.291</ele><time>2026-09-08T21:41:30Z</time></trkpt><trkpt lat="37.305354" lon="-122.170227"><ele>679.491</ele><time>2026-09-08T21:41:31Z</time></trkpt><trkpt lat="37.305352" lon="-122.170229"><ele>679.427</ele><time>2026-09-08T21:41:32Z</time></trkpt><trkpt lat="37.305371" lon="-122.17022"><ele>679.264</ele><time>2026-09-08T21:41:44Z</time></trkpt><trkpt lat="37.305335" lon="-122.170215"><ele>679.284</ele><time>2026-09-08T21:41:52Z</time></trkpt><trkpt lat="37.305328" lon="-122.170216"><ele>679.007</ele><time>2026-09-08T21:41:54Z</time></trkpt><trkpt lat="37.305324" lon="-122.170218"><ele>678.817</ele><time>2026-09-08T21:42:01Z</time></trkpt><trkpt lat="37.305329" lon="-122.170221"><ele>678.809</ele><time>2026-09-08T21:42:04Z</time></trkpt><trkpt lat="37.305309" lon="-122.170213"><ele>678.870</ele><time>2026-09-08T21:42:13Z</time></trkpt><trkpt lat="37.305306" lon="-122.170216"><ele>678.826</ele><time>2026-09-08T21:42:15Z</time></trkpt><trkpt lat="37.305307" lon="-122.170217"><ele>678.622</ele><time>2026-09-08T21:42:24Z</time></trkpt><trkpt lat="37.305319" lon="-122.170205"><ele>678.625</ele><time>2026-09-08T21:42:28Z</time></trkpt><trkpt lat="37.305313" lon="-122.170201"><ele>678.611</ele><time>2026-09-08T21:42:35Z</time></trkpt><trkpt lat="37.305305" lon="-122.170177"><ele>679.012</ele><time>2026-09-08T21:42:44Z</time></trkpt><trkpt lat="37.306264" lon="-122.170801"><ele>677.632</ele><time>2026-09-08T21:48:07Z</time></trkpt><trkpt lat="37.306266" lon="-122.17081"><ele>677.618</ele><time>2026-09-08T21:48:08Z</time></trkpt><trkpt lat="37.306282" lon="-122.170847"><ele>677.435</ele><time>2026-09-08T21:48:15Z</time></trkpt><trkpt lat="37.306286" lon="-122.170842"><ele>676.838</ele><time>2026-09-08T21:48:20Z</time></trkpt><trkpt lat="37.306288" lon="-122.170842"><ele>676.670</ele><time>2026-09-08T21:48:21Z</time></trkpt><trkpt lat="37.306296" lon="-122.170845"><ele>676.417</ele><time>2026-09-08T21:48:26Z</time></trkpt><trkpt lat="37.306314" lon="-122.170861"><ele>676.409</ele><time>2026-09-08T21:48:31Z</time></trkpt><trkpt lat="37.306299" lon="-122.170863"><ele>677.235</ele><time>2026-09-08T21:48:39Z</time></trkpt><trkpt lat="37.306303" lon="-122.170958"><ele>676.481</ele><time>2026-09-08T21:48:49Z</time></trkpt><trkpt lat="37.306331" lon="-122.171019"><ele>675.677</ele><time>2026-09-08T21:48:58Z</time></trkpt><trkpt lat="37.306336" lon="-122.171022"><ele>675.450</ele><time>2026-09-08T21:48:59Z</time></trkpt><trkpt lat="37.306372" lon="-122.170993"><ele>675.426</ele><time>2026-09-08T21:49:07Z</time></trkpt><trkpt lat="37.306436" lon="-122.170981"><ele>675.617</ele><time>2026-09-08T21:49:15Z</time></trkpt><trkpt lat="37.306445" lon="-122.170994"><ele>676.087</ele><time>2026-09-08T21:49:24Z</time></trkpt><trkpt lat="37.306434" lon="-122.171009"><ele>675.063</ele><time>2026-09-08T21:49:34Z</time></trkpt><trkpt lat="37.306461" lon="-122.171029"><ele>674.610</ele><time>2026-09-08T21:49:40Z</time></trkpt><trkpt lat="37.306466" lon="-122.171028"><ele>674.461</ele><time>2026-09-08T21:49:41Z</time></trkpt><trkpt lat="37.306465" lon="-122.171022"><ele>674.421</ele><time>2026-09-08T21:49:42Z</time></trkpt><trkpt lat="37.306493" lon="-122.17095"><ele>674.213</ele><time>2026-09-08T21:49:53Z</time></trkpt><trkpt lat="37.306483" lon="-122.170943"><ele>674.409</ele><time>2026-09-08T21:49:59Z</time></trkpt><trkpt lat="37.30648" lon="-122.170945"><ele>674.248</ele><time>2026-09-08T21:50:00Z</time></trkpt><trkpt lat="37.306479" lon="-122.170946"><ele>674.234</ele><time>2026-09-08T21:50:01Z</time></trkpt><trkpt lat="37.306471" lon="-122.170953"><ele>674.250</ele><time>2026-09-08T21:50:03Z</time></trkpt><trkpt lat="37.306454" lon="-122.171013"><ele>674.483</ele><time>2026-09-08T21:50:11Z</time></trkpt><trkpt lat="37.30646" lon="-122.171043"><ele>674.669</ele><time>2026-09-08T21:50:13Z</time></trkpt><trkpt lat="37.3065" lon="-122.171087"><ele>673.880</ele><time>2026-09-08T21:50:19Z</time></trkpt><trkpt lat="37.306529" lon="-122.171112"><ele>673.420</ele><time>2026-09-08T21:50:24Z</time></trkpt><trkpt lat="37.306539" lon="-122.171123"><ele>673.426</ele><time>2026-09-08T21:50:26Z</time></trkpt><trkpt lat="37.306553" lon="-122.171148"><ele>673.073</ele><time>2026-09-08T21:50:34Z</time></trkpt><trkpt lat="37.306574" lon="-122.171167"><ele>672.828</ele><time>2026-09-08T21:50:40Z</time></trkpt><trkpt lat="37.306574" lon="-122.171169"><ele>672.689</ele><time>2026-09-08T21:50:41Z</time></trkpt><trkpt lat="37.306595" lon="-122.171189"><ele>672.417</ele><time>2026-09-08T21:50:45Z</time></trkpt><trkpt lat="37.306623" lon="-122.171222"><ele>672.009</ele><time>2026-09-08T21:50:50Z</time></trkpt><trkpt lat="37.306654" lon="-122.17125"><ele>671.684</ele><time>2026-09-08T21:50:58Z</time></trkpt><trkpt lat="37.306662" lon="-122.171257"><ele>671.490</ele><time>2026-09-08T21:50:59Z</time></trkpt><trkpt lat="37.306724" lon="-122.171299"><ele>670.616</ele><time>2026-09-08T21:51:08Z</time></trkpt><trkpt lat="37.306756" lon="-122.171331"><ele>670.459</ele><time>2026-09-08T21:51:13Z</time></trkpt><trkpt lat="37.30676" lon="-122.171363"><ele>670.065</ele><time>2026-09-08T21:51:19Z</time></trkpt><trkpt lat="37.306772" lon="-122.171378"><ele>670.086</ele><time>2026-09-08T21:51:23Z</time></trkpt><trkpt lat="37.306793" lon="-122.171393"><ele>669.876</ele><time>2026-09-08T21:51:26Z</time></trkpt><trkpt lat="37.306806" lon="-122.171384"><ele>669.652</ele><time>2026-09-08T21:51:28Z</time></trkpt><trkpt lat="37.306809" lon="-122.171347"><ele>669.639</ele><time>2026-09-08T21:51:33Z</time></trkpt><trkpt lat="37.306811" lon="-122.171381"><ele>669.681</ele><time>2026-09-08T21:51:41Z</time></trkpt><trkpt lat="37.306813" lon="-122.171379"><ele>669.461</ele><time>2026-09-08T21:51:47Z</time></trkpt><trkpt lat="37.306821" lon="-122.17141"><ele>669.617</ele><time>2026-09-08T21:51:52Z</time></trkpt><trkpt lat="37.30683" lon="-122.171488"><ele>669.209</ele><time>2026-09-08T21:51:57Z</time></trkpt><trkpt lat="37.306841" lon="-122.171527"><ele>668.850</ele><time>2026-09-08T21:52:00Z</time></trkpt><trkpt lat="37.306848" lon="-122.171548"><ele>668.886</ele><time>2026-09-08T21:52:02Z</time></trkpt><trkpt lat="37.306928" lon="-122.171695"><ele>669.052</ele><time>2026-09-08T21:52:12Z</time></trkpt><trkpt lat="37.30699" lon="-122.171865"><ele>668.855</ele><time>2026-09-08T21:52:23Z</time></trkpt><trkpt lat="37.307032" lon="-122.172005"><ele>668.691</ele><time>2026-09-08T21:52:33Z</time></trkpt><trkpt lat="37.307043" lon="-122.17207"><ele>668.462</ele><time>2026-09-08T21:52:38Z</time></trkpt><trkpt lat="37.307045" lon="-122.172086"><ele>668.472</ele><time>2026-09-08T21:52:39Z</time></trkpt><trkpt lat="37.307046" lon="-122.172101"><ele>668.248</ele><time>2026-09-08T21:52:40Z</time></trkpt><trkpt lat="37.307045" lon="-122.172137"><ele>667.865</ele><time>2026-09-08T21:52:43Z</time></trkpt><trkpt lat="37.307072" lon="-122.172222"><ele>667.254</ele><time>2026-09-08T21:52:49Z</time></trkpt><trkpt lat="37.307082" lon="-122.172231"><ele>667.056</ele><time>2026-09-08T21:52:50Z</time></trkpt><trkpt lat="37.30717" lon="-122.172261"><ele>666.211</ele><time>2026-09-08T21:52:57Z</time></trkpt><trkpt lat="37.307188" lon="-122.172253"><ele>666.009</ele><time>2026-09-08T21:52:59Z</time></trkpt><trkpt lat="37.307239" lon="-122.17218"><ele>664.897</ele><time>2026-09-08T21:53:06Z</time></trkpt><trkpt lat="37.307262" lon="-122.172143"><ele>664.273</ele><time>2026-09-08T21:53:14Z</time></trkpt><trkpt lat="37.307267" lon="-122.172152"><ele>664.059</ele><time>2026-09-08T21:53:15Z</time></trkpt><trkpt lat="37.307274" lon="-122.172161"><ele>663.842</ele><time>2026-09-08T21:53:16Z</time></trkpt><trkpt lat="37.307336" lon="-122.17221"><ele>663.068</ele><time>2026-09-08T21:53:23Z</time></trkpt><trkpt lat="37.307357" lon="-122.172229"><ele>662.869</ele><time>2026-09-08T21:53:26Z</time></trkpt><trkpt lat="37.307397" lon="-122.172306"><ele>661.659</ele><time>2026-09-08T21:53:34Z</time></trkpt><trkpt lat="37.307396" lon="-122.172319"><ele>661.675</ele><time>2026-09-08T21:53:35Z</time></trkpt><trkpt lat="37.30735" lon="-122.172372"><ele>660.872</ele><time>2026-09-08T21:53:42Z</time></trkpt><trkpt lat="37.30734" lon="-122.172374"><ele>660.853</ele><time>2026-09-08T21:53:43Z</time></trkpt><trkpt lat="37.307332" lon="-122.172377"><ele>660.804</ele><time>2026-09-08T21:53:44Z</time></trkpt><trkpt lat="37.307325" lon="-122.172378"><ele>660.614</ele><time>2026-09-08T21:53:45Z</time></trkpt><trkpt lat="37.307244" lon="-122.172418"><ele>659.809</ele><time>2026-09-08T21:53:52Z</time></trkpt><trkpt lat="37.307217" lon="-122.172435"><ele>659.667</ele><time>2026-09-08T21:53:55Z</time></trkpt><trkpt lat="37.307158" lon="-122.172477"><ele>658.813</ele><time>2026-09-08T21:54:02Z</time></trkpt><trkpt lat="37.307126" lon="-122.172495"><ele>658.429</ele><time>2026-09-08T21:54:05Z</time></trkpt><trkpt lat="37.307045" lon="-122.172555"><ele>657.282</ele><time>2026-09-08T21:54:12Z</time></trkpt><trkpt lat="37.30697" lon="-122.172634"><ele>656.238</ele><time>2026-09-08T21:54:21Z</time></trkpt><trkpt lat="37.306962" lon="-122.172655"><ele>655.859</ele><time>2026-09-08T21:54:23Z</time></trkpt><trkpt lat="37.306953" lon="-122.172674"><ele>655.289</ele><time>2026-09-08T21:54:25Z</time></trkpt><trkpt lat="37.306938" lon="-122.172702"><ele>654.045</ele><time>2026-09-08T21:54:29Z</time></trkpt><trkpt lat="37.306932" lon="-122.172732"><ele>652.642</ele><time>2026-09-08T21:54:33Z</time></trkpt><trkpt lat="37.306927" lon="-122.172743"><ele>652.472</ele><time>2026-09-08T21:54:34Z</time></trkpt><trkpt lat="37.306915" lon="-122.172763"><ele>651.613</ele><time>2026-09-08T21:54:37Z</time></trkpt><trkpt lat="37.306899" lon="-122.172783"><ele>651.214</ele><time>2026-09-08T21:54:43Z</time></trkpt><trkpt lat="37.306915" lon="-122.172808"><ele>650.809</ele><time>2026-09-08T21:54:53Z</time></trkpt><trkpt lat="37.306925" lon="-122.172851"><ele>651.039</ele><time>2026-09-08T21:55:00Z</time></trkpt><trkpt lat="37.306923" lon="-122.172845"><ele>651.025</ele><time>2026-09-08T21:55:01Z</time></trkpt><trkpt lat="37.306919" lon="-122.172784"><ele>650.891</ele><time>2026-09-08T21:55:10Z</time></trkpt><trkpt lat="37.306934" lon="-122.172771"><ele>650.674</ele><time>2026-09-08T21:55:19Z</time></trkpt><trkpt lat="37.306933" lon="-122.172773"><ele>650.660</ele><time>2026-09-08T21:55:20Z</time></trkpt><trkpt lat="37.306931" lon="-122.172772"><ele>650.431</ele><time>2026-09-08T21:55:21Z</time></trkpt><trkpt lat="37.306894" lon="-122.172793"><ele>651.081</ele><time>2026-09-08T21:55:31Z</time></trkpt><trkpt lat="37.306891" lon="-122.172794"><ele>650.827</ele><time>2026-09-08T21:55:41Z</time></trkpt><trkpt lat="37.306936" lon="-122.1728"><ele>650.464</ele><time>2026-09-08T21:55:53Z</time></trkpt><trkpt lat="37.30694" lon="-122.172803"><ele>650.493</ele><time>2026-09-08T21:55:58Z</time></trkpt><trkpt lat="37.306932" lon="-122.172793"><ele>650.665</ele><time>2026-09-08T21:56:04Z</time></trkpt><trkpt lat="37.306914" lon="-122.172793"><ele>650.221</ele><time>2026-09-08T21:56:14Z</time></trkpt><trkpt lat="37.306917" lon="-122.172813"><ele>650.009</ele><time>2026-09-08T21:56:25Z</time></trkpt><trkpt lat="37.306917" lon="-122.172812"><ele>650.071</ele><time>2026-09-08T21:56:26Z</time></trkpt><trkpt lat="37.306917" lon="-122.17281"><ele>650.047</ele><time>2026-09-08T21:56:27Z</time></trkpt><trkpt lat="37.306918" lon="-122.172809"><ele>649.873</ele><time>2026-09-08T21:56:28Z</time></trkpt><trkpt lat="37.306921" lon="-122.172809"><ele>649.826</ele><time>2026-09-08T21:56:29Z</time></trkpt><trkpt lat="37.306968" lon="-122.172822"><ele>649.892</ele><time>2026-09-08T21:56:36Z</time></trkpt><trkpt lat="37.306968" lon="-122.172825"><ele>649.823</ele><time>2026-09-08T21:56:37Z</time></trkpt><trkpt lat="37.30697" lon="-122.172828"><ele>649.843</ele><time>2026-09-08T21:56:38Z</time></trkpt><trkpt lat="37.30694" lon="-122.17281"><ele>649.859</ele><time>2026-09-08T21:56:50Z</time></trkpt><trkpt lat="37.306943" lon="-122.172808"><ele>649.886</ele><time>2026-09-08T21:56:51Z</time></trkpt><trkpt lat="37.306948" lon="-122.172803"><ele>650.052</ele><time>2026-09-08T21:56:52Z</time></trkpt><trkpt lat="37.306945" lon="-122.172776"><ele>650.253</ele><time>2026-09-08T21:56:57Z</time></trkpt><trkpt lat="37.306949" lon="-122.172769"><ele>650.208</ele><time>2026-09-08T21:56:59Z</time></trkpt><trkpt lat="37.306945" lon="-122.172766"><ele>650.009</ele><time>2026-09-08T21:57:01Z</time></trkpt><trkpt lat="37.306937" lon="-122.172761"><ele>650.047</ele><time>2026-09-08T21:57:02Z</time></trkpt><trkpt lat="37.306907" lon="-122.172774"><ele>649.813</ele><time>2026-09-08T21:57:08Z</time></trkpt><trkpt lat="37.306892" lon="-122.172766"><ele>649.869</ele><time>2026-09-08T21:57:13Z</time></trkpt><trkpt lat="37.306883" lon="-122.172752"><ele>649.622</ele><time>2026-09-08T21:57:26Z</time></trkpt><trkpt lat="37.306879" lon="-122.172774"><ele>650.038</ele><time>2026-09-08T21:57:36Z</time></trkpt><trkpt lat="37.306904" lon="-122.172771"><ele>649.689</ele><time>2026-09-08T21:57:49Z</time></trkpt><trkpt lat="37.306885" lon="-122.172769"><ele>649.449</ele><time>2026-09-08T21:57:56Z</time></trkpt><trkpt lat="37.306897" lon="-122.172764"><ele>649.625</ele><time>2026-09-08T21:58:00Z</time></trkpt><trkpt lat="37.306884" lon="-122.172762"><ele>649.292</ele><time>2026-09-08T21:58:11Z</time></trkpt><trkpt lat="37.306903" lon="-122.172764"><ele>649.229</ele><time>2026-09-08T21:58:24Z</time></trkpt><trkpt lat="37.306903" lon="-122.172762"><ele>649.200</ele><time>2026-09-08T21:58:26Z</time></trkpt><trkpt lat="37.306887" lon="-122.172749"><ele>649.220</ele><time>2026-09-08T21:58:35Z</time></trkpt><trkpt lat="37.30689" lon="-122.172779"><ele>649.209</ele><time>2026-09-08T21:58:48Z</time></trkpt><trkpt lat="37.306898" lon="-122.172787"><ele>648.854</ele><time>2026-09-08T21:58:52Z</time></trkpt><trkpt lat="37.306902" lon="-122.172781"><ele>648.870</ele><time>2026-09-08T21:59:01Z</time></trkpt><trkpt lat="37.306901" lon="-122.172778"><ele>648.856</ele><time>2026-09-08T21:59:03Z</time></trkpt><trkpt lat="37.30689" lon="-122.172765"><ele>648.899</ele><time>2026-09-08T21:59:09Z</time></trkpt><trkpt lat="37.306889" lon="-122.172756"><ele>648.885</ele><time>2026-09-08T21:59:13Z</time></trkpt><trkpt lat="37.306875" lon="-122.172743"><ele>649.086</ele><time>2026-09-08T21:59:18Z</time></trkpt><trkpt lat="37.30687" lon="-122.172732"><ele>648.826</ele><time>2026-09-08T21:59:22Z</time></trkpt><trkpt lat="37.306871" lon="-122.17273"><ele>648.812</ele><time>2026-09-08T21:59:24Z</time></trkpt><trkpt lat="37.306864" lon="-122.172731"><ele>648.899</ele><time>2026-09-08T21:59:30Z</time></trkpt><trkpt lat="37.306864" lon="-122.172731"><ele>649.012</ele><time>2026-09-08T21:59:33Z</time></trkpt><trkpt lat="37.306867" lon="-122.172737"><ele>648.632</ele><time>2026-09-08T21:59:44Z</time></trkpt><trkpt lat="37.306872" lon="-122.172739"><ele>648.605</ele><time>2026-09-08T21:59:46Z</time></trkpt><trkpt lat="37.306872" lon="-122.172756"><ele>648.609</ele><time>2026-09-08T21:59:57Z</time></trkpt><trkpt lat="37.306872" lon="-122.172756"><ele>648.683</ele><time>2026-09-08T22:00:08Z</time></trkpt><trkpt lat="37.306883" lon="-122.172766"><ele>648.459</ele><time>2026-09-08T22:00:19Z</time></trkpt><trkpt lat="37.30688" lon="-122.172764"><ele>648.435</ele><time>2026-09-08T22:00:25Z</time></trkpt><trkpt lat="37.306875" lon="-122.17276"><ele>648.288</ele><time>2026-09-08T22:00:28Z</time></trkpt><trkpt lat="37.306871" lon="-122.172758"><ele>648.294</ele><time>2026-09-08T22:00:29Z</time></trkpt><trkpt lat="37.306869" lon="-122.172757"><ele>648.225</ele><time>2026-09-08T22:00:30Z</time></trkpt><trkpt lat="37.306881" lon="-122.172769"><ele>648.275</ele><time>2026-09-08T22:00:42Z</time></trkpt><trkpt lat="37.306883" lon="-122.172776"><ele>648.261</ele><time>2026-09-08T22:00:43Z</time></trkpt><trkpt lat="37.306896" lon="-122.172792"><ele>648.298</ele><time>2026-09-08T22:00:48Z</time></trkpt><trkpt lat="37.306892" lon="-122.17279"><ele>648.436</ele><time>2026-09-08T22:00:52Z</time></trkpt><trkpt lat="37.306885" lon="-122.172781"><ele>648.217</ele><time>2026-09-08T22:01:04Z</time></trkpt><trkpt lat="37.306886" lon="-122.172804"><ele>648.818</ele><time>2026-09-08T22:01:14Z</time></trkpt><trkpt lat="37.306891" lon="-122.172804"><ele>648.609</ele><time>2026-09-08T22:01:18Z</time></trkpt><trkpt lat="37.30691" lon="-122.172767"><ele>649.045</ele><time>2026-09-08T22:01:26Z</time></trkpt><trkpt lat="37.306921" lon="-122.172754"><ele>649.621</ele><time>2026-09-08T22:01:30Z</time></trkpt><trkpt lat="37.306931" lon="-122.172734"><ele>650.427</ele><time>2026-09-08T22:01:35Z</time></trkpt><trkpt lat="37.306936" lon="-122.172731"><ele>650.820</ele><time>2026-09-08T22:01:37Z</time></trkpt><trkpt lat="37.306962" lon="-122.172712"><ele>651.616</ele><time>2026-09-08T22:01:46Z</time></trkpt><trkpt lat="37.306964" lon="-122.17271"><ele>651.827</ele><time>2026-09-08T22:01:48Z</time></trkpt><trkpt lat="37.306966" lon="-122.172705"><ele>651.847</ele><time>2026-09-08T22:01:50Z</time></trkpt><trkpt lat="37.306969" lon="-122.172697"><ele>652.083</ele><time>2026-09-08T22:01:53Z</time></trkpt><trkpt lat="37.306977" lon="-122.172672"><ele>652.270</ele><time>2026-09-08T22:01:58Z</time></trkpt><trkpt lat="37.306979" lon="-122.172648"><ele>653.051</ele><time>2026-09-08T22:02:01Z</time></trkpt><trkpt lat="37.306952" lon="-122.172627"><ele>653.201</ele><time>2026-09-08T22:02:05Z</time></trkpt><trkpt lat="37.306945" lon="-122.172624"><ele>653.011</ele><time>2026-09-08T22:02:12Z</time></trkpt><trkpt lat="37.306928" lon="-122.172589"><ele>652.809</ele><time>2026-09-08T22:02:20Z</time></trkpt><trkpt lat="37.306901" lon="-122.172533"><ele>652.417</ele><time>2026-09-08T22:02:27Z</time></trkpt><trkpt lat="37.306887" lon="-122.172513"><ele>652.413</ele><time>2026-09-08T22:02:35Z</time></trkpt><trkpt lat="37.306881" lon="-122.172459"><ele>651.829</ele><time>2026-09-08T22:02:42Z</time></trkpt><trkpt lat="37.30688" lon="-122.172439"><ele>651.862</ele><time>2026-09-08T22:02:45Z</time></trkpt><trkpt lat="37.306876" lon="-122.172369"><ele>651.448</ele><time>2026-09-08T22:02:55Z</time></trkpt><trkpt lat="37.306864" lon="-122.172301"><ele>651.089</ele><time>2026-09-08T22:03:04Z</time></trkpt><trkpt lat="37.306853" lon="-122.172268"><ele>650.849</ele><time>2026-09-08T22:03:09Z</time></trkpt><trkpt lat="37.30681" lon="-122.172236"><ele>650.215</ele><time>2026-09-08T22:03:16Z</time></trkpt><trkpt lat="37.306785" lon="-122.172219"><ele>650.062</ele><time>2026-09-08T22:03:19Z</time></trkpt><trkpt lat="37.306767" lon="-122.172208"><ele>649.891</ele><time>2026-09-08T22:03:22Z</time></trkpt><trkpt lat="37.306732" lon="-122.172198"><ele>649.681</ele><time>2026-09-08T22:03:26Z</time></trkpt><trkpt lat="37.306663" lon="-122.172194"><ele>649.419</ele><time>2026-09-08T22:03:35Z</time></trkpt><trkpt lat="37.306615" lon="-122.172193"><ele>648.809</ele><time>2026-09-08T22:03:45Z</time></trkpt><trkpt lat="37.30661" lon="-122.17219"><ele>648.881</ele><time>2026-09-08T22:03:46Z</time></trkpt><trkpt lat="37.306591" lon="-122.172173"><ele>648.647</ele><time>2026-09-08T22:03:54Z</time></trkpt><trkpt lat="37.306547" lon="-122.172147"><ele>648.273</ele><time>2026-09-08T22:04:02Z</time></trkpt><trkpt lat="37.306544" lon="-122.172141"><ele>648.036</ele><time>2026-09-08T22:04:06Z</time></trkpt><trkpt lat="37.306532" lon="-122.17213"><ele>648.032</ele><time>2026-09-08T22:04:08Z</time></trkpt><trkpt lat="37.306514" lon="-122.172092"><ele>647.863</ele><time>2026-09-08T22:04:12Z</time></trkpt><trkpt lat="37.306508" lon="-122.172072"><ele>647.293</ele><time>2026-09-08T22:04:16Z</time></trkpt><trkpt lat="37.306505" lon="-122.17202"><ele>647.079</ele><time>2026-09-08T22:04:24Z</time></trkpt><trkpt lat="37.306504" lon="-122.172"><ele>647.056</ele><time>2026-09-08T22:04:26Z</time></trkpt><trkpt lat="37.306503" lon="-122.171976"><ele>646.881</ele><time>2026-09-08T22:04:29Z</time></trkpt><trkpt lat="37.306504" lon="-122.171955"><ele>646.461</ele><time>2026-09-08T22:04:31Z</time></trkpt><trkpt lat="37.306513" lon="-122.171886"><ele>645.817</ele><time>2026-09-08T22:04:38Z</time></trkpt><trkpt lat="37.306512" lon="-122.171875"><ele>645.609</ele><time>2026-09-08T22:04:39Z</time></trkpt><trkpt lat="37.306513" lon="-122.17178"><ele>645.240</ele><time>2026-09-08T22:04:49Z</time></trkpt><trkpt lat="37.306476" lon="-122.171729"><ele>644.636</ele><time>2026-09-08T22:04:55Z</time></trkpt><trkpt lat="37.306463" lon="-122.17175"><ele>644.432</ele><time>2026-09-08T22:04:58Z</time></trkpt><trkpt lat="37.306441" lon="-122.171815"><ele>643.695</ele><time>2026-09-08T22:05:04Z</time></trkpt><trkpt lat="37.306438" lon="-122.171823"><ele>643.691</ele><time>2026-09-08T22:05:05Z</time></trkpt><trkpt lat="37.306433" lon="-122.171839"><ele>643.432</ele><time>2026-09-08T22:05:07Z</time></trkpt><trkpt lat="37.306407" lon="-122.171873"><ele>643.672</ele><time>2026-09-08T22:05:15Z</time></trkpt><trkpt lat="37.306355" lon="-122.171987"><ele>642.648</ele><time>2026-09-08T22:05:24Z</time></trkpt><trkpt lat="37.306349" lon="-122.172015"><ele>642.435</ele><time>2026-09-08T22:05:26Z</time></trkpt><trkpt lat="37.306333" lon="-122.172126"><ele>641.471</ele><time>2026-09-08T22:05:34Z</time></trkpt><trkpt lat="37.306335" lon="-122.17219"><ele>641.241</ele><time>2026-09-08T22:05:38Z</time></trkpt><trkpt lat="37.306348" lon="-122.172251"><ele>640.415</ele><time>2026-09-08T22:05:42Z</time></trkpt><trkpt lat="37.306386" lon="-122.172344"><ele>639.609</ele><time>2026-09-08T22:05:48Z</time></trkpt><trkpt lat="37.306412" lon="-122.172378"><ele>639.489</ele><time>2026-09-08T22:05:51Z</time></trkpt><trkpt lat="37.306451" lon="-122.172413"><ele>639.015</ele><time>2026-09-08T22:05:54Z</time></trkpt><trkpt lat="37.306465" lon="-122.172422"><ele>638.831</ele><time>2026-09-08T22:05:55Z</time></trkpt><trkpt lat="37.306478" lon="-122.17243"><ele>638.624</ele><time>2026-09-08T22:05:56Z</time></trkpt><trkpt lat="37.306489" lon="-122.172436"><ele>638.430</ele><time>2026-09-08T22:05:57Z</time></trkpt><trkpt lat="37.3065" lon="-122.172441"><ele>638.221</ele><time>2026-09-08T22:05:58Z</time></trkpt><trkpt lat="37.30654" lon="-122.172452"><ele>637.881</ele><time>2026-09-08T22:06:01Z</time></trkpt><trkpt lat="37.306614" lon="-122.172473"><ele>637.287</ele><time>2026-09-08T22:06:07Z</time></trkpt><trkpt lat="37.306628" lon="-122.172525"><ele>637.464</ele><time>2026-09-08T22:06:12Z</time></trkpt><trkpt lat="37.306625" lon="-122.172562"><ele>637.467</ele><time>2026-09-08T22:06:15Z</time></trkpt><trkpt lat="37.306621" lon="-122.172571"><ele>637.281</ele><time>2026-09-08T22:06:16Z</time></trkpt><trkpt lat="37.306592" lon="-122.172657"><ele>636.419</ele><time>2026-09-08T22:06:24Z</time></trkpt><trkpt lat="37.306586" lon="-122.172705"><ele>636.209</ele><time>2026-09-08T22:06:27Z</time></trkpt><trkpt lat="37.30658" lon="-122.172798"><ele>635.428</ele><time>2026-09-08T22:06:33Z</time></trkpt><trkpt lat="37.306584" lon="-122.172863"><ele>635.214</ele><time>2026-09-08T22:06:36Z</time></trkpt><trkpt lat="37.306592" lon="-122.172942"><ele>634.480</ele><time>2026-09-08T22:06:41Z</time></trkpt><trkpt lat="37.3066" lon="-122.173016"><ele>634.243</ele><time>2026-09-08T22:06:47Z</time></trkpt><trkpt lat="37.306605" lon="-122.173061"><ele>633.899</ele><time>2026-09-08T22:06:50Z</time></trkpt><trkpt lat="37.30663" lon="-122.173166"><ele>633.030</ele><time>2026-09-08T22:06:58Z</time></trkpt><trkpt lat="37.306633" lon="-122.173185"><ele>632.850</ele><time>2026-09-08T22:07:00Z</time></trkpt><trkpt lat="37.306629" lon="-122.173325"><ele>632.096</ele><time>2026-09-08T22:07:11Z</time></trkpt><trkpt lat="37.306589" lon="-122.173432"><ele>631.083</ele><time>2026-09-08T22:07:21Z</time></trkpt><trkpt lat="37.306585" lon="-122.173446"><ele>631.062</ele><time>2026-09-08T22:07:22Z</time></trkpt><trkpt lat="37.30661" lon="-122.173579"><ele>629.683</ele><time>2026-09-08T22:07:30Z</time></trkpt><trkpt lat="37.30669" lon="-122.17366"><ele>628.611</ele><time>2026-09-08T22:07:38Z</time></trkpt><trkpt lat="37.306721" lon="-122.173681"><ele>628.209</ele><time>2026-09-08T22:07:40Z</time></trkpt><trkpt lat="37.306787" lon="-122.173729"><ele>627.478</ele><time>2026-09-08T22:07:44Z</time></trkpt><trkpt lat="37.30685" lon="-122.173772"><ele>627.084</ele><time>2026-09-08T22:07:50Z</time></trkpt><trkpt lat="37.306893" lon="-122.173791"><ele>626.460</ele><time>2026-09-08T22:07:54Z</time></trkpt><trkpt lat="37.306921" lon="-122.173805"><ele>626.263</ele><time>2026-09-08T22:07:57Z</time></trkpt><trkpt lat="37.306953" lon="-122.173819"><ele>625.659</ele><time>2026-09-08T22:08:00Z</time></trkpt><trkpt lat="37.306976" lon="-122.173825"><ele>625.290</ele><time>2026-09-08T22:08:02Z</time></trkpt><trkpt lat="37.307074" lon="-122.17383"><ele>624.410</ele><time>2026-09-08T22:08:10Z</time></trkpt><trkpt lat="37.307089" lon="-122.173823"><ele>624.226</ele><time>2026-09-08T22:08:11Z</time></trkpt><trkpt lat="37.307174" lon="-122.173763"><ele>623.233</ele><time>2026-09-08T22:08:19Z</time></trkpt><trkpt lat="37.307183" lon="-122.17375"><ele>623.049</ele><time>2026-09-08T22:08:20Z</time></trkpt><trkpt lat="37.307207" lon="-122.173702"><ele>622.402</ele><time>2026-09-08T22:08:23Z</time></trkpt><trkpt lat="37.30722" lon="-122.173669"><ele>622.222</ele><time>2026-09-08T22:08:25Z</time></trkpt><trkpt lat="37.307228" lon="-122.173651"><ele>622.009</ele><time>2026-09-08T22:08:27Z</time></trkpt><trkpt lat="37.307267" lon="-122.173599"><ele>621.296</ele><time>2026-09-08T22:08:33Z</time></trkpt><trkpt lat="37.307309" lon="-122.173585"><ele>620.832</ele><time>2026-09-08T22:08:36Z</time></trkpt><trkpt lat="37.307324" lon="-122.173579"><ele>620.828</ele><time>2026-09-08T22:08:37Z</time></trkpt><trkpt lat="37.307341" lon="-122.173585"><ele>620.071</ele><time>2026-09-08T22:08:45Z</time></trkpt><trkpt lat="37.307336" lon="-122.173589"><ele>619.867</ele><time>2026-09-08T22:08:46Z</time></trkpt><trkpt lat="37.307338" lon="-122.173632"><ele>619.018</ele><time>2026-09-08T22:08:51Z</time></trkpt><trkpt lat="37.307345" lon="-122.173642"><ele>618.698</ele><time>2026-09-08T22:08:52Z</time></trkpt><trkpt lat="37.307352" lon="-122.173647"><ele>618.484</ele><time>2026-09-08T22:08:53Z</time></trkpt><trkpt lat="37.307375" lon="-122.173672"><ele>617.621</ele><time>2026-09-08T22:08:57Z</time></trkpt><trkpt lat="37.307366" lon="-122.173703"><ele>617.251</ele><time>2026-09-08T22:09:00Z</time></trkpt><trkpt lat="37.307361" lon="-122.173714"><ele>617.201</ele><time>2026-09-08T22:09:01Z</time></trkpt><trkpt lat="37.307314" lon="-122.173798"><ele>616.411</ele><time>2026-09-08T22:09:08Z</time></trkpt><trkpt lat="37.30731" lon="-122.173823"><ele>616.209</ele><time>2026-09-08T22:09:10Z</time></trkpt><trkpt lat="37.307329" lon="-122.173858"><ele>615.697</ele><time>2026-09-08T22:09:15Z</time></trkpt><trkpt lat="37.307336" lon="-122.173851"><ele>615.463</ele><time>2026-09-08T22:09:16Z</time></trkpt><trkpt lat="37.307435" lon="-122.173804"><ele>614.489</ele><time>2026-09-08T22:09:26Z</time></trkpt><trkpt lat="37.307443" lon="-122.173803"><ele>614.482</ele><time>2026-09-08T22:09:27Z</time></trkpt><trkpt lat="37.307553" lon="-122.173782"><ele>614.098</ele><time>2026-09-08T22:09:36Z</time></trkpt><trkpt lat="37.307662" lon="-122.173711"><ele>613.879</ele><time>2026-09-08T22:09:47Z</time></trkpt><trkpt lat="37.307792" lon="-122.173655"><ele>613.659</ele><time>2026-09-08T22:09:59Z</time></trkpt><trkpt lat="37.307799" lon="-122.17363"><ele>613.445</ele><time>2026-09-08T22:10:08Z</time></trkpt><trkpt lat="37.307837" lon="-122.17357"><ele>613.872</ele><time>2026-09-08T22:10:19Z</time></trkpt><trkpt lat="37.307895" lon="-122.173551"><ele>613.882</ele><time>2026-09-08T22:10:25Z</time></trkpt><trkpt lat="37.307926" lon="-122.173539"><ele>614.043</ele><time>2026-09-08T22:10:28Z</time></trkpt><trkpt lat="37.308023" lon="-122.173434"><ele>614.217</ele><time>2026-09-08T22:10:39Z</time></trkpt><trkpt lat="37.308053" lon="-122.17339"><ele>614.209</ele><time>2026-09-08T22:10:44Z</time></trkpt><trkpt lat="37.308051" lon="-122.173384"><ele>614.430</ele><time>2026-09-08T22:10:48Z</time></trkpt><trkpt lat="37.308036" lon="-122.173397"><ele>614.486</ele><time>2026-09-08T22:10:52Z</time></trkpt><trkpt lat="37.308023" lon="-122.173421"><ele>614.442</ele><time>2026-09-08T22:10:57Z</time></trkpt><trkpt lat="37.308026" lon="-122.173416"><ele>614.435</ele><time>2026-09-08T22:10:58Z</time></trkpt><trkpt lat="37.308049" lon="-122.173372"><ele>614.621</ele><time>2026-09-08T22:11:03Z</time></trkpt><trkpt lat="37.308078" lon="-122.173319"><ele>614.612</ele><time>2026-09-08T22:11:07Z</time></trkpt><trkpt lat="37.308155" lon="-122.173189"><ele>614.652</ele><time>2026-09-08T22:11:16Z</time></trkpt><trkpt lat="37.308161" lon="-122.173178"><ele>614.848</ele><time>2026-09-08T22:11:17Z</time></trkpt><trkpt lat="37.308188" lon="-122.173131"><ele>615.095</ele><time>2026-09-08T22:11:21Z</time></trkpt><trkpt lat="37.308215" lon="-122.173097"><ele>615.051</ele><time>2026-09-08T22:11:24Z</time></trkpt><trkpt lat="37.308225" lon="-122.173083"><ele>615.201</ele><time>2026-09-08T22:11:25Z</time></trkpt><trkpt lat="37.308247" lon="-122.173056"><ele>615.411</ele><time>2026-09-08T22:11:27Z</time></trkpt><trkpt lat="37.308266" lon="-122.173034"><ele>615.409</ele><time>2026-09-08T22:11:29Z</time></trkpt><trkpt lat="37.308338" lon="-122.172944"><ele>615.637</ele><time>2026-09-08T22:11:37Z</time></trkpt><trkpt lat="37.308397" lon="-122.172866"><ele>616.013</ele><time>2026-09-08T22:11:44Z</time></trkpt><trkpt lat="37.308413" lon="-122.172836"><ele>616.079</ele><time>2026-09-08T22:11:46Z</time></trkpt><trkpt lat="37.308435" lon="-122.172779"><ele>616.282</ele><time>2026-09-08T22:11:50Z</time></trkpt><trkpt lat="37.308454" lon="-122.172685"><ele>616.438</ele><time>2026-09-08T22:11:56Z</time></trkpt><trkpt lat="37.308468" lon="-122.17252"><ele>616.889</ele><time>2026-09-08T22:12:06Z</time></trkpt><trkpt lat="37.308471" lon="-122.172461"><ele>617.449</ele><time>2026-09-08T22:12:11Z</time></trkpt><trkpt lat="37.308465" lon="-122.172405"><ele>618.635</ele><time>2026-09-08T22:12:16Z</time></trkpt><trkpt lat="37.308463" lon="-122.172389"><ele>618.692</ele><time>2026-09-08T22:12:17Z</time></trkpt><trkpt lat="37.308459" lon="-122.172337"><ele>618.661</ele><time>2026-09-08T22:12:20Z</time></trkpt><trkpt lat="37.308437" lon="-122.17225"><ele>619.021</ele><time>2026-09-08T22:12:26Z</time></trkpt><trkpt lat="37.308431" lon="-122.172186"><ele>619.613</ele><time>2026-09-08T22:12:30Z</time></trkpt><trkpt lat="37.308419" lon="-122.172114"><ele>619.409</ele><time>2026-09-08T22:12:35Z</time></trkpt><trkpt lat="37.308436" lon="-122.171997"><ele>619.438</ele><time>2026-09-08T22:12:45Z</time></trkpt><trkpt lat="37.308462" lon="-122.171988"><ele>619.234</ele><time>2026-09-08T22:12:49Z</time></trkpt><trkpt lat="37.308497" lon="-122.171976"><ele>619.210</ele><time>2026-09-08T22:12:54Z</time></trkpt><trkpt lat="37.308498" lon="-122.171977"><ele>619.233</ele><time>2026-09-08T22:12:55Z</time></trkpt><trkpt lat="37.308504" lon="-122.171985"><ele>619.479</ele><time>2026-09-08T22:12:58Z</time></trkpt><trkpt lat="37.308507" lon="-122.171996"><ele>619.450</ele><time>2026-09-08T22:13:04Z</time></trkpt><trkpt lat="37.308566" lon="-122.172028"><ele>619.640</ele><time>2026-09-08T22:13:12Z</time></trkpt><trkpt lat="37.30857" lon="-122.172017"><ele>619.656</ele><time>2026-09-08T22:13:13Z</time></trkpt><trkpt lat="37.308589" lon="-122.172004"><ele>619.813</ele><time>2026-09-08T22:13:19Z</time></trkpt><trkpt lat="37.308634" lon="-122.171998"><ele>619.663</ele><time>2026-09-08T22:13:23Z</time></trkpt><trkpt lat="37.308662" lon="-122.171995"><ele>619.644</ele><time>2026-09-08T22:13:26Z</time></trkpt><trkpt lat="37.308712" lon="-122.172039"><ele>618.818</ele><time>2026-09-08T22:13:31Z</time></trkpt><trkpt lat="37.308732" lon="-122.172073"><ele>618.609</ele><time>2026-09-08T22:13:34Z</time></trkpt><trkpt lat="37.308765" lon="-122.172185"><ele>619.438</ele><time>2026-09-08T22:13:43Z</time></trkpt><trkpt lat="37.308745" lon="-122.172281"><ele>620.224</ele><time>2026-09-08T22:13:51Z</time></trkpt><trkpt lat="37.308733" lon="-122.172335"><ele>620.610</ele><time>2026-09-08T22:13:54Z</time></trkpt><trkpt lat="37.308732" lon="-122.172401"><ele>621.073</ele><time>2026-09-08T22:13:59Z</time></trkpt><trkpt lat="37.308732" lon="-122.172416"><ele>621.249</ele><time>2026-09-08T22:14:00Z</time></trkpt><trkpt lat="37.308731" lon="-122.172431"><ele>621.260</ele><time>2026-09-08T22:14:01Z</time></trkpt><trkpt lat="37.308731" lon="-122.172447"><ele>621.480</ele><time>2026-09-08T22:14:02Z</time></trkpt><trkpt lat="37.308731" lon="-122.172463"><ele>621.486</ele><time>2026-09-08T22:14:03Z</time></trkpt><trkpt lat="37.308726" lon="-122.172498"><ele>621.623</ele><time>2026-09-08T22:14:05Z</time></trkpt><trkpt lat="37.308718" lon="-122.172576"><ele>622.269</ele><time>2026-09-08T22:14:10Z</time></trkpt><trkpt lat="37.308715" lon="-122.172591"><ele>622.404</ele><time>2026-09-08T22:14:11Z</time></trkpt><trkpt lat="37.308714" lon="-122.172625"><ele>622.624</ele><time>2026-09-08T22:14:13Z</time></trkpt><trkpt lat="37.308716" lon="-122.172687"><ele>622.609</ele><time>2026-09-08T22:14:17Z</time></trkpt><trkpt lat="37.308716" lon="-122.1727"><ele>622.848</ele><time>2026-09-08T22:14:18Z</time></trkpt><trkpt lat="37.308712" lon="-122.172728"><ele>623.034</ele><time>2026-09-08T22:14:20Z</time></trkpt><trkpt lat="37.308709" lon="-122.172773"><ele>623.210</ele><time>2026-09-08T22:14:23Z</time></trkpt><trkpt lat="37.308708" lon="-122.172878"><ele>623.633</ele><time>2026-09-08T22:14:30Z</time></trkpt><trkpt lat="37.308711" lon="-122.172938"><ele>623.849</ele><time>2026-09-08T22:14:34Z</time></trkpt><trkpt lat="37.308737" lon="-122.173045"><ele>624.460</ele><time>2026-09-08T22:14:42Z</time></trkpt><trkpt lat="37.308812" lon="-122.173098"><ele>624.240</ele><time>2026-09-08T22:14:51Z</time></trkpt><trkpt lat="37.308854" lon="-122.173106"><ele>624.246</ele><time>2026-09-08T22:14:56Z</time></trkpt><trkpt lat="37.308872" lon="-122.173099"><ele>624.293</ele><time>2026-09-08T22:15:00Z</time></trkpt><trkpt lat="37.308864" lon="-122.17309"><ele>624.469</ele><time>2026-09-08T22:15:03Z</time></trkpt><trkpt lat="37.308876" lon="-122.173082"><ele>624.204</ele><time>2026-09-08T22:15:07Z</time></trkpt><trkpt lat="37.308882" lon="-122.173086"><ele>624.424</ele><time>2026-09-08T22:15:15Z</time></trkpt><trkpt lat="37.30888" lon="-122.173086"><ele>624.409</ele><time>2026-09-08T22:15:18Z</time></trkpt><trkpt lat="37.308875" lon="-122.173087"><ele>624.218</ele><time>2026-09-08T22:15:20Z</time></trkpt><trkpt lat="37.308815" lon="-122.17311"><ele>624.434</ele><time>2026-09-08T22:15:27Z</time></trkpt><trkpt lat="37.308792" lon="-122.173059"><ele>624.840</ele><time>2026-09-08T22:15:31Z</time></trkpt><trkpt lat="37.308799" lon="-122.173006"><ele>625.653</ele><time>2026-09-08T22:15:33Z</time></trkpt><trkpt lat="37.308804" lon="-122.172988"><ele>626.259</ele><time>2026-09-08T22:15:34Z</time></trkpt><trkpt lat="37.308816" lon="-122.172954"><ele>627.280</ele><time>2026-09-08T22:15:36Z</time></trkpt><trkpt lat="37.308835" lon="-122.17294"><ele>628.080</ele><time>2026-09-08T22:15:38Z</time></trkpt><trkpt lat="37.308843" lon="-122.172947"><ele>628.436</ele><time>2026-09-08T22:15:39Z</time></trkpt><trkpt lat="37.308873" lon="-122.172979"><ele>629.063</ele><time>2026-09-08T22:15:44Z</time></trkpt><trkpt lat="37.308883" lon="-122.17299"><ele>628.677</ele><time>2026-09-08T22:15:48Z</time></trkpt><trkpt lat="37.308884" lon="-122.172992"><ele>628.661</ele><time>2026-09-08T22:15:49Z</time></trkpt><trkpt lat="37.30888" lon="-122.173002"><ele>628.627</ele><time>2026-09-08T22:15:51Z</time></trkpt><trkpt lat="37.308879" lon="-122.173003"><ele>628.609</ele><time>2026-09-08T22:15:52Z</time></trkpt><trkpt lat="37.308865" lon="-122.172971"><ele>628.659</ele><time>2026-09-08T22:16:00Z</time></trkpt><trkpt lat="37.308889" lon="-122.172978"><ele>628.485</ele><time>2026-09-08T22:16:09Z</time></trkpt><trkpt lat="37.308877" lon="-122.173004"><ele>628.461</ele><time>2026-09-08T22:16:17Z</time></trkpt><trkpt lat="37.308881" lon="-122.17299"><ele>628.474</ele><time>2026-09-08T22:16:18Z</time></trkpt><trkpt lat="37.308881" lon="-122.172971"><ele>628.470</ele><time>2026-09-08T22:16:19Z</time></trkpt><trkpt lat="37.308866" lon="-122.172966"><ele>628.481</ele><time>2026-09-08T22:16:22Z</time></trkpt><trkpt lat="37.308855" lon="-122.172994"><ele>627.811</ele><time>2026-09-08T22:16:26Z</time></trkpt><trkpt lat="37.308852" lon="-122.173001"><ele>627.437</ele><time>2026-09-08T22:16:28Z</time></trkpt><trkpt lat="37.308849" lon="-122.173004"><ele>627.084</ele><time>2026-09-08T22:16:30Z</time></trkpt><trkpt lat="37.308851" lon="-122.172951"><ele>627.876</ele><time>2026-09-08T22:16:37Z</time></trkpt><trkpt lat="37.308836" lon="-122.172905"><ele>628.290</ele><time>2026-09-08T22:16:43Z</time></trkpt><trkpt lat="37.308837" lon="-122.172895"><ele>628.219</ele><time>2026-09-08T22:16:45Z</time></trkpt><trkpt lat="37.308834" lon="-122.172911"><ele>628.209</ele><time>2026-09-08T22:16:47Z</time></trkpt><trkpt lat="37.308837" lon="-122.172927"><ele>628.229</ele><time>2026-09-08T22:16:49Z</time></trkpt><trkpt lat="37.30883" lon="-122.173004"><ele>627.465</ele><time>2026-09-08T22:16:55Z</time></trkpt><trkpt lat="37.308827" lon="-122.173035"><ele>626.091</ele><time>2026-09-08T22:16:58Z</time></trkpt><trkpt lat="37.308828" lon="-122.173047"><ele>625.474</ele><time>2026-09-08T22:17:00Z</time></trkpt><trkpt lat="37.308832" lon="-122.173032"><ele>625.470</ele><time>2026-09-08T22:17:04Z</time></trkpt><trkpt lat="37.308838" lon="-122.172999"><ele>625.841</ele><time>2026-09-08T22:17:07Z</time></trkpt><trkpt lat="37.30888" lon="-122.172984"><ele>627.241</ele><time>2026-09-08T22:17:14Z</time></trkpt><trkpt lat="37.308899" lon="-122.172982"><ele>627.637</ele><time>2026-09-08T22:17:17Z</time></trkpt><trkpt lat="37.308891" lon="-122.172997"><ele>627.234</ele><time>2026-09-08T22:17:23Z</time></trkpt><trkpt lat="37.308879" lon="-122.172999"><ele>627.044</ele><time>2026-09-08T22:17:31Z</time></trkpt><trkpt lat="37.308884" lon="-122.172997"><ele>627.005</ele><time>2026-09-08T22:17:32Z</time></trkpt><trkpt lat="37.308891" lon="-122.172993"><ele>627.015</ele><time>2026-09-08T22:17:33Z</time></trkpt><trkpt lat="37.308901" lon="-122.172988"><ele>627.009</ele><time>2026-09-08T22:17:35Z</time></trkpt><trkpt lat="37.308916" lon="-122.172976"><ele>626.856</ele><time>2026-09-08T22:17:40Z</time></trkpt><trkpt lat="37.308897" lon="-122.172986"><ele>626.822</ele><time>2026-09-08T22:17:46Z</time></trkpt><trkpt lat="37.308891" lon="-122.172991"><ele>626.828</ele><time>2026-09-08T22:17:54Z</time></trkpt><trkpt lat="37.308881" lon="-122.172985"><ele>626.611</ele><time>2026-09-08T22:18:01Z</time></trkpt><trkpt lat="37.308879" lon="-122.172985"><ele>626.487</ele><time>2026-09-08T22:18:02Z</time></trkpt><trkpt lat="37.308902" lon="-122.173003"><ele>626.658</ele><time>2026-09-08T22:18:13Z</time></trkpt><trkpt lat="37.308885" lon="-122.172994"><ele>627.028</ele><time>2026-09-08T22:18:24Z</time></trkpt><trkpt lat="37.308804" lon="-122.173015"><ele>626.274</ele><time>2026-09-08T22:18:29Z</time></trkpt><trkpt lat="37.308786" lon="-122.173023"><ele>625.441</ele><time>2026-09-08T22:18:30Z</time></trkpt><trkpt lat="37.308775" lon="-122.173034"><ele>624.865</ele><time>2026-09-08T22:18:31Z</time></trkpt><trkpt lat="37.308759" lon="-122.173065"><ele>623.668</ele><time>2026-09-08T22:18:33Z</time></trkpt><trkpt lat="37.308773" lon="-122.173083"><ele>622.814</ele><time>2026-09-08T22:18:35Z</time></trkpt><trkpt lat="37.308784" lon="-122.173086"><ele>622.409</ele><time>2026-09-08T22:18:36Z</time></trkpt><trkpt lat="37.308829" lon="-122.173107"><ele>622.638</ele><time>2026-09-08T22:18:42Z</time></trkpt><trkpt lat="37.30887" lon="-122.173113"><ele>622.824</ele><time>2026-09-08T22:18:50Z</time></trkpt><trkpt lat="37.308872" lon="-122.173119"><ele>622.410</ele><time>2026-09-08T22:18:59Z</time></trkpt><trkpt lat="37.308807" lon="-122.173113"><ele>622.683</ele><time>2026-09-08T22:19:07Z</time></trkpt><trkpt lat="37.308788" lon="-122.173063"><ele>622.849</ele><time>2026-09-08T22:19:11Z</time></trkpt><trkpt lat="37.308788" lon="-122.173048"><ele>623.290</ele><time>2026-09-08T22:19:12Z</time></trkpt><trkpt lat="37.30879" lon="-122.17303"><ele>623.650</ele><time>2026-09-08T22:19:13Z</time></trkpt><trkpt lat="37.308799" lon="-122.173019"><ele>624.026</ele><time>2026-09-08T22:19:14Z</time></trkpt><trkpt lat="37.308818" lon="-122.173016"><ele>624.833</ele><time>2026-09-08T22:19:16Z</time></trkpt><trkpt lat="37.308827" lon="-122.173013"><ele>625.021</ele><time>2026-09-08T22:19:17Z</time></trkpt><trkpt lat="37.308865" lon="-122.172996"><ele>626.041</ele><time>2026-09-08T22:19:21Z</time></trkpt><trkpt lat="37.308884" lon="-122.172987"><ele>626.605</ele><time>2026-09-08T22:19:23Z</time></trkpt><trkpt lat="37.308895" lon="-122.17298"><ele>627.009</ele><time>2026-09-08T22:19:25Z</time></trkpt><trkpt lat="37.308899" lon="-122.17298"><ele>626.634</ele><time>2026-09-08T22:19:29Z</time></trkpt><trkpt lat="37.308902" lon="-122.172982"><ele>626.490</ele><time>2026-09-08T22:19:34Z</time></trkpt><trkpt lat="37.3089" lon="-122.172988"><ele>626.486</ele><time>2026-09-08T22:19:42Z</time></trkpt><trkpt lat="37.308889" lon="-122.17299"><ele>626.699</ele><time>2026-09-08T22:19:45Z</time></trkpt><trkpt lat="37.308809" lon="-122.173006"><ele>625.445</ele><time>2026-09-08T22:19:52Z</time></trkpt><trkpt lat="37.308777" lon="-122.173017"><ele>624.626</ele><time>2026-09-08T22:19:54Z</time></trkpt><trkpt lat="37.308752" lon="-122.173062"><ele>623.246</ele><time>2026-09-08T22:19:57Z</time></trkpt><trkpt lat="37.308762" lon="-122.173073"><ele>622.652</ele><time>2026-09-08T22:19:58Z</time></trkpt><trkpt lat="37.308775" lon="-122.173082"><ele>622.459</ele><time>2026-09-08T22:19:59Z</time></trkpt><trkpt lat="37.308788" lon="-122.17309"><ele>622.054</ele><time>2026-09-08T22:20:00Z</time></trkpt><trkpt lat="37.308841" lon="-122.173108"><ele>622.056</ele><time>2026-09-08T22:20:04Z</time></trkpt><trkpt lat="37.308954" lon="-122.17309"><ele>622.611</ele><time>2026-09-08T22:20:12Z</time></trkpt><trkpt lat="37.309014" lon="-122.173071"><ele>623.009</ele><time>2026-09-08T22:20:16Z</time></trkpt><trkpt lat="37.309122" lon="-122.173026"><ele>623.617</ele><time>2026-09-08T22:20:23Z</time></trkpt><trkpt lat="37.309226" lon="-122.17296"><ele>624.033</ele><time>2026-09-08T22:20:30Z</time></trkpt><trkpt lat="37.309263" lon="-122.172935"><ele>624.029</ele><time>2026-09-08T22:20:33Z</time></trkpt><trkpt lat="37.309273" lon="-122.172926"><ele>624.042</ele><time>2026-09-08T22:20:34Z</time></trkpt><trkpt lat="37.309284" lon="-122.172915"><ele>624.278</ele><time>2026-09-08T22:20:35Z</time></trkpt><trkpt lat="37.309295" lon="-122.172901"><ele>624.299</ele><time>2026-09-08T22:20:36Z</time></trkpt><trkpt lat="37.309307" lon="-122.172889"><ele>624.279</ele><time>2026-09-08T22:20:37Z</time></trkpt><trkpt lat="37.309369" lon="-122.172822"><ele>624.645</ele><time>2026-09-08T22:20:43Z</time></trkpt><trkpt lat="37.309407" lon="-122.172778"><ele>625.282</ele><time>2026-09-08T22:20:47Z</time></trkpt><trkpt lat="37.309469" lon="-122.172722"><ele>625.893</ele><time>2026-09-08T22:20:53Z</time></trkpt><trkpt lat="37.309519" lon="-122.172684"><ele>626.465</ele><time>2026-09-08T22:20:57Z</time></trkpt><trkpt lat="37.30962" lon="-122.172603"><ele>627.221</ele><time>2026-09-08T22:21:06Z</time></trkpt><trkpt lat="37.309656" lon="-122.172581"><ele>627.409</ele><time>2026-09-08T22:21:09Z</time></trkpt><trkpt lat="37.309725" lon="-122.172556"><ele>628.241</ele><time>2026-09-08T22:21:15Z</time></trkpt><trkpt lat="37.309764" lon="-122.17255"><ele>628.417</ele><time>2026-09-08T22:21:19Z</time></trkpt><trkpt lat="37.309844" lon="-122.172514"><ele>629.443</ele><time>2026-09-08T22:21:26Z</time></trkpt><trkpt lat="37.309859" lon="-122.172505"><ele>629.676</ele><time>2026-09-08T22:21:27Z</time></trkpt><trkpt lat="37.309925" lon="-122.172475"><ele>630.632</ele><time>2026-09-08T22:21:33Z</time></trkpt><trkpt lat="37.309956" lon="-122.172462"><ele>630.643</ele><time>2026-09-08T22:21:36Z</time></trkpt><trkpt lat="37.31" lon="-122.172442"><ele>631.013</ele><time>2026-09-08T22:21:40Z</time></trkpt><trkpt lat="37.310078" lon="-122.172399"><ele>631.629</ele><time>2026-09-08T22:21:47Z</time></trkpt><trkpt lat="37.310088" lon="-122.172395"><ele>631.886</ele><time>2026-09-08T22:21:48Z</time></trkpt><trkpt lat="37.310218" lon="-122.172385"><ele>632.822</ele><time>2026-09-08T22:21:59Z</time></trkpt><trkpt lat="37.310228" lon="-122.172383"><ele>633.062</ele><time>2026-09-08T22:22:00Z</time></trkpt><trkpt lat="37.310302" lon="-122.172392"><ele>633.608</ele><time>2026-09-08T22:22:06Z</time></trkpt><trkpt lat="37.310328" lon="-122.172398"><ele>633.809</ele><time>2026-09-08T22:22:08Z</time></trkpt><trkpt lat="37.310376" lon="-122.172387"><ele>635.054</ele><time>2026-09-08T22:22:13Z</time></trkpt><trkpt lat="37.310388" lon="-122.172381"><ele>635.260</ele><time>2026-09-08T22:22:14Z</time></trkpt><trkpt lat="37.310411" lon="-122.172375"><ele>635.286</ele><time>2026-09-08T22:22:18Z</time></trkpt><trkpt lat="37.31042" lon="-122.172381"><ele>635.229</ele><time>2026-09-08T22:22:19Z</time></trkpt><trkpt lat="37.31049" lon="-122.172398"><ele>635.885</ele><time>2026-09-08T22:22:26Z</time></trkpt><trkpt lat="37.310494" lon="-122.172409"><ele>635.466</ele><time>2026-09-08T22:22:31Z</time></trkpt><trkpt lat="37.310498" lon="-122.172416"><ele>635.876</ele><time>2026-09-08T22:22:40Z</time></trkpt><trkpt lat="37.310472" lon="-122.172402"><ele>635.842</ele><time>2026-09-08T22:22:44Z</time></trkpt><trkpt lat="37.310466" lon="-122.172398"><ele>635.689</ele><time>2026-09-08T22:22:46Z</time></trkpt><trkpt lat="37.310481" lon="-122.172399"><ele>635.664</ele><time>2026-09-08T22:22:47Z</time></trkpt><trkpt lat="37.310515" lon="-122.172408"><ele>636.006</ele><time>2026-09-08T22:22:54Z</time></trkpt><trkpt lat="37.31051" lon="-122.172417"><ele>636.016</ele><time>2026-09-08T22:22:57Z</time></trkpt><trkpt lat="37.310504" lon="-122.172416"><ele>635.809</ele><time>2026-09-08T22:23:04Z</time></trkpt><trkpt lat="37.310489" lon="-122.172407"><ele>635.868</ele><time>2026-09-08T22:23:10Z</time></trkpt><trkpt lat="37.310489" lon="-122.172406"><ele>635.844</ele><time>2026-09-08T22:23:11Z</time></trkpt><trkpt lat="37.310502" lon="-122.172403"><ele>635.870</ele><time>2026-09-08T22:23:15Z</time></trkpt><trkpt lat="37.310504" lon="-122.172401"><ele>635.683</ele><time>2026-09-08T22:23:19Z</time></trkpt><trkpt lat="37.310497" lon="-122.172393"><ele>635.639</ele><time>2026-09-08T22:23:25Z</time></trkpt><trkpt lat="37.310494" lon="-122.172392"><ele>635.690</ele><time>2026-09-08T22:23:26Z</time></trkpt><trkpt lat="37.310494" lon="-122.172389"><ele>635.660</ele><time>2026-09-08T22:23:31Z</time></trkpt><trkpt lat="37.310509" lon="-122.172396"><ele>635.826</ele><time>2026-09-08T22:23:37Z</time></trkpt><trkpt lat="37.310507" lon="-122.172398"><ele>635.813</ele><time>2026-09-08T22:23:38Z</time></trkpt><trkpt lat="37.310506" lon="-122.172401"><ele>636.026</ele><time>2026-09-08T22:23:40Z</time></trkpt><trkpt lat="37.310518" lon="-122.172441"><ele>635.847</ele><time>2026-09-08T22:23:47Z</time></trkpt><trkpt lat="37.31052" lon="-122.172408"><ele>636.011</ele><time>2026-09-08T22:23:58Z</time></trkpt><trkpt lat="37.310517" lon="-122.172404"><ele>636.009</ele><time>2026-09-08T22:24:01Z</time></trkpt><trkpt lat="37.310516" lon="-122.172405"><ele>636.024</ele><time>2026-09-08T22:24:07Z</time></trkpt><trkpt lat="37.31052" lon="-122.172408"><ele>636.070</ele><time>2026-09-08T22:24:10Z</time></trkpt><trkpt lat="37.310512" lon="-122.172409"><ele>636.096</ele><time>2026-09-08T22:24:18Z</time></trkpt><trkpt lat="37.310512" lon="-122.172416"><ele>636.099</ele><time>2026-09-08T22:24:19Z</time></trkpt><trkpt lat="37.310512" lon="-122.172416"><ele>636.025</ele><time>2026-09-08T22:24:20Z</time></trkpt><trkpt lat="37.310511" lon="-122.172418"><ele>636.086</ele><time>2026-09-08T22:24:21Z</time></trkpt><trkpt lat="37.310512" lon="-122.172416"><ele>636.076</ele><time>2026-09-08T22:24:22Z</time></trkpt><trkpt lat="37.310514" lon="-122.172413"><ele>636.062</ele><time>2026-09-08T22:24:25Z</time></trkpt><trkpt lat="37.31052" lon="-122.17241"><ele>636.059</ele><time>2026-09-08T22:24:27Z</time></trkpt><trkpt lat="37.310531" lon="-122.172423"><ele>636.235</ele><time>2026-09-08T22:24:32Z</time></trkpt><trkpt lat="37.310541" lon="-122.172422"><ele>636.086</ele><time>2026-09-08T22:24:40Z</time></trkpt><trkpt lat="37.310543" lon="-122.172418"><ele>636.014</ele><time>2026-09-08T22:24:44Z</time></trkpt><trkpt lat="37.310521" lon="-122.172399"><ele>636.209</ele><time>2026-09-08T22:24:56Z</time></trkpt><trkpt lat="37.310526" lon="-122.172407"><ele>636.455</ele><time>2026-09-08T22:25:07Z</time></trkpt><trkpt lat="37.310527" lon="-122.172408"><ele>636.451</ele><time>2026-09-08T22:25:08Z</time></trkpt><trkpt lat="37.310527" lon="-122.172399"><ele>636.477</ele><time>2026-09-08T22:25:15Z</time></trkpt><trkpt lat="37.310526" lon="-122.172394"><ele>636.460</ele><time>2026-09-08T22:25:18Z</time></trkpt><trkpt lat="37.310524" lon="-122.172396"><ele>636.446</ele><time>2026-09-08T22:25:21Z</time></trkpt><trkpt lat="37.310541" lon="-122.172397"><ele>636.417</ele><time>2026-09-08T22:25:33Z</time></trkpt><trkpt lat="37.310543" lon="-122.172398"><ele>636.487</ele><time>2026-09-08T22:25:34Z</time></trkpt><trkpt lat="37.310544" lon="-122.172399"><ele>636.473</ele><time>2026-09-08T22:25:35Z</time></trkpt><trkpt lat="37.310533" lon="-122.172398"><ele>636.830</ele><time>2026-09-08T22:25:45Z</time></trkpt><trkpt lat="37.310526" lon="-122.172411"><ele>636.624</ele><time>2026-09-08T22:25:55Z</time></trkpt><trkpt lat="37.310509" lon="-122.172424"><ele>636.604</ele><time>2026-09-08T22:26:06Z</time></trkpt><trkpt lat="37.310506" lon="-122.172419"><ele>636.614</ele><time>2026-09-08T22:26:10Z</time></trkpt><trkpt lat="37.310516" lon="-122.172404"><ele>636.809</ele><time>2026-09-08T22:26:17Z</time></trkpt><trkpt lat="37.310522" lon="-122.172396"><ele>636.864</ele><time>2026-09-08T22:26:21Z</time></trkpt><trkpt lat="37.310537" lon="-122.172396"><ele>636.670</ele><time>2026-09-08T22:26:32Z</time></trkpt><trkpt lat="37.310531" lon="-122.172374"><ele>636.676</ele><time>2026-09-08T22:26:45Z</time></trkpt><trkpt lat="37.310529" lon="-122.172368"><ele>636.899</ele><time>2026-09-08T22:26:47Z</time></trkpt><trkpt lat="37.310506" lon="-122.172374"><ele>636.665</ele><time>2026-09-08T22:26:59Z</time></trkpt><trkpt lat="37.3105" lon="-122.172412"><ele>636.646</ele><time>2026-09-08T22:27:09Z</time></trkpt><trkpt lat="37.310509" lon="-122.172433"><ele>636.836</ele><time>2026-09-08T22:27:20Z</time></trkpt><trkpt lat="37.310516" lon="-122.172432"><ele>636.842</ele><time>2026-09-08T22:27:34Z</time></trkpt><trkpt lat="37.310517" lon="-122.172425"><ele>636.899</ele><time>2026-09-08T22:27:35Z</time></trkpt><trkpt lat="37.310518" lon="-122.172418"><ele>636.625</ele><time>2026-09-08T22:27:36Z</time></trkpt><trkpt lat="37.310539" lon="-122.172392"><ele>636.826</ele><time>2026-09-08T22:27:45Z</time></trkpt><trkpt lat="37.310526" lon="-122.172396"><ele>636.808</ele><time>2026-09-08T22:27:49Z</time></trkpt><trkpt lat="37.31052" lon="-122.1724"><ele>637.209</ele><time>2026-09-08T22:27:53Z</time></trkpt><trkpt lat="37.310527" lon="-122.172403"><ele>637.274</ele><time>2026-09-08T22:27:56Z</time></trkpt><trkpt lat="37.31052" lon="-122.172407"><ele>636.830</ele><time>2026-09-08T22:28:02Z</time></trkpt><trkpt lat="37.310503" lon="-122.172408"><ele>636.866</ele><time>2026-09-08T22:28:06Z</time></trkpt><trkpt lat="37.310509" lon="-122.172398"><ele>636.829</ele><time>2026-09-08T22:28:18Z</time></trkpt><trkpt lat="37.31051" lon="-122.172396"><ele>636.885</ele><time>2026-09-08T22:28:20Z</time></trkpt><trkpt lat="37.310513" lon="-122.172394"><ele>636.866</ele><time>2026-09-08T22:28:30Z</time></trkpt><trkpt lat="37.310514" lon="-122.17239"><ele>636.866</ele><time>2026-09-08T22:28:34Z</time></trkpt><trkpt lat="37.310509" lon="-122.172393"><ele>637.072</ele><time>2026-09-08T22:28:39Z</time></trkpt><trkpt lat="37.310502" lon="-122.172393"><ele>637.019</ele><time>2026-09-08T22:28:43Z</time></trkpt><trkpt lat="37.310497" lon="-122.172394"><ele>636.874</ele><time>2026-09-08T22:28:45Z</time></trkpt><trkpt lat="37.310506" lon="-122.172415"><ele>637.256</ele><time>2026-09-08T22:28:53Z</time></trkpt><trkpt lat="37.310509" lon="-122.172412"><ele>637.221</ele><time>2026-09-08T22:28:54Z</time></trkpt><trkpt lat="37.31051" lon="-122.172412"><ele>637.409</ele><time>2026-09-08T22:28:58Z</time></trkpt><trkpt lat="37.310511" lon="-122.172403"><ele>637.039</ele><time>2026-09-08T22:29:03Z</time></trkpt><trkpt lat="37.310511" lon="-122.172401"><ele>637.075</ele><time>2026-09-08T22:29:05Z</time></trkpt><trkpt lat="37.310504" lon="-122.172402"><ele>637.461</ele><time>2026-09-08T22:29:16Z</time></trkpt><trkpt lat="37.310511" lon="-122.172414"><ele>636.894</ele><time>2026-09-08T22:29:24Z</time></trkpt><trkpt lat="37.310523" lon="-122.172416"><ele>636.860</ele><time>2026-09-08T22:29:31Z</time></trkpt><trkpt lat="37.310524" lon="-122.172417"><ele>636.691</ele><time>2026-09-08T22:29:33Z</time></trkpt><trkpt lat="37.310523" lon="-122.172416"><ele>636.611</ele><time>2026-09-08T22:29:36Z</time></trkpt><trkpt lat="37.310519" lon="-122.172398"><ele>636.857</ele><time>2026-09-08T22:29:44Z</time></trkpt><trkpt lat="37.310519" lon="-122.172397"><ele>636.844</ele><time>2026-09-08T22:29:46Z</time></trkpt><trkpt lat="37.310521" lon="-122.1724"><ele>636.857</ele><time>2026-09-08T22:29:48Z</time></trkpt><trkpt lat="37.310522" lon="-122.1724"><ele>636.800</ele><time>2026-09-08T22:29:49Z</time></trkpt><trkpt lat="37.310524" lon="-122.172401"><ele>636.820</ele><time>2026-09-08T22:29:50Z</time></trkpt><trkpt lat="37.310524" lon="-122.172405"><ele>636.609</ele><time>2026-09-08T22:30:00Z</time></trkpt><trkpt lat="37.310516" lon="-122.17241"><ele>636.617</ele><time>2026-09-08T22:30:07Z</time></trkpt><trkpt lat="37.310514" lon="-122.172409"><ele>636.663</ele><time>2026-09-08T22:30:13Z</time></trkpt><trkpt lat="37.310523" lon="-122.172407"><ele>636.689</ele><time>2026-09-08T22:30:17Z</time></trkpt><trkpt lat="37.310525" lon="-122.172407"><ele>636.612</ele><time>2026-09-08T22:30:19Z</time></trkpt><trkpt lat="37.310508" lon="-122.172397"><ele>636.888</ele><time>2026-09-08T22:30:26Z</time></trkpt><trkpt lat="37.310509" lon="-122.172401"><ele>637.019</ele><time>2026-09-08T22:30:35Z</time></trkpt><trkpt lat="37.31061" lon="-122.172352"><ele>637.259</ele><time>2026-09-08T22:30:42Z</time></trkpt><trkpt lat="37.310655" lon="-122.172373"><ele>637.225</ele><time>2026-09-08T22:30:44Z</time></trkpt></trkseg></trk></gpx>