<?xml version="1.0" encoding="UTF-8"?><gpx creator="Wikiloc - http://www.wikiloc.com" version="1.1" xmlns="http://www.topografix.com/GPX/1/1" xmlns:xsi="http://www.w3.org/2001/XMLSchema-instance" xsi:schemaLocation="http://www.topografix.com/GPX/1/1 http://www.topografix.com/GPX/1/1/gpx.xsd"><trk><name><![CDATA[Mount Hood View (GC17)]]></name><cmt><![CDATA[Mountain Air Park]]></cmt><desc><![CDATA[Mountain Air Park]]></desc><trkseg><trkpt lat="45.317857" lon="-122.059359"><ele>1055.466</ele><time>2026-08-22T22:08:39Z</time></trkpt><trkpt lat="45.317836" lon="-122.05943"><ele>1055.029</ele><time>2026-08-22T22:08:43Z</time></trkpt><trkpt lat="45.317852" lon="-122.059385"><ele>1055.021</ele><time>2026-08-22T22:08:44Z</time></trkpt><trkpt lat="45.317852" lon="-122.059385"><ele>1055.209</ele><time>2026-08-22T22:08:45Z</time></trkpt><trkpt lat="45.317843" lon="-122.059371"><ele>1055.488</ele><time>2026-08-22T22:08:46Z</time></trkpt><trkpt lat="45.317791" lon="-122.059342"><ele>1055.414</ele><time>2026-08-22T22:08:51Z</time></trkpt><trkpt lat="45.317732" lon="-122.059302"><ele>1056.277</ele><time>2026-08-22T22:08:59Z</time></trkpt><trkpt lat="45.317721" lon="-122.059278"><ele>1056.451</ele><time>2026-08-22T22:09:01Z</time></trkpt><trkpt lat="45.317682" lon="-122.05919"><ele>1057.297</ele><time>2026-08-22T22:09:08Z</time></trkpt><trkpt lat="45.317659" lon="-122.059152"><ele>1057.677</ele><time>2026-08-22T22:09:11Z</time></trkpt><trkpt lat="45.317603" lon="-122.059094"><ele>1058.611</ele><time>2026-08-22T22:09:17Z</time></trkpt><trkpt lat="45.317581" lon="-122.059084"><ele>1059.012</ele><time>2026-08-22T22:09:19Z</time></trkpt><trkpt lat="45.31754" lon="-122.059063"><ele>1059.878</ele><time>2026-08-22T22:09:24Z</time></trkpt><trkpt lat="45.317503" lon="-122.059018"><ele>1060.288</ele><time>2026-08-22T22:09:28Z</time></trkpt><trkpt lat="45.317473" lon="-122.058939"><ele>1060.824</ele><time>2026-08-22T22:09:34Z</time></trkpt><trkpt lat="45.317456" lon="-122.058927"><ele>1061.026</ele><time>2026-08-22T22:09:36Z</time></trkpt><trkpt lat="45.317445" lon="-122.058921"><ele>1061.009</ele><time>2026-08-22T22:09:37Z</time></trkpt><trkpt lat="45.317421" lon="-122.05891"><ele>1061.850</ele><time>2026-08-22T22:09:42Z</time></trkpt><trkpt lat="45.317388" lon="-122.058877"><ele>1062.246</ele><time>2026-08-22T22:09:46Z</time></trkpt><trkpt lat="45.317358" lon="-122.058849"><ele>1062.829</ele><time>2026-08-22T22:09:51Z</time></trkpt><trkpt lat="45.317348" lon="-122.058818"><ele>1063.483</ele><time>2026-08-22T22:09:55Z</time></trkpt><trkpt lat="45.317344" lon="-122.058802"><ele>1064.079</ele><time>2026-08-22T22:09:58Z</time></trkpt><trkpt lat="45.317327" lon="-122.058778"><ele>1064.829</ele><time>2026-08-22T22:10:03Z</time></trkpt><trkpt lat="45.317284" lon="-122.058727"><ele>1065.073</ele><time>2026-08-22T22:10:10Z</time></trkpt><trkpt lat="45.317269" lon="-122.058706"><ele>1065.684</ele><time>2026-08-22T22:10:14Z</time></trkpt><trkpt lat="45.317268" lon="-122.058699"><ele>1065.610</ele><time>2026-08-22T22:10:15Z</time></trkpt><trkpt lat="45.317256" lon="-122.058667"><ele>1066.036</ele><time>2026-08-22T22:10:19Z</time></trkpt><trkpt lat="45.317228" lon="-122.058618"><ele>1066.817</ele><time>2026-08-22T22:10:25Z</time></trkpt><trkpt lat="45.317211" lon="-122.058593"><ele>1067.218</ele><time>2026-08-22T22:10:28Z</time></trkpt><trkpt lat="45.317177" lon="-122.058531"><ele>1067.809</ele><time>2026-08-22T22:10:34Z</time></trkpt><trkpt lat="45.317163" lon="-122.058501"><ele>1068.215</ele><time>2026-08-22T22:10:37Z</time></trkpt><trkpt lat="45.317114" lon="-122.058454"><ele>1069.261</ele><time>2026-08-22T22:10:44Z</time></trkpt><trkpt lat="45.317048" lon="-122.058399"><ele>1069.854</ele><time>2026-08-22T22:10:53Z</time></trkpt><trkpt lat="45.317014" lon="-122.058367"><ele>1070.468</ele><time>2026-08-22T22:10:58Z</time></trkpt><trkpt lat="45.31695" lon="-122.05831"><ele>1070.824</ele><time>2026-08-22T22:11:04Z</time></trkpt><trkpt lat="45.316877" lon="-122.058249"><ele>1071.434</ele><time>2026-08-22T22:11:12Z</time></trkpt><trkpt lat="45.316867" lon="-122.058241"><ele>1071.488</ele><time>2026-08-22T22:11:13Z</time></trkpt><trkpt lat="45.316805" lon="-122.05819"><ele>1071.819</ele><time>2026-08-22T22:11:22Z</time></trkpt><trkpt lat="45.316771" lon="-122.058118"><ele>1072.485</ele><time>2026-08-22T22:11:29Z</time></trkpt><trkpt lat="45.31677" lon="-122.058078"><ele>1072.838</ele><time>2026-08-22T22:11:31Z</time></trkpt><trkpt lat="45.31678" lon="-122.058026"><ele>1073.670</ele><time>2026-08-22T22:11:36Z</time></trkpt><trkpt lat="45.316792" lon="-122.057979"><ele>1073.817</ele><time>2026-08-22T22:11:40Z</time></trkpt><trkpt lat="45.316806" lon="-122.057889"><ele>1074.409</ele><time>2026-08-22T22:11:48Z</time></trkpt><trkpt lat="45.316807" lon="-122.057882"><ele>1074.685</ele><time>2026-08-22T22:11:49Z</time></trkpt><trkpt lat="45.316808" lon="-122.057872"><ele>1074.691</ele><time>2026-08-22T22:11:51Z</time></trkpt><trkpt lat="45.316824" lon="-122.057772"><ele>1075.244</ele><time>2026-08-22T22:11:59Z</time></trkpt><trkpt lat="45.316837" lon="-122.057715"><ele>1075.648</ele><time>2026-08-22T22:12:02Z</time></trkpt><trkpt lat="45.316843" lon="-122.057691"><ele>1075.624</ele><time>2026-08-22T22:12:04Z</time></trkpt><trkpt lat="45.316856" lon="-122.057652"><ele>1075.864</ele><time>2026-08-22T22:12:08Z</time></trkpt><trkpt lat="45.31686" lon="-122.057648"><ele>1075.858</ele><time>2026-08-22T22:12:09Z</time></trkpt><trkpt lat="45.316885" lon="-122.057509"><ele>1076.439</ele><time>2026-08-22T22:12:21Z</time></trkpt><trkpt lat="45.316886" lon="-122.0575"><ele>1076.615</ele><time>2026-08-22T22:12:23Z</time></trkpt><trkpt lat="45.316889" lon="-122.057477"><ele>1077.028</ele><time>2026-08-22T22:12:29Z</time></trkpt><trkpt lat="45.3169" lon="-122.057371"><ele>1077.089</ele><time>2026-08-22T22:12:36Z</time></trkpt><trkpt lat="45.316855" lon="-122.057248"><ele>1077.617</ele><time>2026-08-22T22:12:45Z</time></trkpt><trkpt lat="45.316842" lon="-122.057226"><ele>1077.609</ele><time>2026-08-22T22:12:47Z</time></trkpt><trkpt lat="45.316766" lon="-122.057112"><ele>1077.624</ele><time>2026-08-22T22:12:55Z</time></trkpt><trkpt lat="45.316711" lon="-122.056963"><ele>1078.050</ele><time>2026-08-22T22:13:06Z</time></trkpt><trkpt lat="45.316694" lon="-122.05683"><ele>1077.893</ele><time>2026-08-22T22:13:15Z</time></trkpt><trkpt lat="45.316663" lon="-122.056778"><ele>1078.067</ele><time>2026-08-22T22:13:19Z</time></trkpt><trkpt lat="45.31663" lon="-122.056745"><ele>1078.053</ele><time>2026-08-22T22:13:23Z</time></trkpt><trkpt lat="45.316616" lon="-122.056731"><ele>1077.823</ele><time>2026-08-22T22:13:25Z</time></trkpt><trkpt lat="45.316577" lon="-122.056654"><ele>1077.857</ele><time>2026-08-22T22:13:32Z</time></trkpt><trkpt lat="45.31657" lon="-122.056635"><ele>1077.698</ele><time>2026-08-22T22:13:34Z</time></trkpt><trkpt lat="45.316529" lon="-122.056579"><ele>1077.844</ele><time>2026-08-22T22:13:39Z</time></trkpt><trkpt lat="45.316458" lon="-122.056551"><ele>1078.468</ele><time>2026-08-22T22:13:45Z</time></trkpt><trkpt lat="45.316418" lon="-122.05654"><ele>1078.842</ele><time>2026-08-22T22:13:48Z</time></trkpt><trkpt lat="45.31634" lon="-122.056494"><ele>1079.826</ele><time>2026-08-22T22:13:56Z</time></trkpt><trkpt lat="45.31633" lon="-122.05649"><ele>1079.809</ele><time>2026-08-22T22:13:57Z</time></trkpt><trkpt lat="45.316259" lon="-122.056457"><ele>1080.648</ele><time>2026-08-22T22:14:05Z</time></trkpt><trkpt lat="45.31625" lon="-122.056459"><ele>1080.864</ele><time>2026-08-22T22:14:06Z</time></trkpt><trkpt lat="45.316193" lon="-122.056483"><ele>1081.657</ele><time>2026-08-22T22:14:14Z</time></trkpt><trkpt lat="45.316187" lon="-122.056484"><ele>1081.841</ele><time>2026-08-22T22:14:15Z</time></trkpt><trkpt lat="45.316183" lon="-122.056484"><ele>1082.087</ele><time>2026-08-22T22:14:16Z</time></trkpt><trkpt lat="45.316137" lon="-122.056477"><ele>1083.067</ele><time>2026-08-22T22:14:22Z</time></trkpt><trkpt lat="45.316112" lon="-122.056447"><ele>1083.471</ele><time>2026-08-22T22:14:25Z</time></trkpt><trkpt lat="45.316064" lon="-122.056396"><ele>1084.222</ele><time>2026-08-22T22:14:30Z</time></trkpt><trkpt lat="45.316032" lon="-122.05634"><ele>1084.688</ele><time>2026-08-22T22:14:36Z</time></trkpt><trkpt lat="45.315972" lon="-122.056323"><ele>1085.437</ele><time>2026-08-22T22:14:43Z</time></trkpt><trkpt lat="45.315955" lon="-122.056315"><ele>1085.849</ele><time>2026-08-22T22:14:45Z</time></trkpt><trkpt lat="45.315929" lon="-122.056299"><ele>1086.413</ele><time>2026-08-22T22:14:48Z</time></trkpt><trkpt lat="45.315882" lon="-122.056277"><ele>1087.209</ele><time>2026-08-22T22:14:54Z</time></trkpt><trkpt lat="45.315812" lon="-122.056206"><ele>1088.065</ele><time>2026-08-22T22:15:05Z</time></trkpt><trkpt lat="45.315794" lon="-122.056179"><ele>1088.241</ele><time>2026-08-22T22:15:08Z</time></trkpt><trkpt lat="45.315734" lon="-122.056105"><ele>1089.214</ele><time>2026-08-22T22:15:16Z</time></trkpt><trkpt lat="45.315726" lon="-122.056094"><ele>1089.418</ele><time>2026-08-22T22:15:17Z</time></trkpt><trkpt lat="45.315639" lon="-122.056017"><ele>1090.244</ele><time>2026-08-22T22:15:28Z</time></trkpt><trkpt lat="45.315616" lon="-122.056012"><ele>1090.484</ele><time>2026-08-22T22:15:31Z</time></trkpt><trkpt lat="45.315565" lon="-122.055994"><ele>1091.668</ele><time>2026-08-22T22:15:39Z</time></trkpt><trkpt lat="45.315456" lon="-122.05598"><ele>1092.049</ele><time>2026-08-22T22:15:47Z</time></trkpt><trkpt lat="45.315372" lon="-122.056069"><ele>1091.485</ele><time>2026-08-22T22:15:59Z</time></trkpt><trkpt lat="45.315316" lon="-122.056104"><ele>1091.077</ele><time>2026-08-22T22:16:06Z</time></trkpt><trkpt lat="45.315293" lon="-122.056112"><ele>1091.061</ele><time>2026-08-22T22:16:08Z</time></trkpt><trkpt lat="45.315257" lon="-122.056121"><ele>1090.627</ele><time>2026-08-22T22:16:11Z</time></trkpt><trkpt lat="45.315185" lon="-122.056105"><ele>1090.809</ele><time>2026-08-22T22:16:17Z</time></trkpt><trkpt lat="45.315136" lon="-122.056056"><ele>1091.489</ele><time>2026-08-22T22:16:25Z</time></trkpt><trkpt lat="45.315129" lon="-122.056048"><ele>1091.675</ele><time>2026-08-22T22:16:26Z</time></trkpt><trkpt lat="45.31511" lon="-122.05603"><ele>1091.828</ele><time>2026-08-22T22:16:28Z</time></trkpt><trkpt lat="45.315022" lon="-122.055938"><ele>1092.232</ele><time>2026-08-22T22:16:37Z</time></trkpt><trkpt lat="45.314952" lon="-122.055837"><ele>1092.828</ele><time>2026-08-22T22:16:46Z</time></trkpt><trkpt lat="45.314941" lon="-122.055808"><ele>1093.038</ele><time>2026-08-22T22:16:48Z</time></trkpt><trkpt lat="45.314935" lon="-122.055796"><ele>1093.292</ele><time>2026-08-22T22:16:49Z</time></trkpt><trkpt lat="45.314931" lon="-122.055784"><ele>1093.213</ele><time>2026-08-22T22:16:50Z</time></trkpt><trkpt lat="45.314926" lon="-122.05577"><ele>1093.459</ele><time>2026-08-22T22:16:51Z</time></trkpt><trkpt lat="45.314918" lon="-122.055751"><ele>1093.829</ele><time>2026-08-22T22:16:53Z</time></trkpt><trkpt lat="45.314912" lon="-122.055727"><ele>1094.000</ele><time>2026-08-22T22:16:56Z</time></trkpt><trkpt lat="45.314898" lon="-122.055687"><ele>1094.020</ele><time>2026-08-22T22:16:59Z</time></trkpt><trkpt lat="45.31482" lon="-122.055564"><ele>1094.809</ele><time>2026-08-22T22:17:09Z</time></trkpt><trkpt lat="45.31478" lon="-122.055474"><ele>1095.894</ele><time>2026-08-22T22:17:18Z</time></trkpt><trkpt lat="45.314774" lon="-122.055465"><ele>1095.830</ele><time>2026-08-22T22:17:19Z</time></trkpt><trkpt lat="45.314722" lon="-122.055398"><ele>1097.043</ele><time>2026-08-22T22:17:26Z</time></trkpt><trkpt lat="45.314705" lon="-122.05536"><ele>1097.287</ele><time>2026-08-22T22:17:28Z</time></trkpt><trkpt lat="45.314688" lon="-122.055291"><ele>1097.483</ele><time>2026-08-22T22:17:32Z</time></trkpt><trkpt lat="45.314688" lon="-122.055204"><ele>1097.423</ele><time>2026-08-22T22:17:37Z</time></trkpt><trkpt lat="45.31468" lon="-122.055131"><ele>1098.267</ele><time>2026-08-22T22:17:43Z</time></trkpt><trkpt lat="45.314685" lon="-122.055091"><ele>1098.458</ele><time>2026-08-22T22:17:44Z</time></trkpt><trkpt lat="45.314681" lon="-122.055034"><ele>1098.874</ele><time>2026-08-22T22:17:47Z</time></trkpt><trkpt lat="45.314693" lon="-122.054991"><ele>1099.231</ele><time>2026-08-22T22:17:52Z</time></trkpt><trkpt lat="45.314699" lon="-122.054982"><ele>1099.261</ele><time>2026-08-22T22:17:53Z</time></trkpt><trkpt lat="45.314702" lon="-122.054975"><ele>1099.407</ele><time>2026-08-22T22:17:54Z</time></trkpt><trkpt lat="45.314705" lon="-122.054968"><ele>1099.609</ele><time>2026-08-22T22:17:55Z</time></trkpt><trkpt lat="45.314707" lon="-122.054954"><ele>1099.825</ele><time>2026-08-22T22:17:57Z</time></trkpt><trkpt lat="45.314704" lon="-122.054935"><ele>1100.211</ele><time>2026-08-22T22:17:59Z</time></trkpt><trkpt lat="45.31469" lon="-122.05489"><ele>1101.464</ele><time>2026-08-22T22:18:04Z</time></trkpt><trkpt lat="45.314673" lon="-122.054869"><ele>1101.868</ele><time>2026-08-22T22:18:07Z</time></trkpt><trkpt lat="45.314667" lon="-122.054803"><ele>1102.494</ele><time>2026-08-22T22:18:14Z</time></trkpt><trkpt lat="45.314668" lon="-122.054772"><ele>1102.684</ele><time>2026-08-22T22:18:16Z</time></trkpt><trkpt lat="45.314673" lon="-122.054739"><ele>1102.648</ele><time>2026-08-22T22:18:18Z</time></trkpt><trkpt lat="45.314687" lon="-122.05469"><ele>1103.089</ele><time>2026-08-22T22:18:21Z</time></trkpt><trkpt lat="45.314692" lon="-122.054656"><ele>1103.495</ele><time>2026-08-22T22:18:23Z</time></trkpt><trkpt lat="45.314697" lon="-122.054615"><ele>1103.884</ele><time>2026-08-22T22:18:25Z</time></trkpt><trkpt lat="45.314722" lon="-122.054498"><ele>1104.407</ele><time>2026-08-22T22:18:32Z</time></trkpt><trkpt lat="45.314727" lon="-122.054475"><ele>1104.617</ele><time>2026-08-22T22:18:34Z</time></trkpt><trkpt lat="45.314729" lon="-122.054462"><ele>1104.809</ele><time>2026-08-22T22:18:35Z</time></trkpt><trkpt lat="45.31473" lon="-122.054404"><ele>1105.450</ele><time>2026-08-22T22:18:39Z</time></trkpt><trkpt lat="45.314746" lon="-122.054326"><ele>1106.426</ele><time>2026-08-22T22:18:46Z</time></trkpt><trkpt lat="45.314749" lon="-122.054322"><ele>1106.639</ele><time>2026-08-22T22:18:47Z</time></trkpt><trkpt lat="45.314759" lon="-122.054282"><ele>1107.643</ele><time>2026-08-22T22:18:53Z</time></trkpt><trkpt lat="45.314753" lon="-122.054238"><ele>1108.239</ele><time>2026-08-22T22:18:56Z</time></trkpt><trkpt lat="45.314736" lon="-122.054147"><ele>1108.859</ele><time>2026-08-22T22:19:02Z</time></trkpt><trkpt lat="45.314735" lon="-122.054081"><ele>1109.253</ele><time>2026-08-22T22:19:06Z</time></trkpt><trkpt lat="45.314743" lon="-122.054004"><ele>1109.834</ele><time>2026-08-22T22:19:11Z</time></trkpt><trkpt lat="45.314739" lon="-122.053945"><ele>1110.420</ele><time>2026-08-22T22:19:16Z</time></trkpt><trkpt lat="45.31473" lon="-122.053898"><ele>1110.886</ele><time>2026-08-22T22:19:20Z</time></trkpt><trkpt lat="45.31471" lon="-122.053813"><ele>1111.460</ele><time>2026-08-22T22:19:26Z</time></trkpt><trkpt lat="45.314665" lon="-122.053756"><ele>1112.026</ele><time>2026-08-22T22:19:32Z</time></trkpt><trkpt lat="45.314641" lon="-122.053737"><ele>1112.009</ele><time>2026-08-22T22:19:34Z</time></trkpt><trkpt lat="45.314557" lon="-122.053647"><ele>1113.050</ele><time>2026-08-22T22:19:43Z</time></trkpt><trkpt lat="45.314542" lon="-122.053618"><ele>1113.026</ele><time>2026-08-22T22:19:45Z</time></trkpt><trkpt lat="45.314504" lon="-122.053534"><ele>1114.029</ele><time>2026-08-22T22:19:52Z</time></trkpt><trkpt lat="45.314486" lon="-122.053498"><ele>1114.483</ele><time>2026-08-22T22:19:56Z</time></trkpt><trkpt lat="45.314464" lon="-122.053448"><ele>1115.079</ele><time>2026-08-22T22:20:00Z</time></trkpt><trkpt lat="45.314437" lon="-122.053372"><ele>1115.429</ele><time>2026-08-22T22:20:05Z</time></trkpt><trkpt lat="45.314395" lon="-122.053328"><ele>1116.093</ele><time>2026-08-22T22:20:10Z</time></trkpt><trkpt lat="45.314367" lon="-122.053312"><ele>1116.254</ele><time>2026-08-22T22:20:12Z</time></trkpt><trkpt lat="45.314269" lon="-122.053248"><ele>1117.060</ele><time>2026-08-22T22:20:21Z</time></trkpt><trkpt lat="45.314259" lon="-122.053223"><ele>1117.497</ele><time>2026-08-22T22:20:24Z</time></trkpt><trkpt lat="45.314243" lon="-122.053198"><ele>1117.423</ele><time>2026-08-22T22:20:27Z</time></trkpt><trkpt lat="45.314235" lon="-122.05316"><ele>1117.425</ele><time>2026-08-22T22:20:30Z</time></trkpt><trkpt lat="45.314218" lon="-122.053101"><ele>1118.209</ele><time>2026-08-22T22:20:35Z</time></trkpt><trkpt lat="45.314198" lon="-122.053045"><ele>1118.651</ele><time>2026-08-22T22:20:39Z</time></trkpt><trkpt lat="45.31418" lon="-122.05297"><ele>1119.287</ele><time>2026-08-22T22:20:43Z</time></trkpt><trkpt lat="45.314161" lon="-122.052892"><ele>1120.010</ele><time>2026-08-22T22:20:49Z</time></trkpt><trkpt lat="45.314156" lon="-122.052874"><ele>1120.274</ele><time>2026-08-22T22:20:51Z</time></trkpt><trkpt lat="45.314134" lon="-122.052796"><ele>1121.470</ele><time>2026-08-22T22:20:58Z</time></trkpt><trkpt lat="45.314134" lon="-122.052781"><ele>1121.410</ele><time>2026-08-22T22:20:59Z</time></trkpt><trkpt lat="45.314106" lon="-122.052697"><ele>1122.484</ele><time>2026-08-22T22:21:05Z</time></trkpt><trkpt lat="45.314088" lon="-122.052675"><ele>1122.865</ele><time>2026-08-22T22:21:08Z</time></trkpt><trkpt lat="45.314055" lon="-122.052649"><ele>1123.641</ele><time>2026-08-22T22:21:13Z</time></trkpt><trkpt lat="45.314012" lon="-122.052607"><ele>1124.889</ele><time>2026-08-22T22:21:19Z</time></trkpt><trkpt lat="45.313978" lon="-122.05253"><ele>1125.806</ele><time>2026-08-22T22:21:26Z</time></trkpt><trkpt lat="45.313968" lon="-122.052489"><ele>1126.026</ele><time>2026-08-22T22:21:28Z</time></trkpt><trkpt lat="45.313944" lon="-122.052385"><ele>1126.809</ele><time>2026-08-22T22:21:35Z</time></trkpt><trkpt lat="45.313929" lon="-122.052334"><ele>1127.230</ele><time>2026-08-22T22:21:39Z</time></trkpt><trkpt lat="45.313919" lon="-122.052275"><ele>1127.856</ele><time>2026-08-22T22:21:44Z</time></trkpt><trkpt lat="45.313898" lon="-122.052221"><ele>1128.679</ele><time>2026-08-22T22:21:50Z</time></trkpt><trkpt lat="45.313886" lon="-122.052185"><ele>1129.013</ele><time>2026-08-22T22:21:53Z</time></trkpt><trkpt lat="45.313884" lon="-122.052123"><ele>1129.669</ele><time>2026-08-22T22:21:58Z</time></trkpt><trkpt lat="45.313878" lon="-122.052064"><ele>1130.069</ele><time>2026-08-22T22:22:01Z</time></trkpt><trkpt lat="45.313868" lon="-122.052018"><ele>1130.433</ele><time>2026-08-22T22:22:05Z</time></trkpt><trkpt lat="45.313861" lon="-122.051988"><ele>1131.094</ele><time>2026-08-22T22:22:08Z</time></trkpt><trkpt lat="45.313856" lon="-122.051978"><ele>1131.070</ele><time>2026-08-22T22:22:09Z</time></trkpt><trkpt lat="45.313829" lon="-122.051922"><ele>1131.874</ele><time>2026-08-22T22:22:16Z</time></trkpt><trkpt lat="45.313801" lon="-122.051887"><ele>1132.256</ele><time>2026-08-22T22:22:21Z</time></trkpt><trkpt lat="45.313774" lon="-122.051851"><ele>1132.621</ele><time>2026-08-22T22:22:25Z</time></trkpt><trkpt lat="45.313745" lon="-122.051813"><ele>1132.609</ele><time>2026-08-22T22:22:28Z</time></trkpt><trkpt lat="45.31372" lon="-122.051775"><ele>1133.279</ele><time>2026-08-22T22:22:32Z</time></trkpt><trkpt lat="45.313694" lon="-122.051756"><ele>1133.665</ele><time>2026-08-22T22:22:36Z</time></trkpt><trkpt lat="45.313648" lon="-122.051745"><ele>1134.488</ele><time>2026-08-22T22:22:43Z</time></trkpt><trkpt lat="45.313624" lon="-122.05173"><ele>1134.632</ele><time>2026-08-22T22:22:47Z</time></trkpt><trkpt lat="45.313583" lon="-122.051678"><ele>1135.448</ele><time>2026-08-22T22:22:54Z</time></trkpt><trkpt lat="45.313573" lon="-122.051657"><ele>1135.838</ele><time>2026-08-22T22:22:57Z</time></trkpt><trkpt lat="45.31356" lon="-122.05162"><ele>1136.462</ele><time>2026-08-22T22:23:02Z</time></trkpt><trkpt lat="45.313536" lon="-122.051592"><ele>1136.293</ele><time>2026-08-22T22:23:07Z</time></trkpt><trkpt lat="45.313522" lon="-122.051579"><ele>1136.449</ele><time>2026-08-22T22:23:10Z</time></trkpt><trkpt lat="45.313524" lon="-122.051568"><ele>1136.689</ele><time>2026-08-22T22:23:13Z</time></trkpt><trkpt lat="45.313533" lon="-122.051564"><ele>1136.406</ele><time>2026-08-22T22:23:18Z</time></trkpt><trkpt lat="45.313534" lon="-122.051572"><ele>1136.226</ele><time>2026-08-22T22:23:22Z</time></trkpt><trkpt lat="45.31353" lon="-122.051565"><ele>1136.209</ele><time>2026-08-22T22:23:29Z</time></trkpt><trkpt lat="45.313532" lon="-122.051566"><ele>1136.020</ele><time>2026-08-22T22:23:30Z</time></trkpt><trkpt lat="45.313532" lon="-122.051558"><ele>1136.286</ele><time>2026-08-22T22:23:35Z</time></trkpt><trkpt lat="45.313518" lon="-122.051533"><ele>1136.479</ele><time>2026-08-22T22:23:39Z</time></trkpt><trkpt lat="45.313512" lon="-122.05153"><ele>1136.633</ele><time>2026-08-22T22:23:40Z</time></trkpt><trkpt lat="45.313483" lon="-122.051533"><ele>1137.259</ele><time>2026-08-22T22:23:44Z</time></trkpt><trkpt lat="45.313463" lon="-122.051535"><ele>1137.699</ele><time>2026-08-22T22:23:46Z</time></trkpt><trkpt lat="45.313427" lon="-122.051527"><ele>1138.243</ele><time>2026-08-22T22:23:50Z</time></trkpt><trkpt lat="45.31341" lon="-122.051519"><ele>1138.674</ele><time>2026-08-22T22:23:52Z</time></trkpt><trkpt lat="45.313333" lon="-122.051488"><ele>1139.610</ele><time>2026-08-22T22:23:59Z</time></trkpt><trkpt lat="45.313323" lon="-122.051483"><ele>1140.088</ele><time>2026-08-22T22:24:01Z</time></trkpt><trkpt lat="45.313308" lon="-122.05147"><ele>1140.424</ele><time>2026-08-22T22:24:04Z</time></trkpt><trkpt lat="45.313286" lon="-122.051462"><ele>1140.826</ele><time>2026-08-22T22:24:07Z</time></trkpt><trkpt lat="45.313252" lon="-122.051459"><ele>1141.009</ele><time>2026-08-22T22:24:11Z</time></trkpt><trkpt lat="45.313195" lon="-122.051464"><ele>1141.870</ele><time>2026-08-22T22:24:17Z</time></trkpt><trkpt lat="45.313137" lon="-122.051472"><ele>1142.456</ele><time>2026-08-22T22:24:22Z</time></trkpt><trkpt lat="45.313102" lon="-122.051476"><ele>1142.849</ele><time>2026-08-22T22:24:25Z</time></trkpt><trkpt lat="45.313048" lon="-122.051479"><ele>1143.813</ele><time>2026-08-22T22:24:32Z</time></trkpt><trkpt lat="45.313045" lon="-122.051479"><ele>1144.069</ele><time>2026-08-22T22:24:33Z</time></trkpt><trkpt lat="45.313" lon="-122.051438"><ele>1144.899</ele><time>2026-08-22T22:24:41Z</time></trkpt><trkpt lat="45.312994" lon="-122.051429"><ele>1145.033</ele><time>2026-08-22T22:24:42Z</time></trkpt><trkpt lat="45.312982" lon="-122.051404"><ele>1145.414</ele><time>2026-08-22T22:24:46Z</time></trkpt><trkpt lat="45.312946" lon="-122.051351"><ele>1146.040</ele><time>2026-08-22T22:24:51Z</time></trkpt><trkpt lat="45.312938" lon="-122.051336"><ele>1146.073</ele><time>2026-08-22T22:24:52Z</time></trkpt><trkpt lat="45.312888" lon="-122.051243"><ele>1146.485</ele><time>2026-08-22T22:24:59Z</time></trkpt><trkpt lat="45.312811" lon="-122.051188"><ele>1146.813</ele><time>2026-08-22T22:25:07Z</time></trkpt><trkpt lat="45.312776" lon="-122.051157"><ele>1147.209</ele><time>2026-08-22T22:25:11Z</time></trkpt><trkpt lat="45.31274" lon="-122.051137"><ele>1147.699</ele><time>2026-08-22T22:25:15Z</time></trkpt><trkpt lat="45.312725" lon="-122.051137"><ele>1147.875</ele><time>2026-08-22T22:25:17Z</time></trkpt><trkpt lat="45.312698" lon="-122.051133"><ele>1148.238</ele><time>2026-08-22T22:25:20Z</time></trkpt><trkpt lat="45.312659" lon="-122.051082"><ele>1148.842</ele><time>2026-08-22T22:25:26Z</time></trkpt><trkpt lat="45.312621" lon="-122.051019"><ele>1149.238</ele><time>2026-08-22T22:25:32Z</time></trkpt><trkpt lat="45.312591" lon="-122.050987"><ele>1149.878</ele><time>2026-08-22T22:25:36Z</time></trkpt><trkpt lat="45.312584" lon="-122.05098"><ele>1150.012</ele><time>2026-08-22T22:25:37Z</time></trkpt><trkpt lat="45.312562" lon="-122.050956"><ele>1150.273</ele><time>2026-08-22T22:25:39Z</time></trkpt><trkpt lat="45.31251" lon="-122.050895"><ele>1151.069</ele><time>2026-08-22T22:25:46Z</time></trkpt><trkpt lat="45.312495" lon="-122.050885"><ele>1151.495</ele><time>2026-08-22T22:25:48Z</time></trkpt><trkpt lat="45.312452" lon="-122.050848"><ele>1152.249</ele><time>2026-08-22T22:25:55Z</time></trkpt><trkpt lat="45.312442" lon="-122.050842"><ele>1152.423</ele><time>2026-08-22T22:25:57Z</time></trkpt><trkpt lat="45.312396" lon="-122.050806"><ele>1153.409</ele><time>2026-08-22T22:26:03Z</time></trkpt><trkpt lat="45.312387" lon="-122.050797"><ele>1153.441</ele><time>2026-08-22T22:26:04Z</time></trkpt><trkpt lat="45.312315" lon="-122.05075"><ele>1154.477</ele><time>2026-08-22T22:26:12Z</time></trkpt><trkpt lat="45.31231" lon="-122.050745"><ele>1154.620</ele><time>2026-08-22T22:26:13Z</time></trkpt><trkpt lat="45.312276" lon="-122.050715"><ele>1155.694</ele><time>2026-08-22T22:26:21Z</time></trkpt><trkpt lat="45.312236" lon="-122.050596"><ele>1156.680</ele><time>2026-08-22T22:26:31Z</time></trkpt><trkpt lat="45.312227" lon="-122.050584"><ele>1156.860</ele><time>2026-08-22T22:26:32Z</time></trkpt><trkpt lat="45.312184" lon="-122.05054"><ele>1157.894</ele><time>2026-08-22T22:26:38Z</time></trkpt><trkpt lat="45.31216" lon="-122.050514"><ele>1158.255</ele><time>2026-08-22T22:26:41Z</time></trkpt><trkpt lat="45.312115" lon="-122.05048"><ele>1158.881</ele><time>2026-08-22T22:26:48Z</time></trkpt><trkpt lat="45.31211" lon="-122.050478"><ele>1158.864</ele><time>2026-08-22T22:26:49Z</time></trkpt><trkpt lat="45.312102" lon="-122.050471"><ele>1158.806</ele><time>2026-08-22T22:26:50Z</time></trkpt><trkpt lat="45.312094" lon="-122.050457"><ele>1159.016</ele><time>2026-08-22T22:26:51Z</time></trkpt><trkpt lat="45.312027" lon="-122.050424"><ele>1159.809</ele><time>2026-08-22T22:26:58Z</time></trkpt><trkpt lat="45.312016" lon="-122.050422"><ele>1159.858</ele><time>2026-08-22T22:26:59Z</time></trkpt><trkpt lat="45.311931" lon="-122.050371"><ele>1160.674</ele><time>2026-08-22T22:27:07Z</time></trkpt><trkpt lat="45.311909" lon="-122.050308"><ele>1161.027</ele><time>2026-08-22T22:27:13Z</time></trkpt><trkpt lat="45.311892" lon="-122.050254"><ele>1161.421</ele><time>2026-08-22T22:27:17Z</time></trkpt><trkpt lat="45.31188" lon="-122.050188"><ele>1162.057</ele><time>2026-08-22T22:27:22Z</time></trkpt><trkpt lat="45.311851" lon="-122.050094"><ele>1162.837</ele><time>2026-08-22T22:27:29Z</time></trkpt><trkpt lat="45.311847" lon="-122.050073"><ele>1163.031</ele><time>2026-08-22T22:27:31Z</time></trkpt><trkpt lat="45.311815" lon="-122.049987"><ele>1163.622</ele><time>2026-08-22T22:27:40Z</time></trkpt><trkpt lat="45.31182" lon="-122.049904"><ele>1163.298</ele><time>2026-08-22T22:27:48Z</time></trkpt><trkpt lat="45.311838" lon="-122.049851"><ele>1162.444</ele><time>2026-08-22T22:27:53Z</time></trkpt><trkpt lat="45.311853" lon="-122.049827"><ele>1162.005</ele><time>2026-08-22T22:27:55Z</time></trkpt><trkpt lat="45.311872" lon="-122.049774"><ele>1161.815</ele><time>2026-08-22T22:27:58Z</time></trkpt><trkpt lat="45.311861" lon="-122.049671"><ele>1161.409</ele><time>2026-08-22T22:28:04Z</time></trkpt><trkpt lat="45.31186" lon="-122.04965"><ele>1161.496</ele><time>2026-08-22T22:28:05Z</time></trkpt><trkpt lat="45.311858" lon="-122.049601"><ele>1160.892</ele><time>2026-08-22T22:28:07Z</time></trkpt><trkpt lat="45.31186" lon="-122.049513"><ele>1159.865</ele><time>2026-08-22T22:28:13Z</time></trkpt><trkpt lat="45.311855" lon="-122.049494"><ele>1159.899</ele><time>2026-08-22T22:28:15Z</time></trkpt><trkpt lat="45.311833" lon="-122.049422"><ele>1160.445</ele><time>2026-08-22T22:28:20Z</time></trkpt><trkpt lat="45.311827" lon="-122.049411"><ele>1160.665</ele><time>2026-08-22T22:28:21Z</time></trkpt><trkpt lat="45.311815" lon="-122.04938"><ele>1161.029</ele><time>2026-08-22T22:28:23Z</time></trkpt><trkpt lat="45.311777" lon="-122.049299"><ele>1161.420</ele><time>2026-08-22T22:28:29Z</time></trkpt><trkpt lat="45.31177" lon="-122.049284"><ele>1161.676</ele><time>2026-08-22T22:28:30Z</time></trkpt><trkpt lat="45.311728" lon="-122.049205"><ele>1162.096</ele><time>2026-08-22T22:28:36Z</time></trkpt><trkpt lat="45.31171" lon="-122.049183"><ele>1162.431</ele><time>2026-08-22T22:28:38Z</time></trkpt><trkpt lat="45.311675" lon="-122.049139"><ele>1163.224</ele><time>2026-08-22T22:28:43Z</time></trkpt><trkpt lat="45.311655" lon="-122.049089"><ele>1164.209</ele><time>2026-08-22T22:28:48Z</time></trkpt><trkpt lat="45.311651" lon="-122.049081"><ele>1164.481</ele><time>2026-08-22T22:28:49Z</time></trkpt><trkpt lat="45.311639" lon="-122.049053"><ele>1164.667</ele><time>2026-08-22T22:28:52Z</time></trkpt><trkpt lat="45.3116" lon="-122.048968"><ele>1164.820</ele><time>2026-08-22T22:28:58Z</time></trkpt><trkpt lat="45.311571" lon="-122.048944"><ele>1165.434</ele><time>2026-08-22T22:29:02Z</time></trkpt><trkpt lat="45.311525" lon="-122.048901"><ele>1166.480</ele><time>2026-08-22T22:29:08Z</time></trkpt><trkpt lat="45.311515" lon="-122.048889"><ele>1166.630</ele><time>2026-08-22T22:29:10Z</time></trkpt><trkpt lat="45.311491" lon="-122.048831"><ele>1167.484</ele><time>2026-08-22T22:29:16Z</time></trkpt><trkpt lat="45.311488" lon="-122.048823"><ele>1167.435</ele><time>2026-08-22T22:29:17Z</time></trkpt><trkpt lat="45.311471" lon="-122.048785"><ele>1167.841</ele><time>2026-08-22T22:29:22Z</time></trkpt><trkpt lat="45.31146" lon="-122.048748"><ele>1167.833</ele><time>2026-08-22T22:29:25Z</time></trkpt><trkpt lat="45.311458" lon="-122.048733"><ele>1168.023</ele><time>2026-08-22T22:29:26Z</time></trkpt><trkpt lat="45.311448" lon="-122.048685"><ele>1168.415</ele><time>2026-08-22T22:29:30Z</time></trkpt><trkpt lat="45.311428" lon="-122.048592"><ele>1169.209</ele><time>2026-08-22T22:29:37Z</time></trkpt><trkpt lat="45.311424" lon="-122.04857"><ele>1169.435</ele><time>2026-08-22T22:29:39Z</time></trkpt><trkpt lat="45.311387" lon="-122.048481"><ele>1170.011</ele><time>2026-08-22T22:29:45Z</time></trkpt><trkpt lat="45.311367" lon="-122.048431"><ele>1170.624</ele><time>2026-08-22T22:29:49Z</time></trkpt><trkpt lat="45.311306" lon="-122.048338"><ele>1171.438</ele><time>2026-08-22T22:29:57Z</time></trkpt><trkpt lat="45.31126" lon="-122.048279"><ele>1171.624</ele><time>2026-08-22T22:30:03Z</time></trkpt><trkpt lat="45.311247" lon="-122.048235"><ele>1171.894</ele><time>2026-08-22T22:30:07Z</time></trkpt><trkpt lat="45.311203" lon="-122.048107"><ele>1172.078</ele><time>2026-08-22T22:30:18Z</time></trkpt><trkpt lat="45.311184" lon="-122.048064"><ele>1172.889</ele><time>2026-08-22T22:30:22Z</time></trkpt><trkpt lat="45.311172" lon="-122.048023"><ele>1173.455</ele><time>2026-08-22T22:30:27Z</time></trkpt><trkpt lat="45.311175" lon="-122.047996"><ele>1173.849</ele><time>2026-08-22T22:30:29Z</time></trkpt><trkpt lat="45.311169" lon="-122.047932"><ele>1175.002</ele><time>2026-08-22T22:30:35Z</time></trkpt><trkpt lat="45.311161" lon="-122.047894"><ele>1175.422</ele><time>2026-08-22T22:30:38Z</time></trkpt><trkpt lat="45.311151" lon="-122.047863"><ele>1176.209</ele><time>2026-08-22T22:30:41Z</time></trkpt><trkpt lat="45.311135" lon="-122.047812"><ele>1177.066</ele><time>2026-08-22T22:30:47Z</time></trkpt><trkpt lat="45.311132" lon="-122.047782"><ele>1177.292</ele><time>2026-08-22T22:30:49Z</time></trkpt><trkpt lat="45.311136" lon="-122.047701"><ele>1178.235</ele><time>2026-08-22T22:30:55Z</time></trkpt><trkpt lat="45.311114" lon="-122.047596"><ele>1178.889</ele><time>2026-08-22T22:31:03Z</time></trkpt><trkpt lat="45.31111" lon="-122.047556"><ele>1179.295</ele><time>2026-08-22T22:31:06Z</time></trkpt><trkpt lat="45.311087" lon="-122.047437"><ele>1180.085</ele><time>2026-08-22T22:31:12Z</time></trkpt><trkpt lat="45.311084" lon="-122.047425"><ele>1180.429</ele><time>2026-08-22T22:31:14Z</time></trkpt><trkpt lat="45.311091" lon="-122.047375"><ele>1181.270</ele><time>2026-08-22T22:31:22Z</time></trkpt><trkpt lat="45.311087" lon="-122.047367"><ele>1181.476</ele><time>2026-08-22T22:31:23Z</time></trkpt><trkpt lat="45.311077" lon="-122.047273"><ele>1182.696</ele><time>2026-08-22T22:31:32Z</time></trkpt><trkpt lat="45.311073" lon="-122.047247"><ele>1182.831</ele><time>2026-08-22T22:31:34Z</time></trkpt><trkpt lat="45.311059" lon="-122.047166"><ele>1183.624</ele><time>2026-08-22T22:31:40Z</time></trkpt><trkpt lat="45.311043" lon="-122.047085"><ele>1184.409</ele><time>2026-08-22T22:31:45Z</time></trkpt><trkpt lat="45.311036" lon="-122.047058"><ele>1184.871</ele><time>2026-08-22T22:31:47Z</time></trkpt><trkpt lat="45.311013" lon="-122.046993"><ele>1185.647</ele><time>2026-08-22T22:31:53Z</time></trkpt><trkpt lat="45.311004" lon="-122.046981"><ele>1185.810</ele><time>2026-08-22T22:31:54Z</time></trkpt><trkpt lat="45.310983" lon="-122.046945"><ele>1186.234</ele><time>2026-08-22T22:31:58Z</time></trkpt><trkpt lat="45.310964" lon="-122.046899"><ele>1186.650</ele><time>2026-08-22T22:32:02Z</time></trkpt><trkpt lat="45.310965" lon="-122.046886"><ele>1187.070</ele><time>2026-08-22T22:32:04Z</time></trkpt><trkpt lat="45.31097" lon="-122.046849"><ele>1187.844</ele><time>2026-08-22T22:32:09Z</time></trkpt><trkpt lat="45.310969" lon="-122.046841"><ele>1188.075</ele><time>2026-08-22T22:32:10Z</time></trkpt><trkpt lat="45.310967" lon="-122.046833"><ele>1188.271</ele><time>2026-08-22T22:32:11Z</time></trkpt><trkpt lat="45.310972" lon="-122.046765"><ele>1189.082</ele><time>2026-08-22T22:32:17Z</time></trkpt><trkpt lat="45.310984" lon="-122.046727"><ele>1189.643</ele><time>2026-08-22T22:32:20Z</time></trkpt><trkpt lat="45.311008" lon="-122.046681"><ele>1190.017</ele><time>2026-08-22T22:32:24Z</time></trkpt><trkpt lat="45.311039" lon="-122.04665"><ele>1191.009</ele><time>2026-08-22T22:32:29Z</time></trkpt><trkpt lat="45.311055" lon="-122.046645"><ele>1191.220</ele><time>2026-08-22T22:32:31Z</time></trkpt><trkpt lat="45.311136" lon="-122.046616"><ele>1192.246</ele><time>2026-08-22T22:32:39Z</time></trkpt><trkpt lat="45.311146" lon="-122.046613"><ele>1192.239</ele><time>2026-08-22T22:32:40Z</time></trkpt><trkpt lat="45.311182" lon="-122.046566"><ele>1193.433</ele><time>2026-08-22T22:32:46Z</time></trkpt><trkpt lat="45.31119" lon="-122.046542"><ele>1193.659</ele><time>2026-08-22T22:32:48Z</time></trkpt><trkpt lat="45.311216" lon="-122.046466"><ele>1194.439</ele><time>2026-08-22T22:32:55Z</time></trkpt><trkpt lat="45.311228" lon="-122.046435"><ele>1195.063</ele><time>2026-08-22T22:32:59Z</time></trkpt><trkpt lat="45.311255" lon="-122.046379"><ele>1195.654</ele><time>2026-08-22T22:33:03Z</time></trkpt><trkpt lat="45.311308" lon="-122.046274"><ele>1196.280</ele><time>2026-08-22T22:33:09Z</time></trkpt><trkpt lat="45.311313" lon="-122.046249"><ele>1196.674</ele><time>2026-08-22T22:33:11Z</time></trkpt><trkpt lat="45.311321" lon="-122.046177"><ele>1197.656</ele><time>2026-08-22T22:33:17Z</time></trkpt><trkpt lat="45.311318" lon="-122.046172"><ele>1197.821</ele><time>2026-08-22T22:33:18Z</time></trkpt><trkpt lat="45.311302" lon="-122.046126"><ele>1198.809</ele><time>2026-08-22T22:33:23Z</time></trkpt><trkpt lat="45.311301" lon="-122.046062"><ele>1199.889</ele><time>2026-08-22T22:33:29Z</time></trkpt><trkpt lat="45.311293" lon="-122.046013"><ele>1200.815</ele><time>2026-08-22T22:33:35Z</time></trkpt><trkpt lat="45.311289" lon="-122.045968"><ele>1202.028</ele><time>2026-08-22T22:33:41Z</time></trkpt><trkpt lat="45.311288" lon="-122.045952"><ele>1203.072</ele><time>2026-08-22T22:33:47Z</time></trkpt><trkpt lat="45.31128" lon="-122.045924"><ele>1204.068</ele><time>2026-08-22T22:33:52Z</time></trkpt><trkpt lat="45.311276" lon="-122.045905"><ele>1204.488</ele><time>2026-08-22T22:33:54Z</time></trkpt><trkpt lat="45.311276" lon="-122.045858"><ele>1205.272</ele><time>2026-08-22T22:33:59Z</time></trkpt><trkpt lat="45.311293" lon="-122.045797"><ele>1206.233</ele><time>2026-08-22T22:34:05Z</time></trkpt><trkpt lat="45.311303" lon="-122.045779"><ele>1206.689</ele><time>2026-08-22T22:34:07Z</time></trkpt><trkpt lat="45.311317" lon="-122.045767"><ele>1207.453</ele><time>2026-08-22T22:34:11Z</time></trkpt><trkpt lat="45.311355" lon="-122.045741"><ele>1208.204</ele><time>2026-08-22T22:34:17Z</time></trkpt><trkpt lat="45.311362" lon="-122.045739"><ele>1208.414</ele><time>2026-08-22T22:34:18Z</time></trkpt><trkpt lat="45.311384" lon="-122.045709"><ele>1209.409</ele><time>2026-08-22T22:34:24Z</time></trkpt><trkpt lat="45.311391" lon="-122.045674"><ele>1210.227</ele><time>2026-08-22T22:34:28Z</time></trkpt><trkpt lat="45.311407" lon="-122.045644"><ele>1210.633</ele><time>2026-08-22T22:34:31Z</time></trkpt><trkpt lat="45.311431" lon="-122.045566"><ele>1211.856</ele><time>2026-08-22T22:34:38Z</time></trkpt><trkpt lat="45.311439" lon="-122.045536"><ele>1212.290</ele><time>2026-08-22T22:34:41Z</time></trkpt><trkpt lat="45.311461" lon="-122.045479"><ele>1212.836</ele><time>2026-08-22T22:34:46Z</time></trkpt><trkpt lat="45.311468" lon="-122.045462"><ele>1213.086</ele><time>2026-08-22T22:34:47Z</time></trkpt><trkpt lat="45.311491" lon="-122.045411"><ele>1213.680</ele><time>2026-08-22T22:34:51Z</time></trkpt><trkpt lat="45.3115" lon="-122.045387"><ele>1214.011</ele><time>2026-08-22T22:34:53Z</time></trkpt><trkpt lat="45.311511" lon="-122.045323"><ele>1215.057</ele><time>2026-08-22T22:34:59Z</time></trkpt><trkpt lat="45.311512" lon="-122.045309"><ele>1215.265</ele><time>2026-08-22T22:35:00Z</time></trkpt><trkpt lat="45.311518" lon="-122.04529"><ele>1215.668</ele><time>2026-08-22T22:35:02Z</time></trkpt><trkpt lat="45.311525" lon="-122.045277"><ele>1216.014</ele><time>2026-08-22T22:35:04Z</time></trkpt><trkpt lat="45.311527" lon="-122.045222"><ele>1216.809</ele><time>2026-08-22T22:35:10Z</time></trkpt><trkpt lat="45.311523" lon="-122.045211"><ele>1217.018</ele><time>2026-08-22T22:35:11Z</time></trkpt><trkpt lat="45.311522" lon="-122.045206"><ele>1217.024</ele><time>2026-08-22T22:35:12Z</time></trkpt><trkpt lat="45.31152" lon="-122.045198"><ele>1217.247</ele><time>2026-08-22T22:35:13Z</time></trkpt><trkpt lat="45.311507" lon="-122.045173"><ele>1218.211</ele><time>2026-08-22T22:35:19Z</time></trkpt><trkpt lat="45.311503" lon="-122.045168"><ele>1218.637</ele><time>2026-08-22T22:35:21Z</time></trkpt><trkpt lat="45.311493" lon="-122.04516"><ele>1219.477</ele><time>2026-08-22T22:35:26Z</time></trkpt><trkpt lat="45.311482" lon="-122.045146"><ele>1220.021</ele><time>2026-08-22T22:35:31Z</time></trkpt><trkpt lat="45.311475" lon="-122.04513"><ele>1220.452</ele><time>2026-08-22T22:35:34Z</time></trkpt><trkpt lat="45.311471" lon="-122.045107"><ele>1221.088</ele><time>2026-08-22T22:35:37Z</time></trkpt><trkpt lat="45.311465" lon="-122.045072"><ele>1221.494</ele><time>2026-08-22T22:35:40Z</time></trkpt><trkpt lat="45.311465" lon="-122.045053"><ele>1221.857</ele><time>2026-08-22T22:35:42Z</time></trkpt><trkpt lat="45.311472" lon="-122.045016"><ele>1222.622</ele><time>2026-08-22T22:35:47Z</time></trkpt><trkpt lat="45.311491" lon="-122.044966"><ele>1223.609</ele><time>2026-08-22T22:35:54Z</time></trkpt><trkpt lat="45.311498" lon="-122.044951"><ele>1223.681</ele><time>2026-08-22T22:35:55Z</time></trkpt><trkpt lat="45.311528" lon="-122.044918"><ele>1224.857</ele><time>2026-08-22T22:36:02Z</time></trkpt><trkpt lat="45.311539" lon="-122.044892"><ele>1225.230</ele><time>2026-08-22T22:36:05Z</time></trkpt><trkpt lat="45.311552" lon="-122.044869"><ele>1225.884</ele><time>2026-08-22T22:36:08Z</time></trkpt><trkpt lat="45.311562" lon="-122.044818"><ele>1227.050</ele><time>2026-08-22T22:36:15Z</time></trkpt><trkpt lat="45.311561" lon="-122.044814"><ele>1227.220</ele><time>2026-08-22T22:36:16Z</time></trkpt><trkpt lat="45.31156" lon="-122.044778"><ele>1228.064</ele><time>2026-08-22T22:36:21Z</time></trkpt><trkpt lat="45.311538" lon="-122.044707"><ele>1229.255</ele><time>2026-08-22T22:36:26Z</time></trkpt><trkpt lat="45.311529" lon="-122.044672"><ele>1229.491</ele><time>2026-08-22T22:36:28Z</time></trkpt><trkpt lat="45.31151" lon="-122.044626"><ele>1230.419</ele><time>2026-08-22T22:36:33Z</time></trkpt><trkpt lat="45.31151" lon="-122.044615"><ele>1231.209</ele><time>2026-08-22T22:36:38Z</time></trkpt><trkpt lat="45.311518" lon="-122.044621"><ele>1231.619</ele><time>2026-08-22T22:36:39Z</time></trkpt><trkpt lat="45.311512" lon="-122.044576"><ele>1232.609</ele><time>2026-08-22T22:36:45Z</time></trkpt><trkpt lat="45.311507" lon="-122.044553"><ele>1232.813</ele><time>2026-08-22T22:36:47Z</time></trkpt><trkpt lat="45.311494" lon="-122.044488"><ele>1233.669</ele><time>2026-08-22T22:36:51Z</time></trkpt><trkpt lat="45.311476" lon="-122.044441"><ele>1234.452</ele><time>2026-08-22T22:36:56Z</time></trkpt><trkpt lat="45.311473" lon="-122.04442"><ele>1234.676</ele><time>2026-08-22T22:36:58Z</time></trkpt><trkpt lat="45.311455" lon="-122.044364"><ele>1235.812</ele><time>2026-08-22T22:37:05Z</time></trkpt><trkpt lat="45.31144" lon="-122.044344"><ele>1236.232</ele><time>2026-08-22T22:37:09Z</time></trkpt><trkpt lat="45.31143" lon="-122.044333"><ele>1236.876</ele><time>2026-08-22T22:37:12Z</time></trkpt><trkpt lat="45.311408" lon="-122.044312"><ele>1237.897</ele><time>2026-08-22T22:37:20Z</time></trkpt><trkpt lat="45.311403" lon="-122.044303"><ele>1238.013</ele><time>2026-08-22T22:37:21Z</time></trkpt><trkpt lat="45.311392" lon="-122.044251"><ele>1239.033</ele><time>2026-08-22T22:37:27Z</time></trkpt><trkpt lat="45.311388" lon="-122.044216"><ele>1239.823</ele><time>2026-08-22T22:37:31Z</time></trkpt><trkpt lat="45.311388" lon="-122.044194"><ele>1240.015</ele><time>2026-08-22T22:37:33Z</time></trkpt><trkpt lat="45.311382" lon="-122.04415"><ele>1241.009</ele><time>2026-08-22T22:37:39Z</time></trkpt><trkpt lat="45.311369" lon="-122.044139"><ele>1241.835</ele><time>2026-08-22T22:37:42Z</time></trkpt><trkpt lat="45.311366" lon="-122.044125"><ele>1242.271</ele><time>2026-08-22T22:37:44Z</time></trkpt><trkpt lat="45.311361" lon="-122.044071"><ele>1242.614</ele><time>2026-08-22T22:37:50Z</time></trkpt><trkpt lat="45.311364" lon="-122.044031"><ele>1243.268</ele><time>2026-08-22T22:37:54Z</time></trkpt><trkpt lat="45.311362" lon="-122.04398"><ele>1244.214</ele><time>2026-08-22T22:38:00Z</time></trkpt><trkpt lat="45.311359" lon="-122.043961"><ele>1244.614</ele><time>2026-08-22T22:38:03Z</time></trkpt><trkpt lat="45.31135" lon="-122.043946"><ele>1245.278</ele><time>2026-08-22T22:38:07Z</time></trkpt><trkpt lat="45.311343" lon="-122.043901"><ele>1246.429</ele><time>2026-08-22T22:38:12Z</time></trkpt><trkpt lat="45.311341" lon="-122.043888"><ele>1246.465</ele><time>2026-08-22T22:38:13Z</time></trkpt><trkpt lat="45.311329" lon="-122.043832"><ele>1247.421</ele><time>2026-08-22T22:38:18Z</time></trkpt><trkpt lat="45.31132" lon="-122.043822"><ele>1248.041</ele><time>2026-08-22T22:38:21Z</time></trkpt><trkpt lat="45.311316" lon="-122.043817"><ele>1248.405</ele><time>2026-08-22T22:38:24Z</time></trkpt><trkpt lat="45.311313" lon="-122.043794"><ele>1248.409</ele><time>2026-08-22T22:38:29Z</time></trkpt><trkpt lat="45.311308" lon="-122.043739"><ele>1249.654</ele><time>2026-08-22T22:38:37Z</time></trkpt><trkpt lat="45.311311" lon="-122.043742"><ele>1249.680</ele><time>2026-08-22T22:38:38Z</time></trkpt><trkpt lat="45.311311" lon="-122.043662"><ele>1250.243</ele><time>2026-08-22T22:38:45Z</time></trkpt><trkpt lat="45.3113" lon="-122.043628"><ele>1250.647</ele><time>2026-08-22T22:38:48Z</time></trkpt><trkpt lat="45.311296" lon="-122.043562"><ele>1251.283</ele><time>2026-08-22T22:38:54Z</time></trkpt><trkpt lat="45.311298" lon="-122.043544"><ele>1251.673</ele><time>2026-08-22T22:38:56Z</time></trkpt><trkpt lat="45.311322" lon="-122.04348"><ele>1252.617</ele><time>2026-08-22T22:39:03Z</time></trkpt><trkpt lat="45.311329" lon="-122.043471"><ele>1252.638</ele><time>2026-08-22T22:39:04Z</time></trkpt><trkpt lat="45.311366" lon="-122.043393"><ele>1253.874</ele><time>2026-08-22T22:39:11Z</time></trkpt><trkpt lat="45.311373" lon="-122.04337"><ele>1254.244</ele><time>2026-08-22T22:39:14Z</time></trkpt><trkpt lat="45.311373" lon="-122.043359"><ele>1254.805</ele><time>2026-08-22T22:39:16Z</time></trkpt><trkpt lat="45.311365" lon="-122.043273"><ele>1255.815</ele><time>2026-08-22T22:39:24Z</time></trkpt><trkpt lat="45.311364" lon="-122.043208"><ele>1257.009</ele><time>2026-08-22T22:39:31Z</time></trkpt><trkpt lat="45.311359" lon="-122.043162"><ele>1257.666</ele><time>2026-08-22T22:39:35Z</time></trkpt><trkpt lat="45.311356" lon="-122.043135"><ele>1258.082</ele><time>2026-08-22T22:39:37Z</time></trkpt><trkpt lat="45.311333" lon="-122.043044"><ele>1258.825</ele><time>2026-08-22T22:39:45Z</time></trkpt><trkpt lat="45.311325" lon="-122.043029"><ele>1259.289</ele><time>2026-08-22T22:39:47Z</time></trkpt><trkpt lat="45.311291" lon="-122.042979"><ele>1260.235</ele><time>2026-08-22T22:39:54Z</time></trkpt><trkpt lat="45.311282" lon="-122.04297"><ele>1260.445</ele><time>2026-08-22T22:39:55Z</time></trkpt><trkpt lat="45.311247" lon="-122.042878"><ele>1261.289</ele><time>2026-08-22T22:40:03Z</time></trkpt><trkpt lat="45.311261" lon="-122.042842"><ele>1261.680</ele><time>2026-08-22T22:40:06Z</time></trkpt><trkpt lat="45.311315" lon="-122.042752"><ele>1262.446</ele><time>2026-08-22T22:40:15Z</time></trkpt><trkpt lat="45.311318" lon="-122.042747"><ele>1262.437</ele><time>2026-08-22T22:40:16Z</time></trkpt><trkpt lat="45.31135" lon="-122.042725"><ele>1263.449</ele><time>2026-08-22T22:40:23Z</time></trkpt><trkpt lat="45.311357" lon="-122.042726"><ele>1263.613</ele><time>2026-08-22T22:40:25Z</time></trkpt><trkpt lat="45.311409" lon="-122.042703"><ele>1264.409</ele><time>2026-08-22T22:40:33Z</time></trkpt><trkpt lat="45.311423" lon="-122.042692"><ele>1264.835</ele><time>2026-08-22T22:40:35Z</time></trkpt><trkpt lat="45.311472" lon="-122.04265"><ele>1265.631</ele><time>2026-08-22T22:40:41Z</time></trkpt><trkpt lat="45.311472" lon="-122.042633"><ele>1265.844</ele><time>2026-08-22T22:40:43Z</time></trkpt><trkpt lat="45.311465" lon="-122.042634"><ele>1266.088</ele><time>2026-08-22T22:40:44Z</time></trkpt><trkpt lat="45.311414" lon="-122.042668"><ele>1265.664</ele><time>2026-08-22T22:40:49Z</time></trkpt><trkpt lat="45.311376" lon="-122.042683"><ele>1264.434</ele><time>2026-08-22T22:40:53Z</time></trkpt><trkpt lat="45.311321" lon="-122.042695"><ele>1263.258</ele><time>2026-08-22T22:40:57Z</time></trkpt><trkpt lat="45.311294" lon="-122.042706"><ele>1262.869</ele><time>2026-08-22T22:40:59Z</time></trkpt><trkpt lat="45.311268" lon="-122.042713"><ele>1262.055</ele><time>2026-08-22T22:41:02Z</time></trkpt><trkpt lat="45.311222" lon="-122.042718"><ele>1261.271</ele><time>2026-08-22T22:41:07Z</time></trkpt><trkpt lat="45.311212" lon="-122.042716"><ele>1261.041</ele><time>2026-08-22T22:41:08Z</time></trkpt><trkpt lat="45.311208" lon="-122.042714"><ele>1261.015</ele><time>2026-08-22T22:41:09Z</time></trkpt><trkpt lat="45.311171" lon="-122.042699"><ele>1260.809</ele><time>2026-08-22T22:41:12Z</time></trkpt><trkpt lat="45.31112" lon="-122.042699"><ele>1260.299</ele><time>2026-08-22T22:41:16Z</time></trkpt><trkpt lat="45.311096" lon="-122.042699"><ele>1259.845</ele><time>2026-08-22T22:41:18Z</time></trkpt><trkpt lat="45.310981" lon="-122.042676"><ele>1259.088</ele><time>2026-08-22T22:41:26Z</time></trkpt><trkpt lat="45.310889" lon="-122.042661"><ele>1259.692</ele><time>2026-08-22T22:41:35Z</time></trkpt><trkpt lat="45.310799" lon="-122.042624"><ele>1259.638</ele><time>2026-08-22T22:41:44Z</time></trkpt><trkpt lat="45.310801" lon="-122.042625"><ele>1259.018</ele><time>2026-08-22T22:41:50Z</time></trkpt><trkpt lat="45.3108" lon="-122.042633"><ele>1259.072</ele><time>2026-08-22T22:41:57Z</time></trkpt><trkpt lat="45.310798" lon="-122.042637"><ele>1259.053</ele><time>2026-08-22T22:41:58Z</time></trkpt><trkpt lat="45.310805" lon="-122.042654"><ele>1258.829</ele><time>2026-08-22T22:42:01Z</time></trkpt><trkpt lat="45.310808" lon="-122.042655"><ele>1258.635</ele><time>2026-08-22T22:42:06Z</time></trkpt><trkpt lat="45.310797" lon="-122.042647"><ele>1258.486</ele><time>2026-08-22T22:42:13Z</time></trkpt><trkpt lat="45.310789" lon="-122.042643"><ele>1258.214</ele><time>2026-08-22T22:42:21Z</time></trkpt><trkpt lat="45.310789" lon="-122.042644"><ele>1258.209</ele><time>2026-08-22T22:42:22Z</time></trkpt><trkpt lat="45.310777" lon="-122.042622"><ele>1257.845</ele><time>2026-08-22T22:42:32Z</time></trkpt><trkpt lat="45.310785" lon="-122.042619"><ele>1257.891</ele><time>2026-08-22T22:42:34Z</time></trkpt><trkpt lat="45.310786" lon="-122.042619"><ele>1257.834</ele><time>2026-08-22T22:42:35Z</time></trkpt><trkpt lat="45.310789" lon="-122.042632"><ele>1257.868</ele><time>2026-08-22T22:42:41Z</time></trkpt><trkpt lat="45.310798" lon="-122.04265"><ele>1257.494</ele><time>2026-08-22T22:42:49Z</time></trkpt><trkpt lat="45.310826" lon="-122.042646"><ele>1257.244</ele><time>2026-08-22T22:43:02Z</time></trkpt><trkpt lat="45.310809" lon="-122.042643"><ele>1256.818</ele><time>2026-08-22T22:43:11Z</time></trkpt><trkpt lat="45.310809" lon="-122.042643"><ele>1256.699</ele><time>2026-08-22T22:43:13Z</time></trkpt><trkpt lat="45.310799" lon="-122.042643"><ele>1256.835</ele><time>2026-08-22T22:43:21Z</time></trkpt><trkpt lat="45.31079" lon="-122.042633"><ele>1256.633</ele><time>2026-08-22T22:43:30Z</time></trkpt><trkpt lat="45.310794" lon="-122.042641"><ele>1255.623</ele><time>2026-08-22T22:43:41Z</time></trkpt><trkpt lat="45.310799" lon="-122.04265"><ele>1255.015</ele><time>2026-08-22T22:43:50Z</time></trkpt><trkpt lat="45.31078" lon="-122.042616"><ele>1255.009</ele><time>2026-08-22T22:43:58Z</time></trkpt><trkpt lat="45.310778" lon="-122.042613"><ele>1254.625</ele><time>2026-08-22T22:44:07Z</time></trkpt><trkpt lat="45.310778" lon="-122.042613"><ele>1254.681</ele><time>2026-08-22T22:44:09Z</time></trkpt><trkpt lat="45.310778" lon="-122.042613"><ele>1254.854</ele><time>2026-08-22T22:44:10Z</time></trkpt><trkpt lat="45.310778" lon="-122.042613"><ele>1255.078</ele><time>2026-08-22T22:44:13Z</time></trkpt><trkpt lat="45.310778" lon="-122.042613"><ele>1254.874</ele><time>2026-08-22T22:44:15Z</time></trkpt><trkpt lat="45.310778" lon="-122.042613"><ele>1254.614</ele><time>2026-08-22T22:44:18Z</time></trkpt><trkpt lat="45.310778" lon="-122.042613"><ele>1254.648</ele><time>2026-08-22T22:44:22Z</time></trkpt><trkpt lat="45.310778" lon="-122.042613"><ele>1254.629</ele><time>2026-08-22T22:44:30Z</time></trkpt><trkpt lat="45.310776" lon="-122.042621"><ele>1254.695</ele><time>2026-08-22T22:44:32Z</time></trkpt><trkpt lat="45.310782" lon="-122.042641"><ele>1254.273</ele><time>2026-08-22T22:44:40Z</time></trkpt><trkpt lat="45.310782" lon="-122.042641"><ele>1254.285</ele><time>2026-08-22T22:44:42Z</time></trkpt><trkpt lat="45.310796" lon="-122.042646"><ele>1253.813</ele><time>2026-08-22T22:44:56Z</time></trkpt><trkpt lat="45.310778" lon="-122.042631"><ele>1254.009</ele><time>2026-08-22T22:45:08Z</time></trkpt><trkpt lat="45.310781" lon="-122.042641"><ele>1253.879</ele><time>2026-08-22T22:45:20Z</time></trkpt><trkpt lat="45.310781" lon="-122.042646"><ele>1253.825</ele><time>2026-08-22T22:45:22Z</time></trkpt><trkpt lat="45.310765" lon="-122.04266"><ele>1253.648</ele><time>2026-08-22T22:45:31Z</time></trkpt><trkpt lat="45.310768" lon="-122.04266"><ele>1253.892</ele><time>2026-08-22T22:45:36Z</time></trkpt><trkpt lat="45.31077" lon="-122.042661"><ele>1253.848</ele><time>2026-08-22T22:45:37Z</time></trkpt><trkpt lat="45.310771" lon="-122.042662"><ele>1254.028</ele><time>2026-08-22T22:45:38Z</time></trkpt><trkpt lat="45.310789" lon="-122.042667"><ele>1254.462</ele><time>2026-08-22T22:45:41Z</time></trkpt><trkpt lat="45.310833" lon="-122.042678"><ele>1254.653</ele><time>2026-08-22T22:45:48Z</time></trkpt><trkpt lat="45.310836" lon="-122.042679"><ele>1254.479</ele><time>2026-08-22T22:45:49Z</time></trkpt><trkpt lat="45.310848" lon="-122.042697"><ele>1253.823</ele><time>2026-08-22T22:45:55Z</time></trkpt><trkpt lat="45.310872" lon="-122.04273"><ele>1253.883</ele><time>2026-08-22T22:46:04Z</time></trkpt><trkpt lat="45.310874" lon="-122.042737"><ele>1253.611</ele><time>2026-08-22T22:46:06Z</time></trkpt><trkpt lat="45.310873" lon="-122.042741"><ele>1253.409</ele><time>2026-08-22T22:46:08Z</time></trkpt><trkpt lat="45.31087" lon="-122.042745"><ele>1253.244</ele><time>2026-08-22T22:46:09Z</time></trkpt><trkpt lat="45.310868" lon="-122.042746"><ele>1253.290</ele><time>2026-08-22T22:46:10Z</time></trkpt><trkpt lat="45.310869" lon="-122.042749"><ele>1253.423</ele><time>2026-08-22T22:46:13Z</time></trkpt><trkpt lat="45.310869" lon="-122.04275"><ele>1253.637</ele><time>2026-08-22T22:46:15Z</time></trkpt><trkpt lat="45.310868" lon="-122.042751"><ele>1253.413</ele><time>2026-08-22T22:46:17Z</time></trkpt><trkpt lat="45.310868" lon="-122.042753"><ele>1253.663</ele><time>2026-08-22T22:46:18Z</time></trkpt><trkpt lat="45.310864" lon="-122.042752"><ele>1253.637</ele><time>2026-08-22T22:46:19Z</time></trkpt><trkpt lat="45.310858" lon="-122.042748"><ele>1253.638</ele><time>2026-08-22T22:46:20Z</time></trkpt><trkpt lat="45.310854" lon="-122.042745"><ele>1253.694</ele><time>2026-08-22T22:46:21Z</time></trkpt><trkpt lat="45.310849" lon="-122.042743"><ele>1253.427</ele><time>2026-08-22T22:46:22Z</time></trkpt><trkpt lat="45.310849" lon="-122.042745"><ele>1253.468</ele><time>2026-08-22T22:46:24Z</time></trkpt><trkpt lat="45.310859" lon="-122.042755"><ele>1253.414</ele><time>2026-08-22T22:46:32Z</time></trkpt><trkpt lat="45.31087" lon="-122.042757"><ele>1253.009</ele><time>2026-08-22T22:46:40Z</time></trkpt><trkpt lat="45.310871" lon="-122.042744"><ele>1252.844</ele><time>2026-08-22T22:46:46Z</time></trkpt><trkpt lat="45.310871" lon="-122.042746"><ele>1252.680</ele><time>2026-08-22T22:46:48Z</time></trkpt><trkpt lat="45.310888" lon="-122.042767"><ele>1252.483</ele><time>2026-08-22T22:46:52Z</time></trkpt><trkpt lat="45.310897" lon="-122.042771"><ele>1252.487</ele><time>2026-08-22T22:46:53Z</time></trkpt><trkpt lat="45.310926" lon="-122.042811"><ele>1252.443</ele><time>2026-08-22T22:47:00Z</time></trkpt><trkpt lat="45.310941" lon="-122.042887"><ele>1251.633</ele><time>2026-08-22T22:47:07Z</time></trkpt><trkpt lat="45.310947" lon="-122.04291"><ele>1251.437</ele><time>2026-08-22T22:47:09Z</time></trkpt><trkpt lat="45.31095" lon="-122.042921"><ele>1251.498</ele><time>2026-08-22T22:47:10Z</time></trkpt><trkpt lat="45.31097" lon="-122.042998"><ele>1250.454</ele><time>2026-08-22T22:47:17Z</time></trkpt><trkpt lat="45.310974" lon="-122.043014"><ele>1250.489</ele><time>2026-08-22T22:47:19Z</time></trkpt><trkpt lat="45.310984" lon="-122.043036"><ele>1250.206</ele><time>2026-08-22T22:47:21Z</time></trkpt><trkpt lat="45.311014" lon="-122.043068"><ele>1250.226</ele><time>2026-08-22T22:47:26Z</time></trkpt><trkpt lat="45.311024" lon="-122.043071"><ele>1250.209</ele><time>2026-08-22T22:47:30Z</time></trkpt><trkpt lat="45.311064" lon="-122.043108"><ele>1249.870</ele><time>2026-08-22T22:47:37Z</time></trkpt><trkpt lat="45.311079" lon="-122.043086"><ele>1250.096</ele><time>2026-08-22T22:47:44Z</time></trkpt><trkpt lat="45.311094" lon="-122.043093"><ele>1250.099</ele><time>2026-08-22T22:47:53Z</time></trkpt><trkpt lat="45.311095" lon="-122.043102"><ele>1250.263</ele><time>2026-08-22T22:48:00Z</time></trkpt><trkpt lat="45.311096" lon="-122.043115"><ele>1249.859</ele><time>2026-08-22T22:48:03Z</time></trkpt><trkpt lat="45.31108" lon="-122.043125"><ele>1249.689</ele><time>2026-08-22T22:48:09Z</time></trkpt><trkpt lat="45.311074" lon="-122.043126"><ele>1249.813</ele><time>2026-08-22T22:48:11Z</time></trkpt><trkpt lat="45.311071" lon="-122.043129"><ele>1249.854</ele><time>2026-08-22T22:48:21Z</time></trkpt><trkpt lat="45.311084" lon="-122.043128"><ele>1250.060</ele><time>2026-08-22T22:48:30Z</time></trkpt><trkpt lat="45.31109" lon="-122.043099"><ele>1250.252</ele><time>2026-08-22T22:48:40Z</time></trkpt><trkpt lat="45.311063" lon="-122.043116"><ele>1250.053</ele><time>2026-08-22T22:48:49Z</time></trkpt><trkpt lat="45.311051" lon="-122.043128"><ele>1250.008</ele><time>2026-08-22T22:48:55Z</time></trkpt><trkpt lat="45.311054" lon="-122.043122"><ele>1249.409</ele><time>2026-08-22T22:49:01Z</time></trkpt><trkpt lat="45.311045" lon="-122.043121"><ele>1249.477</ele><time>2026-08-22T22:49:12Z</time></trkpt><trkpt lat="45.311043" lon="-122.04312"><ele>1249.453</ele><time>2026-08-22T22:49:13Z</time></trkpt><trkpt lat="45.311042" lon="-122.043118"><ele>1249.496</ele><time>2026-08-22T22:49:15Z</time></trkpt><trkpt lat="45.311059" lon="-122.043107"><ele>1249.640</ele><time>2026-08-22T22:49:24Z</time></trkpt><trkpt lat="45.311073" lon="-122.043121"><ele>1249.496</ele><time>2026-08-22T22:49:35Z</time></trkpt><trkpt lat="45.311077" lon="-122.043141"><ele>1249.076</ele><time>2026-08-22T22:49:44Z</time></trkpt><trkpt lat="45.311082" lon="-122.043144"><ele>1249.010</ele><time>2026-08-22T22:49:46Z</time></trkpt><trkpt lat="45.31109" lon="-122.043148"><ele>1249.281</ele><time>2026-08-22T22:49:58Z</time></trkpt><trkpt lat="45.311063" lon="-122.043128"><ele>1249.467</ele><time>2026-08-22T22:50:08Z</time></trkpt><trkpt lat="45.311075" lon="-122.04313"><ele>1249.267</ele><time>2026-08-22T22:50:21Z</time></trkpt><trkpt lat="45.311076" lon="-122.043131"><ele>1249.281</ele><time>2026-08-22T22:50:22Z</time></trkpt><trkpt lat="45.311077" lon="-122.043132"><ele>1249.219</ele><time>2026-08-22T22:50:23Z</time></trkpt><trkpt lat="45.311078" lon="-122.043133"><ele>1249.209</ele><time>2026-08-22T22:50:24Z</time></trkpt><trkpt lat="45.311068" lon="-122.043134"><ele>1249.268</ele><time>2026-08-22T22:50:34Z</time></trkpt><trkpt lat="45.311059" lon="-122.04314"><ele>1249.274</ele><time>2026-08-22T22:50:38Z</time></trkpt><trkpt lat="45.311027" lon="-122.043146"><ele>1249.287</ele><time>2026-08-22T22:50:46Z</time></trkpt><trkpt lat="45.311057" lon="-122.043147"><ele>1249.281</ele><time>2026-08-22T22:50:58Z</time></trkpt><trkpt lat="45.311049" lon="-122.04311"><ele>1249.467</ele><time>2026-08-22T22:51:07Z</time></trkpt><trkpt lat="45.31107" lon="-122.043111"><ele>1249.497</ele><time>2026-08-22T22:51:19Z</time></trkpt><trkpt lat="45.311078" lon="-122.043111"><ele>1249.621</ele><time>2026-08-22T22:51:24Z</time></trkpt><trkpt lat="45.311069" lon="-122.043121"><ele>1249.672</ele><time>2026-08-22T22:51:30Z</time></trkpt><trkpt lat="45.311039" lon="-122.043126"><ele>1249.858</ele><time>2026-08-22T22:51:41Z</time></trkpt><trkpt lat="45.311067" lon="-122.043118"><ele>1250.097</ele><time>2026-08-22T22:51:54Z</time></trkpt><trkpt lat="45.311085" lon="-122.043125"><ele>1252.423</ele><time>2026-08-22T22:56:57Z</time></trkpt><trkpt lat="45.311086" lon="-122.043129"><ele>1252.425</ele><time>2026-08-22T22:56:58Z</time></trkpt><trkpt lat="45.311091" lon="-122.043183"><ele>1252.009</ele><time>2026-08-22T22:57:07Z</time></trkpt><trkpt lat="45.311149" lon="-122.043188"><ele>1251.411</ele><time>2026-08-22T22:57:15Z</time></trkpt><trkpt lat="45.311197" lon="-122.043203"><ele>1251.477</ele><time>2026-08-22T22:57:20Z</time></trkpt><trkpt lat="45.31121" lon="-122.043206"><ele>1251.450</ele><time>2026-08-22T22:57:22Z</time></trkpt><trkpt lat="45.311225" lon="-122.043206"><ele>1251.444</ele><time>2026-08-22T22:57:24Z</time></trkpt><trkpt lat="45.311285" lon="-122.043202"><ele>1252.090</ele><time>2026-08-22T22:57:33Z</time></trkpt><trkpt lat="45.311293" lon="-122.043203"><ele>1252.030</ele><time>2026-08-22T22:57:34Z</time></trkpt><trkpt lat="45.311324" lon="-122.043223"><ele>1252.484</ele><time>2026-08-22T22:57:39Z</time></trkpt><trkpt lat="45.311336" lon="-122.043272"><ele>1251.225</ele><time>2026-08-22T22:57:44Z</time></trkpt><trkpt lat="45.311334" lon="-122.043324"><ele>1250.081</ele><time>2026-08-22T22:57:48Z</time></trkpt><trkpt lat="45.311317" lon="-122.043408"><ele>1249.218</ele><time>2026-08-22T22:57:55Z</time></trkpt><trkpt lat="45.31131" lon="-122.043417"><ele>1249.098</ele><time>2026-08-22T22:57:56Z</time></trkpt><trkpt lat="45.311274" lon="-122.043508"><ele>1247.817</ele><time>2026-08-22T22:58:03Z</time></trkpt><trkpt lat="45.311268" lon="-122.043573"><ele>1246.809</ele><time>2026-08-22T22:58:08Z</time></trkpt><trkpt lat="45.311273" lon="-122.043636"><ele>1245.883</ele><time>2026-08-22T22:58:13Z</time></trkpt><trkpt lat="45.311276" lon="-122.043644"><ele>1245.619</ele><time>2026-08-22T22:58:14Z</time></trkpt><trkpt lat="45.311292" lon="-122.04373"><ele>1244.412</ele><time>2026-08-22T22:58:21Z</time></trkpt><trkpt lat="45.311293" lon="-122.043738"><ele>1244.256</ele><time>2026-08-22T22:58:22Z</time></trkpt><trkpt lat="45.311288" lon="-122.043781"><ele>1244.062</ele><time>2026-08-22T22:58:29Z</time></trkpt><trkpt lat="45.311294" lon="-122.043817"><ele>1243.292</ele><time>2026-08-22T22:58:32Z</time></trkpt><trkpt lat="45.311299" lon="-122.043865"><ele>1242.086</ele><time>2026-08-22T22:58:36Z</time></trkpt><trkpt lat="45.311297" lon="-122.043921"><ele>1241.237</ele><time>2026-08-22T22:58:41Z</time></trkpt><trkpt lat="45.311298" lon="-122.04393"><ele>1241.043</ele><time>2026-08-22T22:58:42Z</time></trkpt><trkpt lat="45.311295" lon="-122.043973"><ele>1239.836</ele><time>2026-08-22T22:58:46Z</time></trkpt><trkpt lat="45.311295" lon="-122.044044"><ele>1238.417</ele><time>2026-08-22T22:58:50Z</time></trkpt><trkpt lat="45.311296" lon="-122.044084"><ele>1238.018</ele><time>2026-08-22T22:58:52Z</time></trkpt><trkpt lat="45.311299" lon="-122.044112"><ele>1237.209</ele><time>2026-08-22T22:58:54Z</time></trkpt><trkpt lat="45.311327" lon="-122.044212"><ele>1236.255</ele><time>2026-08-22T22:59:00Z</time></trkpt><trkpt lat="45.311333" lon="-122.044229"><ele>1235.831</ele><time>2026-08-22T22:59:01Z</time></trkpt><trkpt lat="45.311337" lon="-122.044247"><ele>1235.094</ele><time>2026-08-22T22:59:03Z</time></trkpt><trkpt lat="45.311349" lon="-122.044297"><ele>1233.868</ele><time>2026-08-22T22:59:07Z</time></trkpt><trkpt lat="45.31136" lon="-122.044345"><ele>1233.074</ele><time>2026-08-22T22:59:10Z</time></trkpt><trkpt lat="45.311367" lon="-122.04436"><ele>1232.614</ele><time>2026-08-22T22:59:11Z</time></trkpt><trkpt lat="45.311389" lon="-122.044417"><ele>1231.458</ele><time>2026-08-22T22:59:15Z</time></trkpt><trkpt lat="45.311418" lon="-122.04448"><ele>1230.279</ele><time>2026-08-22T22:59:19Z</time></trkpt><trkpt lat="45.311425" lon="-122.044494"><ele>1229.815</ele><time>2026-08-22T22:59:20Z</time></trkpt><trkpt lat="45.31144" lon="-122.044537"><ele>1229.086</ele><time>2026-08-22T22:59:23Z</time></trkpt><trkpt lat="45.311462" lon="-122.044592"><ele>1227.860</ele><time>2026-08-22T22:59:27Z</time></trkpt><trkpt lat="45.31147" lon="-122.04463"><ele>1227.026</ele><time>2026-08-22T22:59:30Z</time></trkpt><trkpt lat="45.311479" lon="-122.044662"><ele>1226.409</ele><time>2026-08-22T22:59:32Z</time></trkpt><trkpt lat="45.311498" lon="-122.044718"><ele>1225.280</ele><time>2026-08-22T22:59:35Z</time></trkpt><trkpt lat="45.311506" lon="-122.044755"><ele>1224.016</ele><time>2026-08-22T22:59:37Z</time></trkpt><trkpt lat="45.311507" lon="-122.044791"><ele>1223.299</ele><time>2026-08-22T22:59:39Z</time></trkpt><trkpt lat="45.311506" lon="-122.044808"><ele>1222.883</ele><time>2026-08-22T22:59:40Z</time></trkpt><trkpt lat="45.311493" lon="-122.044873"><ele>1221.649</ele><time>2026-08-22T22:59:43Z</time></trkpt><trkpt lat="45.311467" lon="-122.044953"><ele>1220.249</ele><time>2026-08-22T22:59:46Z</time></trkpt><trkpt lat="45.311457" lon="-122.044979"><ele>1219.853</ele><time>2026-08-22T22:59:47Z</time></trkpt><trkpt lat="45.311441" lon="-122.045032"><ele>1219.044</ele><time>2026-08-22T22:59:49Z</time></trkpt><trkpt lat="45.311424" lon="-122.045105"><ele>1217.820</ele><time>2026-08-22T22:59:53Z</time></trkpt><trkpt lat="45.311422" lon="-122.045123"><ele>1217.691</ele><time>2026-08-22T22:59:54Z</time></trkpt><trkpt lat="45.311418" lon="-122.045175"><ele>1216.681</ele><time>2026-08-22T22:59:57Z</time></trkpt><trkpt lat="45.311418" lon="-122.04523"><ele>1215.219</ele><time>2026-08-22T23:00:00Z</time></trkpt><trkpt lat="45.311415" lon="-122.045264"><ele>1214.009</ele><time>2026-08-22T23:00:02Z</time></trkpt><trkpt lat="45.311413" lon="-122.045288"><ele>1213.411</ele><time>2026-08-22T23:00:03Z</time></trkpt><trkpt lat="45.311408" lon="-122.045312"><ele>1212.657</ele><time>2026-08-22T23:00:04Z</time></trkpt><trkpt lat="45.3114" lon="-122.045372"><ele>1211.290</ele><time>2026-08-22T23:00:06Z</time></trkpt><trkpt lat="45.311387" lon="-122.045432"><ele>1210.024</ele><time>2026-08-22T23:00:08Z</time></trkpt><trkpt lat="45.311375" lon="-122.045488"><ele>1208.840</ele><time>2026-08-22T23:00:10Z</time></trkpt><trkpt lat="45.311353" lon="-122.045548"><ele>1208.010</ele><time>2026-08-22T23:00:12Z</time></trkpt><trkpt lat="45.311341" lon="-122.04558"><ele>1207.424</ele><time>2026-08-22T23:00:13Z</time></trkpt><trkpt lat="45.31132" lon="-122.045633"><ele>1206.285</ele><time>2026-08-22T23:00:15Z</time></trkpt><trkpt lat="45.311299" lon="-122.045678"><ele>1204.831</ele><time>2026-08-22T23:00:17Z</time></trkpt><trkpt lat="45.311276" lon="-122.045713"><ele>1204.268</ele><time>2026-08-22T23:00:19Z</time></trkpt><trkpt lat="45.311263" lon="-122.045729"><ele>1203.842</ele><time>2026-08-22T23:00:20Z</time></trkpt><trkpt lat="45.311238" lon="-122.0458"><ele>1202.826</ele><time>2026-08-22T23:00:23Z</time></trkpt><trkpt lat="45.311236" lon="-122.045852"><ele>1201.609</ele><time>2026-08-22T23:00:25Z</time></trkpt><trkpt lat="45.311239" lon="-122.045897"><ele>1200.868</ele><time>2026-08-22T23:00:27Z</time></trkpt><trkpt lat="45.311239" lon="-122.04591"><ele>1200.654</ele><time>2026-08-22T23:00:28Z</time></trkpt><trkpt lat="45.311241" lon="-122.045994"><ele>1199.447</ele><time>2026-08-22T23:00:32Z</time></trkpt><trkpt lat="45.311245" lon="-122.04605"><ele>1198.241</ele><time>2026-08-22T23:00:34Z</time></trkpt><trkpt lat="45.311247" lon="-122.046077"><ele>1197.667</ele><time>2026-08-22T23:00:35Z</time></trkpt><trkpt lat="45.311248" lon="-122.046105"><ele>1196.857</ele><time>2026-08-22T23:00:36Z</time></trkpt><trkpt lat="45.311246" lon="-122.046154"><ele>1195.661</ele><time>2026-08-22T23:00:38Z</time></trkpt><trkpt lat="45.311244" lon="-122.046209"><ele>1194.482</ele><time>2026-08-22T23:00:40Z</time></trkpt><trkpt lat="45.311226" lon="-122.046277"><ele>1193.258</ele><time>2026-08-22T23:00:44Z</time></trkpt><trkpt lat="45.3112" lon="-122.046339"><ele>1192.888</ele><time>2026-08-22T23:00:48Z</time></trkpt><trkpt lat="45.31118" lon="-122.04641"><ele>1192.224</ele><time>2026-08-22T23:00:52Z</time></trkpt><trkpt lat="45.311177" lon="-122.046428"><ele>1191.826</ele><time>2026-08-22T23:00:53Z</time></trkpt><trkpt lat="45.311156" lon="-122.04647"><ele>1191.009</ele><time>2026-08-22T23:00:56Z</time></trkpt><trkpt lat="45.311075" lon="-122.046532"><ele>1190.440</ele><time>2026-08-22T23:01:01Z</time></trkpt><trkpt lat="45.310994" lon="-122.046612"><ele>1189.896</ele><time>2026-08-22T23:01:04Z</time></trkpt><trkpt lat="45.310974" lon="-122.046657"><ele>1188.869</ele><time>2026-08-22T23:01:06Z</time></trkpt><trkpt lat="45.310967" lon="-122.046673"><ele>1188.423</ele><time>2026-08-22T23:01:07Z</time></trkpt><trkpt lat="45.310967" lon="-122.046754"><ele>1187.289</ele><time>2026-08-22T23:01:12Z</time></trkpt><trkpt lat="45.310947" lon="-122.046864"><ele>1186.049</ele><time>2026-08-22T23:01:17Z</time></trkpt><trkpt lat="45.310955" lon="-122.046917"><ele>1184.683</ele><time>2026-08-22T23:01:21Z</time></trkpt><trkpt lat="45.310959" lon="-122.046932"><ele>1184.424</ele><time>2026-08-22T23:01:22Z</time></trkpt><trkpt lat="45.310983" lon="-122.046979"><ele>1183.670</ele><time>2026-08-22T23:01:26Z</time></trkpt><trkpt lat="45.311024" lon="-122.047062"><ele>1183.483</ele><time>2026-08-22T23:01:32Z</time></trkpt><trkpt lat="45.311055" lon="-122.047155"><ele>1182.625</ele><time>2026-08-22T23:01:37Z</time></trkpt><trkpt lat="45.311062" lon="-122.047179"><ele>1181.817</ele><time>2026-08-22T23:01:39Z</time></trkpt><trkpt lat="45.311066" lon="-122.047192"><ele>1181.409</ele><time>2026-08-22T23:01:40Z</time></trkpt><trkpt lat="45.311071" lon="-122.047237"><ele>1180.470</ele><time>2026-08-22T23:01:45Z</time></trkpt><trkpt lat="45.311063" lon="-122.047328"><ele>1179.436</ele><time>2026-08-22T23:01:51Z</time></trkpt><trkpt lat="45.311065" lon="-122.047346"><ele>1179.259</ele><time>2026-08-22T23:01:52Z</time></trkpt><trkpt lat="45.311086" lon="-122.047448"><ele>1178.073</ele><time>2026-08-22T23:01:57Z</time></trkpt><trkpt lat="45.311096" lon="-122.047515"><ele>1177.699</ele><time>2026-08-22T23:02:00Z</time></trkpt><trkpt lat="45.311094" lon="-122.047582"><ele>1177.069</ele><time>2026-08-22T23:02:04Z</time></trkpt><trkpt lat="45.311084" lon="-122.047682"><ele>1176.423</ele><time>2026-08-22T23:02:09Z</time></trkpt><trkpt lat="45.311099" lon="-122.047727"><ele>1175.844</ele><time>2026-08-22T23:02:12Z</time></trkpt><trkpt lat="45.31112" lon="-122.047812"><ele>1175.020</ele><time>2026-08-22T23:02:16Z</time></trkpt><trkpt lat="45.311125" lon="-122.04784"><ele>1174.825</ele><time>2026-08-22T23:02:17Z</time></trkpt><trkpt lat="45.311142" lon="-122.047932"><ele>1173.626</ele><time>2026-08-22T23:02:20Z</time></trkpt><trkpt lat="45.311153" lon="-122.047992"><ele>1172.608</ele><time>2026-08-22T23:02:22Z</time></trkpt><trkpt lat="45.311162" lon="-122.048047"><ele>1171.609</ele><time>2026-08-22T23:02:24Z</time></trkpt><trkpt lat="45.311166" lon="-122.048066"><ele>1171.294</ele><time>2026-08-22T23:02:25Z</time></trkpt><trkpt lat="45.311184" lon="-122.048135"><ele>1170.240</ele><time>2026-08-22T23:02:29Z</time></trkpt><trkpt lat="45.311189" lon="-122.048172"><ele>1169.883</ele><time>2026-08-22T23:02:31Z</time></trkpt><trkpt lat="45.31124" lon="-122.048335"><ele>1169.677</ele><time>2026-08-22T23:02:40Z</time></trkpt><trkpt lat="45.311277" lon="-122.048391"><ele>1169.043</ele><time>2026-08-22T23:02:46Z</time></trkpt><trkpt lat="45.311296" lon="-122.048414"><ele>1168.843</ele><time>2026-08-22T23:02:48Z</time></trkpt><trkpt lat="45.311379" lon="-122.048547"><ele>1168.267</ele><time>2026-08-22T23:02:57Z</time></trkpt><trkpt lat="45.311393" lon="-122.048581"><ele>1168.028</ele><time>2026-08-22T23:03:00Z</time></trkpt><trkpt lat="45.311409" lon="-122.048656"><ele>1167.494</ele><time>2026-08-22T23:03:04Z</time></trkpt><trkpt lat="45.31142" lon="-122.048709"><ele>1166.896</ele><time>2026-08-22T23:03:07Z</time></trkpt><trkpt lat="45.31143" lon="-122.048763"><ele>1166.031</ele><time>2026-08-22T23:03:11Z</time></trkpt><trkpt lat="45.311433" lon="-122.048798"><ele>1165.624</ele><time>2026-08-22T23:03:14Z</time></trkpt><trkpt lat="45.311445" lon="-122.048889"><ele>1165.809</ele><time>2026-08-22T23:03:19Z</time></trkpt><trkpt lat="45.311501" lon="-122.048977"><ele>1164.421</ele><time>2026-08-22T23:03:26Z</time></trkpt><trkpt lat="45.311542" lon="-122.048995"><ele>1164.017</ele><time>2026-08-22T23:03:29Z</time></trkpt><trkpt lat="45.311564" lon="-122.049015"><ele>1163.440</ele><time>2026-08-22T23:03:31Z</time></trkpt><trkpt lat="45.311604" lon="-122.049059"><ele>1162.484</ele><time>2026-08-22T23:03:35Z</time></trkpt><trkpt lat="45.311616" lon="-122.049074"><ele>1162.260</ele><time>2026-08-22T23:03:37Z</time></trkpt><trkpt lat="45.311643" lon="-122.04911"><ele>1162.090</ele><time>2026-08-22T23:03:40Z</time></trkpt><trkpt lat="45.311677" lon="-122.049142"><ele>1161.274</ele><time>2026-08-22T23:03:43Z</time></trkpt><trkpt lat="45.311711" lon="-122.049185"><ele>1160.295</ele><time>2026-08-22T23:03:46Z</time></trkpt><trkpt lat="45.311721" lon="-122.0492"><ele>1160.051</ele><time>2026-08-22T23:03:47Z</time></trkpt><trkpt lat="45.311771" lon="-122.049313"><ele>1159.294</ele><time>2026-08-22T23:03:54Z</time></trkpt><trkpt lat="45.311777" lon="-122.049328"><ele>1159.057</ele><time>2026-08-22T23:03:55Z</time></trkpt><trkpt lat="45.311826" lon="-122.049442"><ele>1157.822</ele><time>2026-08-22T23:04:03Z</time></trkpt><trkpt lat="45.311833" lon="-122.049459"><ele>1157.609</ele><time>2026-08-22T23:04:04Z</time></trkpt><trkpt lat="45.311833" lon="-122.049599"><ele>1158.811</ele><time>2026-08-22T23:04:13Z</time></trkpt><trkpt lat="45.311833" lon="-122.049621"><ele>1159.047</ele><time>2026-08-22T23:04:14Z</time></trkpt><trkpt lat="45.311831" lon="-122.049744"><ele>1159.490</ele><time>2026-08-22T23:04:22Z</time></trkpt><trkpt lat="45.31181" lon="-122.049803"><ele>1159.854</ele><time>2026-08-22T23:04:26Z</time></trkpt><trkpt lat="45.311785" lon="-122.049849"><ele>1160.620</ele><time>2026-08-22T23:04:31Z</time></trkpt><trkpt lat="45.311783" lon="-122.049854"><ele>1160.680</ele><time>2026-08-22T23:04:32Z</time></trkpt><trkpt lat="45.311763" lon="-122.049906"><ele>1161.024</ele><time>2026-08-22T23:04:35Z</time></trkpt><trkpt lat="45.311748" lon="-122.04999"><ele>1161.665</ele><time>2026-08-22T23:04:39Z</time></trkpt><trkpt lat="45.311748" lon="-122.050013"><ele>1161.661</ele><time>2026-08-22T23:04:40Z</time></trkpt><trkpt lat="45.311795" lon="-122.050124"><ele>1160.827</ele><time>2026-08-22T23:04:47Z</time></trkpt><trkpt lat="45.311816" lon="-122.050167"><ele>1160.668</ele><time>2026-08-22T23:04:49Z</time></trkpt><trkpt lat="45.311826" lon="-122.050185"><ele>1160.414</ele><time>2026-08-22T23:04:50Z</time></trkpt><trkpt lat="45.311848" lon="-122.050227"><ele>1160.209</ele><time>2026-08-22T23:04:52Z</time></trkpt><trkpt lat="45.311856" lon="-122.050243"><ele>1159.824</ele><time>2026-08-22T23:04:53Z</time></trkpt><trkpt lat="45.311878" lon="-122.050282"><ele>1159.070</ele><time>2026-08-22T23:04:56Z</time></trkpt><trkpt lat="45.311892" lon="-122.050314"><ele>1158.853</ele><time>2026-08-22T23:04:58Z</time></trkpt><trkpt lat="45.31195" lon="-122.050415"><ele>1157.867</ele><time>2026-08-22T23:05:05Z</time></trkpt><trkpt lat="45.312016" lon="-122.050456"><ele>1157.813</ele><time>2026-08-22T23:05:09Z</time></trkpt><trkpt lat="45.312062" lon="-122.050478"><ele>1156.643</ele><time>2026-08-22T23:05:13Z</time></trkpt><trkpt lat="45.312185" lon="-122.050587"><ele>1155.657</ele><time>2026-08-22T23:05:22Z</time></trkpt><trkpt lat="45.312195" lon="-122.050602"><ele>1155.478</ele><time>2026-08-22T23:05:23Z</time></trkpt><trkpt lat="45.312231" lon="-122.050651"><ele>1154.474</ele><time>2026-08-22T23:05:28Z</time></trkpt><trkpt lat="45.312252" lon="-122.050701"><ele>1153.638</ele><time>2026-08-22T23:05:32Z</time></trkpt><trkpt lat="45.312256" lon="-122.050715"><ele>1153.670</ele><time>2026-08-22T23:05:33Z</time></trkpt><trkpt lat="45.312276" lon="-122.050747"><ele>1153.417</ele><time>2026-08-22T23:05:36Z</time></trkpt><trkpt lat="45.312336" lon="-122.050794"><ele>1152.209</ele><time>2026-08-22T23:05:41Z</time></trkpt><trkpt lat="45.312392" lon="-122.050839"><ele>1151.015</ele><time>2026-08-22T23:05:46Z</time></trkpt><trkpt lat="45.31245" lon="-122.050873"><ele>1150.061</ele><time>2026-08-22T23:05:51Z</time></trkpt><trkpt lat="45.31251" lon="-122.050924"><ele>1149.064</ele><time>2026-08-22T23:05:57Z</time></trkpt><trkpt lat="45.312533" lon="-122.050942"><ele>1148.478</ele><time>2026-08-22T23:05:59Z</time></trkpt><trkpt lat="45.312567" lon="-122.050983"><ele>1148.094</ele><time>2026-08-22T23:06:02Z</time></trkpt><trkpt lat="45.312611" lon="-122.051048"><ele>1147.244</ele><time>2026-08-22T23:06:07Z</time></trkpt><trkpt lat="45.312634" lon="-122.051094"><ele>1146.818</ele><time>2026-08-22T23:06:10Z</time></trkpt><trkpt lat="45.312697" lon="-122.051174"><ele>1145.649</ele><time>2026-08-22T23:06:17Z</time></trkpt><trkpt lat="45.312711" lon="-122.051181"><ele>1145.635</ele><time>2026-08-22T23:06:18Z</time></trkpt><trkpt lat="45.312801" lon="-122.051202"><ele>1144.632</ele><time>2026-08-22T23:06:24Z</time></trkpt><trkpt lat="45.312822" lon="-122.051215"><ele>1144.492</ele><time>2026-08-22T23:06:26Z</time></trkpt><trkpt lat="45.312875" lon="-122.05127"><ele>1144.011</ele><time>2026-08-22T23:06:31Z</time></trkpt><trkpt lat="45.312898" lon="-122.051356"><ele>1143.809</ele><time>2026-08-22T23:06:36Z</time></trkpt><trkpt lat="45.312908" lon="-122.051382"><ele>1143.645</ele><time>2026-08-22T23:06:38Z</time></trkpt><trkpt lat="45.312935" lon="-122.051439"><ele>1142.661</ele><time>2026-08-22T23:06:44Z</time></trkpt><trkpt lat="45.312951" lon="-122.051453"><ele>1142.294</ele><time>2026-08-22T23:06:46Z</time></trkpt><trkpt lat="45.313033" lon="-122.051501"><ele>1141.438</ele><time>2026-08-22T23:06:52Z</time></trkpt><trkpt lat="45.313058" lon="-122.051496"><ele>1141.264</ele><time>2026-08-22T23:06:54Z</time></trkpt><trkpt lat="45.313141" lon="-122.051494"><ele>1140.254</ele><time>2026-08-22T23:07:00Z</time></trkpt><trkpt lat="45.313172" lon="-122.051497"><ele>1140.028</ele><time>2026-08-22T23:07:02Z</time></trkpt><trkpt lat="45.313256" lon="-122.051478"><ele>1139.279</ele><time>2026-08-22T23:07:08Z</time></trkpt><trkpt lat="45.313284" lon="-122.05148"><ele>1138.465</ele><time>2026-08-22T23:07:11Z</time></trkpt><trkpt lat="45.313307" lon="-122.051497"><ele>1138.253</ele><time>2026-08-22T23:07:13Z</time></trkpt><trkpt lat="45.313364" lon="-122.051527"><ele>1137.204</ele><time>2026-08-22T23:07:19Z</time></trkpt><trkpt lat="45.313374" lon="-122.051528"><ele>1136.814</ele><time>2026-08-22T23:07:20Z</time></trkpt><trkpt lat="45.313416" lon="-122.051546"><ele>1136.009</ele><time>2026-08-22T23:07:24Z</time></trkpt><trkpt lat="45.31347" lon="-122.051568"><ele>1135.047</ele><time>2026-08-22T23:07:28Z</time></trkpt><trkpt lat="45.313482" lon="-122.051572"><ele>1134.863</ele><time>2026-08-22T23:07:29Z</time></trkpt><trkpt lat="45.313532" lon="-122.051602"><ele>1133.876</ele><time>2026-08-22T23:07:34Z</time></trkpt><trkpt lat="45.313562" lon="-122.051638"><ele>1133.430</ele><time>2026-08-22T23:07:37Z</time></trkpt><trkpt lat="45.313616" lon="-122.05177"><ele>1132.666</ele><time>2026-08-22T23:07:45Z</time></trkpt><trkpt lat="45.313663" lon="-122.051797"><ele>1131.646</ele><time>2026-08-22T23:07:50Z</time></trkpt><trkpt lat="45.313703" lon="-122.05181"><ele>1131.290</ele><time>2026-08-22T23:07:54Z</time></trkpt><trkpt lat="45.313732" lon="-122.051828"><ele>1130.681</ele><time>2026-08-22T23:07:57Z</time></trkpt><trkpt lat="45.313767" lon="-122.051858"><ele>1129.837</ele><time>2026-08-22T23:08:00Z</time></trkpt><trkpt lat="45.313794" lon="-122.051889"><ele>1129.461</ele><time>2026-08-22T23:08:02Z</time></trkpt><trkpt lat="45.313806" lon="-122.051903"><ele>1129.221</ele><time>2026-08-22T23:08:03Z</time></trkpt><trkpt lat="45.313818" lon="-122.051922"><ele>1129.013</ele><time>2026-08-22T23:08:04Z</time></trkpt><trkpt lat="45.313852" lon="-122.051984"><ele>1128.209</ele><time>2026-08-22T23:08:08Z</time></trkpt><trkpt lat="45.313871" lon="-122.052074"><ele>1127.698</ele><time>2026-08-22T23:08:13Z</time></trkpt><trkpt lat="45.313878" lon="-122.052105"><ele>1127.274</ele><time>2026-08-22T23:08:15Z</time></trkpt><trkpt lat="45.313894" lon="-122.052215"><ele>1126.217</ele><time>2026-08-22T23:08:22Z</time></trkpt><trkpt lat="45.313898" lon="-122.052257"><ele>1126.241</ele><time>2026-08-22T23:08:24Z</time></trkpt><trkpt lat="45.313926" lon="-122.052385"><ele>1125.287</ele><time>2026-08-22T23:08:31Z</time></trkpt><trkpt lat="45.313931" lon="-122.052404"><ele>1124.887</ele><time>2026-08-22T23:08:32Z</time></trkpt><trkpt lat="45.313944" lon="-122.05247"><ele>1124.041</ele><time>2026-08-22T23:08:35Z</time></trkpt><trkpt lat="45.313962" lon="-122.052538"><ele>1123.432</ele><time>2026-08-22T23:08:39Z</time></trkpt><trkpt lat="45.313976" lon="-122.052572"><ele>1123.058</ele><time>2026-08-22T23:08:42Z</time></trkpt><trkpt lat="45.314032" lon="-122.052683"><ele>1121.842</ele><time>2026-08-22T23:08:49Z</time></trkpt><trkpt lat="45.314046" lon="-122.052725"><ele>1121.222</ele><time>2026-08-22T23:08:52Z</time></trkpt><trkpt lat="45.314062" lon="-122.052752"><ele>1120.614</ele><time>2026-08-22T23:08:54Z</time></trkpt><trkpt lat="45.314078" lon="-122.052781"><ele>1120.009</ele><time>2026-08-22T23:08:56Z</time></trkpt><trkpt lat="45.314084" lon="-122.052795"><ele>1119.646</ele><time>2026-08-22T23:08:57Z</time></trkpt><trkpt lat="45.314092" lon="-122.05281"><ele>1119.272</ele><time>2026-08-22T23:08:58Z</time></trkpt><trkpt lat="45.314118" lon="-122.052871"><ele>1118.655</ele><time>2026-08-22T23:09:02Z</time></trkpt><trkpt lat="45.314146" lon="-122.052941"><ele>1118.019</ele><time>2026-08-22T23:09:07Z</time></trkpt><trkpt lat="45.314157" lon="-122.052982"><ele>1117.435</ele><time>2026-08-22T23:09:10Z</time></trkpt><trkpt lat="45.314164" lon="-122.053012"><ele>1117.255</ele><time>2026-08-22T23:09:12Z</time></trkpt><trkpt lat="45.314196" lon="-122.053112"><ele>1116.449</ele><time>2026-08-22T23:09:20Z</time></trkpt><trkpt lat="45.314199" lon="-122.05313"><ele>1116.220</ele><time>2026-08-22T23:09:21Z</time></trkpt><trkpt lat="45.314246" lon="-122.053253"><ele>1115.636</ele><time>2026-08-22T23:09:29Z</time></trkpt><trkpt lat="45.314253" lon="-122.053267"><ele>1115.652</ele><time>2026-08-22T23:09:30Z</time></trkpt><trkpt lat="45.314302" lon="-122.053308"><ele>1115.253</ele><time>2026-08-22T23:09:35Z</time></trkpt><trkpt lat="45.314356" lon="-122.053355"><ele>1114.808</ele><time>2026-08-22T23:09:39Z</time></trkpt><trkpt lat="45.314418" lon="-122.053459"><ele>1114.409</ele><time>2026-08-22T23:09:47Z</time></trkpt><trkpt lat="45.314425" lon="-122.053467"><ele>1114.227</ele><time>2026-08-22T23:09:48Z</time></trkpt><trkpt lat="45.314472" lon="-122.053531"><ele>1113.253</ele><time>2026-08-22T23:09:53Z</time></trkpt><trkpt lat="45.314481" lon="-122.053544"><ele>1112.816</ele><time>2026-08-22T23:09:54Z</time></trkpt><trkpt lat="45.314508" lon="-122.053589"><ele>1111.890</ele><time>2026-08-22T23:09:57Z</time></trkpt><trkpt lat="45.314531" lon="-122.053645"><ele>1111.036</ele><time>2026-08-22T23:10:01Z</time></trkpt><trkpt lat="45.314538" lon="-122.053662"><ele>1110.836</ele><time>2026-08-22T23:10:02Z</time></trkpt><trkpt lat="45.314545" lon="-122.053674"><ele>1110.820</ele><time>2026-08-22T23:10:03Z</time></trkpt><trkpt lat="45.31456" lon="-122.053703"><ele>1110.471</ele><time>2026-08-22T23:10:05Z</time></trkpt><trkpt lat="45.314617" lon="-122.053762"><ele>1109.867</ele><time>2026-08-22T23:10:11Z</time></trkpt><trkpt lat="45.314632" lon="-122.053782"><ele>1109.626</ele><time>2026-08-22T23:10:13Z</time></trkpt><trkpt lat="45.314679" lon="-122.05389"><ele>1108.647</ele><time>2026-08-22T23:10:22Z</time></trkpt><trkpt lat="45.314685" lon="-122.053897"><ele>1108.611</ele><time>2026-08-22T23:10:23Z</time></trkpt><trkpt lat="45.314683" lon="-122.054063"><ele>1107.409</ele><time>2026-08-22T23:10:30Z</time></trkpt><trkpt lat="45.314697" lon="-122.05421"><ele>1106.284</ele><time>2026-08-22T23:10:36Z</time></trkpt><trkpt lat="45.314692" lon="-122.054268"><ele>1105.890</ele><time>2026-08-22T23:10:39Z</time></trkpt><trkpt lat="45.31468" lon="-122.054309"><ele>1105.283</ele><time>2026-08-22T23:10:42Z</time></trkpt><trkpt lat="45.31466" lon="-122.054385"><ele>1104.827</ele><time>2026-08-22T23:10:47Z</time></trkpt><trkpt lat="45.314663" lon="-122.054435"><ele>1104.263</ele><time>2026-08-22T23:10:50Z</time></trkpt><trkpt lat="45.314673" lon="-122.054536"><ele>1103.083</ele><time>2026-08-22T23:10:55Z</time></trkpt><trkpt lat="45.314674" lon="-122.05456"><ele>1103.017</ele><time>2026-08-22T23:10:56Z</time></trkpt><trkpt lat="45.314666" lon="-122.054644"><ele>1102.058</ele><time>2026-08-22T23:11:02Z</time></trkpt><trkpt lat="45.314666" lon="-122.054693"><ele>1101.694</ele><time>2026-08-22T23:11:04Z</time></trkpt><trkpt lat="45.314662" lon="-122.054762"><ele>1100.894</ele><time>2026-08-22T23:11:07Z</time></trkpt><trkpt lat="45.314656" lon="-122.054841"><ele>1100.857</ele><time>2026-08-22T23:11:11Z</time></trkpt><trkpt lat="45.314674" lon="-122.05492"><ele>1099.822</ele><time>2026-08-22T23:11:16Z</time></trkpt><trkpt lat="45.314673" lon="-122.054934"><ele>1099.409</ele><time>2026-08-22T23:11:17Z</time></trkpt><trkpt lat="45.314661" lon="-122.054979"><ele>1098.411</ele><time>2026-08-22T23:11:20Z</time></trkpt><trkpt lat="45.314636" lon="-122.05506"><ele>1097.687</ele><time>2026-08-22T23:11:24Z</time></trkpt><trkpt lat="45.314635" lon="-122.05509"><ele>1097.410</ele><time>2026-08-22T23:11:26Z</time></trkpt><trkpt lat="45.314625" lon="-122.055211"><ele>1096.484</ele><time>2026-08-22T23:11:32Z</time></trkpt><trkpt lat="45.314634" lon="-122.055267"><ele>1096.040</ele><time>2026-08-22T23:11:34Z</time></trkpt><trkpt lat="45.314686" lon="-122.055413"><ele>1095.840</ele><time>2026-08-22T23:11:42Z</time></trkpt><trkpt lat="45.314725" lon="-122.055471"><ele>1095.434</ele><time>2026-08-22T23:11:45Z</time></trkpt><trkpt lat="45.314766" lon="-122.055529"><ele>1094.235</ele><time>2026-08-22T23:11:49Z</time></trkpt><trkpt lat="45.314774" lon="-122.05554"><ele>1094.021</ele><time>2026-08-22T23:11:50Z</time></trkpt><trkpt lat="45.314837" lon="-122.055637"><ele>1093.214</ele><time>2026-08-22T23:11:58Z</time></trkpt><trkpt lat="45.31486" lon="-122.055686"><ele>1092.654</ele><time>2026-08-22T23:12:01Z</time></trkpt><trkpt lat="45.314901" lon="-122.055743"><ele>1092.409</ele><time>2026-08-22T23:12:06Z</time></trkpt><trkpt lat="45.314941" lon="-122.055818"><ele>1092.209</ele><time>2026-08-22T23:12:11Z</time></trkpt><trkpt lat="45.314947" lon="-122.05583"><ele>1092.053</ele><time>2026-08-22T23:12:12Z</time></trkpt><trkpt lat="45.315003" lon="-122.055941"><ele>1091.069</ele><time>2026-08-22T23:12:19Z</time></trkpt><trkpt lat="45.315046" lon="-122.055979"><ele>1091.022</ele><time>2026-08-22T23:12:23Z</time></trkpt><trkpt lat="45.31514" lon="-122.056068"><ele>1090.236</ele><time>2026-08-22T23:12:34Z</time></trkpt><trkpt lat="45.315169" lon="-122.056101"><ele>1090.062</ele><time>2026-08-22T23:12:37Z</time></trkpt><trkpt lat="45.315258" lon="-122.056146"><ele>1089.012</ele><time>2026-08-22T23:12:45Z</time></trkpt><trkpt lat="45.315353" lon="-122.056102"><ele>1089.886</ele><time>2026-08-22T23:12:54Z</time></trkpt><trkpt lat="45.315455" lon="-122.056009"><ele>1090.027</ele><time>2026-08-22T23:13:03Z</time></trkpt><trkpt lat="45.315478" lon="-122.055992"><ele>1090.053</ele><time>2026-08-22T23:13:05Z</time></trkpt><trkpt lat="45.31551" lon="-122.055983"><ele>1090.255</ele><time>2026-08-22T23:13:08Z</time></trkpt><trkpt lat="45.315527" lon="-122.055999"><ele>1090.007</ele><time>2026-08-22T23:13:10Z</time></trkpt><trkpt lat="45.315544" lon="-122.056013"><ele>1089.817</ele><time>2026-08-22T23:13:13Z</time></trkpt><trkpt lat="45.315606" lon="-122.056013"><ele>1089.009</ele><time>2026-08-22T23:13:18Z</time></trkpt><trkpt lat="45.315648" lon="-122.056012"><ele>1088.877</ele><time>2026-08-22T23:13:21Z</time></trkpt><trkpt lat="45.315725" lon="-122.05606"><ele>1088.253</ele><time>2026-08-22T23:13:29Z</time></trkpt><trkpt lat="45.31575" lon="-122.056099"><ele>1087.856</ele><time>2026-08-22T23:13:32Z</time></trkpt><trkpt lat="45.315804" lon="-122.056181"><ele>1087.040</ele><time>2026-08-22T23:13:38Z</time></trkpt><trkpt lat="45.315811" lon="-122.056192"><ele>1086.866</ele><time>2026-08-22T23:13:39Z</time></trkpt><trkpt lat="45.315852" lon="-122.056255"><ele>1085.846</ele><time>2026-08-22T23:13:45Z</time></trkpt><trkpt lat="45.31588" lon="-122.05628"><ele>1085.610</ele><time>2026-08-22T23:13:48Z</time></trkpt><trkpt lat="45.315962" lon="-122.056314"><ele>1084.821</ele><time>2026-08-22T23:13:54Z</time></trkpt><trkpt lat="45.315988" lon="-122.056321"><ele>1084.217</ele><time>2026-08-22T23:13:56Z</time></trkpt><trkpt lat="45.316023" lon="-122.05633"><ele>1083.448</ele><time>2026-08-22T23:13:59Z</time></trkpt><trkpt lat="45.316061" lon="-122.056379"><ele>1082.861</ele><time>2026-08-22T23:14:05Z</time></trkpt><trkpt lat="45.31609" lon="-122.05642"><ele>1082.217</ele><time>2026-08-22T23:14:09Z</time></trkpt><trkpt lat="45.316119" lon="-122.056442"><ele>1081.009</ele><time>2026-08-22T23:14:13Z</time></trkpt><trkpt lat="45.31621" lon="-122.056457"><ele>1080.046</ele><time>2026-08-22T23:14:22Z</time></trkpt><trkpt lat="45.316221" lon="-122.056455"><ele>1079.852</ele><time>2026-08-22T23:14:23Z</time></trkpt><trkpt lat="45.316271" lon="-122.056455"><ele>1078.835</ele><time>2026-08-22T23:14:29Z</time></trkpt><trkpt lat="45.316296" lon="-122.05646"><ele>1078.419</ele><time>2026-08-22T23:14:32Z</time></trkpt><trkpt lat="45.316339" lon="-122.056491"><ele>1077.885</ele><time>2026-08-22T23:14:36Z</time></trkpt><trkpt lat="45.316384" lon="-122.056518"><ele>1077.665</ele><time>2026-08-22T23:14:40Z</time></trkpt><trkpt lat="45.316458" lon="-122.056534"><ele>1076.859</ele><time>2026-08-22T23:14:46Z</time></trkpt><trkpt lat="45.316484" lon="-122.056536"><ele>1076.490</ele><time>2026-08-22T23:14:48Z</time></trkpt><trkpt lat="45.316512" lon="-122.056556"><ele>1075.886</ele><time>2026-08-22T23:14:51Z</time></trkpt><trkpt lat="45.316558" lon="-122.056593"><ele>1075.464</ele><time>2026-08-22T23:14:56Z</time></trkpt><trkpt lat="45.316626" lon="-122.05676"><ele>1075.806</ele><time>2026-08-22T23:15:06Z</time></trkpt><trkpt lat="45.316685" lon="-122.056903"><ele>1076.216</ele><time>2026-08-22T23:15:16Z</time></trkpt><trkpt lat="45.316693" lon="-122.056946"><ele>1076.209</ele><time>2026-08-22T23:15:19Z</time></trkpt><trkpt lat="45.316716" lon="-122.057045"><ele>1076.238</ele><time>2026-08-22T23:15:24Z</time></trkpt><trkpt lat="45.316775" lon="-122.057127"><ele>1076.244</ele><time>2026-08-22T23:15:31Z</time></trkpt><trkpt lat="45.316789" lon="-122.057146"><ele>1076.047</ele><time>2026-08-22T23:15:33Z</time></trkpt><trkpt lat="45.316801" lon="-122.057173"><ele>1075.851</ele><time>2026-08-22T23:15:36Z</time></trkpt><trkpt lat="45.316827" lon="-122.057257"><ele>1075.857</ele><time>2026-08-22T23:15:43Z</time></trkpt><trkpt lat="45.31686" lon="-122.057401"><ele>1075.057</ele><time>2026-08-22T23:15:54Z</time></trkpt><trkpt lat="45.316822" lon="-122.057523"><ele>1074.811</ele><time>2026-08-22T23:16:02Z</time></trkpt><trkpt lat="45.316811" lon="-122.057552"><ele>1074.682</ele><time>2026-08-22T23:16:04Z</time></trkpt><trkpt lat="45.316792" lon="-122.057599"><ele>1074.078</ele><time>2026-08-22T23:16:09Z</time></trkpt><trkpt lat="45.31679" lon="-122.057613"><ele>1073.873</ele><time>2026-08-22T23:16:11Z</time></trkpt><trkpt lat="45.31679" lon="-122.057643"><ele>1073.685</ele><time>2026-08-22T23:16:13Z</time></trkpt><trkpt lat="45.316779" lon="-122.057736"><ele>1073.413</ele><time>2026-08-22T23:16:17Z</time></trkpt><trkpt lat="45.316762" lon="-122.057806"><ele>1072.809</ele><time>2026-08-22T23:16:22Z</time></trkpt><trkpt lat="45.316748" lon="-122.057883"><ele>1072.859</ele><time>2026-08-22T23:16:29Z</time></trkpt><trkpt lat="45.316742" lon="-122.057938"><ele>1072.835</ele><time>2026-08-22T23:16:32Z</time></trkpt><trkpt lat="45.316746" lon="-122.05801"><ele>1072.688</ele><time>2026-08-22T23:16:35Z</time></trkpt><trkpt lat="45.316754" lon="-122.058064"><ele>1072.212</ele><time>2026-08-22T23:16:38Z</time></trkpt><trkpt lat="45.316772" lon="-122.058153"><ele>1071.468</ele><time>2026-08-22T23:16:44Z</time></trkpt><trkpt lat="45.316804" lon="-122.058191"><ele>1070.648</ele><time>2026-08-22T23:16:48Z</time></trkpt><trkpt lat="45.316829" lon="-122.058213"><ele>1070.652</ele><time>2026-08-22T23:16:50Z</time></trkpt><trkpt lat="45.316857" lon="-122.05824"><ele>1070.433</ele><time>2026-08-22T23:16:52Z</time></trkpt><trkpt lat="45.316929" lon="-122.058303"><ele>1069.619</ele><time>2026-08-22T23:16:58Z</time></trkpt><trkpt lat="45.317014" lon="-122.058383"><ele>1069.445</ele><time>2026-08-22T23:17:05Z</time></trkpt><trkpt lat="45.317037" lon="-122.058399"><ele>1069.447</ele><time>2026-08-22T23:17:07Z</time></trkpt><trkpt lat="45.317066" lon="-122.058427"><ele>1069.611</ele><time>2026-08-22T23:17:10Z</time></trkpt><trkpt lat="45.317131" lon="-122.058497"><ele>1068.209</ele><time>2026-08-22T23:17:16Z</time></trkpt><trkpt lat="45.317143" lon="-122.05851"><ele>1068.076</ele><time>2026-08-22T23:17:17Z</time></trkpt><trkpt lat="45.317183" lon="-122.058578"><ele>1067.252</ele><time>2026-08-22T23:17:22Z</time></trkpt><trkpt lat="45.317208" lon="-122.058613"><ele>1066.695</ele><time>2026-08-22T23:17:25Z</time></trkpt><trkpt lat="45.317216" lon="-122.058626"><ele>1066.499</ele><time>2026-08-22T23:17:26Z</time></trkpt><trkpt lat="45.317229" lon="-122.058647"><ele>1066.025</ele><time>2026-08-22T23:17:28Z</time></trkpt><trkpt lat="45.317276" lon="-122.058731"><ele>1064.825</ele><time>2026-08-22T23:17:33Z</time></trkpt><trkpt lat="45.317291" lon="-122.058757"><ele>1064.429</ele><time>2026-08-22T23:17:35Z</time></trkpt><trkpt lat="45.317316" lon="-122.058804"><ele>1064.410</ele><time>2026-08-22T23:17:41Z</time></trkpt><trkpt lat="45.317323" lon="-122.058831"><ele>1064.636</ele><time>2026-08-22T23:17:44Z</time></trkpt><trkpt lat="45.317376" lon="-122.058878"><ele>1063.635</ele><time>2026-08-22T23:17:50Z</time></trkpt><trkpt lat="45.317402" lon="-122.058903"><ele>1062.886</ele><time>2026-08-22T23:17:52Z</time></trkpt><trkpt lat="45.317412" lon="-122.058912"><ele>1062.414</ele><time>2026-08-22T23:17:53Z</time></trkpt><trkpt lat="45.317468" lon="-122.058999"><ele>1061.209</ele><time>2026-08-22T23:18:01Z</time></trkpt><trkpt lat="45.317516" lon="-122.059067"><ele>1060.275</ele><time>2026-08-22T23:18:07Z</time></trkpt><trkpt lat="45.317533" lon="-122.059093"><ele>1059.861</ele><time>2026-08-22T23:18:10Z</time></trkpt><trkpt lat="45.317589" lon="-122.059132"><ele>1059.034</ele><time>2026-08-22T23:18:16Z</time></trkpt><trkpt lat="45.317623" lon="-122.059154"><ele>1058.448</ele><time>2026-08-22T23:18:19Z</time></trkpt><trkpt lat="45.317647" lon="-122.059176"><ele>1057.864</ele><time>2026-08-22T23:18:21Z</time></trkpt><trkpt lat="45.317724" lon="-122.059268"><ele>1057.054</ele><time>2026-08-22T23:18:28Z</time></trkpt><trkpt lat="45.317732" lon="-122.059278"><ele>1056.818</ele><time>2026-08-22T23:18:29Z</time></trkpt><trkpt lat="45.317806" lon="-122.05935"><ele>1056.229</ele><time>2026-08-22T23:18:36Z</time></trkpt><trkpt lat="45.317857" lon="-122.059384"><ele>1055.675</ele><time>2026-08-22T23:18:40Z</time></trkpt><trkpt lat="45.317877" lon="-122.059395"><ele>1055.659</ele><time>2026-08-22T23:18:42Z</time></trkpt><trkpt lat="45.317889" lon="-122.059398"><ele>1055.403</ele><time>2026-08-22T23:18:44Z</time></trkpt><trkpt lat="45.317888" lon="-122.059395"><ele>1055.423</ele><time>2026-08-22T23:18:45Z</time></trkpt><trkpt lat="45.317875" lon="-122.059387"><ele>1055.409</ele><time>2026-08-22T23:18:54Z</time></trkpt><trkpt lat="45.317885" lon="-122.059371"><ele>1054.867</ele><time>2026-08-22T23:19:02Z</time></trkpt><trkpt lat="45.317888" lon="-122.059368"><ele>1054.693</ele><time>2026-08-22T23:19:03Z</time></trkpt><trkpt lat="45.317881" lon="-122.059379"><ele>1055.276</ele><time>2026-08-22T23:19:12Z</time></trkpt><trkpt lat="45.31788" lon="-122.059381"><ele>1055.220</ele><time>2026-08-22T23:19:13Z</time></trkpt><trkpt lat="45.317878" lon="-122.05942"><ele>1055.066</ele><time>2026-08-22T23:19:22Z</time></trkpt><trkpt lat="45.317912" lon="-122.059403"><ele>1054.676</ele><time>2026-08-22T23:19:28Z</time></trkpt><trkpt lat="45.317929" lon="-122.059357"><ele>1055.070</ele><time>2026-08-22T23:19:37Z</time></trkpt><trkpt lat="45.317939" lon="-122.059342"><ele>1054.881</ele><time>2026-08-22T23:19:47Z</time></trkpt><trkpt lat="45.317952" lon="-122.05936"><ele>1055.267</ele><time>2026-08-22T23:19:59Z</time></trkpt><trkpt lat="45.317942" lon="-122.059374"><ele>1055.643</ele><time>2026-08-22T23:20:03Z</time></trkpt><trkpt lat="45.317916" lon="-122.059396"><ele>1055.664</ele><time>2026-08-22T23:20:10Z</time></trkpt><trkpt lat="45.317912" lon="-122.059394"><ele>1055.410</ele><time>2026-08-22T23:20:11Z</time></trkpt><trkpt lat="45.317894" lon="-122.05939"><ele>1055.409</ele><time>2026-08-22T23:20:14Z</time></trkpt><trkpt lat="45.317897" lon="-122.059368"><ele>1055.626</ele><time>2026-08-22T23:20:21Z</time></trkpt><trkpt lat="45.317907" lon="-122.059378"><ele>1054.442</ele><time>2026-08-22T23:20:30Z</time></trkpt><trkpt lat="45.31791" lon="-122.059379"><ele>1054.285</ele><time>2026-08-22T23:20:31Z</time></trkpt><trkpt lat="45.317921" lon="-122.059382"><ele>1054.279</ele><time>2026-08-22T23:20:35Z</time></trkpt><trkpt lat="45.31791" lon="-122.059388"><ele>1054.445</ele><time>2026-08-22T23:20:42Z</time></trkpt><trkpt lat="45.31791" lon="-122.059387"><ele>1054.455</ele><time>2026-08-22T23:20:44Z</time></trkpt><trkpt lat="45.317909" lon="-122.059385"><ele>1054.459</ele><time>2026-08-22T23:20:45Z</time></trkpt></trkseg></trk></gpx>