<?xml version="1.0" encoding="UTF-8"?><gpx creator="Wikiloc - http://www.wikiloc.com" version="1.1" xmlns="http://www.topografix.com/GPX/1/1" xmlns:xsi="http://www.w3.org/2001/XMLSchema-instance" xsi:schemaLocation="http://www.topografix.com/GPX/1/1 http://www.topografix.com/GPX/1/1/gpx.xsd"><trk><name><![CDATA[Olympic National Park: Second Beach]]></name><cmt><![CDATA[La Push]]></cmt><desc><![CDATA[La Push]]></desc><trkseg><trkpt lat="47.898149" lon="-124.621018"><ele>52.638</ele><time>2026-08-20T17:13:07Z</time></trkpt><trkpt lat="47.898137" lon="-124.621036"><ele>52.670</ele><time>2026-08-20T17:13:08Z</time></trkpt><trkpt lat="47.898124" lon="-124.621075"><ele>52.417</ele><time>2026-08-20T17:13:11Z</time></trkpt><trkpt lat="47.898118" lon="-124.621112"><ele>52.009</ele><time>2026-08-20T17:13:13Z</time></trkpt><trkpt lat="47.898121" lon="-124.621196"><ele>51.825</ele><time>2026-08-20T17:13:18Z</time></trkpt><trkpt lat="47.89812" lon="-124.621223"><ele>51.471</ele><time>2026-08-20T17:13:20Z</time></trkpt><trkpt lat="47.898114" lon="-124.621236"><ele>51.464</ele><time>2026-08-20T17:13:21Z</time></trkpt><trkpt lat="47.898098" lon="-124.621315"><ele>50.673</ele><time>2026-08-20T17:13:27Z</time></trkpt><trkpt lat="47.898098" lon="-124.621329"><ele>50.689</ele><time>2026-08-20T17:13:28Z</time></trkpt><trkpt lat="47.898094" lon="-124.621422"><ele>50.493</ele><time>2026-08-20T17:13:35Z</time></trkpt><trkpt lat="47.898093" lon="-124.621571"><ele>49.811</ele><time>2026-08-20T17:13:44Z</time></trkpt><trkpt lat="47.898094" lon="-124.621634"><ele>49.491</ele><time>2026-08-20T17:13:49Z</time></trkpt><trkpt lat="47.898093" lon="-124.621648"><ele>49.427</ele><time>2026-08-20T17:13:50Z</time></trkpt><trkpt lat="47.898094" lon="-124.621789"><ele>48.854</ele><time>2026-08-20T17:14:00Z</time></trkpt><trkpt lat="47.898088" lon="-124.621886"><ele>48.656</ele><time>2026-08-20T17:14:08Z</time></trkpt><trkpt lat="47.898093" lon="-124.621909"><ele>48.211</ele><time>2026-08-20T17:14:15Z</time></trkpt><trkpt lat="47.898081" lon="-124.621911"><ele>48.609</ele><time>2026-08-20T17:14:26Z</time></trkpt><trkpt lat="47.898077" lon="-124.621958"><ele>48.627</ele><time>2026-08-20T17:14:33Z</time></trkpt><trkpt lat="47.898079" lon="-124.622095"><ele>48.063</ele><time>2026-08-20T17:14:41Z</time></trkpt><trkpt lat="47.898081" lon="-124.622113"><ele>48.046</ele><time>2026-08-20T17:14:42Z</time></trkpt><trkpt lat="47.898089" lon="-124.622253"><ele>47.465</ele><time>2026-08-20T17:14:50Z</time></trkpt><trkpt lat="47.898083" lon="-124.622388"><ele>47.261</ele><time>2026-08-20T17:14:57Z</time></trkpt><trkpt lat="47.898074" lon="-124.622513"><ele>47.255</ele><time>2026-08-20T17:15:05Z</time></trkpt><trkpt lat="47.898065" lon="-124.622588"><ele>46.883</ele><time>2026-08-20T17:15:09Z</time></trkpt><trkpt lat="47.898054" lon="-124.622639"><ele>46.693</ele><time>2026-08-20T17:15:14Z</time></trkpt><trkpt lat="47.898046" lon="-124.622694"><ele>46.269</ele><time>2026-08-20T17:15:19Z</time></trkpt><trkpt lat="47.898045" lon="-124.622765"><ele>46.252</ele><time>2026-08-20T17:15:23Z</time></trkpt><trkpt lat="47.898071" lon="-124.622938"><ele>46.053</ele><time>2026-08-20T17:15:31Z</time></trkpt><trkpt lat="47.898063" lon="-124.623094"><ele>45.408</ele><time>2026-08-20T17:15:39Z</time></trkpt><trkpt lat="47.898057" lon="-124.623125"><ele>45.409</ele><time>2026-08-20T17:15:41Z</time></trkpt><trkpt lat="47.898066" lon="-124.623249"><ele>45.477</ele><time>2026-08-20T17:15:49Z</time></trkpt><trkpt lat="47.898099" lon="-124.623297"><ele>45.423</ele><time>2026-08-20T17:15:56Z</time></trkpt><trkpt lat="47.898104" lon="-124.623376"><ele>45.046</ele><time>2026-08-20T17:16:02Z</time></trkpt><trkpt lat="47.898104" lon="-124.62339"><ele>45.035</ele><time>2026-08-20T17:16:03Z</time></trkpt><trkpt lat="47.898096" lon="-124.62349"><ele>44.881</ele><time>2026-08-20T17:16:09Z</time></trkpt><trkpt lat="47.898082" lon="-124.623597"><ele>44.615</ele><time>2026-08-20T17:16:16Z</time></trkpt><trkpt lat="47.898082" lon="-124.623682"><ele>44.223</ele><time>2026-08-20T17:16:20Z</time></trkpt><trkpt lat="47.89809" lon="-124.623733"><ele>44.013</ele><time>2026-08-20T17:16:23Z</time></trkpt><trkpt lat="47.898109" lon="-124.623864"><ele>43.469</ele><time>2026-08-20T17:16:31Z</time></trkpt><trkpt lat="47.898116" lon="-124.623941"><ele>43.449</ele><time>2026-08-20T17:16:35Z</time></trkpt><trkpt lat="47.898094" lon="-124.624015"><ele>42.802</ele><time>2026-08-20T17:16:40Z</time></trkpt><trkpt lat="47.898052" lon="-124.624061"><ele>42.222</ele><time>2026-08-20T17:16:44Z</time></trkpt><trkpt lat="47.898006" lon="-124.624096"><ele>41.409</ele><time>2026-08-20T17:16:48Z</time></trkpt><trkpt lat="47.897992" lon="-124.624111"><ele>41.056</ele><time>2026-08-20T17:16:50Z</time></trkpt><trkpt lat="47.897936" lon="-124.624196"><ele>40.222</ele><time>2026-08-20T17:16:57Z</time></trkpt><trkpt lat="47.897871" lon="-124.624276"><ele>40.235</ele><time>2026-08-20T17:17:06Z</time></trkpt><trkpt lat="47.89785" lon="-124.624373"><ele>39.424</ele><time>2026-08-20T17:17:15Z</time></trkpt><trkpt lat="47.897849" lon="-124.624447"><ele>39.060</ele><time>2026-08-20T17:17:20Z</time></trkpt><trkpt lat="47.897868" lon="-124.624572"><ele>38.264</ele><time>2026-08-20T17:17:27Z</time></trkpt><trkpt lat="47.89788" lon="-124.624629"><ele>37.892</ele><time>2026-08-20T17:17:30Z</time></trkpt><trkpt lat="47.897878" lon="-124.624717"><ele>37.092</ele><time>2026-08-20T17:17:35Z</time></trkpt><trkpt lat="47.897913" lon="-124.624881"><ele>37.078</ele><time>2026-08-20T17:17:46Z</time></trkpt><trkpt lat="47.897918" lon="-124.624896"><ele>37.055</ele><time>2026-08-20T17:17:47Z</time></trkpt><trkpt lat="47.897932" lon="-124.624937"><ele>38.207</ele><time>2026-08-20T17:17:52Z</time></trkpt><trkpt lat="47.897914" lon="-124.624934"><ele>39.017</ele><time>2026-08-20T17:17:57Z</time></trkpt><trkpt lat="47.897906" lon="-124.624932"><ele>39.409</ele><time>2026-08-20T17:17:58Z</time></trkpt><trkpt lat="47.897882" lon="-124.624925"><ele>39.627</ele><time>2026-08-20T17:18:01Z</time></trkpt><trkpt lat="47.89786" lon="-124.624915"><ele>40.293</ele><time>2026-08-20T17:18:04Z</time></trkpt><trkpt lat="47.897847" lon="-124.624904"><ele>40.266</ele><time>2026-08-20T17:18:05Z</time></trkpt><trkpt lat="47.897817" lon="-124.624893"><ele>40.885</ele><time>2026-08-20T17:18:08Z</time></trkpt><trkpt lat="47.897776" lon="-124.624903"><ele>41.481</ele><time>2026-08-20T17:18:12Z</time></trkpt><trkpt lat="47.897748" lon="-124.624904"><ele>42.275</ele><time>2026-08-20T17:18:16Z</time></trkpt><trkpt lat="47.897736" lon="-124.624905"><ele>42.283</ele><time>2026-08-20T17:18:17Z</time></trkpt><trkpt lat="47.897715" lon="-124.624904"><ele>42.413</ele><time>2026-08-20T17:18:19Z</time></trkpt><trkpt lat="47.89767" lon="-124.624899"><ele>43.439</ele><time>2026-08-20T17:18:23Z</time></trkpt><trkpt lat="47.897657" lon="-124.624894"><ele>43.688</ele><time>2026-08-20T17:18:25Z</time></trkpt><trkpt lat="47.89765" lon="-124.62489"><ele>44.024</ele><time>2026-08-20T17:18:26Z</time></trkpt><trkpt lat="47.897644" lon="-124.624887"><ele>44.026</ele><time>2026-08-20T17:18:27Z</time></trkpt><trkpt lat="47.897639" lon="-124.624885"><ele>44.209</ele><time>2026-08-20T17:18:28Z</time></trkpt><trkpt lat="47.897636" lon="-124.624884"><ele>44.690</ele><time>2026-08-20T17:18:29Z</time></trkpt><trkpt lat="47.897629" lon="-124.624882"><ele>44.656</ele><time>2026-08-20T17:18:30Z</time></trkpt><trkpt lat="47.897618" lon="-124.624878"><ele>44.849</ele><time>2026-08-20T17:18:32Z</time></trkpt><trkpt lat="47.897598" lon="-124.624875"><ele>45.498</ele><time>2026-08-20T17:18:35Z</time></trkpt><trkpt lat="47.897557" lon="-124.624871"><ele>46.044</ele><time>2026-08-20T17:18:39Z</time></trkpt><trkpt lat="47.897509" lon="-124.624881"><ele>46.858</ele><time>2026-08-20T17:18:46Z</time></trkpt><trkpt lat="47.897504" lon="-124.624878"><ele>46.836</ele><time>2026-08-20T17:18:47Z</time></trkpt><trkpt lat="47.897447" lon="-124.624899"><ele>47.686</ele><time>2026-08-20T17:18:54Z</time></trkpt><trkpt lat="47.897435" lon="-124.624901"><ele>48.022</ele><time>2026-08-20T17:18:56Z</time></trkpt><trkpt lat="47.897371" lon="-124.624927"><ele>48.645</ele><time>2026-08-20T17:19:03Z</time></trkpt><trkpt lat="47.89734" lon="-124.624939"><ele>48.647</ele><time>2026-08-20T17:19:06Z</time></trkpt><trkpt lat="47.897313" lon="-124.62496"><ele>48.611</ele><time>2026-08-20T17:19:09Z</time></trkpt><trkpt lat="47.897285" lon="-124.624989"><ele>49.209</ele><time>2026-08-20T17:19:12Z</time></trkpt><trkpt lat="47.89728" lon="-124.624999"><ele>49.236</ele><time>2026-08-20T17:19:13Z</time></trkpt><trkpt lat="47.897265" lon="-124.625056"><ele>49.842</ele><time>2026-08-20T17:19:18Z</time></trkpt><trkpt lat="47.897253" lon="-124.625083"><ele>49.855</ele><time>2026-08-20T17:19:21Z</time></trkpt><trkpt lat="47.897239" lon="-124.6251"><ele>50.084</ele><time>2026-08-20T17:19:23Z</time></trkpt><trkpt lat="47.897164" lon="-124.625129"><ele>50.450</ele><time>2026-08-20T17:19:31Z</time></trkpt><trkpt lat="47.897091" lon="-124.625167"><ele>50.694</ele><time>2026-08-20T17:19:39Z</time></trkpt><trkpt lat="47.897012" lon="-124.625231"><ele>51.232</ele><time>2026-08-20T17:19:47Z</time></trkpt><trkpt lat="47.896985" lon="-124.625243"><ele>51.282</ele><time>2026-08-20T17:19:49Z</time></trkpt><trkpt lat="47.89688" lon="-124.62528"><ele>51.828</ele><time>2026-08-20T17:19:59Z</time></trkpt><trkpt lat="47.896857" lon="-124.625285"><ele>52.031</ele><time>2026-08-20T17:20:01Z</time></trkpt><trkpt lat="47.896836" lon="-124.625291"><ele>52.461</ele><time>2026-08-20T17:20:03Z</time></trkpt><trkpt lat="47.896822" lon="-124.625301"><ele>52.407</ele><time>2026-08-20T17:20:05Z</time></trkpt><trkpt lat="47.896803" lon="-124.62532"><ele>53.009</ele><time>2026-08-20T17:20:08Z</time></trkpt><trkpt lat="47.896793" lon="-124.625332"><ele>53.485</ele><time>2026-08-20T17:20:10Z</time></trkpt><trkpt lat="47.896729" lon="-124.625358"><ele>54.281</ele><time>2026-08-20T17:20:18Z</time></trkpt><trkpt lat="47.896724" lon="-124.625355"><ele>54.494</ele><time>2026-08-20T17:20:19Z</time></trkpt><trkpt lat="47.896665" lon="-124.625351"><ele>55.423</ele><time>2026-08-20T17:20:27Z</time></trkpt><trkpt lat="47.896658" lon="-124.625353"><ele>55.629</ele><time>2026-08-20T17:20:28Z</time></trkpt><trkpt lat="47.896615" lon="-124.625369"><ele>56.423</ele><time>2026-08-20T17:20:34Z</time></trkpt><trkpt lat="47.89661" lon="-124.62537"><ele>56.621</ele><time>2026-08-20T17:20:35Z</time></trkpt><trkpt lat="47.8966" lon="-124.625373"><ele>56.641</ele><time>2026-08-20T17:20:36Z</time></trkpt><trkpt lat="47.896579" lon="-124.625372"><ele>57.097</ele><time>2026-08-20T17:20:39Z</time></trkpt><trkpt lat="47.896545" lon="-124.625349"><ele>57.869</ele><time>2026-08-20T17:20:44Z</time></trkpt><trkpt lat="47.896516" lon="-124.625334"><ele>58.404</ele><time>2026-08-20T17:20:48Z</time></trkpt><trkpt lat="47.896491" lon="-124.625324"><ele>58.824</ele><time>2026-08-20T17:20:52Z</time></trkpt><trkpt lat="47.896442" lon="-124.625349"><ele>59.609</ele><time>2026-08-20T17:20:59Z</time></trkpt><trkpt lat="47.896414" lon="-124.625375"><ele>59.888</ele><time>2026-08-20T17:21:02Z</time></trkpt><trkpt lat="47.896361" lon="-124.625392"><ele>60.614</ele><time>2026-08-20T17:21:10Z</time></trkpt><trkpt lat="47.896333" lon="-124.625403"><ele>61.027</ele><time>2026-08-20T17:21:13Z</time></trkpt><trkpt lat="47.896276" lon="-124.625424"><ele>61.696</ele><time>2026-08-20T17:21:20Z</time></trkpt><trkpt lat="47.896225" lon="-124.625444"><ele>62.052</ele><time>2026-08-20T17:21:25Z</time></trkpt><trkpt lat="47.896181" lon="-124.625462"><ele>62.636</ele><time>2026-08-20T17:21:30Z</time></trkpt><trkpt lat="47.896151" lon="-124.625465"><ele>63.244</ele><time>2026-08-20T17:21:35Z</time></trkpt><trkpt lat="47.896105" lon="-124.625502"><ele>63.824</ele><time>2026-08-20T17:21:40Z</time></trkpt><trkpt lat="47.896089" lon="-124.625525"><ele>64.020</ele><time>2026-08-20T17:21:43Z</time></trkpt><trkpt lat="47.896082" lon="-124.625533"><ele>64.214</ele><time>2026-08-20T17:21:44Z</time></trkpt><trkpt lat="47.896036" lon="-124.625585"><ele>64.854</ele><time>2026-08-20T17:21:51Z</time></trkpt><trkpt lat="47.895993" lon="-124.625635"><ele>65.409</ele><time>2026-08-20T17:21:57Z</time></trkpt><trkpt lat="47.895968" lon="-124.625656"><ele>65.409</ele><time>2026-08-20T17:22:01Z</time></trkpt><trkpt lat="47.895844" lon="-124.625647"><ele>66.093</ele><time>2026-08-20T17:22:13Z</time></trkpt><trkpt lat="47.895765" lon="-124.62566"><ele>65.679</ele><time>2026-08-20T17:22:22Z</time></trkpt><trkpt lat="47.895685" lon="-124.625649"><ele>64.892</ele><time>2026-08-20T17:22:32Z</time></trkpt><trkpt lat="47.895678" lon="-124.625626"><ele>64.651</ele><time>2026-08-20T17:22:34Z</time></trkpt><trkpt lat="47.895654" lon="-124.625514"><ele>64.697</ele><time>2026-08-20T17:22:41Z</time></trkpt><trkpt lat="47.895656" lon="-124.625405"><ele>64.631</ele><time>2026-08-20T17:22:50Z</time></trkpt><trkpt lat="47.89565" lon="-124.625293"><ele>64.639</ele><time>2026-08-20T17:23:00Z</time></trkpt><trkpt lat="47.895623" lon="-124.625224"><ele>64.269</ele><time>2026-08-20T17:23:05Z</time></trkpt><trkpt lat="47.8956" lon="-124.625157"><ele>64.065</ele><time>2026-08-20T17:23:10Z</time></trkpt><trkpt lat="47.89557" lon="-124.625147"><ele>63.224</ele><time>2026-08-20T17:23:16Z</time></trkpt><trkpt lat="47.89552" lon="-124.625144"><ele>62.604</ele><time>2026-08-20T17:23:20Z</time></trkpt><trkpt lat="47.895463" lon="-124.625147"><ele>62.214</ele><time>2026-08-20T17:23:24Z</time></trkpt><trkpt lat="47.89541" lon="-124.625149"><ele>61.609</ele><time>2026-08-20T17:23:29Z</time></trkpt><trkpt lat="47.895345" lon="-124.625139"><ele>61.494</ele><time>2026-08-20T17:23:35Z</time></trkpt><trkpt lat="47.895326" lon="-124.625129"><ele>61.230</ele><time>2026-08-20T17:23:37Z</time></trkpt><trkpt lat="47.895239" lon="-124.625092"><ele>61.283</ele><time>2026-08-20T17:23:46Z</time></trkpt><trkpt lat="47.895213" lon="-124.625072"><ele>61.052</ele><time>2026-08-20T17:23:49Z</time></trkpt><trkpt lat="47.895136" lon="-124.625004"><ele>60.848</ele><time>2026-08-20T17:23:57Z</time></trkpt><trkpt lat="47.895073" lon="-124.624909"><ele>60.892</ele><time>2026-08-20T17:24:06Z</time></trkpt><trkpt lat="47.895058" lon="-124.624889"><ele>60.820</ele><time>2026-08-20T17:24:08Z</time></trkpt><trkpt lat="47.894997" lon="-124.624841"><ele>60.830</ele><time>2026-08-20T17:24:14Z</time></trkpt><trkpt lat="47.894965" lon="-124.624828"><ele>60.866</ele><time>2026-08-20T17:24:17Z</time></trkpt><trkpt lat="47.894871" lon="-124.624818"><ele>60.899</ele><time>2026-08-20T17:24:27Z</time></trkpt><trkpt lat="47.894824" lon="-124.624799"><ele>60.807</ele><time>2026-08-20T17:24:32Z</time></trkpt><trkpt lat="47.894808" lon="-124.624797"><ele>60.827</ele><time>2026-08-20T17:24:34Z</time></trkpt><trkpt lat="47.894777" lon="-124.624808"><ele>60.809</ele><time>2026-08-20T17:24:37Z</time></trkpt><trkpt lat="47.89468" lon="-124.62487"><ele>61.211</ele><time>2026-08-20T17:24:46Z</time></trkpt><trkpt lat="47.894598" lon="-124.624824"><ele>60.817</ele><time>2026-08-20T17:24:54Z</time></trkpt><trkpt lat="47.894511" lon="-124.624748"><ele>60.850</ele><time>2026-08-20T17:25:04Z</time></trkpt><trkpt lat="47.894428" lon="-124.624777"><ele>61.039</ele><time>2026-08-20T17:25:12Z</time></trkpt><trkpt lat="47.894365" lon="-124.624868"><ele>61.245</ele><time>2026-08-20T17:25:21Z</time></trkpt><trkpt lat="47.894312" lon="-124.624963"><ele>61.839</ele><time>2026-08-20T17:25:30Z</time></trkpt><trkpt lat="47.894254" lon="-124.625028"><ele>62.247</ele><time>2026-08-20T17:25:36Z</time></trkpt><trkpt lat="47.894237" lon="-124.625058"><ele>62.247</ele><time>2026-08-20T17:25:38Z</time></trkpt><trkpt lat="47.894168" lon="-124.62509"><ele>62.493</ele><time>2026-08-20T17:25:47Z</time></trkpt><trkpt lat="47.894107" lon="-124.625113"><ele>62.411</ele><time>2026-08-20T17:25:54Z</time></trkpt><trkpt lat="47.894029" lon="-124.625145"><ele>62.221</ele><time>2026-08-20T17:26:00Z</time></trkpt><trkpt lat="47.893986" lon="-124.625148"><ele>62.203</ele><time>2026-08-20T17:26:04Z</time></trkpt><trkpt lat="47.893913" lon="-124.625156"><ele>62.009</ele><time>2026-08-20T17:26:12Z</time></trkpt><trkpt lat="47.893827" lon="-124.625185"><ele>61.673</ele><time>2026-08-20T17:26:21Z</time></trkpt><trkpt lat="47.893743" lon="-124.625158"><ele>61.299</ele><time>2026-08-20T17:26:32Z</time></trkpt><trkpt lat="47.893697" lon="-124.625056"><ele>61.212</ele><time>2026-08-20T17:26:39Z</time></trkpt><trkpt lat="47.893678" lon="-124.625037"><ele>61.091</ele><time>2026-08-20T17:26:41Z</time></trkpt><trkpt lat="47.893593" lon="-124.625017"><ele>60.887</ele><time>2026-08-20T17:26:50Z</time></trkpt><trkpt lat="47.89355" lon="-124.625103"><ele>60.611</ele><time>2026-08-20T17:26:57Z</time></trkpt><trkpt lat="47.893547" lon="-124.625141"><ele>60.469</ele><time>2026-08-20T17:26:59Z</time></trkpt><trkpt lat="47.893516" lon="-124.625274"><ele>60.459</ele><time>2026-08-20T17:27:07Z</time></trkpt><trkpt lat="47.893494" lon="-124.625326"><ele>60.075</ele><time>2026-08-20T17:27:11Z</time></trkpt><trkpt lat="47.893452" lon="-124.6254"><ele>59.832</ele><time>2026-08-20T17:27:17Z</time></trkpt><trkpt lat="47.893365" lon="-124.625456"><ele>59.692</ele><time>2026-08-20T17:27:25Z</time></trkpt><trkpt lat="47.893316" lon="-124.625548"><ele>59.411</ele><time>2026-08-20T17:27:33Z</time></trkpt><trkpt lat="47.893315" lon="-124.625579"><ele>59.409</ele><time>2026-08-20T17:27:35Z</time></trkpt><trkpt lat="47.893288" lon="-124.625743"><ele>59.685</ele><time>2026-08-20T17:27:45Z</time></trkpt><trkpt lat="47.893295" lon="-124.625756"><ele>59.811</ele><time>2026-08-20T17:27:48Z</time></trkpt><trkpt lat="47.893312" lon="-124.625743"><ele>59.864</ele><time>2026-08-20T17:27:53Z</time></trkpt><trkpt lat="47.893316" lon="-124.62574"><ele>59.633</ele><time>2026-08-20T17:27:54Z</time></trkpt><trkpt lat="47.893328" lon="-124.625764"><ele>59.449</ele><time>2026-08-20T17:28:03Z</time></trkpt><trkpt lat="47.893332" lon="-124.625759"><ele>59.493</ele><time>2026-08-20T17:28:14Z</time></trkpt><trkpt lat="47.89328" lon="-124.625766"><ele>59.631</ele><time>2026-08-20T17:28:23Z</time></trkpt><trkpt lat="47.893236" lon="-124.625802"><ele>59.461</ele><time>2026-08-20T17:28:30Z</time></trkpt><trkpt lat="47.893232" lon="-124.625808"><ele>59.477</ele><time>2026-08-20T17:28:31Z</time></trkpt><trkpt lat="47.89323" lon="-124.625813"><ele>59.487</ele><time>2026-08-20T17:28:32Z</time></trkpt><trkpt lat="47.893206" lon="-124.62587"><ele>59.042</ele><time>2026-08-20T17:28:38Z</time></trkpt><trkpt lat="47.89319" lon="-124.625895"><ele>58.826</ele><time>2026-08-20T17:28:42Z</time></trkpt><trkpt lat="47.893138" lon="-124.625963"><ele>58.409</ele><time>2026-08-20T17:28:51Z</time></trkpt><trkpt lat="47.893075" lon="-124.626023"><ele>58.250</ele><time>2026-08-20T17:29:00Z</time></trkpt><trkpt lat="47.892986" lon="-124.626038"><ele>58.256</ele><time>2026-08-20T17:29:10Z</time></trkpt><trkpt lat="47.892941" lon="-124.626024"><ele>58.099</ele><time>2026-08-20T17:29:13Z</time></trkpt><trkpt lat="47.892886" lon="-124.626036"><ele>58.068</ele><time>2026-08-20T17:29:19Z</time></trkpt><trkpt lat="47.892859" lon="-124.626046"><ele>57.824</ele><time>2026-08-20T17:29:24Z</time></trkpt><trkpt lat="47.892839" lon="-124.626042"><ele>57.818</ele><time>2026-08-20T17:29:30Z</time></trkpt><trkpt lat="47.892802" lon="-124.626004"><ele>57.656</ele><time>2026-08-20T17:29:41Z</time></trkpt><trkpt lat="47.892779" lon="-124.625942"><ele>57.496</ele><time>2026-08-20T17:29:50Z</time></trkpt><trkpt lat="47.892747" lon="-124.625862"><ele>57.492</ele><time>2026-08-20T17:29:59Z</time></trkpt><trkpt lat="47.892692" lon="-124.625827"><ele>57.011</ele><time>2026-08-20T17:30:06Z</time></trkpt><trkpt lat="47.892641" lon="-124.625792"><ele>57.021</ele><time>2026-08-20T17:30:11Z</time></trkpt><trkpt lat="47.892607" lon="-124.625765"><ele>57.003</ele><time>2026-08-20T17:30:16Z</time></trkpt><trkpt lat="47.892504" lon="-124.625734"><ele>56.809</ele><time>2026-08-20T17:30:25Z</time></trkpt><trkpt lat="47.892487" lon="-124.625727"><ele>56.663</ele><time>2026-08-20T17:30:26Z</time></trkpt><trkpt lat="47.892473" lon="-124.625714"><ele>56.679</ele><time>2026-08-20T17:30:27Z</time></trkpt><trkpt lat="47.892464" lon="-124.625702"><ele>56.612</ele><time>2026-08-20T17:30:28Z</time></trkpt><trkpt lat="47.892434" lon="-124.625665"><ele>56.481</ele><time>2026-08-20T17:30:34Z</time></trkpt><trkpt lat="47.892356" lon="-124.62564"><ele>56.287</ele><time>2026-08-20T17:30:43Z</time></trkpt><trkpt lat="47.892319" lon="-124.625642"><ele>56.051</ele><time>2026-08-20T17:30:46Z</time></trkpt><trkpt lat="47.892308" lon="-124.625647"><ele>55.899</ele><time>2026-08-20T17:30:48Z</time></trkpt><trkpt lat="47.892292" lon="-124.625649"><ele>56.019</ele><time>2026-08-20T17:30:50Z</time></trkpt><trkpt lat="47.892284" lon="-124.625649"><ele>56.055</ele><time>2026-08-20T17:30:52Z</time></trkpt><trkpt lat="47.892269" lon="-124.625685"><ele>56.048</ele><time>2026-08-20T17:31:02Z</time></trkpt><trkpt lat="47.892283" lon="-124.625694"><ele>55.861</ele><time>2026-08-20T17:31:10Z</time></trkpt><trkpt lat="47.892279" lon="-124.625693"><ele>55.817</ele><time>2026-08-20T17:31:12Z</time></trkpt><trkpt lat="47.892235" lon="-124.625694"><ele>56.009</ele><time>2026-08-20T17:31:19Z</time></trkpt><trkpt lat="47.892226" lon="-124.625701"><ele>56.046</ele><time>2026-08-20T17:31:21Z</time></trkpt><trkpt lat="47.892218" lon="-124.625648"><ele>55.842</ele><time>2026-08-20T17:31:30Z</time></trkpt><trkpt lat="47.892186" lon="-124.625607"><ele>55.275</ele><time>2026-08-20T17:31:39Z</time></trkpt><trkpt lat="47.89217" lon="-124.625588"><ele>55.074</ele><time>2026-08-20T17:31:43Z</time></trkpt><trkpt lat="47.892159" lon="-124.625544"><ele>54.480</ele><time>2026-08-20T17:31:49Z</time></trkpt><trkpt lat="47.892135" lon="-124.625536"><ele>54.234</ele><time>2026-08-20T17:31:57Z</time></trkpt><trkpt lat="47.89211" lon="-124.625509"><ele>53.822</ele><time>2026-08-20T17:32:02Z</time></trkpt><trkpt lat="47.892092" lon="-124.625495"><ele>53.612</ele><time>2026-08-20T17:32:06Z</time></trkpt><trkpt lat="47.892047" lon="-124.625486"><ele>53.218</ele><time>2026-08-20T17:32:14Z</time></trkpt><trkpt lat="47.892013" lon="-124.625501"><ele>52.871</ele><time>2026-08-20T17:32:21Z</time></trkpt><trkpt lat="47.892002" lon="-124.625506"><ele>52.841</ele><time>2026-08-20T17:32:25Z</time></trkpt><trkpt lat="47.891966" lon="-124.625529"><ele>52.615</ele><time>2026-08-20T17:32:34Z</time></trkpt><trkpt lat="47.891972" lon="-124.625661"><ele>51.809</ele><time>2026-08-20T17:32:43Z</time></trkpt><trkpt lat="47.891971" lon="-124.625692"><ele>51.849</ele><time>2026-08-20T17:32:46Z</time></trkpt><trkpt lat="47.891981" lon="-124.625766"><ele>50.695</ele><time>2026-08-20T17:32:52Z</time></trkpt><trkpt lat="47.892002" lon="-124.62582"><ele>49.698</ele><time>2026-08-20T17:32:58Z</time></trkpt><trkpt lat="47.892045" lon="-124.625854"><ele>48.847</ele><time>2026-08-20T17:33:03Z</time></trkpt><trkpt lat="47.892064" lon="-124.625893"><ele>48.653</ele><time>2026-08-20T17:33:10Z</time></trkpt><trkpt lat="47.892063" lon="-124.62591"><ele>48.647</ele><time>2026-08-20T17:33:13Z</time></trkpt><trkpt lat="47.892047" lon="-124.625858"><ele>47.855</ele><time>2026-08-20T17:33:20Z</time></trkpt><trkpt lat="47.892042" lon="-124.625855"><ele>47.865</ele><time>2026-08-20T17:33:21Z</time></trkpt><trkpt lat="47.892022" lon="-124.625817"><ele>47.671</ele><time>2026-08-20T17:33:25Z</time></trkpt><trkpt lat="47.891987" lon="-124.625789"><ele>46.815</ele><time>2026-08-20T17:33:30Z</time></trkpt><trkpt lat="47.891968" lon="-124.625781"><ele>46.465</ele><time>2026-08-20T17:33:32Z</time></trkpt><trkpt lat="47.891905" lon="-124.625772"><ele>45.611</ele><time>2026-08-20T17:33:38Z</time></trkpt><trkpt lat="47.891898" lon="-124.625776"><ele>45.409</ele><time>2026-08-20T17:33:39Z</time></trkpt><trkpt lat="47.891865" lon="-124.625811"><ele>44.473</ele><time>2026-08-20T17:33:44Z</time></trkpt><trkpt lat="47.891828" lon="-124.625853"><ele>43.499</ele><time>2026-08-20T17:33:49Z</time></trkpt><trkpt lat="47.891821" lon="-124.625864"><ele>43.262</ele><time>2026-08-20T17:33:50Z</time></trkpt><trkpt lat="47.891764" lon="-124.625892"><ele>42.231</ele><time>2026-08-20T17:33:57Z</time></trkpt><trkpt lat="47.891748" lon="-124.625893"><ele>42.047</ele><time>2026-08-20T17:33:59Z</time></trkpt><trkpt lat="47.891697" lon="-124.625905"><ele>41.041</ele><time>2026-08-20T17:34:05Z</time></trkpt><trkpt lat="47.891687" lon="-124.625926"><ele>40.689</ele><time>2026-08-20T17:34:08Z</time></trkpt><trkpt lat="47.891692" lon="-124.625948"><ele>40.049</ele><time>2026-08-20T17:34:13Z</time></trkpt><trkpt lat="47.891694" lon="-124.625965"><ele>40.045</ele><time>2026-08-20T17:34:15Z</time></trkpt><trkpt lat="47.891682" lon="-124.625986"><ele>40.058</ele><time>2026-08-20T17:34:17Z</time></trkpt><trkpt lat="47.891658" lon="-124.626059"><ele>39.052</ele><time>2026-08-20T17:34:22Z</time></trkpt><trkpt lat="47.89166" lon="-124.626101"><ele>38.217</ele><time>2026-08-20T17:34:27Z</time></trkpt><trkpt lat="47.891692" lon="-124.626135"><ele>37.809</ele><time>2026-08-20T17:34:34Z</time></trkpt><trkpt lat="47.891693" lon="-124.626142"><ele>37.697</ele><time>2026-08-20T17:34:35Z</time></trkpt><trkpt lat="47.891692" lon="-124.626184"><ele>36.613</ele><time>2026-08-20T17:34:39Z</time></trkpt><trkpt lat="47.891695" lon="-124.626224"><ele>35.856</ele><time>2026-08-20T17:34:43Z</time></trkpt><trkpt lat="47.891696" lon="-124.626235"><ele>35.425</ele><time>2026-08-20T17:34:44Z</time></trkpt><trkpt lat="47.891704" lon="-124.626266"><ele>35.061</ele><time>2026-08-20T17:34:47Z</time></trkpt><trkpt lat="47.891708" lon="-124.626282"><ele>34.645</ele><time>2026-08-20T17:34:49Z</time></trkpt><trkpt lat="47.89171" lon="-124.626289"><ele>34.473</ele><time>2026-08-20T17:34:50Z</time></trkpt><trkpt lat="47.891712" lon="-124.626309"><ele>33.693</ele><time>2026-08-20T17:34:54Z</time></trkpt><trkpt lat="47.891716" lon="-124.626331"><ele>33.249</ele><time>2026-08-20T17:34:56Z</time></trkpt><trkpt lat="47.891724" lon="-124.626432"><ele>32.033</ele><time>2026-08-20T17:35:02Z</time></trkpt><trkpt lat="47.891721" lon="-124.626458"><ele>31.623</ele><time>2026-08-20T17:35:04Z</time></trkpt><trkpt lat="47.891707" lon="-124.626524"><ele>31.015</ele><time>2026-08-20T17:35:09Z</time></trkpt><trkpt lat="47.891692" lon="-124.626547"><ele>30.409</ele><time>2026-08-20T17:35:13Z</time></trkpt><trkpt lat="47.891663" lon="-124.626576"><ele>30.045</ele><time>2026-08-20T17:35:18Z</time></trkpt><trkpt lat="47.891631" lon="-124.626615"><ele>29.211</ele><time>2026-08-20T17:35:22Z</time></trkpt><trkpt lat="47.891607" lon="-124.62664"><ele>28.834</ele><time>2026-08-20T17:35:25Z</time></trkpt><trkpt lat="47.891593" lon="-124.626652"><ele>28.613</ele><time>2026-08-20T17:35:27Z</time></trkpt><trkpt lat="47.891559" lon="-124.626674"><ele>27.859</ele><time>2026-08-20T17:35:31Z</time></trkpt><trkpt lat="47.891549" lon="-124.626675"><ele>27.633</ele><time>2026-08-20T17:35:32Z</time></trkpt><trkpt lat="47.891505" lon="-124.626674"><ele>26.681</ele><time>2026-08-20T17:35:38Z</time></trkpt><trkpt lat="47.891474" lon="-124.626671"><ele>26.051</ele><time>2026-08-20T17:35:42Z</time></trkpt><trkpt lat="47.891457" lon="-124.626666"><ele>25.637</ele><time>2026-08-20T17:35:44Z</time></trkpt><trkpt lat="47.891427" lon="-124.626645"><ele>24.486</ele><time>2026-08-20T17:35:50Z</time></trkpt><trkpt lat="47.891407" lon="-124.626627"><ele>23.660</ele><time>2026-08-20T17:35:54Z</time></trkpt><trkpt lat="47.891398" lon="-124.626619"><ele>23.426</ele><time>2026-08-20T17:35:55Z</time></trkpt><trkpt lat="47.891345" lon="-124.626605"><ele>22.409</ele><time>2026-08-20T17:36:03Z</time></trkpt><trkpt lat="47.891341" lon="-124.626615"><ele>22.280</ele><time>2026-08-20T17:36:04Z</time></trkpt><trkpt lat="47.891341" lon="-124.626625"><ele>21.896</ele><time>2026-08-20T17:36:05Z</time></trkpt><trkpt lat="47.891338" lon="-124.626651"><ele>21.229</ele><time>2026-08-20T17:36:07Z</time></trkpt><trkpt lat="47.891327" lon="-124.626706"><ele>20.278</ele><time>2026-08-20T17:36:11Z</time></trkpt><trkpt lat="47.891324" lon="-124.626719"><ele>19.884</ele><time>2026-08-20T17:36:13Z</time></trkpt><trkpt lat="47.891317" lon="-124.626743"><ele>19.038</ele><time>2026-08-20T17:36:16Z</time></trkpt><trkpt lat="47.891317" lon="-124.626807"><ele>17.856</ele><time>2026-08-20T17:36:21Z</time></trkpt><trkpt lat="47.891314" lon="-124.626876"><ele>16.646</ele><time>2026-08-20T17:36:25Z</time></trkpt><trkpt lat="47.891311" lon="-124.626898"><ele>15.442</ele><time>2026-08-20T17:36:30Z</time></trkpt><trkpt lat="47.891327" lon="-124.626936"><ele>14.694</ele><time>2026-08-20T17:36:39Z</time></trkpt><trkpt lat="47.891335" lon="-124.626947"><ele>14.457</ele><time>2026-08-20T17:36:41Z</time></trkpt><trkpt lat="47.891336" lon="-124.626958"><ele>14.222</ele><time>2026-08-20T17:36:42Z</time></trkpt><trkpt lat="47.891333" lon="-124.627076"><ele>13.609</ele><time>2026-08-20T17:36:50Z</time></trkpt><trkpt lat="47.891328" lon="-124.627093"><ele>13.481</ele><time>2026-08-20T17:36:56Z</time></trkpt><trkpt lat="47.891326" lon="-124.627095"><ele>13.417</ele><time>2026-08-20T17:36:57Z</time></trkpt><trkpt lat="47.891319" lon="-124.62709"><ele>13.280</ele><time>2026-08-20T17:37:00Z</time></trkpt><trkpt lat="47.891245" lon="-124.62713"><ele>12.419</ele><time>2026-08-20T17:37:11Z</time></trkpt><trkpt lat="47.891216" lon="-124.627144"><ele>12.265</ele><time>2026-08-20T17:37:14Z</time></trkpt><trkpt lat="47.891203" lon="-124.627155"><ele>12.029</ele><time>2026-08-20T17:37:20Z</time></trkpt><trkpt lat="47.891168" lon="-124.627209"><ele>11.487</ele><time>2026-08-20T17:37:30Z</time></trkpt><trkpt lat="47.891162" lon="-124.627219"><ele>11.287</ele><time>2026-08-20T17:37:31Z</time></trkpt><trkpt lat="47.891139" lon="-124.627223"><ele>10.243</ele><time>2026-08-20T17:37:35Z</time></trkpt><trkpt lat="47.891127" lon="-124.627225"><ele>9.829</ele><time>2026-08-20T17:37:37Z</time></trkpt><trkpt lat="47.891121" lon="-124.627263"><ele>9.800</ele><time>2026-08-20T17:37:45Z</time></trkpt><trkpt lat="47.891118" lon="-124.627316"><ele>9.620</ele><time>2026-08-20T17:37:54Z</time></trkpt><trkpt lat="47.891107" lon="-124.62735"><ele>9.209</ele><time>2026-08-20T17:38:02Z</time></trkpt><trkpt lat="47.891092" lon="-124.627379"><ele>9.094</ele><time>2026-08-20T17:38:09Z</time></trkpt><trkpt lat="47.891073" lon="-124.627418"><ele>8.890</ele><time>2026-08-20T17:38:12Z</time></trkpt><trkpt lat="47.891063" lon="-124.627449"><ele>9.233</ele><time>2026-08-20T17:38:17Z</time></trkpt><trkpt lat="47.891063" lon="-124.627449"><ele>9.092</ele><time>2026-08-20T17:38:26Z</time></trkpt><trkpt lat="47.891059" lon="-124.627436"><ele>9.028</ele><time>2026-08-20T17:38:35Z</time></trkpt><trkpt lat="47.891039" lon="-124.627442"><ele>8.832</ele><time>2026-08-20T17:38:42Z</time></trkpt><trkpt lat="47.891037" lon="-124.627443"><ele>8.840</ele><time>2026-08-20T17:38:51Z</time></trkpt><trkpt lat="47.891037" lon="-124.627443"><ele>8.830</ele><time>2026-08-20T17:39:00Z</time></trkpt><trkpt lat="47.891037" lon="-124.627443"><ele>8.696</ele><time>2026-08-20T17:39:07Z</time></trkpt><trkpt lat="47.891037" lon="-124.627443"><ele>8.633</ele><time>2026-08-20T17:39:16Z</time></trkpt><trkpt lat="47.891037" lon="-124.627443"><ele>8.823</ele><time>2026-08-20T17:39:20Z</time></trkpt><trkpt lat="47.891037" lon="-124.627443"><ele>8.815</ele><time>2026-08-20T17:39:22Z</time></trkpt><trkpt lat="47.891051" lon="-124.627427"><ele>8.609</ele><time>2026-08-20T17:39:29Z</time></trkpt><trkpt lat="47.891045" lon="-124.627421"><ele>8.615</ele><time>2026-08-20T17:39:37Z</time></trkpt><trkpt lat="47.891043" lon="-124.627431"><ele>8.431</ele><time>2026-08-20T17:39:44Z</time></trkpt><trkpt lat="47.891044" lon="-124.627432"><ele>8.484</ele><time>2026-08-20T17:39:46Z</time></trkpt><trkpt lat="47.891045" lon="-124.627426"><ele>8.443</ele><time>2026-08-20T17:39:54Z</time></trkpt><trkpt lat="47.891042" lon="-124.627428"><ele>8.429</ele><time>2026-08-20T17:39:58Z</time></trkpt><trkpt lat="47.891038" lon="-124.627439"><ele>8.473</ele><time>2026-08-20T17:40:08Z</time></trkpt><trkpt lat="47.891028" lon="-124.627441"><ele>8.271</ele><time>2026-08-20T17:40:17Z</time></trkpt><trkpt lat="47.891008" lon="-124.627451"><ele>8.081</ele><time>2026-08-20T17:40:24Z</time></trkpt><trkpt lat="47.890979" lon="-124.627484"><ele>8.247</ele><time>2026-08-20T17:40:32Z</time></trkpt><trkpt lat="47.890989" lon="-124.627458"><ele>8.037</ele><time>2026-08-20T17:40:40Z</time></trkpt><trkpt lat="47.890987" lon="-124.627459"><ele>8.049</ele><time>2026-08-20T17:40:42Z</time></trkpt><trkpt lat="47.890981" lon="-124.627472"><ele>8.213</ele><time>2026-08-20T17:40:44Z</time></trkpt><trkpt lat="47.89094" lon="-124.627541"><ele>8.009</ele><time>2026-08-20T17:41:09Z</time></trkpt><trkpt lat="47.890936" lon="-124.627547"><ele>7.865</ele><time>2026-08-20T17:41:10Z</time></trkpt><trkpt lat="47.89093" lon="-124.627551"><ele>7.851</ele><time>2026-08-20T17:41:12Z</time></trkpt><trkpt lat="47.890914" lon="-124.627566"><ele>7.684</ele><time>2026-08-20T17:41:18Z</time></trkpt><trkpt lat="47.890903" lon="-124.627575"><ele>7.623</ele><time>2026-08-20T17:41:22Z</time></trkpt><trkpt lat="47.890879" lon="-124.62761"><ele>7.419</ele><time>2026-08-20T17:41:30Z</time></trkpt><trkpt lat="47.890863" lon="-124.627651"><ele>7.043</ele><time>2026-08-20T17:41:38Z</time></trkpt><trkpt lat="47.890846" lon="-124.627679"><ele>7.411</ele><time>2026-08-20T17:41:44Z</time></trkpt><trkpt lat="47.89083" lon="-124.627703"><ele>6.871</ele><time>2026-08-20T17:41:47Z</time></trkpt><trkpt lat="47.890808" lon="-124.627745"><ele>6.877</ele><time>2026-08-20T17:41:54Z</time></trkpt><trkpt lat="47.890793" lon="-124.627782"><ele>6.492</ele><time>2026-08-20T17:42:01Z</time></trkpt><trkpt lat="47.890785" lon="-124.627819"><ele>6.273</ele><time>2026-08-20T17:42:07Z</time></trkpt><trkpt lat="47.890785" lon="-124.627852"><ele>6.220</ele><time>2026-08-20T17:42:14Z</time></trkpt><trkpt lat="47.890787" lon="-124.627843"><ele>6.009</ele><time>2026-08-20T17:42:22Z</time></trkpt><trkpt lat="47.890788" lon="-124.627875"><ele>6.071</ele><time>2026-08-20T17:42:28Z</time></trkpt><trkpt lat="47.890792" lon="-124.627885"><ele>5.877</ele><time>2026-08-20T17:42:30Z</time></trkpt><trkpt lat="47.890807" lon="-124.627913"><ele>5.890</ele><time>2026-08-20T17:42:36Z</time></trkpt><trkpt lat="47.890821" lon="-124.627936"><ele>5.649</ele><time>2026-08-20T17:42:43Z</time></trkpt><trkpt lat="47.890821" lon="-124.627934"><ele>5.685</ele><time>2026-08-20T17:42:51Z</time></trkpt><trkpt lat="47.890821" lon="-124.627934"><ele>5.289</ele><time>2026-08-20T17:43:01Z</time></trkpt><trkpt lat="47.890827" lon="-124.627941"><ele>5.017</ele><time>2026-08-20T17:43:12Z</time></trkpt><trkpt lat="47.890827" lon="-124.627943"><ele>5.297</ele><time>2026-08-20T17:43:20Z</time></trkpt><trkpt lat="47.890829" lon="-124.627938"><ele>5.053</ele><time>2026-08-20T17:43:29Z</time></trkpt><trkpt lat="47.890821" lon="-124.627934"><ele>5.083</ele><time>2026-08-20T17:43:40Z</time></trkpt><trkpt lat="47.890833" lon="-124.627941"><ele>4.825</ele><time>2026-08-20T17:43:47Z</time></trkpt><trkpt lat="47.890832" lon="-124.627939"><ele>4.817</ele><time>2026-08-20T17:43:48Z</time></trkpt><trkpt lat="47.890821" lon="-124.627934"><ele>4.609</ele><time>2026-08-20T17:43:54Z</time></trkpt><trkpt lat="47.890821" lon="-124.627934"><ele>4.670</ele><time>2026-08-20T17:43:57Z</time></trkpt><trkpt lat="47.890834" lon="-124.627942"><ele>4.626</ele><time>2026-08-20T17:44:04Z</time></trkpt><trkpt lat="47.890964" lon="-124.62812"><ele>1.429</ele><time>2026-08-20T17:52:16Z</time></trkpt><trkpt lat="47.890972" lon="-124.628129"><ele>1.418</ele><time>2026-08-20T17:52:17Z</time></trkpt><trkpt lat="47.890988" lon="-124.628141"><ele>1.214</ele><time>2026-08-20T17:52:20Z</time></trkpt><trkpt lat="47.891024" lon="-124.628174"><ele>1.258</ele><time>2026-08-20T17:52:28Z</time></trkpt><trkpt lat="47.891028" lon="-124.628189"><ele>1.256</ele><time>2026-08-20T17:52:30Z</time></trkpt><trkpt lat="47.891048" lon="-124.628242"><ele>1.216</ele><time>2026-08-20T17:52:36Z</time></trkpt><trkpt lat="47.891072" lon="-124.628294"><ele>1.222</ele><time>2026-08-20T17:52:42Z</time></trkpt><trkpt lat="47.891088" lon="-124.628315"><ele>1.246</ele><time>2026-08-20T17:52:45Z</time></trkpt><trkpt lat="47.891147" lon="-124.628401"><ele>1.288</ele><time>2026-08-20T17:52:56Z</time></trkpt><trkpt lat="47.891178" lon="-124.628492"><ele>1.416</ele><time>2026-08-20T17:53:05Z</time></trkpt><trkpt lat="47.891184" lon="-124.628498"><ele>1.409</ele><time>2026-08-20T17:53:06Z</time></trkpt><trkpt lat="47.891228" lon="-124.62856"><ele>1.216</ele><time>2026-08-20T17:53:15Z</time></trkpt><trkpt lat="47.891231" lon="-124.628568"><ele>1.252</ele><time>2026-08-20T17:53:16Z</time></trkpt><trkpt lat="47.891241" lon="-124.628591"><ele>1.235</ele><time>2026-08-20T17:53:19Z</time></trkpt><trkpt lat="47.891248" lon="-124.628619"><ele>1.284</ele><time>2026-08-20T17:53:22Z</time></trkpt><trkpt lat="47.891263" lon="-124.628654"><ele>1.250</ele><time>2026-08-20T17:53:26Z</time></trkpt><trkpt lat="47.891296" lon="-124.628721"><ele>1.284</ele><time>2026-08-20T17:53:34Z</time></trkpt><trkpt lat="47.891338" lon="-124.628811"><ele>1.292</ele><time>2026-08-20T17:53:44Z</time></trkpt><trkpt lat="47.89136" lon="-124.628872"><ele>1.232</ele><time>2026-08-20T17:53:52Z</time></trkpt><trkpt lat="47.891381" lon="-124.62892"><ele>1.238</ele><time>2026-08-20T17:53:59Z</time></trkpt><trkpt lat="47.89141" lon="-124.628951"><ele>1.245</ele><time>2026-08-20T17:54:07Z</time></trkpt><trkpt lat="47.891414" lon="-124.628958"><ele>1.247</ele><time>2026-08-20T17:54:10Z</time></trkpt><trkpt lat="47.891418" lon="-124.62896"><ele>1.211</ele><time>2026-08-20T17:54:12Z</time></trkpt><trkpt lat="47.891423" lon="-124.628962"><ele>1.209</ele><time>2026-08-20T17:54:18Z</time></trkpt><trkpt lat="47.891432" lon="-124.62895"><ele>1.216</ele><time>2026-08-20T17:54:24Z</time></trkpt><trkpt lat="47.891434" lon="-124.62895"><ele>1.212</ele><time>2026-08-20T17:54:32Z</time></trkpt><trkpt lat="47.891434" lon="-124.62895"><ele>1.225</ele><time>2026-08-20T17:54:33Z</time></trkpt><trkpt lat="47.891437" lon="-124.628981"><ele>1.254</ele><time>2026-08-20T17:54:39Z</time></trkpt><trkpt lat="47.89144" lon="-124.628999"><ele>1.220</ele><time>2026-08-20T17:54:45Z</time></trkpt><trkpt lat="47.891438" lon="-124.628975"><ele>1.034</ele><time>2026-08-20T17:54:53Z</time></trkpt><trkpt lat="47.89144" lon="-124.628977"><ele>1.082</ele><time>2026-08-20T17:54:59Z</time></trkpt><trkpt lat="47.89144" lon="-124.628978"><ele>0.842</ele><time>2026-08-20T17:55:12Z</time></trkpt><trkpt lat="47.891428" lon="-124.628979"><ele>0.858</ele><time>2026-08-20T17:55:23Z</time></trkpt><trkpt lat="47.891419" lon="-124.628976"><ele>1.251</ele><time>2026-08-20T17:55:26Z</time></trkpt><trkpt lat="47.89144" lon="-124.628978"><ele>0.801</ele><time>2026-08-20T17:55:32Z</time></trkpt><trkpt lat="47.89144" lon="-124.628986"><ele>0.811</ele><time>2026-08-20T17:55:41Z</time></trkpt><trkpt lat="47.89144" lon="-124.628978"><ele>0.809</ele><time>2026-08-20T17:55:49Z</time></trkpt><trkpt lat="47.891448" lon="-124.628989"><ele>0.887</ele><time>2026-08-20T17:55:59Z</time></trkpt><trkpt lat="47.891453" lon="-124.62899"><ele>0.883</ele><time>2026-08-20T17:56:08Z</time></trkpt><trkpt lat="47.891448" lon="-124.628981"><ele>0.686</ele><time>2026-08-20T17:56:18Z</time></trkpt><trkpt lat="47.891453" lon="-124.62899"><ele>0.625</ele><time>2026-08-20T17:56:27Z</time></trkpt><trkpt lat="47.891432" lon="-124.628969"><ele>0.681</ele><time>2026-08-20T17:56:34Z</time></trkpt><trkpt lat="47.891432" lon="-124.628969"><ele>0.665</ele><time>2026-08-20T17:56:37Z</time></trkpt><trkpt lat="47.891432" lon="-124.628969"><ele>0.673</ele><time>2026-08-20T17:56:43Z</time></trkpt><trkpt lat="47.891434" lon="-124.628977"><ele>0.663</ele><time>2026-08-20T17:56:49Z</time></trkpt><trkpt lat="47.891576" lon="-124.62913"><ele>-1.029</ele><time>2026-08-20T18:10:25Z</time></trkpt><trkpt lat="47.89158" lon="-124.629132"><ele>-0.891</ele><time>2026-08-20T18:10:26Z</time></trkpt><trkpt lat="47.891604" lon="-124.629129"><ele>-1.081</ele><time>2026-08-20T18:10:30Z</time></trkpt><trkpt lat="47.891646" lon="-124.629125"><ele>-1.019</ele><time>2026-08-20T18:10:36Z</time></trkpt><trkpt lat="47.891713" lon="-124.62909"><ele>-0.809</ele><time>2026-08-20T18:10:46Z</time></trkpt><trkpt lat="47.891759" lon="-124.629077"><ele>-0.491</ele><time>2026-08-20T18:10:54Z</time></trkpt><trkpt lat="47.891796" lon="-124.629051"><ele>-0.257</ele><time>2026-08-20T18:11:01Z</time></trkpt><trkpt lat="47.891828" lon="-124.629015"><ele>0.280</ele><time>2026-08-20T18:11:10Z</time></trkpt><trkpt lat="47.891863" lon="-124.628972"><ele>0.489</ele><time>2026-08-20T18:11:18Z</time></trkpt><trkpt lat="47.891867" lon="-124.628964"><ele>0.475</ele><time>2026-08-20T18:11:19Z</time></trkpt><trkpt lat="47.891885" lon="-124.628939"><ele>0.439</ele><time>2026-08-20T18:11:25Z</time></trkpt><trkpt lat="47.891907" lon="-124.62892"><ele>0.447</ele><time>2026-08-20T18:11:28Z</time></trkpt><trkpt lat="47.891945" lon="-124.628895"><ele>0.487</ele><time>2026-08-20T18:11:36Z</time></trkpt><trkpt lat="47.891957" lon="-124.628891"><ele>0.633</ele><time>2026-08-20T18:11:42Z</time></trkpt><trkpt lat="47.891963" lon="-124.628888"><ele>0.625</ele><time>2026-08-20T18:11:44Z</time></trkpt><trkpt lat="47.891981" lon="-124.628872"><ele>0.826</ele><time>2026-08-20T18:11:49Z</time></trkpt><trkpt lat="47.891991" lon="-124.628859"><ele>0.808</ele><time>2026-08-20T18:11:51Z</time></trkpt><trkpt lat="47.892023" lon="-124.628819"><ele>0.809</ele><time>2026-08-20T18:11:59Z</time></trkpt><trkpt lat="47.892046" lon="-124.628776"><ele>0.894</ele><time>2026-08-20T18:12:07Z</time></trkpt><trkpt lat="47.892053" lon="-124.628782"><ele>1.060</ele><time>2026-08-20T18:12:14Z</time></trkpt><trkpt lat="47.892054" lon="-124.628782"><ele>1.013</ele><time>2026-08-20T18:12:21Z</time></trkpt><trkpt lat="47.89205" lon="-124.628792"><ele>0.842</ele><time>2026-08-20T18:12:23Z</time></trkpt><trkpt lat="47.89194" lon="-124.628811"><ele>7.658</ele><time>2026-08-20T19:14:07Z</time></trkpt><trkpt lat="47.891919" lon="-124.628716"><ele>7.282</ele><time>2026-08-20T19:14:13Z</time></trkpt><trkpt lat="47.89192" lon="-124.628719"><ele>7.240</ele><time>2026-08-20T19:14:14Z</time></trkpt><trkpt lat="47.891895" lon="-124.62868"><ele>7.290</ele><time>2026-08-20T19:14:21Z</time></trkpt><trkpt lat="47.891892" lon="-124.628674"><ele>7.446</ele><time>2026-08-20T19:14:22Z</time></trkpt><trkpt lat="47.891878" lon="-124.628651"><ele>7.496</ele><time>2026-08-20T19:14:26Z</time></trkpt><trkpt lat="47.891862" lon="-124.628621"><ele>7.231</ele><time>2026-08-20T19:14:30Z</time></trkpt><trkpt lat="47.891833" lon="-124.628562"><ele>7.024</ele><time>2026-08-20T19:14:39Z</time></trkpt><trkpt lat="47.891794" lon="-124.628496"><ele>7.409</ele><time>2026-08-20T19:14:49Z</time></trkpt><trkpt lat="47.891746" lon="-124.628447"><ele>7.491</ele><time>2026-08-20T19:14:58Z</time></trkpt><trkpt lat="47.891697" lon="-124.628385"><ele>7.267</ele><time>2026-08-20T19:15:08Z</time></trkpt><trkpt lat="47.891675" lon="-124.628355"><ele>7.410</ele><time>2026-08-20T19:15:13Z</time></trkpt><trkpt lat="47.89166" lon="-124.628338"><ele>7.499</ele><time>2026-08-20T19:15:16Z</time></trkpt><trkpt lat="47.891657" lon="-124.628333"><ele>7.455</ele><time>2026-08-20T19:15:17Z</time></trkpt><trkpt lat="47.891613" lon="-124.628286"><ele>7.479</ele><time>2026-08-20T19:15:25Z</time></trkpt><trkpt lat="47.89159" lon="-124.628257"><ele>7.497</ele><time>2026-08-20T19:15:31Z</time></trkpt><trkpt lat="47.891572" lon="-124.628232"><ele>7.427</ele><time>2026-08-20T19:15:35Z</time></trkpt><trkpt lat="47.891533" lon="-124.628186"><ele>7.413</ele><time>2026-08-20T19:15:43Z</time></trkpt><trkpt lat="47.89152" lon="-124.628168"><ele>7.411</ele><time>2026-08-20T19:15:46Z</time></trkpt><trkpt lat="47.891508" lon="-124.628153"><ele>7.421</ele><time>2026-08-20T19:15:48Z</time></trkpt><trkpt lat="47.891494" lon="-124.628104"><ele>7.403</ele><time>2026-08-20T19:15:52Z</time></trkpt><trkpt lat="47.891483" lon="-124.628102"><ele>7.409</ele><time>2026-08-20T19:15:53Z</time></trkpt><trkpt lat="47.891459" lon="-124.628079"><ele>7.423</ele><time>2026-08-20T19:15:58Z</time></trkpt><trkpt lat="47.891412" lon="-124.62801"><ele>7.439</ele><time>2026-08-20T19:16:07Z</time></trkpt><trkpt lat="47.891359" lon="-124.627946"><ele>7.822</ele><time>2026-08-20T19:16:16Z</time></trkpt><trkpt lat="47.891316" lon="-124.627886"><ele>7.271</ele><time>2026-08-20T19:16:25Z</time></trkpt><trkpt lat="47.891271" lon="-124.627839"><ele>7.217</ele><time>2026-08-20T19:16:32Z</time></trkpt><trkpt lat="47.891204" lon="-124.627769"><ele>7.291</ele><time>2026-08-20T19:16:43Z</time></trkpt><trkpt lat="47.891193" lon="-124.627754"><ele>7.239</ele><time>2026-08-20T19:16:45Z</time></trkpt><trkpt lat="47.89116" lon="-124.627687"><ele>7.289</ele><time>2026-08-20T19:16:53Z</time></trkpt><trkpt lat="47.891138" lon="-124.627582"><ele>7.425</ele><time>2026-08-20T19:17:02Z</time></trkpt><trkpt lat="47.891136" lon="-124.627572"><ele>7.417</ele><time>2026-08-20T19:17:03Z</time></trkpt><trkpt lat="47.891123" lon="-124.627449"><ele>7.487</ele><time>2026-08-20T19:17:13Z</time></trkpt><trkpt lat="47.891119" lon="-124.627378"><ele>7.415</ele><time>2026-08-20T19:17:21Z</time></trkpt><trkpt lat="47.891119" lon="-124.627339"><ele>7.609</ele><time>2026-08-20T19:17:28Z</time></trkpt><trkpt lat="47.891138" lon="-124.627321"><ele>7.443</ele><time>2026-08-20T19:17:35Z</time></trkpt><trkpt lat="47.891152" lon="-124.627272"><ele>8.219</ele><time>2026-08-20T19:17:43Z</time></trkpt><trkpt lat="47.891174" lon="-124.627228"><ele>8.492</ele><time>2026-08-20T19:17:52Z</time></trkpt><trkpt lat="47.891185" lon="-124.627204"><ele>8.631</ele><time>2026-08-20T19:17:57Z</time></trkpt><trkpt lat="47.891198" lon="-124.627175"><ele>9.457</ele><time>2026-08-20T19:18:02Z</time></trkpt><trkpt lat="47.891202" lon="-124.627163"><ele>9.841</ele><time>2026-08-20T19:18:04Z</time></trkpt><trkpt lat="47.891252" lon="-124.627141"><ele>10.479</ele><time>2026-08-20T19:18:11Z</time></trkpt><trkpt lat="47.891269" lon="-124.627133"><ele>10.869</ele><time>2026-08-20T19:18:14Z</time></trkpt><trkpt lat="47.891308" lon="-124.627128"><ele>11.245</ele><time>2026-08-20T19:18:18Z</time></trkpt><trkpt lat="47.891317" lon="-124.627121"><ele>11.278</ele><time>2026-08-20T19:18:19Z</time></trkpt><trkpt lat="47.891332" lon="-124.62711"><ele>11.433</ele><time>2026-08-20T19:18:22Z</time></trkpt><trkpt lat="47.891334" lon="-124.627105"><ele>11.426</ele><time>2026-08-20T19:18:23Z</time></trkpt><trkpt lat="47.891333" lon="-124.627092"><ele>11.609</ele><time>2026-08-20T19:18:25Z</time></trkpt><trkpt lat="47.891334" lon="-124.627081"><ele>11.899</ele><time>2026-08-20T19:18:27Z</time></trkpt><trkpt lat="47.891336" lon="-124.627072"><ele>11.875</ele><time>2026-08-20T19:18:28Z</time></trkpt><trkpt lat="47.891346" lon="-124.627027"><ele>12.268</ele><time>2026-08-20T19:18:33Z</time></trkpt><trkpt lat="47.891349" lon="-124.626969"><ele>12.687</ele><time>2026-08-20T19:18:38Z</time></trkpt><trkpt lat="47.891342" lon="-124.626941"><ele>13.023</ele><time>2026-08-20T19:18:41Z</time></trkpt><trkpt lat="47.891335" lon="-124.626903"><ele>14.287</ele><time>2026-08-20T19:18:47Z</time></trkpt><trkpt lat="47.891336" lon="-124.626891"><ele>14.685</ele><time>2026-08-20T19:18:49Z</time></trkpt><trkpt lat="47.891326" lon="-124.62688"><ele>15.085</ele><time>2026-08-20T19:18:54Z</time></trkpt><trkpt lat="47.891327" lon="-124.62687"><ele>15.271</ele><time>2026-08-20T19:18:55Z</time></trkpt><trkpt lat="47.891325" lon="-124.626847"><ele>15.665</ele><time>2026-08-20T19:18:57Z</time></trkpt><trkpt lat="47.891322" lon="-124.626795"><ele>16.468</ele><time>2026-08-20T19:19:01Z</time></trkpt><trkpt lat="47.891322" lon="-124.626754"><ele>17.614</ele><time>2026-08-20T19:19:07Z</time></trkpt><trkpt lat="47.891321" lon="-124.626746"><ele>18.009</ele><time>2026-08-20T19:19:10Z</time></trkpt><trkpt lat="47.891323" lon="-124.626724"><ele>18.698</ele><time>2026-08-20T19:19:13Z</time></trkpt><trkpt lat="47.89133" lon="-124.626685"><ele>19.044</ele><time>2026-08-20T19:19:21Z</time></trkpt><trkpt lat="47.891329" lon="-124.626637"><ele>19.697</ele><time>2026-08-20T19:19:25Z</time></trkpt><trkpt lat="47.891335" lon="-124.626568"><ele>20.686</ele><time>2026-08-20T19:19:31Z</time></trkpt><trkpt lat="47.891336" lon="-124.626562"><ele>20.852</ele><time>2026-08-20T19:19:32Z</time></trkpt><trkpt lat="47.891353" lon="-124.626574"><ele>21.856</ele><time>2026-08-20T19:19:37Z</time></trkpt><trkpt lat="47.891368" lon="-124.626605"><ele>22.464</ele><time>2026-08-20T19:19:40Z</time></trkpt><trkpt lat="47.891408" lon="-124.626662"><ele>23.024</ele><time>2026-08-20T19:19:46Z</time></trkpt><trkpt lat="47.891428" lon="-124.626683"><ele>23.630</ele><time>2026-08-20T19:19:50Z</time></trkpt><trkpt lat="47.891439" lon="-124.626691"><ele>24.076</ele><time>2026-08-20T19:19:52Z</time></trkpt><trkpt lat="47.891455" lon="-124.626702"><ele>24.490</ele><time>2026-08-20T19:19:54Z</time></trkpt><trkpt lat="47.891486" lon="-124.62671"><ele>25.019</ele><time>2026-08-20T19:19:58Z</time></trkpt><trkpt lat="47.891518" lon="-124.626708"><ele>25.609</ele><time>2026-08-20T19:20:01Z</time></trkpt><trkpt lat="47.891533" lon="-124.626697"><ele>26.239</ele><time>2026-08-20T19:20:04Z</time></trkpt><trkpt lat="47.891552" lon="-124.626695"><ele>26.665</ele><time>2026-08-20T19:20:07Z</time></trkpt><trkpt lat="47.891574" lon="-124.626688"><ele>27.088</ele><time>2026-08-20T19:20:10Z</time></trkpt><trkpt lat="47.891588" lon="-124.626682"><ele>27.267</ele><time>2026-08-20T19:20:12Z</time></trkpt><trkpt lat="47.891625" lon="-124.626656"><ele>28.463</ele><time>2026-08-20T19:20:18Z</time></trkpt><trkpt lat="47.891628" lon="-124.626652"><ele>28.627</ele><time>2026-08-20T19:20:20Z</time></trkpt><trkpt lat="47.891664" lon="-124.626618"><ele>29.445</ele><time>2026-08-20T19:20:26Z</time></trkpt><trkpt lat="47.891702" lon="-124.626569"><ele>30.245</ele><time>2026-08-20T19:20:32Z</time></trkpt><trkpt lat="47.891717" lon="-124.626544"><ele>30.611</ele><time>2026-08-20T19:20:35Z</time></trkpt><trkpt lat="47.891734" lon="-124.626466"><ele>31.647</ele><time>2026-08-20T19:20:43Z</time></trkpt><trkpt lat="47.891738" lon="-124.626437"><ele>32.029</ele><time>2026-08-20T19:20:46Z</time></trkpt><trkpt lat="47.891746" lon="-124.626381"><ele>32.821</ele><time>2026-08-20T19:20:52Z</time></trkpt><trkpt lat="47.891747" lon="-124.62637"><ele>33.009</ele><time>2026-08-20T19:20:53Z</time></trkpt><trkpt lat="47.891749" lon="-124.626354"><ele>33.046</ele><time>2026-08-20T19:20:54Z</time></trkpt><trkpt lat="47.89175" lon="-124.626342"><ele>33.232</ele><time>2026-08-20T19:20:55Z</time></trkpt><trkpt lat="47.891755" lon="-124.626313"><ele>33.655</ele><time>2026-08-20T19:20:58Z</time></trkpt><trkpt lat="47.891756" lon="-124.626308"><ele>33.884</ele><time>2026-08-20T19:20:59Z</time></trkpt><trkpt lat="47.891756" lon="-124.626301"><ele>33.840</ele><time>2026-08-20T19:21:00Z</time></trkpt><trkpt lat="47.891741" lon="-124.626224"><ele>35.064</ele><time>2026-08-20T19:21:06Z</time></trkpt><trkpt lat="47.891733" lon="-124.626193"><ele>35.832</ele><time>2026-08-20T19:21:10Z</time></trkpt><trkpt lat="47.891731" lon="-124.626161"><ele>36.082</ele><time>2026-08-20T19:21:12Z</time></trkpt><trkpt lat="47.891723" lon="-124.626111"><ele>37.078</ele><time>2026-08-20T19:21:18Z</time></trkpt><trkpt lat="47.891718" lon="-124.626095"><ele>37.476</ele><time>2026-08-20T19:21:20Z</time></trkpt><trkpt lat="47.891708" lon="-124.626082"><ele>38.290</ele><time>2026-08-20T19:21:25Z</time></trkpt><trkpt lat="47.891695" lon="-124.626055"><ele>38.819</ele><time>2026-08-20T19:21:31Z</time></trkpt><trkpt lat="47.891688" lon="-124.626043"><ele>39.209</ele><time>2026-08-20T19:21:33Z</time></trkpt><trkpt lat="47.891683" lon="-124.626007"><ele>40.279</ele><time>2026-08-20T19:21:40Z</time></trkpt><trkpt lat="47.891688" lon="-124.626002"><ele>40.695</ele><time>2026-08-20T19:21:42Z</time></trkpt><trkpt lat="47.891704" lon="-124.625986"><ele>41.478</ele><time>2026-08-20T19:21:46Z</time></trkpt><trkpt lat="47.891746" lon="-124.625991"><ele>42.217</ele><time>2026-08-20T19:21:53Z</time></trkpt><trkpt lat="47.891767" lon="-124.625993"><ele>42.463</ele><time>2026-08-20T19:21:56Z</time></trkpt><trkpt lat="47.891797" lon="-124.625975"><ele>43.087</ele><time>2026-08-20T19:22:02Z</time></trkpt><trkpt lat="47.891823" lon="-124.625967"><ele>43.685</ele><time>2026-08-20T19:22:07Z</time></trkpt><trkpt lat="47.891854" lon="-124.625961"><ele>44.255</ele><time>2026-08-20T19:22:12Z</time></trkpt><trkpt lat="47.891867" lon="-124.625954"><ele>44.661</ele><time>2026-08-20T19:22:14Z</time></trkpt><trkpt lat="47.891912" lon="-124.625931"><ele>45.611</ele><time>2026-08-20T19:22:23Z</time></trkpt><trkpt lat="47.891939" lon="-124.625892"><ele>46.821</ele><time>2026-08-20T19:22:30Z</time></trkpt><trkpt lat="47.891951" lon="-124.625883"><ele>47.403</ele><time>2026-08-20T19:22:34Z</time></trkpt><trkpt lat="47.891982" lon="-124.625874"><ele>48.009</ele><time>2026-08-20T19:22:38Z</time></trkpt><trkpt lat="47.892029" lon="-124.62589"><ele>48.833</ele><time>2026-08-20T19:22:45Z</time></trkpt><trkpt lat="47.892035" lon="-124.625892"><ele>49.059</ele><time>2026-08-20T19:22:46Z</time></trkpt><trkpt lat="47.892079" lon="-124.625905"><ele>50.072</ele><time>2026-08-20T19:22:53Z</time></trkpt><trkpt lat="47.892081" lon="-124.625896"><ele>50.431</ele><time>2026-08-20T19:22:56Z</time></trkpt><trkpt lat="47.892073" lon="-124.62587"><ele>51.057</ele><time>2026-08-20T19:23:00Z</time></trkpt><trkpt lat="47.892056" lon="-124.625834"><ele>51.641</ele><time>2026-08-20T19:23:04Z</time></trkpt><trkpt lat="47.89204" lon="-124.625799"><ele>51.889</ele><time>2026-08-20T19:23:07Z</time></trkpt><trkpt lat="47.892032" lon="-124.625779"><ele>52.279</ele><time>2026-08-20T19:23:09Z</time></trkpt><trkpt lat="47.892027" lon="-124.625698"><ele>53.225</ele><time>2026-08-20T19:23:15Z</time></trkpt><trkpt lat="47.892026" lon="-124.625669"><ele>53.463</ele><time>2026-08-20T19:23:17Z</time></trkpt><trkpt lat="47.892022" lon="-124.625626"><ele>54.244</ele><time>2026-08-20T19:23:22Z</time></trkpt><trkpt lat="47.892017" lon="-124.625572"><ele>54.618</ele><time>2026-08-20T19:23:27Z</time></trkpt><trkpt lat="47.892042" lon="-124.625538"><ele>55.409</ele><time>2026-08-20T19:23:36Z</time></trkpt><trkpt lat="47.892045" lon="-124.625537"><ele>55.418</ele><time>2026-08-20T19:23:37Z</time></trkpt><trkpt lat="47.892089" lon="-124.625587"><ele>56.054</ele><time>2026-08-20T19:23:46Z</time></trkpt><trkpt lat="47.892137" lon="-124.625639"><ele>56.437</ele><time>2026-08-20T19:23:53Z</time></trkpt><trkpt lat="47.892156" lon="-124.625652"><ele>56.626</ele><time>2026-08-20T19:23:56Z</time></trkpt><trkpt lat="47.892184" lon="-124.625668"><ele>56.872</ele><time>2026-08-20T19:23:59Z</time></trkpt><trkpt lat="47.892265" lon="-124.625714"><ele>57.486</ele><time>2026-08-20T19:24:07Z</time></trkpt><trkpt lat="47.892327" lon="-124.625751"><ele>58.224</ele><time>2026-08-20T19:24:18Z</time></trkpt><trkpt lat="47.892374" lon="-124.625737"><ele>58.444</ele><time>2026-08-20T19:24:24Z</time></trkpt><trkpt lat="47.892407" lon="-124.625733"><ele>58.620</ele><time>2026-08-20T19:24:28Z</time></trkpt><trkpt lat="47.892505" lon="-124.6258"><ele>59.064</ele><time>2026-08-20T19:24:38Z</time></trkpt><trkpt lat="47.892575" lon="-124.625817"><ele>59.406</ele><time>2026-08-20T19:24:44Z</time></trkpt><trkpt lat="47.892619" lon="-124.625838"><ele>59.416</ele><time>2026-08-20T19:24:49Z</time></trkpt><trkpt lat="47.892678" lon="-124.625891"><ele>59.609</ele><time>2026-08-20T19:24:58Z</time></trkpt><trkpt lat="47.89276" lon="-124.625988"><ele>60.038</ele><time>2026-08-20T19:25:08Z</time></trkpt><trkpt lat="47.89281" lon="-124.62607"><ele>60.054</ele><time>2026-08-20T19:25:14Z</time></trkpt><trkpt lat="47.892833" lon="-124.626093"><ele>60.237</ele><time>2026-08-20T19:25:17Z</time></trkpt><trkpt lat="47.892881" lon="-124.626092"><ele>60.226</ele><time>2026-08-20T19:25:23Z</time></trkpt><trkpt lat="47.892905" lon="-124.626074"><ele>60.492</ele><time>2026-08-20T19:25:26Z</time></trkpt><trkpt lat="47.892967" lon="-124.626068"><ele>60.456</ele><time>2026-08-20T19:25:32Z</time></trkpt><trkpt lat="47.89304" lon="-124.62607"><ele>60.644</ele><time>2026-08-20T19:25:38Z</time></trkpt><trkpt lat="47.893117" lon="-124.626026"><ele>60.844</ele><time>2026-08-20T19:25:48Z</time></trkpt><trkpt lat="47.893204" lon="-124.625991"><ele>61.060</ele><time>2026-08-20T19:25:56Z</time></trkpt><trkpt lat="47.893292" lon="-124.625895"><ele>61.421</ele><time>2026-08-20T19:26:05Z</time></trkpt><trkpt lat="47.893305" lon="-124.625865"><ele>61.641</ele><time>2026-08-20T19:26:07Z</time></trkpt><trkpt lat="47.893358" lon="-124.625715"><ele>62.005</ele><time>2026-08-20T19:26:18Z</time></trkpt><trkpt lat="47.89336" lon="-124.625706"><ele>62.009</ele><time>2026-08-20T19:26:19Z</time></trkpt><trkpt lat="47.893369" lon="-124.625636"><ele>62.024</ele><time>2026-08-20T19:26:24Z</time></trkpt><trkpt lat="47.893377" lon="-124.625584"><ele>62.010</ele><time>2026-08-20T19:26:27Z</time></trkpt><trkpt lat="47.893407" lon="-124.625469"><ele>62.063</ele><time>2026-08-20T19:26:35Z</time></trkpt><trkpt lat="47.89346" lon="-124.62541"><ele>62.092</ele><time>2026-08-20T19:26:44Z</time></trkpt><trkpt lat="47.893506" lon="-124.625331"><ele>62.468</ele><time>2026-08-20T19:26:54Z</time></trkpt><trkpt lat="47.893526" lon="-124.6253"><ele>62.452</ele><time>2026-08-20T19:26:57Z</time></trkpt><trkpt lat="47.893532" lon="-124.625276"><ele>62.690</ele><time>2026-08-20T19:26:59Z</time></trkpt><trkpt lat="47.893536" lon="-124.625251"><ele>62.630</ele><time>2026-08-20T19:27:01Z</time></trkpt><trkpt lat="47.893539" lon="-124.625235"><ele>62.646</ele><time>2026-08-20T19:27:02Z</time></trkpt><trkpt lat="47.893592" lon="-124.625095"><ele>62.693</ele><time>2026-08-20T19:27:11Z</time></trkpt><trkpt lat="47.893647" lon="-124.625061"><ele>62.865</ele><time>2026-08-20T19:27:22Z</time></trkpt><trkpt lat="47.893711" lon="-124.625149"><ele>62.821</ele><time>2026-08-20T19:27:31Z</time></trkpt><trkpt lat="47.893743" lon="-124.625196"><ele>63.209</ele><time>2026-08-20T19:27:36Z</time></trkpt><trkpt lat="47.89377" lon="-124.62523"><ele>63.291</ele><time>2026-08-20T19:27:40Z</time></trkpt><trkpt lat="47.893834" lon="-124.625272"><ele>63.247</ele><time>2026-08-20T19:27:47Z</time></trkpt><trkpt lat="47.893857" lon="-124.62527"><ele>63.270</ele><time>2026-08-20T19:27:50Z</time></trkpt><trkpt lat="47.893921" lon="-124.62524"><ele>63.499</ele><time>2026-08-20T19:27:57Z</time></trkpt><trkpt lat="47.893955" lon="-124.625227"><ele>63.625</ele><time>2026-08-20T19:28:00Z</time></trkpt><trkpt lat="47.89402" lon="-124.625207"><ele>63.499</ele><time>2026-08-20T19:28:08Z</time></trkpt><trkpt lat="47.894118" lon="-124.625173"><ele>63.247</ele><time>2026-08-20T19:28:18Z</time></trkpt><trkpt lat="47.894148" lon="-124.625159"><ele>63.237</ele><time>2026-08-20T19:28:22Z</time></trkpt><trkpt lat="47.894202" lon="-124.625147"><ele>63.263</ele><time>2026-08-20T19:28:33Z</time></trkpt><trkpt lat="47.894256" lon="-124.625142"><ele>63.224</ele><time>2026-08-20T19:28:37Z</time></trkpt><trkpt lat="47.8943" lon="-124.625093"><ele>62.804</ele><time>2026-08-20T19:28:42Z</time></trkpt><trkpt lat="47.894391" lon="-124.624953"><ele>62.614</ele><time>2026-08-20T19:28:53Z</time></trkpt><trkpt lat="47.894403" lon="-124.624943"><ele>62.409</ele><time>2026-08-20T19:28:56Z</time></trkpt><trkpt lat="47.894444" lon="-124.624897"><ele>62.254</ele><time>2026-08-20T19:29:03Z</time></trkpt><trkpt lat="47.89451" lon="-124.624808"><ele>61.880</ele><time>2026-08-20T19:29:11Z</time></trkpt><trkpt lat="47.894551" lon="-124.624805"><ele>61.853</ele><time>2026-08-20T19:29:19Z</time></trkpt><trkpt lat="47.894562" lon="-124.624811"><ele>61.852</ele><time>2026-08-20T19:29:20Z</time></trkpt><trkpt lat="47.894578" lon="-124.624826"><ele>61.478</ele><time>2026-08-20T19:29:23Z</time></trkpt><trkpt lat="47.894619" lon="-124.624899"><ele>61.482</ele><time>2026-08-20T19:29:32Z</time></trkpt><trkpt lat="47.894704" lon="-124.624958"><ele>61.680</ele><time>2026-08-20T19:29:40Z</time></trkpt><trkpt lat="47.894759" lon="-124.624896"><ele>61.410</ele><time>2026-08-20T19:29:48Z</time></trkpt><trkpt lat="47.894832" lon="-124.624843"><ele>61.226</ele><time>2026-08-20T19:29:56Z</time></trkpt><trkpt lat="47.894853" lon="-124.624847"><ele>61.233</ele><time>2026-08-20T19:29:58Z</time></trkpt><trkpt lat="47.894937" lon="-124.624873"><ele>61.223</ele><time>2026-08-20T19:30:06Z</time></trkpt><trkpt lat="47.895018" lon="-124.624877"><ele>61.015</ele><time>2026-08-20T19:30:15Z</time></trkpt><trkpt lat="47.895106" lon="-124.624984"><ele>61.209</ele><time>2026-08-20T19:30:27Z</time></trkpt><trkpt lat="47.895198" lon="-124.625076"><ele>61.245</ele><time>2026-08-20T19:30:37Z</time></trkpt><trkpt lat="47.895279" lon="-124.625147"><ele>61.631</ele><time>2026-08-20T19:30:45Z</time></trkpt><trkpt lat="47.895369" lon="-124.625173"><ele>61.634</ele><time>2026-08-20T19:30:54Z</time></trkpt><trkpt lat="47.895394" lon="-124.62518"><ele>61.683</ele><time>2026-08-20T19:30:56Z</time></trkpt><trkpt lat="47.895466" lon="-124.625161"><ele>62.259</ele><time>2026-08-20T19:31:06Z</time></trkpt><trkpt lat="47.895497" lon="-124.625151"><ele>62.613</ele><time>2026-08-20T19:31:11Z</time></trkpt><trkpt lat="47.895504" lon="-124.625176"><ele>63.071</ele><time>2026-08-20T19:31:15Z</time></trkpt><trkpt lat="47.895575" lon="-124.625226"><ele>63.661</ele><time>2026-08-20T19:31:24Z</time></trkpt><trkpt lat="47.895596" lon="-124.625255"><ele>64.017</ele><time>2026-08-20T19:31:27Z</time></trkpt><trkpt lat="47.895608" lon="-124.625268"><ele>64.238</ele><time>2026-08-20T19:31:29Z</time></trkpt><trkpt lat="47.89565" lon="-124.625335"><ele>64.470</ele><time>2026-08-20T19:31:35Z</time></trkpt><trkpt lat="47.895655" lon="-124.625351"><ele>64.617</ele><time>2026-08-20T19:31:36Z</time></trkpt><trkpt lat="47.895673" lon="-124.625401"><ele>64.609</ele><time>2026-08-20T19:31:41Z</time></trkpt><trkpt lat="47.895666" lon="-124.625477"><ele>64.625</ele><time>2026-08-20T19:31:48Z</time></trkpt><trkpt lat="47.895663" lon="-124.625567"><ele>64.841</ele><time>2026-08-20T19:31:55Z</time></trkpt><trkpt lat="47.895665" lon="-124.625596"><ele>64.864</ele><time>2026-08-20T19:31:57Z</time></trkpt><trkpt lat="47.895714" lon="-124.625743"><ele>64.643</ele><time>2026-08-20T19:32:07Z</time></trkpt><trkpt lat="47.895741" lon="-124.625757"><ele>64.829</ele><time>2026-08-20T19:32:11Z</time></trkpt><trkpt lat="47.895786" lon="-124.625752"><ele>65.293</ele><time>2026-08-20T19:32:16Z</time></trkpt><trkpt lat="47.895858" lon="-124.625722"><ele>65.431</ele><time>2026-08-20T19:32:22Z</time></trkpt><trkpt lat="47.895892" lon="-124.625723"><ele>65.641</ele><time>2026-08-20T19:32:26Z</time></trkpt><trkpt lat="47.895989" lon="-124.625692"><ele>65.487</ele><time>2026-08-20T19:32:37Z</time></trkpt><trkpt lat="47.896052" lon="-124.625642"><ele>64.662</ele><time>2026-08-20T19:32:45Z</time></trkpt><trkpt lat="47.896062" lon="-124.625635"><ele>64.683</ele><time>2026-08-20T19:32:46Z</time></trkpt><trkpt lat="47.896127" lon="-124.625562"><ele>63.811</ele><time>2026-08-20T19:32:53Z</time></trkpt><trkpt lat="47.896144" lon="-124.625544"><ele>63.609</ele><time>2026-08-20T19:32:55Z</time></trkpt><trkpt lat="47.896155" lon="-124.625533"><ele>63.298</ele><time>2026-08-20T19:32:57Z</time></trkpt><trkpt lat="47.896196" lon="-124.625514"><ele>62.614</ele><time>2026-08-20T19:33:01Z</time></trkpt><trkpt lat="47.896246" lon="-124.625499"><ele>61.897</ele><time>2026-08-20T19:33:06Z</time></trkpt><trkpt lat="47.896275" lon="-124.625491"><ele>61.486</ele><time>2026-08-20T19:33:09Z</time></trkpt><trkpt lat="47.896338" lon="-124.625457"><ele>60.872</ele><time>2026-08-20T19:33:15Z</time></trkpt><trkpt lat="47.896368" lon="-124.625438"><ele>60.456</ele><time>2026-08-20T19:33:19Z</time></trkpt><trkpt lat="47.896421" lon="-124.625434"><ele>59.494</ele><time>2026-08-20T19:33:27Z</time></trkpt><trkpt lat="47.89643" lon="-124.625435"><ele>59.234</ele><time>2026-08-20T19:33:28Z</time></trkpt><trkpt lat="47.896488" lon="-124.625431"><ele>58.430</ele><time>2026-08-20T19:33:35Z</time></trkpt><trkpt lat="47.896534" lon="-124.625417"><ele>58.098</ele><time>2026-08-20T19:33:38Z</time></trkpt><trkpt lat="47.896594" lon="-124.625404"><ele>57.215</ele><time>2026-08-20T19:33:43Z</time></trkpt><trkpt lat="47.896638" lon="-124.625423"><ele>56.226</ele><time>2026-08-20T19:33:48Z</time></trkpt><trkpt lat="47.896647" lon="-124.625425"><ele>56.009</ele><time>2026-08-20T19:33:49Z</time></trkpt><trkpt lat="47.8967" lon="-124.625409"><ele>55.251</ele><time>2026-08-20T19:33:54Z</time></trkpt><trkpt lat="47.896748" lon="-124.625402"><ele>54.437</ele><time>2026-08-20T19:33:58Z</time></trkpt><trkpt lat="47.896767" lon="-124.625409"><ele>54.080</ele><time>2026-08-20T19:34:00Z</time></trkpt><trkpt lat="47.896829" lon="-124.625408"><ele>53.069</ele><time>2026-08-20T19:34:07Z</time></trkpt><trkpt lat="47.896835" lon="-124.625409"><ele>52.835</ele><time>2026-08-20T19:34:08Z</time></trkpt><trkpt lat="47.896897" lon="-124.625386"><ele>51.859</ele><time>2026-08-20T19:34:15Z</time></trkpt><trkpt lat="47.896905" lon="-124.625387"><ele>51.627</ele><time>2026-08-20T19:34:16Z</time></trkpt><trkpt lat="47.89699" lon="-124.625322"><ele>50.897</ele><time>2026-08-20T19:34:24Z</time></trkpt><trkpt lat="47.897009" lon="-124.625306"><ele>50.633</ele><time>2026-08-20T19:34:26Z</time></trkpt><trkpt lat="47.897081" lon="-124.625231"><ele>50.227</ele><time>2026-08-20T19:34:33Z</time></trkpt><trkpt lat="47.897101" lon="-124.625216"><ele>50.268</ele><time>2026-08-20T19:34:35Z</time></trkpt><trkpt lat="47.897218" lon="-124.625157"><ele>50.014</ele><time>2026-08-20T19:34:45Z</time></trkpt><trkpt lat="47.897222" lon="-124.625137"><ele>49.809</ele><time>2026-08-20T19:34:49Z</time></trkpt><trkpt lat="47.897249" lon="-124.625122"><ele>49.674</ele><time>2026-08-20T19:34:52Z</time></trkpt><trkpt lat="47.897315" lon="-124.625067"><ele>49.220</ele><time>2026-08-20T19:35:00Z</time></trkpt><trkpt lat="47.897364" lon="-124.625002"><ele>48.623</ele><time>2026-08-20T19:35:07Z</time></trkpt><trkpt lat="47.897376" lon="-124.625002"><ele>48.472</ele><time>2026-08-20T19:35:10Z</time></trkpt><trkpt lat="47.897419" lon="-124.624989"><ele>47.888</ele><time>2026-08-20T19:35:17Z</time></trkpt><trkpt lat="47.897431" lon="-124.624983"><ele>47.832</ele><time>2026-08-20T19:35:19Z</time></trkpt><trkpt lat="47.897456" lon="-124.624969"><ele>47.680</ele><time>2026-08-20T19:35:22Z</time></trkpt><trkpt lat="47.897538" lon="-124.62494"><ele>46.630</ele><time>2026-08-20T19:35:29Z</time></trkpt><trkpt lat="47.897548" lon="-124.624944"><ele>46.646</ele><time>2026-08-20T19:35:30Z</time></trkpt><trkpt lat="47.897602" lon="-124.624953"><ele>45.641</ele><time>2026-08-20T19:35:36Z</time></trkpt><trkpt lat="47.897611" lon="-124.624954"><ele>45.481</ele><time>2026-08-20T19:35:37Z</time></trkpt><trkpt lat="47.897636" lon="-124.624955"><ele>45.009</ele><time>2026-08-20T19:35:40Z</time></trkpt><trkpt lat="47.897682" lon="-124.624953"><ele>44.409</ele><time>2026-08-20T19:35:44Z</time></trkpt><trkpt lat="47.897713" lon="-124.624965"><ele>43.466</ele><time>2026-08-20T19:35:49Z</time></trkpt><trkpt lat="47.897714" lon="-124.624967"><ele>43.232</ele><time>2026-08-20T19:35:50Z</time></trkpt><trkpt lat="47.897741" lon="-124.624971"><ele>42.035</ele><time>2026-08-20T19:35:57Z</time></trkpt><trkpt lat="47.897779" lon="-124.62495"><ele>41.254</ele><time>2026-08-20T19:36:02Z</time></trkpt><trkpt lat="47.897792" lon="-124.624947"><ele>40.820</ele><time>2026-08-20T19:36:04Z</time></trkpt><trkpt lat="47.897871" lon="-124.624975"><ele>39.884</ele><time>2026-08-20T19:36:13Z</time></trkpt><trkpt lat="47.897954" lon="-124.624976"><ele>38.812</ele><time>2026-08-20T19:36:20Z</time></trkpt><trkpt lat="47.897962" lon="-124.624963"><ele>38.642</ele><time>2026-08-20T19:36:21Z</time></trkpt><trkpt lat="47.897963" lon="-124.624948"><ele>38.458</ele><time>2026-08-20T19:36:22Z</time></trkpt><trkpt lat="47.897956" lon="-124.624917"><ele>37.874</ele><time>2026-08-20T19:36:25Z</time></trkpt><trkpt lat="47.897949" lon="-124.624879"><ele>37.456</ele><time>2026-08-20T19:36:27Z</time></trkpt><trkpt lat="47.897942" lon="-124.624839"><ele>37.221</ele><time>2026-08-20T19:36:29Z</time></trkpt><trkpt lat="47.897914" lon="-124.624653"><ele>36.809</ele><time>2026-08-20T19:36:41Z</time></trkpt><trkpt lat="47.897898" lon="-124.624553"><ele>38.049</ele><time>2026-08-20T19:36:49Z</time></trkpt><trkpt lat="47.897883" lon="-124.624488"><ele>38.615</ele><time>2026-08-20T19:36:54Z</time></trkpt><trkpt lat="47.897855" lon="-124.624382"><ele>39.088</ele><time>2026-08-20T19:37:01Z</time></trkpt><trkpt lat="47.897857" lon="-124.624313"><ele>39.667</ele><time>2026-08-20T19:37:09Z</time></trkpt><trkpt lat="47.897865" lon="-124.624298"><ele>39.663</ele><time>2026-08-20T19:37:11Z</time></trkpt><trkpt lat="47.897926" lon="-124.624265"><ele>40.287</ele><time>2026-08-20T19:37:19Z</time></trkpt><trkpt lat="47.897935" lon="-124.624259"><ele>40.235</ele><time>2026-08-20T19:37:20Z</time></trkpt><trkpt lat="47.89799" lon="-124.624156"><ele>40.645</ele><time>2026-08-20T19:37:28Z</time></trkpt><trkpt lat="47.897995" lon="-124.624144"><ele>40.661</ele><time>2026-08-20T19:37:29Z</time></trkpt><trkpt lat="47.898067" lon="-124.624053"><ele>41.627</ele><time>2026-08-20T19:37:39Z</time></trkpt><trkpt lat="47.898074" lon="-124.624047"><ele>41.868</ele><time>2026-08-20T19:37:40Z</time></trkpt><trkpt lat="47.898123" lon="-124.624013"><ele>42.614</ele><time>2026-08-20T19:37:47Z</time></trkpt><trkpt lat="47.898122" lon="-124.624"><ele>42.609</ele><time>2026-08-20T19:37:48Z</time></trkpt><trkpt lat="47.898126" lon="-124.623986"><ele>42.884</ele><time>2026-08-20T19:37:49Z</time></trkpt><trkpt lat="47.898104" lon="-124.623832"><ele>43.640</ele><time>2026-08-20T19:38:00Z</time></trkpt><trkpt lat="47.8981" lon="-124.623818"><ele>43.643</ele><time>2026-08-20T19:38:01Z</time></trkpt><trkpt lat="47.898107" lon="-124.623689"><ele>44.472</ele><time>2026-08-20T19:38:10Z</time></trkpt><trkpt lat="47.898107" lon="-124.623626"><ele>44.838</ele><time>2026-08-20T19:38:14Z</time></trkpt><trkpt lat="47.898102" lon="-124.623496"><ele>45.052</ele><time>2026-08-20T19:38:22Z</time></trkpt><trkpt lat="47.898099" lon="-124.6234"><ele>45.450</ele><time>2026-08-20T19:38:28Z</time></trkpt><trkpt lat="47.898092" lon="-124.623332"><ele>45.490</ele><time>2026-08-20T19:38:32Z</time></trkpt><trkpt lat="47.898092" lon="-124.62317"><ele>45.816</ele><time>2026-08-20T19:38:42Z</time></trkpt><trkpt lat="47.898099" lon="-124.623016"><ele>46.297</ele><time>2026-08-20T19:38:51Z</time></trkpt><trkpt lat="47.898099" lon="-124.622994"><ele>46.223</ele><time>2026-08-20T19:38:52Z</time></trkpt><trkpt lat="47.898089" lon="-124.622845"><ele>46.425</ele><time>2026-08-20T19:39:01Z</time></trkpt><trkpt lat="47.898089" lon="-124.622676"><ele>46.809</ele><time>2026-08-20T19:39:11Z</time></trkpt><trkpt lat="47.89809" lon="-124.622667"><ele>46.861</ele><time>2026-08-20T19:39:12Z</time></trkpt><trkpt lat="47.898096" lon="-124.622517"><ele>47.237</ele><time>2026-08-20T19:39:21Z</time></trkpt><trkpt lat="47.8981" lon="-124.622432"><ele>47.470</ele><time>2026-08-20T19:39:27Z</time></trkpt><trkpt lat="47.898102" lon="-124.622399"><ele>47.439</ele><time>2026-08-20T19:39:29Z</time></trkpt><trkpt lat="47.898107" lon="-124.622307"><ele>47.865</ele><time>2026-08-20T19:39:35Z</time></trkpt><trkpt lat="47.898112" lon="-124.622263"><ele>48.069</ele><time>2026-08-20T19:39:38Z</time></trkpt><trkpt lat="47.89812" lon="-124.622118"><ele>48.457</ele><time>2026-08-20T19:39:46Z</time></trkpt><trkpt lat="47.89812" lon="-124.6221"><ele>48.457</ele><time>2026-08-20T19:39:47Z</time></trkpt><trkpt lat="47.898121" lon="-124.622085"><ele>48.423</ele><time>2026-08-20T19:39:48Z</time></trkpt><trkpt lat="47.898105" lon="-124.62198"><ele>48.885</ele><time>2026-08-20T19:39:54Z</time></trkpt><trkpt lat="47.898107" lon="-124.621962"><ele>48.889</ele><time>2026-08-20T19:39:55Z</time></trkpt><trkpt lat="47.898105" lon="-124.621868"><ele>49.217</ele><time>2026-08-20T19:40:00Z</time></trkpt><trkpt lat="47.898104" lon="-124.621797"><ele>49.409</ele><time>2026-08-20T19:40:04Z</time></trkpt><trkpt lat="47.898108" lon="-124.621648"><ele>49.880</ele><time>2026-08-20T19:40:13Z</time></trkpt><trkpt lat="47.898112" lon="-124.62163"><ele>50.086</ele><time>2026-08-20T19:40:14Z</time></trkpt><trkpt lat="47.89812" lon="-124.621498"><ele>50.419</ele><time>2026-08-20T19:40:22Z</time></trkpt><trkpt lat="47.898129" lon="-124.621326"><ele>50.818</ele><time>2026-08-20T19:40:32Z</time></trkpt><trkpt lat="47.89813" lon="-124.621288"><ele>51.094</ele><time>2026-08-20T19:40:35Z</time></trkpt><trkpt lat="47.898127" lon="-124.621191"><ele>51.838</ele><time>2026-08-20T19:40:41Z</time></trkpt><trkpt lat="47.89813" lon="-124.621135"><ele>52.096</ele><time>2026-08-20T19:40:45Z</time></trkpt><trkpt lat="47.898119" lon="-124.621046"><ele>52.636</ele><time>2026-08-20T19:40:51Z</time></trkpt><trkpt lat="47.898111" lon="-124.620986"><ele>53.262</ele><time>2026-08-20T19:40:55Z</time></trkpt><trkpt lat="47.898094" lon="-124.620888"><ele>53.817</ele><time>2026-08-20T19:41:01Z</time></trkpt><trkpt lat="47.898084" lon="-124.62082"><ele>54.287</ele><time>2026-08-20T19:41:06Z</time></trkpt><trkpt lat="47.898063" lon="-124.620766"><ele>54.615</ele><time>2026-08-20T19:41:11Z</time></trkpt><trkpt lat="47.898033" lon="-124.620665"><ele>55.209</ele><time>2026-08-20T19:41:20Z</time></trkpt><trkpt lat="47.898018" lon="-124.620588"><ele>55.643</ele><time>2026-08-20T19:41:25Z</time></trkpt><trkpt lat="47.898" lon="-124.620549"><ele>55.859</ele><time>2026-08-20T19:41:31Z</time></trkpt><trkpt lat="47.897998" lon="-124.620555"><ele>55.882</ele><time>2026-08-20T19:41:32Z</time></trkpt><trkpt lat="47.897999" lon="-124.620569"><ele>55.861</ele><time>2026-08-20T19:41:33Z</time></trkpt><trkpt lat="47.898005" lon="-124.620638"><ele>55.477</ele><time>2026-08-20T19:41:38Z</time></trkpt><trkpt lat="47.897995" lon="-124.62068"><ele>55.451</ele><time>2026-08-20T19:41:46Z</time></trkpt><trkpt lat="47.897971" lon="-124.620681"><ele>55.499</ele><time>2026-08-20T19:41:55Z</time></trkpt><trkpt lat="47.89797" lon="-124.62068"><ele>55.459</ele><time>2026-08-20T19:41:56Z</time></trkpt><trkpt lat="47.897969" lon="-124.620681"><ele>55.425</ele><time>2026-08-20T19:41:59Z</time></trkpt><trkpt lat="47.897976" lon="-124.620671"><ele>55.627</ele><time>2026-08-20T19:42:04Z</time></trkpt><trkpt lat="47.897981" lon="-124.62067"><ele>55.668</ele><time>2026-08-20T19:42:06Z</time></trkpt><trkpt lat="47.897991" lon="-124.620697"><ele>55.414</ele><time>2026-08-20T19:42:15Z</time></trkpt><trkpt lat="47.897989" lon="-124.620702"><ele>55.409</ele><time>2026-08-20T19:42:16Z</time></trkpt><trkpt lat="47.897986" lon="-124.620704"><ele>55.464</ele><time>2026-08-20T19:42:17Z</time></trkpt><trkpt lat="47.897986" lon="-124.620707"><ele>55.440</ele><time>2026-08-20T19:42:18Z</time></trkpt><trkpt lat="47.897984" lon="-124.620706"><ele>55.413</ele><time>2026-08-20T19:42:19Z</time></trkpt><trkpt lat="47.897983" lon="-124.620709"><ele>55.442</ele><time>2026-08-20T19:42:21Z</time></trkpt><trkpt lat="47.897981" lon="-124.620702"><ele>55.278</ele><time>2026-08-20T19:42:26Z</time></trkpt><trkpt lat="47.897994" lon="-124.620694"><ele>55.632</ele><time>2026-08-20T19:42:33Z</time></trkpt><trkpt lat="47.897997" lon="-124.620689"><ele>55.460</ele><time>2026-08-20T19:42:36Z</time></trkpt><trkpt lat="47.897998" lon="-124.62069"><ele>55.290</ele><time>2026-08-20T19:42:46Z</time></trkpt><trkpt lat="47.897998" lon="-124.62069"><ele>55.036</ele><time>2026-08-20T19:42:54Z</time></trkpt><trkpt lat="47.897998" lon="-124.620691"><ele>54.847</ele><time>2026-08-20T19:43:04Z</time></trkpt><trkpt lat="47.897982" lon="-124.620695"><ele>55.229</ele><time>2026-08-20T19:43:14Z</time></trkpt><trkpt lat="47.897986" lon="-124.620679"><ele>55.221</ele><time>2026-08-20T19:43:19Z</time></trkpt><trkpt lat="47.897985" lon="-124.620668"><ele>55.209</ele><time>2026-08-20T19:43:23Z</time></trkpt><trkpt lat="47.897982" lon="-124.620675"><ele>54.826</ele><time>2026-08-20T19:43:33Z</time></trkpt><trkpt lat="47.897982" lon="-124.620676"><ele>54.812</ele><time>2026-08-20T19:43:34Z</time></trkpt><trkpt lat="47.897977" lon="-124.620697"><ele>55.015</ele><time>2026-08-20T19:43:46Z</time></trkpt><trkpt lat="47.897981" lon="-124.620698"><ele>55.634</ele><time>2026-08-20T19:43:53Z</time></trkpt><trkpt lat="47.897961" lon="-124.620701"><ele>55.220</ele><time>2026-08-20T19:44:04Z</time></trkpt><trkpt lat="47.897973" lon="-124.620709"><ele>54.894</ele><time>2026-08-20T19:44:16Z</time></trkpt><trkpt lat="47.897984" lon="-124.620711"><ele>55.092</ele><time>2026-08-20T19:44:26Z</time></trkpt><trkpt lat="47.898005" lon="-124.620698"><ele>54.822</ele><time>2026-08-20T19:44:37Z</time></trkpt><trkpt lat="47.898004" lon="-124.620696"><ele>55.098</ele><time>2026-08-20T19:44:45Z</time></trkpt><trkpt lat="47.897998" lon="-124.620694"><ele>55.039</ele><time>2026-08-20T19:44:46Z</time></trkpt><trkpt lat="47.89799" lon="-124.620689"><ele>55.201</ele><time>2026-08-20T19:44:48Z</time></trkpt><trkpt lat="47.897991" lon="-124.620683"><ele>54.821</ele><time>2026-08-20T19:44:57Z</time></trkpt><trkpt lat="47.897992" lon="-124.620677"><ele>54.809</ele><time>2026-08-20T19:45:07Z</time></trkpt><trkpt lat="47.898" lon="-124.620676"><ele>55.215</ele><time>2026-08-20T19:45:13Z</time></trkpt><trkpt lat="47.897979" lon="-124.620663"><ele>55.281</ele><time>2026-08-20T19:45:18Z</time></trkpt><trkpt lat="47.897978" lon="-124.620664"><ele>55.244</ele><time>2026-08-20T19:45:19Z</time></trkpt><trkpt lat="47.89798" lon="-124.620672"><ele>55.233</ele><time>2026-08-20T19:45:24Z</time></trkpt><trkpt lat="47.897978" lon="-124.620677"><ele>55.029</ele><time>2026-08-20T19:45:32Z</time></trkpt><trkpt lat="47.897971" lon="-124.620675"><ele>55.013</ele><time>2026-08-20T19:45:42Z</time></trkpt><trkpt lat="47.89798" lon="-124.620694"><ele>55.231</ele><time>2026-08-20T19:45:52Z</time></trkpt><trkpt lat="47.898011" lon="-124.620691"><ele>55.861</ele><time>2026-08-20T19:46:05Z</time></trkpt><trkpt lat="47.898002" lon="-124.620698"><ele>55.667</ele><time>2026-08-20T19:46:17Z</time></trkpt><trkpt lat="47.898002" lon="-124.620698"><ele>55.688</ele><time>2026-08-20T19:46:23Z</time></trkpt><trkpt lat="47.897998" lon="-124.620704"><ele>55.624</ele><time>2026-08-20T19:46:25Z</time></trkpt><trkpt lat="47.897994" lon="-124.620723"><ele>55.626</ele><time>2026-08-20T19:46:27Z</time></trkpt><trkpt lat="47.89799" lon="-124.620727"><ele>55.609</ele><time>2026-08-20T19:46:28Z</time></trkpt><trkpt lat="47.897985" lon="-124.620728"><ele>55.640</ele><time>2026-08-20T19:46:29Z</time></trkpt><trkpt lat="47.89798" lon="-124.620737"><ele>55.666</ele><time>2026-08-20T19:46:31Z</time></trkpt><trkpt lat="47.897978" lon="-124.620736"><ele>55.679</ele><time>2026-08-20T19:46:35Z</time></trkpt><trkpt lat="47.897981" lon="-124.620724"><ele>55.668</ele><time>2026-08-20T19:46:45Z</time></trkpt><trkpt lat="47.897964" lon="-124.620705"><ele>55.674</ele><time>2026-08-20T19:46:52Z</time></trkpt><trkpt lat="47.897965" lon="-124.620699"><ele>55.478</ele><time>2026-08-20T19:47:00Z</time></trkpt><trkpt lat="47.897973" lon="-124.620713"><ele>55.296</ele><time>2026-08-20T19:47:13Z</time></trkpt><trkpt lat="47.89798" lon="-124.620706"><ele>55.046</ele><time>2026-08-20T19:47:21Z</time></trkpt><trkpt lat="47.898003" lon="-124.620694"><ele>55.282</ele><time>2026-08-20T19:47:26Z</time></trkpt><trkpt lat="47.89801" lon="-124.620662"><ele>55.247</ele><time>2026-08-20T19:47:28Z</time></trkpt><trkpt lat="47.898009" lon="-124.62065"><ele>55.429</ele><time>2026-08-20T19:47:29Z</time></trkpt><trkpt lat="47.898013" lon="-124.620619"><ele>55.621</ele><time>2026-08-20T19:47:36Z</time></trkpt><trkpt lat="47.898005" lon="-124.620635"><ele>55.409</ele><time>2026-08-20T19:47:45Z</time></trkpt><trkpt lat="47.897999" lon="-124.620669"><ele>55.236</ele><time>2026-08-20T19:47:52Z</time></trkpt><trkpt lat="47.897987" lon="-124.620686"><ele>55.682</ele><time>2026-08-20T19:48:00Z</time></trkpt><trkpt lat="47.897972" lon="-124.620692"><ele>55.645</ele><time>2026-08-20T19:48:11Z</time></trkpt><trkpt lat="47.897958" lon="-124.62071"><ele>55.294</ele><time>2026-08-20T19:48:15Z</time></trkpt><trkpt lat="47.897962" lon="-124.620714"><ele>55.420</ele><time>2026-08-20T19:48:21Z</time></trkpt><trkpt lat="47.897984" lon="-124.6207"><ele>55.034</ele><time>2026-08-20T19:48:27Z</time></trkpt><trkpt lat="47.897993" lon="-124.620709"><ele>55.892</ele><time>2026-08-20T19:48:34Z</time></trkpt><trkpt lat="47.897985" lon="-124.620728"><ele>55.292</ele><time>2026-08-20T19:48:42Z</time></trkpt><trkpt lat="47.897995" lon="-124.620737"><ele>55.468</ele><time>2026-08-20T19:48:51Z</time></trkpt><trkpt lat="47.89799" lon="-124.620733"><ele>55.675</ele><time>2026-08-20T19:49:06Z</time></trkpt><trkpt lat="47.897988" lon="-124.620698"><ele>55.628</ele><time>2026-08-20T19:49:10Z</time></trkpt><trkpt lat="47.897986" lon="-124.620691"><ele>55.620</ele><time>2026-08-20T19:49:13Z</time></trkpt><trkpt lat="47.897976" lon="-124.620708"><ele>55.209</ele><time>2026-08-20T19:49:26Z</time></trkpt><trkpt lat="47.897969" lon="-124.620724"><ele>55.439</ele><time>2026-08-20T19:49:36Z</time></trkpt><trkpt lat="47.897968" lon="-124.62072"><ele>55.415</ele><time>2026-08-20T19:49:37Z</time></trkpt><trkpt lat="47.89796" lon="-124.620697"><ele>55.418</ele><time>2026-08-20T19:49:42Z</time></trkpt><trkpt lat="47.897956" lon="-124.620689"><ele>55.467</ele><time>2026-08-20T19:49:46Z</time></trkpt><trkpt lat="47.897963" lon="-124.620694"><ele>55.413</ele><time>2026-08-20T19:49:50Z</time></trkpt><trkpt lat="47.897981" lon="-124.620692"><ele>55.457</ele><time>2026-08-20T19:49:56Z</time></trkpt><trkpt lat="47.89799" lon="-124.620703"><ele>55.275</ele><time>2026-08-20T19:50:09Z</time></trkpt><trkpt lat="47.897983" lon="-124.620698"><ele>55.285</ele><time>2026-08-20T19:50:19Z</time></trkpt><trkpt lat="47.897985" lon="-124.620693"><ele>55.421</ele><time>2026-08-20T19:50:21Z</time></trkpt><trkpt lat="47.897993" lon="-124.620681"><ele>55.286</ele><time>2026-08-20T19:50:28Z</time></trkpt><trkpt lat="47.897985" lon="-124.620707"><ele>55.260</ele><time>2026-08-20T19:50:39Z</time></trkpt><trkpt lat="47.897976" lon="-124.620712"><ele>55.426</ele><time>2026-08-20T19:50:48Z</time></trkpt><trkpt lat="47.89798" lon="-124.6207"><ele>55.409</ele><time>2026-08-20T19:50:59Z</time></trkpt><trkpt lat="47.897978" lon="-124.620695"><ele>55.480</ele><time>2026-08-20T19:51:03Z</time></trkpt><trkpt lat="47.897973" lon="-124.620702"><ele>55.296</ele><time>2026-08-20T19:51:07Z</time></trkpt><trkpt lat="47.897991" lon="-124.620737"><ele>55.259</ele><time>2026-08-20T19:51:18Z</time></trkpt><trkpt lat="47.897993" lon="-124.620737"><ele>55.028</ele><time>2026-08-20T19:51:20Z</time></trkpt><trkpt lat="47.898" lon="-124.620748"><ele>55.074</ele><time>2026-08-20T19:51:31Z</time></trkpt><trkpt lat="47.897999" lon="-124.620747"><ele>55.268</ele><time>2026-08-20T19:51:35Z</time></trkpt><trkpt lat="47.897992" lon="-124.620714"><ele>55.236</ele><time>2026-08-20T19:51:43Z</time></trkpt><trkpt lat="47.89799" lon="-124.620708"><ele>54.826</ele><time>2026-08-20T19:51:53Z</time></trkpt><trkpt lat="47.897983" lon="-124.620697"><ele>55.452</ele><time>2026-08-20T19:52:04Z</time></trkpt></trkseg></trk></gpx>