<?xml version="1.0" encoding="UTF-8"?><gpx creator="Wikiloc - http://www.wikiloc.com" version="1.1" xmlns="http://www.topografix.com/GPX/1/1" xmlns:xsi="http://www.w3.org/2001/XMLSchema-instance" xsi:schemaLocation="http://www.topografix.com/GPX/1/1 http://www.topografix.com/GPX/1/1/gpx.xsd"><trk><name><![CDATA[Olympic National Park: Hall of Mosses]]></name><cmt><![CDATA[Smith Place]]></cmt><desc><![CDATA[Smith Place]]></desc><trkseg><trkpt lat="47.858009" lon="-123.933997"><ele>177.976</ele><time>2026-08-21T00:01:52Z</time></trkpt><trkpt lat="47.858011" lon="-123.934119"><ele>177.790</ele><time>2026-08-21T00:02:26Z</time></trkpt><trkpt lat="47.858066" lon="-123.934205"><ele>177.619</ele><time>2026-08-21T00:02:35Z</time></trkpt><trkpt lat="47.858136" lon="-123.934315"><ele>177.709</ele><time>2026-08-21T00:02:44Z</time></trkpt><trkpt lat="47.858204" lon="-123.934366"><ele>177.729</ele><time>2026-08-21T00:02:49Z</time></trkpt><trkpt lat="47.858275" lon="-123.934412"><ele>177.625</ele><time>2026-08-21T00:02:57Z</time></trkpt><trkpt lat="47.858344" lon="-123.934446"><ele>177.468</ele><time>2026-08-21T00:03:07Z</time></trkpt><trkpt lat="47.858422" lon="-123.934431"><ele>177.257</ele><time>2026-08-21T00:03:18Z</time></trkpt><trkpt lat="47.8585" lon="-123.934489"><ele>177.286</ele><time>2026-08-21T00:03:50Z</time></trkpt><trkpt lat="47.858585" lon="-123.9345"><ele>177.276</ele><time>2026-08-21T00:04:10Z</time></trkpt><trkpt lat="47.858708" lon="-123.93455"><ele>176.972</ele><time>2026-08-21T00:04:13Z</time></trkpt><trkpt lat="47.858864" lon="-123.934638"><ele>176.721</ele><time>2026-08-21T00:04:18Z</time></trkpt><trkpt lat="47.858911" lon="-123.934724"><ele>176.847</ele><time>2026-08-21T00:04:32Z</time></trkpt><trkpt lat="47.858977" lon="-123.934766"><ele>176.889</ele><time>2026-08-21T00:04:39Z</time></trkpt><trkpt lat="47.859061" lon="-123.934732"><ele>176.806</ele><time>2026-08-21T00:04:47Z</time></trkpt><trkpt lat="47.859127" lon="-123.934661"><ele>176.926</ele><time>2026-08-21T00:04:53Z</time></trkpt><trkpt lat="47.859163" lon="-123.934558"><ele>177.109</ele><time>2026-08-21T00:05:04Z</time></trkpt><trkpt lat="47.859252" lon="-123.934559"><ele>177.490</ele><time>2026-08-21T00:05:47Z</time></trkpt><trkpt lat="47.859337" lon="-123.934524"><ele>177.676</ele><time>2026-08-21T00:06:03Z</time></trkpt><trkpt lat="47.859422" lon="-123.934477"><ele>177.589</ele><time>2026-08-21T00:06:06Z</time></trkpt><trkpt lat="47.859461" lon="-123.934386"><ele>177.518</ele><time>2026-08-21T00:06:14Z</time></trkpt><trkpt lat="47.859537" lon="-123.934347"><ele>177.597</ele><time>2026-08-21T00:06:19Z</time></trkpt><trkpt lat="47.859614" lon="-123.934347"><ele>177.567</ele><time>2026-08-21T00:06:24Z</time></trkpt><trkpt lat="47.859703" lon="-123.934341"><ele>177.553</ele><time>2026-08-21T00:06:31Z</time></trkpt><trkpt lat="47.859776" lon="-123.934383"><ele>177.582</ele><time>2026-08-21T00:06:40Z</time></trkpt><trkpt lat="47.859855" lon="-123.934395"><ele>177.668</ele><time>2026-08-21T00:06:45Z</time></trkpt><trkpt lat="47.859937" lon="-123.93441"><ele>177.652</ele><time>2026-08-21T00:06:50Z</time></trkpt><trkpt lat="47.860011" lon="-123.934442"><ele>177.553</ele><time>2026-08-21T00:06:57Z</time></trkpt><trkpt lat="47.86008" lon="-123.934474"><ele>177.508</ele><time>2026-08-21T00:07:03Z</time></trkpt><trkpt lat="47.860155" lon="-123.934507"><ele>177.409</ele><time>2026-08-21T00:07:08Z</time></trkpt><trkpt lat="47.860228" lon="-123.934532"><ele>177.397</ele><time>2026-08-21T00:07:16Z</time></trkpt><trkpt lat="47.860294" lon="-123.934575"><ele>177.233</ele><time>2026-08-21T00:07:23Z</time></trkpt><trkpt lat="47.860378" lon="-123.934552"><ele>177.266</ele><time>2026-08-21T00:07:30Z</time></trkpt><trkpt lat="47.860415" lon="-123.93446"><ele>177.195</ele><time>2026-08-21T00:07:37Z</time></trkpt><trkpt lat="47.860448" lon="-123.934356"><ele>177.144</ele><time>2026-08-21T00:07:44Z</time></trkpt><trkpt lat="47.860499" lon="-123.934263"><ele>177.054</ele><time>2026-08-21T00:07:50Z</time></trkpt><trkpt lat="47.860547" lon="-123.934161"><ele>176.960</ele><time>2026-08-21T00:07:57Z</time></trkpt><trkpt lat="47.860616" lon="-123.93413"><ele>176.969</ele><time>2026-08-21T00:08:08Z</time></trkpt><trkpt lat="47.860692" lon="-123.934059"><ele>177.015</ele><time>2026-08-21T00:08:17Z</time></trkpt><trkpt lat="47.860762" lon="-123.933988"><ele>176.911</ele><time>2026-08-21T00:08:22Z</time></trkpt><trkpt lat="47.860806" lon="-123.933884"><ele>176.921</ele><time>2026-08-21T00:08:30Z</time></trkpt><trkpt lat="47.860861" lon="-123.933808"><ele>177.003</ele><time>2026-08-21T00:08:42Z</time></trkpt><trkpt lat="47.860948" lon="-123.933799"><ele>176.909</ele><time>2026-08-21T00:08:57Z</time></trkpt><trkpt lat="47.861012" lon="-123.933853"><ele>176.923</ele><time>2026-08-21T00:09:02Z</time></trkpt><trkpt lat="47.861085" lon="-123.933893"><ele>176.949</ele><time>2026-08-21T00:09:08Z</time></trkpt><trkpt lat="47.861153" lon="-123.933932"><ele>177.082</ele><time>2026-08-21T00:09:14Z</time></trkpt><trkpt lat="47.861223" lon="-123.93398"><ele>177.051</ele><time>2026-08-21T00:09:21Z</time></trkpt><trkpt lat="47.861293" lon="-123.934016"><ele>176.850</ele><time>2026-08-21T00:09:28Z</time></trkpt><trkpt lat="47.861345" lon="-123.934098"><ele>176.860</ele><time>2026-08-21T00:09:33Z</time></trkpt><trkpt lat="47.861395" lon="-123.934179"><ele>176.886</ele><time>2026-08-21T00:09:39Z</time></trkpt><trkpt lat="47.861454" lon="-123.934244"><ele>176.875</ele><time>2026-08-21T00:09:47Z</time></trkpt><trkpt lat="47.861508" lon="-123.934325"><ele>176.921</ele><time>2026-08-21T00:10:03Z</time></trkpt><trkpt lat="47.861656" lon="-123.934428"><ele>176.669</ele><time>2026-08-21T00:10:13Z</time></trkpt><trkpt lat="47.861765" lon="-123.934367"><ele>176.704</ele><time>2026-08-21T00:10:48Z</time></trkpt><trkpt lat="47.861803" lon="-123.934239"><ele>177.424</ele><time>2026-08-21T00:10:54Z</time></trkpt><trkpt lat="47.861793" lon="-123.934128"><ele>178.609</ele><time>2026-08-21T00:11:02Z</time></trkpt><trkpt lat="47.861782" lon="-123.934011"><ele>180.198</ele><time>2026-08-21T00:11:10Z</time></trkpt><trkpt lat="47.861728" lon="-123.933923"><ele>181.614</ele><time>2026-08-21T00:11:17Z</time></trkpt><trkpt lat="47.861693" lon="-123.933826"><ele>182.977</ele><time>2026-08-21T00:11:34Z</time></trkpt><trkpt lat="47.861649" lon="-123.933737"><ele>182.656</ele><time>2026-08-21T00:11:39Z</time></trkpt><trkpt lat="47.861591" lon="-123.933662"><ele>181.555</ele><time>2026-08-21T00:11:47Z</time></trkpt><trkpt lat="47.861559" lon="-123.933563"><ele>182.895</ele><time>2026-08-21T00:11:56Z</time></trkpt><trkpt lat="47.861657" lon="-123.933535"><ele>186.041</ele><time>2026-08-21T00:12:11Z</time></trkpt><trkpt lat="47.861706" lon="-123.933443"><ele>187.460</ele><time>2026-08-21T00:12:24Z</time></trkpt><trkpt lat="47.861681" lon="-123.933555"><ele>186.456</ele><time>2026-08-21T00:12:38Z</time></trkpt><trkpt lat="47.861765" lon="-123.933678"><ele>188.342</ele><time>2026-08-21T00:13:06Z</time></trkpt><trkpt lat="47.861825" lon="-123.93375"><ele>189.922</ele><time>2026-08-21T00:13:14Z</time></trkpt><trkpt lat="47.861892" lon="-123.933842"><ele>187.314</ele><time>2026-08-21T00:13:20Z</time></trkpt><trkpt lat="47.861937" lon="-123.933927"><ele>185.909</ele><time>2026-08-21T00:13:28Z</time></trkpt><trkpt lat="47.861928" lon="-123.934053"><ele>183.346</ele><time>2026-08-21T00:13:37Z</time></trkpt><trkpt lat="47.861921" lon="-123.934162"><ele>182.482</ele><time>2026-08-21T00:13:44Z</time></trkpt><trkpt lat="47.861938" lon="-123.934266"><ele>182.335</ele><time>2026-08-21T00:13:50Z</time></trkpt><trkpt lat="47.86195" lon="-123.934377"><ele>182.684</ele><time>2026-08-21T00:14:00Z</time></trkpt><trkpt lat="47.862023" lon="-123.934354"><ele>185.563</ele><time>2026-08-21T00:14:12Z</time></trkpt><trkpt lat="47.862096" lon="-123.93435"><ele>188.093</ele><time>2026-08-21T00:14:30Z</time></trkpt><trkpt lat="47.86217" lon="-123.934291"><ele>188.069</ele><time>2026-08-21T00:14:33Z</time></trkpt><trkpt lat="47.86224" lon="-123.934258"><ele>188.178</ele><time>2026-08-21T00:14:38Z</time></trkpt><trkpt lat="47.862302" lon="-123.9342"><ele>188.234</ele><time>2026-08-21T00:14:48Z</time></trkpt><trkpt lat="47.86236" lon="-123.934275"><ele>188.176</ele><time>2026-08-21T00:14:57Z</time></trkpt><trkpt lat="47.862435" lon="-123.934319"><ele>188.090</ele><time>2026-08-21T00:15:10Z</time></trkpt><trkpt lat="47.862506" lon="-123.934272"><ele>187.919</ele><time>2026-08-21T00:15:15Z</time></trkpt><trkpt lat="47.862552" lon="-123.934184"><ele>187.909</ele><time>2026-08-21T00:15:22Z</time></trkpt><trkpt lat="47.862625" lon="-123.934131"><ele>187.899</ele><time>2026-08-21T00:15:38Z</time></trkpt><trkpt lat="47.862683" lon="-123.934054"><ele>187.945</ele><time>2026-08-21T00:15:48Z</time></trkpt><trkpt lat="47.862744" lon="-123.933992"><ele>187.958</ele><time>2026-08-21T00:16:07Z</time></trkpt><trkpt lat="47.862806" lon="-123.93393"><ele>187.997</ele><time>2026-08-21T00:16:26Z</time></trkpt><trkpt lat="47.86287" lon="-123.933828"><ele>187.816</ele><time>2026-08-21T00:16:45Z</time></trkpt><trkpt lat="47.862922" lon="-123.93374"><ele>187.756</ele><time>2026-08-21T00:16:51Z</time></trkpt><trkpt lat="47.862965" lon="-123.93364"><ele>187.772</ele><time>2026-08-21T00:16:56Z</time></trkpt><trkpt lat="47.863003" lon="-123.933536"><ele>187.741</ele><time>2026-08-21T00:17:04Z</time></trkpt><trkpt lat="47.863072" lon="-123.9335"><ele>187.797</ele><time>2026-08-21T00:17:18Z</time></trkpt><trkpt lat="47.863224" lon="-123.933514"><ele>187.942</ele><time>2026-08-21T00:17:32Z</time></trkpt><trkpt lat="47.863291" lon="-123.933586"><ele>188.022</ele><time>2026-08-21T00:17:39Z</time></trkpt><trkpt lat="47.863328" lon="-123.933683"><ele>188.114</ele><time>2026-08-21T00:17:45Z</time></trkpt><trkpt lat="47.86335" lon="-123.933791"><ele>188.109</ele><time>2026-08-21T00:17:53Z</time></trkpt><trkpt lat="47.863382" lon="-123.9339"><ele>188.186</ele><time>2026-08-21T00:18:01Z</time></trkpt><trkpt lat="47.863455" lon="-123.933894"><ele>188.232</ele><time>2026-08-21T00:18:08Z</time></trkpt><trkpt lat="47.863517" lon="-123.933811"><ele>188.425</ele><time>2026-08-21T00:18:16Z</time></trkpt><trkpt lat="47.863589" lon="-123.933804"><ele>188.744</ele><time>2026-08-21T00:18:21Z</time></trkpt><trkpt lat="47.863525" lon="-123.933755"><ele>188.473</ele><time>2026-08-21T00:20:50Z</time></trkpt><trkpt lat="47.86345" lon="-123.933778"><ele>188.293</ele><time>2026-08-21T00:20:55Z</time></trkpt><trkpt lat="47.863395" lon="-123.93386"><ele>188.139</ele><time>2026-08-21T00:21:03Z</time></trkpt><trkpt lat="47.863336" lon="-123.933789"><ele>188.188</ele><time>2026-08-21T00:21:11Z</time></trkpt><trkpt lat="47.863324" lon="-123.933668"><ele>188.124</ele><time>2026-08-21T00:21:18Z</time></trkpt><trkpt lat="47.863298" lon="-123.933563"><ele>188.051</ele><time>2026-08-21T00:21:24Z</time></trkpt><trkpt lat="47.863238" lon="-123.933478"><ele>187.901</ele><time>2026-08-21T00:21:31Z</time></trkpt><trkpt lat="47.863253" lon="-123.933361"><ele>188.011</ele><time>2026-08-21T00:21:46Z</time></trkpt><trkpt lat="47.863262" lon="-123.933248"><ele>188.109</ele><time>2026-08-21T00:21:52Z</time></trkpt><trkpt lat="47.863294" lon="-123.933139"><ele>188.297</ele><time>2026-08-21T00:22:00Z</time></trkpt><trkpt lat="47.863369" lon="-123.93311"><ele>188.233</ele><time>2026-08-21T00:22:06Z</time></trkpt><trkpt lat="47.863524" lon="-123.933078"><ele>188.476</ele><time>2026-08-21T00:23:00Z</time></trkpt><trkpt lat="47.863595" lon="-123.933121"><ele>188.695</ele><time>2026-08-21T00:23:08Z</time></trkpt><trkpt lat="47.863692" lon="-123.933174"><ele>188.714</ele><time>2026-08-21T00:23:31Z</time></trkpt><trkpt lat="47.863769" lon="-123.933194"><ele>188.854</ele><time>2026-08-21T00:23:42Z</time></trkpt><trkpt lat="47.863844" lon="-123.933213"><ele>189.180</ele><time>2026-08-21T00:23:52Z</time></trkpt><trkpt lat="47.863929" lon="-123.933154"><ele>189.479</ele><time>2026-08-21T00:24:01Z</time></trkpt><trkpt lat="47.864003" lon="-123.933145"><ele>189.625</ele><time>2026-08-21T00:24:06Z</time></trkpt><trkpt lat="47.86409" lon="-123.933201"><ele>190.513</ele><time>2026-08-21T00:24:21Z</time></trkpt><trkpt lat="47.864143" lon="-123.933275"><ele>191.343</ele><time>2026-08-21T00:24:29Z</time></trkpt><trkpt lat="47.864212" lon="-123.933333"><ele>192.107</ele><time>2026-08-21T00:24:43Z</time></trkpt><trkpt lat="47.864284" lon="-123.933348"><ele>192.909</ele><time>2026-08-21T00:24:50Z</time></trkpt><trkpt lat="47.86435" lon="-123.933305"><ele>193.683</ele><time>2026-08-21T00:24:58Z</time></trkpt><trkpt lat="47.864495" lon="-123.933286"><ele>195.599</ele><time>2026-08-21T00:25:18Z</time></trkpt><trkpt lat="47.864568" lon="-123.933315"><ele>196.612</ele><time>2026-08-21T00:25:25Z</time></trkpt><trkpt lat="47.864614" lon="-123.9334"><ele>197.611</ele><time>2026-08-21T00:25:31Z</time></trkpt><trkpt lat="47.864679" lon="-123.933332"><ele>198.520</ele><time>2026-08-21T00:25:44Z</time></trkpt><trkpt lat="47.864741" lon="-123.93324"><ele>199.240</ele><time>2026-08-21T00:25:54Z</time></trkpt><trkpt lat="47.864718" lon="-123.933139"><ele>198.556</ele><time>2026-08-21T00:26:00Z</time></trkpt><trkpt lat="47.864736" lon="-123.933015"><ele>198.335</ele><time>2026-08-21T00:26:16Z</time></trkpt><trkpt lat="47.864729" lon="-123.932902"><ele>197.891</ele><time>2026-08-21T00:26:22Z</time></trkpt><trkpt lat="47.864727" lon="-123.932773"><ele>197.319</ele><time>2026-08-21T00:26:30Z</time></trkpt><trkpt lat="47.864711" lon="-123.932642"><ele>196.509</ele><time>2026-08-21T00:26:43Z</time></trkpt><trkpt lat="47.864717" lon="-123.932534"><ele>196.419</ele><time>2026-08-21T00:26:51Z</time></trkpt><trkpt lat="47.864692" lon="-123.932431"><ele>195.809</ele><time>2026-08-21T00:26:59Z</time></trkpt><trkpt lat="47.86465" lon="-123.932338"><ele>194.923</ele><time>2026-08-21T00:27:11Z</time></trkpt><trkpt lat="47.864588" lon="-123.932274"><ele>193.639</ele><time>2026-08-21T00:27:18Z</time></trkpt><trkpt lat="47.864501" lon="-123.932229"><ele>192.342</ele><time>2026-08-21T00:27:29Z</time></trkpt><trkpt lat="47.864417" lon="-123.932256"><ele>191.641</ele><time>2026-08-21T00:27:35Z</time></trkpt><trkpt lat="47.864334" lon="-123.932238"><ele>190.620</ele><time>2026-08-21T00:27:42Z</time></trkpt><trkpt lat="47.864292" lon="-123.932144"><ele>189.910</ele><time>2026-08-21T00:27:50Z</time></trkpt><trkpt lat="47.864255" lon="-123.932051"><ele>189.716</ele><time>2026-08-21T00:27:58Z</time></trkpt><trkpt lat="47.864215" lon="-123.93194"><ele>189.665</ele><time>2026-08-21T00:28:04Z</time></trkpt><trkpt lat="47.864181" lon="-123.931839"><ele>189.421</ele><time>2026-08-21T00:28:11Z</time></trkpt><trkpt lat="47.864121" lon="-123.931752"><ele>189.469</ele><time>2026-08-21T00:28:18Z</time></trkpt><trkpt lat="47.864109" lon="-123.931636"><ele>189.404</ele><time>2026-08-21T00:28:25Z</time></trkpt><trkpt lat="47.864077" lon="-123.931523"><ele>189.424</ele><time>2026-08-21T00:28:30Z</time></trkpt><trkpt lat="47.864012" lon="-123.931472"><ele>189.309</ele><time>2026-08-21T00:28:37Z</time></trkpt><trkpt lat="47.863903" lon="-123.93137"><ele>189.348</ele><time>2026-08-21T00:29:00Z</time></trkpt><trkpt lat="47.863787" lon="-123.9314"><ele>189.334</ele><time>2026-08-21T00:29:19Z</time></trkpt><trkpt lat="47.863782" lon="-123.931517"><ele>189.557</ele><time>2026-08-21T00:29:24Z</time></trkpt><trkpt lat="47.863741" lon="-123.931637"><ele>189.246</ele><time>2026-08-21T00:29:31Z</time></trkpt><trkpt lat="47.8637" lon="-123.931747"><ele>188.785</ele><time>2026-08-21T00:29:36Z</time></trkpt><trkpt lat="47.86372" lon="-123.931854"><ele>188.885</ele><time>2026-08-21T00:29:45Z</time></trkpt><trkpt lat="47.863663" lon="-123.931959"><ele>188.391</ele><time>2026-08-21T00:29:50Z</time></trkpt><trkpt lat="47.863596" lon="-123.932004"><ele>187.930</ele><time>2026-08-21T00:30:02Z</time></trkpt><trkpt lat="47.863526" lon="-123.931951"><ele>187.446</ele><time>2026-08-21T00:30:22Z</time></trkpt><trkpt lat="47.863447" lon="-123.931941"><ele>187.071</ele><time>2026-08-21T00:30:28Z</time></trkpt><trkpt lat="47.863371" lon="-123.931991"><ele>186.941</ele><time>2026-08-21T00:30:36Z</time></trkpt><trkpt lat="47.863299" lon="-123.932"><ele>186.815</ele><time>2026-08-21T00:30:41Z</time></trkpt><trkpt lat="47.863227" lon="-123.931952"><ele>186.709</ele><time>2026-08-21T00:30:50Z</time></trkpt><trkpt lat="47.863174" lon="-123.931863"><ele>186.599</ele><time>2026-08-21T00:30:59Z</time></trkpt><trkpt lat="47.86311" lon="-123.931808"><ele>186.445</ele><time>2026-08-21T00:31:07Z</time></trkpt><trkpt lat="47.863037" lon="-123.931843"><ele>186.338</ele><time>2026-08-21T00:31:15Z</time></trkpt><trkpt lat="47.862969" lon="-123.931913"><ele>186.247</ele><time>2026-08-21T00:31:24Z</time></trkpt><trkpt lat="47.862903" lon="-123.931968"><ele>186.296</ele><time>2026-08-21T00:31:31Z</time></trkpt><trkpt lat="47.862832" lon="-123.931993"><ele>186.226</ele><time>2026-08-21T00:31:44Z</time></trkpt><trkpt lat="47.862768" lon="-123.931939"><ele>186.142</ele><time>2026-08-21T00:32:45Z</time></trkpt><trkpt lat="47.862696" lon="-123.931919"><ele>186.141</ele><time>2026-08-21T00:32:51Z</time></trkpt><trkpt lat="47.862625" lon="-123.931899"><ele>186.137</ele><time>2026-08-21T00:32:58Z</time></trkpt><trkpt lat="47.862546" lon="-123.93189"><ele>186.087</ele><time>2026-08-21T00:33:04Z</time></trkpt><trkpt lat="47.8625" lon="-123.931976"><ele>186.042</ele><time>2026-08-21T00:33:13Z</time></trkpt><trkpt lat="47.862494" lon="-123.93209"><ele>186.126</ele><time>2026-08-21T00:33:20Z</time></trkpt><trkpt lat="47.862505" lon="-123.932206"><ele>186.509</ele><time>2026-08-21T00:33:26Z</time></trkpt><trkpt lat="47.862518" lon="-123.932329"><ele>187.080</ele><time>2026-08-21T00:33:36Z</time></trkpt><trkpt lat="47.862581" lon="-123.932392"><ele>187.886</ele><time>2026-08-21T00:33:46Z</time></trkpt><trkpt lat="47.862634" lon="-123.932491"><ele>188.279</ele><time>2026-08-21T00:33:53Z</time></trkpt><trkpt lat="47.862672" lon="-123.932587"><ele>188.378</ele><time>2026-08-21T00:34:00Z</time></trkpt><trkpt lat="47.862727" lon="-123.932658"><ele>188.467</ele><time>2026-08-21T00:34:05Z</time></trkpt><trkpt lat="47.862696" lon="-123.932773"><ele>188.247</ele><time>2026-08-21T00:34:15Z</time></trkpt><trkpt lat="47.862668" lon="-123.932886"><ele>188.113</ele><time>2026-08-21T00:34:22Z</time></trkpt><trkpt lat="47.862649" lon="-123.932999"><ele>188.192</ele><time>2026-08-21T00:34:29Z</time></trkpt><trkpt lat="47.86259" lon="-123.933088"><ele>188.378</ele><time>2026-08-21T00:34:37Z</time></trkpt><trkpt lat="47.862574" lon="-123.933195"><ele>188.452</ele><time>2026-08-21T00:34:46Z</time></trkpt><trkpt lat="47.862509" lon="-123.933256"><ele>188.553</ele><time>2026-08-21T00:34:55Z</time></trkpt><trkpt lat="47.862456" lon="-123.933331"><ele>188.608</ele><time>2026-08-21T00:35:01Z</time></trkpt><trkpt lat="47.862397" lon="-123.933395"><ele>188.709</ele><time>2026-08-21T00:35:10Z</time></trkpt><trkpt lat="47.862308" lon="-123.933357"><ele>188.967</ele><time>2026-08-21T00:35:54Z</time></trkpt><trkpt lat="47.862258" lon="-123.93326"><ele>188.743</ele><time>2026-08-21T00:36:03Z</time></trkpt><trkpt lat="47.862239" lon="-123.933154"><ele>188.376</ele><time>2026-08-21T00:36:42Z</time></trkpt><trkpt lat="47.862164" lon="-123.933179"><ele>188.165</ele><time>2026-08-21T00:36:50Z</time></trkpt><trkpt lat="47.862096" lon="-123.933217"><ele>188.144</ele><time>2026-08-21T00:36:59Z</time></trkpt><trkpt lat="47.862062" lon="-123.933323"><ele>188.554</ele><time>2026-08-21T00:37:08Z</time></trkpt><trkpt lat="47.862001" lon="-123.933388"><ele>188.770</ele><time>2026-08-21T00:37:21Z</time></trkpt><trkpt lat="47.861936" lon="-123.933443"><ele>189.399</ele><time>2026-08-21T00:37:45Z</time></trkpt><trkpt lat="47.861876" lon="-123.933509"><ele>189.895</ele><time>2026-08-21T00:37:52Z</time></trkpt><trkpt lat="47.861804" lon="-123.933481"><ele>189.858</ele><time>2026-08-21T00:38:04Z</time></trkpt><trkpt lat="47.861728" lon="-123.933506"><ele>188.152</ele><time>2026-08-21T00:39:05Z</time></trkpt><trkpt lat="47.861663" lon="-123.933588"><ele>185.417</ele><time>2026-08-21T00:39:18Z</time></trkpt><trkpt lat="47.861733" lon="-123.933634"><ele>187.309</ele><time>2026-08-21T00:39:26Z</time></trkpt><trkpt lat="47.861796" lon="-123.933703"><ele>189.697</ele><time>2026-08-21T00:39:43Z</time></trkpt><trkpt lat="47.861744" lon="-123.933622"><ele>187.883</ele><time>2026-08-21T00:40:21Z</time></trkpt><trkpt lat="47.861702" lon="-123.933507"><ele>187.526</ele><time>2026-08-21T00:40:52Z</time></trkpt><trkpt lat="47.86162" lon="-123.933516"><ele>185.585</ele><time>2026-08-21T00:41:10Z</time></trkpt><trkpt lat="47.861551" lon="-123.933569"><ele>182.424</ele><time>2026-08-21T00:41:21Z</time></trkpt><trkpt lat="47.861548" lon="-123.933677"><ele>179.464</ele><time>2026-08-21T00:41:42Z</time></trkpt><trkpt lat="47.861577" lon="-123.933814"><ele>178.550</ele><time>2026-08-21T00:41:50Z</time></trkpt><trkpt lat="47.861653" lon="-123.933795"><ele>181.869</ele><time>2026-08-21T00:42:00Z</time></trkpt><trkpt lat="47.861692" lon="-123.933893"><ele>181.455</ele><time>2026-08-21T00:42:13Z</time></trkpt><trkpt lat="47.861747" lon="-123.933988"><ele>180.293</ele><time>2026-08-21T00:42:20Z</time></trkpt><trkpt lat="47.861804" lon="-123.934063"><ele>179.465</ele><time>2026-08-21T00:42:31Z</time></trkpt><trkpt lat="47.861812" lon="-123.934196"><ele>178.121</ele><time>2026-08-21T00:42:55Z</time></trkpt><trkpt lat="47.861799" lon="-123.934324"><ele>176.609</ele><time>2026-08-21T00:43:06Z</time></trkpt><trkpt lat="47.861743" lon="-123.934437"><ele>176.691</ele><time>2026-08-21T00:44:03Z</time></trkpt><trkpt lat="47.861679" lon="-123.934362"><ele>176.747</ele><time>2026-08-21T00:44:45Z</time></trkpt><trkpt lat="47.861612" lon="-123.934316"><ele>176.850</ele><time>2026-08-21T00:45:18Z</time></trkpt><trkpt lat="47.861534" lon="-123.934311"><ele>176.939</ele><time>2026-08-21T00:45:26Z</time></trkpt><trkpt lat="47.861473" lon="-123.934253"><ele>176.878</ele><time>2026-08-21T00:45:34Z</time></trkpt><trkpt lat="47.861422" lon="-123.934163"><ele>176.738</ele><time>2026-08-21T00:45:51Z</time></trkpt><trkpt lat="47.861371" lon="-123.934077"><ele>176.724</ele><time>2026-08-21T00:46:01Z</time></trkpt><trkpt lat="47.861303" lon="-123.933979"><ele>176.973</ele><time>2026-08-21T00:46:41Z</time></trkpt><trkpt lat="47.861242" lon="-123.933911"><ele>177.299</ele><time>2026-08-21T00:47:00Z</time></trkpt><trkpt lat="47.861185" lon="-123.93383"><ele>177.352</ele><time>2026-08-21T00:47:25Z</time></trkpt><trkpt lat="47.861122" lon="-123.933763"><ele>177.353</ele><time>2026-08-21T00:52:06Z</time></trkpt><trkpt lat="47.861066" lon="-123.93369"><ele>177.308</ele><time>2026-08-21T00:52:15Z</time></trkpt><trkpt lat="47.860985" lon="-123.933697"><ele>177.209</ele><time>2026-08-21T00:53:15Z</time></trkpt><trkpt lat="47.860909" lon="-123.933716"><ele>177.197</ele><time>2026-08-21T00:53:21Z</time></trkpt><trkpt lat="47.860846" lon="-123.933836"><ele>176.933</ele><time>2026-08-21T00:53:38Z</time></trkpt><trkpt lat="47.860787" lon="-123.933987"><ele>176.856</ele><time>2026-08-21T00:54:07Z</time></trkpt><trkpt lat="47.860717" lon="-123.93406"><ele>177.025</ele><time>2026-08-21T00:54:17Z</time></trkpt><trkpt lat="47.860633" lon="-123.934102"><ele>176.954</ele><time>2026-08-21T00:54:37Z</time></trkpt><trkpt lat="47.860551" lon="-123.934123"><ele>176.944</ele><time>2026-08-21T00:54:46Z</time></trkpt><trkpt lat="47.860508" lon="-123.934211"><ele>177.050</ele><time>2026-08-21T00:54:53Z</time></trkpt><trkpt lat="47.860467" lon="-123.934324"><ele>177.189</ele><time>2026-08-21T00:55:24Z</time></trkpt><trkpt lat="47.860436" lon="-123.934427"><ele>177.115</ele><time>2026-08-21T00:55:37Z</time></trkpt><trkpt lat="47.860375" lon="-123.934488"><ele>177.296</ele><time>2026-08-21T00:55:43Z</time></trkpt><trkpt lat="47.8603" lon="-123.934496"><ele>177.231</ele><time>2026-08-21T00:56:03Z</time></trkpt><trkpt lat="47.860238" lon="-123.934439"><ele>177.324</ele><time>2026-08-21T00:56:08Z</time></trkpt><trkpt lat="47.860166" lon="-123.934409"><ele>177.409</ele><time>2026-08-21T00:56:22Z</time></trkpt><trkpt lat="47.860095" lon="-123.934366"><ele>177.541</ele><time>2026-08-21T00:56:31Z</time></trkpt><trkpt lat="47.860023" lon="-123.934372"><ele>177.527</ele><time>2026-08-21T00:56:41Z</time></trkpt><trkpt lat="47.85995" lon="-123.934358"><ele>177.580</ele><time>2026-08-21T00:56:55Z</time></trkpt><trkpt lat="47.859879" lon="-123.934333"><ele>177.669</ele><time>2026-08-21T00:57:08Z</time></trkpt><trkpt lat="47.859805" lon="-123.934341"><ele>177.588</ele><time>2026-08-21T00:57:19Z</time></trkpt><trkpt lat="47.859723" lon="-123.93428"><ele>177.578</ele><time>2026-08-21T00:57:42Z</time></trkpt><trkpt lat="47.859643" lon="-123.934286"><ele>177.584</ele><time>2026-08-21T00:58:31Z</time></trkpt><trkpt lat="47.859567" lon="-123.934251"><ele>177.563</ele><time>2026-08-21T00:59:01Z</time></trkpt><trkpt lat="47.859516" lon="-123.93433"><ele>177.569</ele><time>2026-08-21T00:59:57Z</time></trkpt><trkpt lat="47.859445" lon="-123.934382"><ele>177.515</ele><time>2026-08-21T01:00:02Z</time></trkpt><trkpt lat="47.859374" lon="-123.934403"><ele>177.565</ele><time>2026-08-21T01:00:08Z</time></trkpt><trkpt lat="47.85928" lon="-123.934445"><ele>177.511</ele><time>2026-08-21T01:00:34Z</time></trkpt><trkpt lat="47.859144" lon="-123.934514"><ele>177.209</ele><time>2026-08-21T01:00:57Z</time></trkpt><trkpt lat="47.859089" lon="-123.934598"><ele>176.873</ele><time>2026-08-21T01:01:22Z</time></trkpt><trkpt lat="47.85904" lon="-123.93468"><ele>176.749</ele><time>2026-08-21T01:01:29Z</time></trkpt><trkpt lat="47.858902" lon="-123.934605"><ele>176.642</ele><time>2026-08-21T01:02:10Z</time></trkpt><trkpt lat="47.858827" lon="-123.934607"><ele>176.751</ele><time>2026-08-21T01:02:26Z</time></trkpt><trkpt lat="47.858744" lon="-123.934584"><ele>176.730</ele><time>2026-08-21T01:02:44Z</time></trkpt><trkpt lat="47.858665" lon="-123.93457"><ele>176.950</ele><time>2026-08-21T01:02:46Z</time></trkpt><trkpt lat="47.858583" lon="-123.934574"><ele>177.086</ele><time>2026-08-21T01:03:09Z</time></trkpt><trkpt lat="47.858504" lon="-123.934502"><ele>177.235</ele><time>2026-08-21T01:03:39Z</time></trkpt><trkpt lat="47.858423" lon="-123.934454"><ele>177.271</ele><time>2026-08-21T01:03:44Z</time></trkpt><trkpt lat="47.858349" lon="-123.934412"><ele>177.465</ele><time>2026-08-21T01:03:54Z</time></trkpt><trkpt lat="47.858284" lon="-123.93435"><ele>177.568</ele><time>2026-08-21T01:04:14Z</time></trkpt><trkpt lat="47.858175" lon="-123.934323"><ele>177.714</ele><time>2026-08-21T01:04:47Z</time></trkpt><trkpt lat="47.858126" lon="-123.934237"><ele>177.609</ele><time>2026-08-21T01:05:02Z</time></trkpt><trkpt lat="47.85809" lon="-123.934125"><ele>177.688</ele><time>2026-08-21T01:05:07Z</time></trkpt><trkpt lat="47.858077" lon="-123.934008"><ele>177.744</ele><time>2026-08-21T01:05:13Z</time></trkpt><trkpt lat="47.85804" lon="-123.933907"><ele>177.967</ele><time>2026-08-21T01:05:37Z</time></trkpt><trkpt lat="47.85807" lon="-123.933801"><ele>178.256</ele><time>2026-08-21T01:06:34Z</time></trkpt></trkseg></trk></gpx>