<?xml version="1.0" encoding="UTF-8"?><gpx creator="Wikiloc - http://www.wikiloc.com" version="1.1" xmlns="http://www.topografix.com/GPX/1/1" xmlns:xsi="http://www.w3.org/2001/XMLSchema-instance" xsi:schemaLocation="http://www.topografix.com/GPX/1/1 http://www.topografix.com/GPX/1/1/gpx.xsd"><trk><name><![CDATA[Pinnacles National Park: Bear Gulch - Lower Cave - Reservoir - Teaching Rock - Bear Gulch]]></name><cmt><![CDATA[Pinnacles]]></cmt><desc><![CDATA[Pinnacles]]></desc><trkseg><trkpt lat="36.478452" lon="-121.183816"><ele>413.086</ele><time>2026-09-18T16:51:25Z</time></trkpt><trkpt lat="36.478447" lon="-121.183807"><ele>412.860</ele><time>2026-09-18T16:51:26Z</time></trkpt><trkpt lat="36.478454" lon="-121.183751"><ele>412.826</ele><time>2026-09-18T16:51:31Z</time></trkpt><trkpt lat="36.478461" lon="-121.183704"><ele>412.809</ele><time>2026-09-18T16:51:35Z</time></trkpt><trkpt lat="36.478464" lon="-121.183695"><ele>412.810</ele><time>2026-09-18T16:51:36Z</time></trkpt><trkpt lat="36.478468" lon="-121.183685"><ele>412.826</ele><time>2026-09-18T16:51:37Z</time></trkpt><trkpt lat="36.478471" lon="-121.183674"><ele>412.824</ele><time>2026-09-18T16:51:38Z</time></trkpt><trkpt lat="36.478468" lon="-121.183583"><ele>413.272</ele><time>2026-09-18T16:51:47Z</time></trkpt><trkpt lat="36.47846" lon="-121.183579"><ele>413.286</ele><time>2026-09-18T16:51:48Z</time></trkpt><trkpt lat="36.478422" lon="-121.183572"><ele>413.234</ele><time>2026-09-18T16:51:56Z</time></trkpt><trkpt lat="36.478406" lon="-121.183613"><ele>414.042</ele><time>2026-09-18T16:52:04Z</time></trkpt><trkpt lat="36.4784" lon="-121.18362"><ele>414.024</ele><time>2026-09-18T16:52:06Z</time></trkpt><trkpt lat="36.478397" lon="-121.18365"><ele>414.679</ele><time>2026-09-18T16:52:12Z</time></trkpt><trkpt lat="36.478393" lon="-121.183657"><ele>414.687</ele><time>2026-09-18T16:52:13Z</time></trkpt><trkpt lat="36.478392" lon="-121.183681"><ele>414.642</ele><time>2026-09-18T16:52:22Z</time></trkpt><trkpt lat="36.478428" lon="-121.183683"><ele>414.026</ele><time>2026-09-18T16:52:34Z</time></trkpt><trkpt lat="36.478415" lon="-121.18369"><ele>414.009</ele><time>2026-09-18T16:52:41Z</time></trkpt><trkpt lat="36.478405" lon="-121.183692"><ele>414.060</ele><time>2026-09-18T16:52:43Z</time></trkpt><trkpt lat="36.478402" lon="-121.183692"><ele>414.226</ele><time>2026-09-18T16:52:47Z</time></trkpt><trkpt lat="36.478419" lon="-121.183683"><ele>414.084</ele><time>2026-09-18T16:52:52Z</time></trkpt><trkpt lat="36.478434" lon="-121.18367"><ele>414.212</ele><time>2026-09-18T16:53:00Z</time></trkpt><trkpt lat="36.478428" lon="-121.183676"><ele>414.686</ele><time>2026-09-18T16:53:08Z</time></trkpt><trkpt lat="36.478445" lon="-121.183659"><ele>414.464</ele><time>2026-09-18T16:53:17Z</time></trkpt><trkpt lat="36.478403" lon="-121.183674"><ele>414.652</ele><time>2026-09-18T16:53:24Z</time></trkpt><trkpt lat="36.478369" lon="-121.183691"><ele>415.054</ele><time>2026-09-18T16:53:26Z</time></trkpt><trkpt lat="36.478303" lon="-121.183719"><ele>415.619</ele><time>2026-09-18T16:53:32Z</time></trkpt><trkpt lat="36.478288" lon="-121.183741"><ele>416.031</ele><time>2026-09-18T16:53:35Z</time></trkpt><trkpt lat="36.478227" lon="-121.183786"><ele>417.061</ele><time>2026-09-18T16:53:41Z</time></trkpt><trkpt lat="36.478175" lon="-121.183846"><ele>418.207</ele><time>2026-09-18T16:53:50Z</time></trkpt><trkpt lat="36.478169" lon="-121.183856"><ele>418.209</ele><time>2026-09-18T16:53:51Z</time></trkpt><trkpt lat="36.478127" lon="-121.183893"><ele>419.045</ele><time>2026-09-18T16:53:56Z</time></trkpt><trkpt lat="36.478119" lon="-121.183898"><ele>419.271</ele><time>2026-09-18T16:53:57Z</time></trkpt><trkpt lat="36.478095" lon="-121.183909"><ele>419.669</ele><time>2026-09-18T16:54:00Z</time></trkpt><trkpt lat="36.47806" lon="-121.183941"><ele>420.277</ele><time>2026-09-18T16:54:04Z</time></trkpt><trkpt lat="36.478047" lon="-121.183975"><ele>420.461</ele><time>2026-09-18T16:54:07Z</time></trkpt><trkpt lat="36.478041" lon="-121.184001"><ele>420.669</ele><time>2026-09-18T16:54:09Z</time></trkpt><trkpt lat="36.478025" lon="-121.184044"><ele>421.497</ele><time>2026-09-18T16:54:14Z</time></trkpt><trkpt lat="36.478001" lon="-121.184079"><ele>422.269</ele><time>2026-09-18T16:54:19Z</time></trkpt><trkpt lat="36.477986" lon="-121.184103"><ele>422.454</ele><time>2026-09-18T16:54:22Z</time></trkpt><trkpt lat="36.477971" lon="-121.184158"><ele>423.488</ele><time>2026-09-18T16:54:29Z</time></trkpt><trkpt lat="36.477972" lon="-121.184172"><ele>423.424</ele><time>2026-09-18T16:54:30Z</time></trkpt><trkpt lat="36.477967" lon="-121.18426"><ele>424.626</ele><time>2026-09-18T16:54:36Z</time></trkpt><trkpt lat="36.477965" lon="-121.184269"><ele>424.609</ele><time>2026-09-18T16:54:37Z</time></trkpt><trkpt lat="36.477946" lon="-121.184332"><ele>425.670</ele><time>2026-09-18T16:54:44Z</time></trkpt><trkpt lat="36.477945" lon="-121.184342"><ele>425.866</ele><time>2026-09-18T16:54:45Z</time></trkpt><trkpt lat="36.477951" lon="-121.184442"><ele>426.694</ele><time>2026-09-18T16:54:54Z</time></trkpt><trkpt lat="36.477951" lon="-121.184459"><ele>427.072</ele><time>2026-09-18T16:54:56Z</time></trkpt><trkpt lat="36.477941" lon="-121.184494"><ele>427.676</ele><time>2026-09-18T16:55:02Z</time></trkpt><trkpt lat="36.47793" lon="-121.184574"><ele>428.664</ele><time>2026-09-18T16:55:10Z</time></trkpt><trkpt lat="36.477932" lon="-121.184591"><ele>428.842</ele><time>2026-09-18T16:55:12Z</time></trkpt><trkpt lat="36.477933" lon="-121.184681"><ele>429.844</ele><time>2026-09-18T16:55:21Z</time></trkpt><trkpt lat="36.477915" lon="-121.184741"><ele>431.049</ele><time>2026-09-18T16:55:28Z</time></trkpt><trkpt lat="36.477913" lon="-121.184748"><ele>431.032</ele><time>2026-09-18T16:55:29Z</time></trkpt><trkpt lat="36.477908" lon="-121.184772"><ele>431.492</ele><time>2026-09-18T16:55:31Z</time></trkpt><trkpt lat="36.477902" lon="-121.18484"><ele>432.011</ele><time>2026-09-18T16:55:37Z</time></trkpt><trkpt lat="36.4779" lon="-121.184845"><ele>432.009</ele><time>2026-09-18T16:55:38Z</time></trkpt><trkpt lat="36.477869" lon="-121.184882"><ele>433.075</ele><time>2026-09-18T16:55:44Z</time></trkpt><trkpt lat="36.477844" lon="-121.184902"><ele>433.431</ele><time>2026-09-18T16:55:48Z</time></trkpt><trkpt lat="36.477831" lon="-121.184915"><ele>433.859</ele><time>2026-09-18T16:55:50Z</time></trkpt><trkpt lat="36.477808" lon="-121.184945"><ele>434.217</ele><time>2026-09-18T16:55:53Z</time></trkpt><trkpt lat="36.477799" lon="-121.184966"><ele>434.441</ele><time>2026-09-18T16:55:55Z</time></trkpt><trkpt lat="36.477803" lon="-121.185039"><ele>435.259</ele><time>2026-09-18T16:56:02Z</time></trkpt><trkpt lat="36.4778" lon="-121.185059"><ele>435.457</ele><time>2026-09-18T16:56:04Z</time></trkpt><trkpt lat="36.477788" lon="-121.185091"><ele>435.839</ele><time>2026-09-18T16:56:07Z</time></trkpt><trkpt lat="36.47777" lon="-121.18515"><ele>436.214</ele><time>2026-09-18T16:56:12Z</time></trkpt><trkpt lat="36.477764" lon="-121.185163"><ele>436.462</ele><time>2026-09-18T16:56:14Z</time></trkpt><trkpt lat="36.477728" lon="-121.185232"><ele>437.683</ele><time>2026-09-18T16:56:22Z</time></trkpt><trkpt lat="36.477722" lon="-121.18524"><ele>437.611</ele><time>2026-09-18T16:56:23Z</time></trkpt><trkpt lat="36.477715" lon="-121.18525"><ele>438.009</ele><time>2026-09-18T16:56:30Z</time></trkpt><trkpt lat="36.477716" lon="-121.18525"><ele>438.018</ele><time>2026-09-18T16:56:36Z</time></trkpt><trkpt lat="36.4777" lon="-121.185266"><ele>438.214</ele><time>2026-09-18T16:56:39Z</time></trkpt><trkpt lat="36.477686" lon="-121.185283"><ele>438.622</ele><time>2026-09-18T16:56:41Z</time></trkpt><trkpt lat="36.477653" lon="-121.185325"><ele>439.650</ele><time>2026-09-18T16:56:47Z</time></trkpt><trkpt lat="36.477647" lon="-121.18533"><ele>439.814</ele><time>2026-09-18T16:56:48Z</time></trkpt><trkpt lat="36.477585" lon="-121.185356"><ele>440.662</ele><time>2026-09-18T16:56:55Z</time></trkpt><trkpt lat="36.477555" lon="-121.185358"><ele>441.260</ele><time>2026-09-18T16:56:58Z</time></trkpt><trkpt lat="36.47752" lon="-121.185361"><ele>441.832</ele><time>2026-09-18T16:57:02Z</time></trkpt><trkpt lat="36.477481" lon="-121.185363"><ele>442.447</ele><time>2026-09-18T16:57:06Z</time></trkpt><trkpt lat="36.477452" lon="-121.185357"><ele>442.833</ele><time>2026-09-18T16:57:09Z</time></trkpt><trkpt lat="36.477397" lon="-121.185318"><ele>443.823</ele><time>2026-09-18T16:57:15Z</time></trkpt><trkpt lat="36.477389" lon="-121.185315"><ele>444.015</ele><time>2026-09-18T16:57:16Z</time></trkpt><trkpt lat="36.477337" lon="-121.185295"><ele>444.809</ele><time>2026-09-18T16:57:22Z</time></trkpt><trkpt lat="36.477304" lon="-121.18528"><ele>445.275</ele><time>2026-09-18T16:57:25Z</time></trkpt><trkpt lat="36.477272" lon="-121.18526"><ele>445.881</ele><time>2026-09-18T16:57:29Z</time></trkpt><trkpt lat="36.477236" lon="-121.185247"><ele>446.439</ele><time>2026-09-18T16:57:33Z</time></trkpt><trkpt lat="36.477189" lon="-121.185243"><ele>447.027</ele><time>2026-09-18T16:57:37Z</time></trkpt><trkpt lat="36.477156" lon="-121.185239"><ele>447.481</ele><time>2026-09-18T16:57:41Z</time></trkpt><trkpt lat="36.477126" lon="-121.18524"><ele>448.069</ele><time>2026-09-18T16:57:45Z</time></trkpt><trkpt lat="36.477073" lon="-121.185239"><ele>449.037</ele><time>2026-09-18T16:57:51Z</time></trkpt><trkpt lat="36.477069" lon="-121.185238"><ele>449.259</ele><time>2026-09-18T16:57:52Z</time></trkpt><trkpt lat="36.477009" lon="-121.185212"><ele>450.054</ele><time>2026-09-18T16:57:59Z</time></trkpt><trkpt lat="36.476999" lon="-121.185204"><ele>450.218</ele><time>2026-09-18T16:58:00Z</time></trkpt><trkpt lat="36.476983" lon="-121.185192"><ele>450.498</ele><time>2026-09-18T16:58:02Z</time></trkpt><trkpt lat="36.476976" lon="-121.185187"><ele>450.617</ele><time>2026-09-18T16:58:03Z</time></trkpt><trkpt lat="36.476941" lon="-121.185172"><ele>451.009</ele><time>2026-09-18T16:58:07Z</time></trkpt><trkpt lat="36.476921" lon="-121.185168"><ele>451.263</ele><time>2026-09-18T16:58:09Z</time></trkpt><trkpt lat="36.476858" lon="-121.185136"><ele>452.029</ele><time>2026-09-18T16:58:16Z</time></trkpt><trkpt lat="36.476846" lon="-121.185137"><ele>452.497</ele><time>2026-09-18T16:58:18Z</time></trkpt><trkpt lat="36.476819" lon="-121.185145"><ele>453.095</ele><time>2026-09-18T16:58:23Z</time></trkpt><trkpt lat="36.476787" lon="-121.185151"><ele>453.459</ele><time>2026-09-18T16:58:26Z</time></trkpt><trkpt lat="36.476728" lon="-121.185155"><ele>453.677</ele><time>2026-09-18T16:58:33Z</time></trkpt><trkpt lat="36.47665" lon="-121.185159"><ele>452.835</ele><time>2026-09-18T16:58:42Z</time></trkpt><trkpt lat="36.476611" lon="-121.18516"><ele>452.457</ele><time>2026-09-18T16:58:45Z</time></trkpt><trkpt lat="36.476556" lon="-121.185147"><ele>451.652</ele><time>2026-09-18T16:58:51Z</time></trkpt><trkpt lat="36.47651" lon="-121.185133"><ele>451.274</ele><time>2026-09-18T16:58:55Z</time></trkpt><trkpt lat="36.476469" lon="-121.18511"><ele>451.056</ele><time>2026-09-18T16:59:00Z</time></trkpt><trkpt lat="36.476476" lon="-121.185106"><ele>451.021</ele><time>2026-09-18T16:59:10Z</time></trkpt><trkpt lat="36.476395" lon="-121.185066"><ele>450.809</ele><time>2026-09-18T16:59:17Z</time></trkpt><trkpt lat="36.47632" lon="-121.185032"><ele>450.479</ele><time>2026-09-18T16:59:24Z</time></trkpt><trkpt lat="36.476241" lon="-121.185003"><ele>450.225</ele><time>2026-09-18T16:59:31Z</time></trkpt><trkpt lat="36.476161" lon="-121.18499"><ele>450.243</ele><time>2026-09-18T16:59:37Z</time></trkpt><trkpt lat="36.476121" lon="-121.185005"><ele>450.421</ele><time>2026-09-18T16:59:44Z</time></trkpt><trkpt lat="36.476067" lon="-121.184987"><ele>450.635</ele><time>2026-09-18T16:59:53Z</time></trkpt><trkpt lat="36.476048" lon="-121.185009"><ele>451.453</ele><time>2026-09-18T16:59:57Z</time></trkpt><trkpt lat="36.47603" lon="-121.185049"><ele>452.241</ele><time>2026-09-18T17:00:01Z</time></trkpt><trkpt lat="36.476027" lon="-121.185061"><ele>452.473</ele><time>2026-09-18T17:00:02Z</time></trkpt><trkpt lat="36.475992" lon="-121.18512"><ele>453.418</ele><time>2026-09-18T17:00:08Z</time></trkpt><trkpt lat="36.475962" lon="-121.185155"><ele>453.896</ele><time>2026-09-18T17:00:11Z</time></trkpt><trkpt lat="36.475933" lon="-121.18518"><ele>454.631</ele><time>2026-09-18T17:00:16Z</time></trkpt><trkpt lat="36.475909" lon="-121.185209"><ele>454.824</ele><time>2026-09-18T17:00:19Z</time></trkpt><trkpt lat="36.47588" lon="-121.185254"><ele>455.009</ele><time>2026-09-18T17:00:26Z</time></trkpt><trkpt lat="36.475871" lon="-121.185272"><ele>455.481</ele><time>2026-09-18T17:00:34Z</time></trkpt><trkpt lat="36.47587" lon="-121.185272"><ele>455.467</ele><time>2026-09-18T17:00:35Z</time></trkpt><trkpt lat="36.475868" lon="-121.18527"><ele>455.455</ele><time>2026-09-18T17:00:36Z</time></trkpt><trkpt lat="36.475867" lon="-121.18527"><ele>455.683</ele><time>2026-09-18T17:00:38Z</time></trkpt><trkpt lat="36.47584" lon="-121.185282"><ele>455.837</ele><time>2026-09-18T17:00:46Z</time></trkpt><trkpt lat="36.475805" lon="-121.185278"><ele>456.865</ele><time>2026-09-18T17:00:53Z</time></trkpt><trkpt lat="36.475793" lon="-121.185281"><ele>457.083</ele><time>2026-09-18T17:00:55Z</time></trkpt><trkpt lat="36.475753" lon="-121.185303"><ele>457.875</ele><time>2026-09-18T17:01:00Z</time></trkpt><trkpt lat="36.475736" lon="-121.185338"><ele>458.490</ele><time>2026-09-18T17:01:04Z</time></trkpt><trkpt lat="36.475721" lon="-121.185384"><ele>458.447</ele><time>2026-09-18T17:01:11Z</time></trkpt><trkpt lat="36.475716" lon="-121.185418"><ele>458.429</ele><time>2026-09-18T17:01:15Z</time></trkpt><trkpt lat="36.47571" lon="-121.185452"><ele>458.621</ele><time>2026-09-18T17:01:19Z</time></trkpt><trkpt lat="36.475704" lon="-121.185473"><ele>459.009</ele><time>2026-09-18T17:01:21Z</time></trkpt><trkpt lat="36.475625" lon="-121.185508"><ele>459.486</ele><time>2026-09-18T17:01:27Z</time></trkpt><trkpt lat="36.475604" lon="-121.185545"><ele>459.272</ele><time>2026-09-18T17:01:32Z</time></trkpt><trkpt lat="36.475609" lon="-121.185564"><ele>458.480</ele><time>2026-09-18T17:01:38Z</time></trkpt><trkpt lat="36.475617" lon="-121.185638"><ele>458.448</ele><time>2026-09-18T17:01:40Z</time></trkpt><trkpt lat="36.475612" lon="-121.185687"><ele>458.222</ele><time>2026-09-18T17:01:45Z</time></trkpt><trkpt lat="36.475659" lon="-121.185738"><ele>458.470</ele><time>2026-09-18T17:01:52Z</time></trkpt><trkpt lat="36.475675" lon="-121.185747"><ele>458.468</ele><time>2026-09-18T17:01:54Z</time></trkpt><trkpt lat="36.475728" lon="-121.185761"><ele>458.470</ele><time>2026-09-18T17:01:58Z</time></trkpt><trkpt lat="36.475734" lon="-121.18576"><ele>458.295</ele><time>2026-09-18T17:01:59Z</time></trkpt><trkpt lat="36.475736" lon="-121.185761"><ele>458.297</ele><time>2026-09-18T17:02:00Z</time></trkpt><trkpt lat="36.475738" lon="-121.185765"><ele>458.223</ele><time>2026-09-18T17:02:01Z</time></trkpt><trkpt lat="36.475742" lon="-121.185768"><ele>458.225</ele><time>2026-09-18T17:02:02Z</time></trkpt><trkpt lat="36.475745" lon="-121.185768"><ele>458.209</ele><time>2026-09-18T17:02:03Z</time></trkpt><trkpt lat="36.475765" lon="-121.185801"><ele>458.241</ele><time>2026-09-18T17:02:09Z</time></trkpt><trkpt lat="36.475748" lon="-121.18583"><ele>458.247</ele><time>2026-09-18T17:02:16Z</time></trkpt><trkpt lat="36.475736" lon="-121.185831"><ele>458.085</ele><time>2026-09-18T17:02:18Z</time></trkpt><trkpt lat="36.4757" lon="-121.185831"><ele>457.863</ele><time>2026-09-18T17:02:19Z</time></trkpt><trkpt lat="36.475691" lon="-121.185832"><ele>457.617</ele><time>2026-09-18T17:02:21Z</time></trkpt><trkpt lat="36.475691" lon="-121.185833"><ele>457.875</ele><time>2026-09-18T17:02:24Z</time></trkpt><trkpt lat="36.475701" lon="-121.185841"><ele>457.833</ele><time>2026-09-18T17:02:26Z</time></trkpt><trkpt lat="36.47567" lon="-121.185886"><ele>457.865</ele><time>2026-09-18T17:02:31Z</time></trkpt><trkpt lat="36.47567" lon="-121.1859"><ele>458.050</ele><time>2026-09-18T17:02:32Z</time></trkpt><trkpt lat="36.475685" lon="-121.185959"><ele>458.251</ele><time>2026-09-18T17:02:36Z</time></trkpt><trkpt lat="36.475662" lon="-121.18602"><ele>458.401</ele><time>2026-09-18T17:02:43Z</time></trkpt><trkpt lat="36.47559" lon="-121.186088"><ele>458.011</ele><time>2026-09-18T17:02:52Z</time></trkpt><trkpt lat="36.475573" lon="-121.186097"><ele>458.009</ele><time>2026-09-18T17:02:57Z</time></trkpt><trkpt lat="36.475569" lon="-121.1861"><ele>458.257</ele><time>2026-09-18T17:02:58Z</time></trkpt><trkpt lat="36.475567" lon="-121.186103"><ele>458.253</ele><time>2026-09-18T17:02:59Z</time></trkpt><trkpt lat="36.475564" lon="-121.186096"><ele>458.211</ele><time>2026-09-18T17:03:02Z</time></trkpt><trkpt lat="36.475567" lon="-121.186093"><ele>458.069</ele><time>2026-09-18T17:03:03Z</time></trkpt><trkpt lat="36.475574" lon="-121.186096"><ele>458.283</ele><time>2026-09-18T17:03:06Z</time></trkpt><trkpt lat="36.47556" lon="-121.186118"><ele>458.291</ele><time>2026-09-18T17:03:10Z</time></trkpt><trkpt lat="36.475524" lon="-121.186184"><ele>458.019</ele><time>2026-09-18T17:03:17Z</time></trkpt><trkpt lat="36.475487" lon="-121.186264"><ele>457.851</ele><time>2026-09-18T17:03:25Z</time></trkpt><trkpt lat="36.475411" lon="-121.186286"><ele>457.856</ele><time>2026-09-18T17:03:31Z</time></trkpt><trkpt lat="36.475344" lon="-121.186262"><ele>458.862</ele><time>2026-09-18T17:03:37Z</time></trkpt><trkpt lat="36.475324" lon="-121.186263"><ele>459.083</ele><time>2026-09-18T17:03:39Z</time></trkpt><trkpt lat="36.475246" lon="-121.186312"><ele>459.611</ele><time>2026-09-18T17:03:46Z</time></trkpt><trkpt lat="36.475236" lon="-121.186331"><ele>460.009</ele><time>2026-09-18T17:03:50Z</time></trkpt><trkpt lat="36.475245" lon="-121.18633"><ele>460.298</ele><time>2026-09-18T17:03:54Z</time></trkpt><trkpt lat="36.475208" lon="-121.186349"><ele>460.254</ele><time>2026-09-18T17:03:59Z</time></trkpt><trkpt lat="36.4752" lon="-121.186351"><ele>460.482</ele><time>2026-09-18T17:04:00Z</time></trkpt><trkpt lat="36.47518" lon="-121.186376"><ele>460.610</ele><time>2026-09-18T17:04:07Z</time></trkpt><trkpt lat="36.475159" lon="-121.186381"><ele>461.034</ele><time>2026-09-18T17:04:13Z</time></trkpt><trkpt lat="36.475147" lon="-121.186388"><ele>461.262</ele><time>2026-09-18T17:04:15Z</time></trkpt><trkpt lat="36.475068" lon="-121.186395"><ele>462.020</ele><time>2026-09-18T17:04:24Z</time></trkpt><trkpt lat="36.475059" lon="-121.186391"><ele>462.042</ele><time>2026-09-18T17:04:25Z</time></trkpt><trkpt lat="36.474999" lon="-121.186348"><ele>462.847</ele><time>2026-09-18T17:04:32Z</time></trkpt><trkpt lat="36.474948" lon="-121.186319"><ele>462.893</ele><time>2026-09-18T17:04:37Z</time></trkpt><trkpt lat="36.474915" lon="-121.186306"><ele>463.065</ele><time>2026-09-18T17:04:40Z</time></trkpt><trkpt lat="36.474894" lon="-121.186299"><ele>463.221</ele><time>2026-09-18T17:04:42Z</time></trkpt><trkpt lat="36.474821" lon="-121.186291"><ele>463.009</ele><time>2026-09-18T17:04:50Z</time></trkpt><trkpt lat="36.474726" lon="-121.186301"><ele>462.231</ele><time>2026-09-18T17:05:00Z</time></trkpt><trkpt lat="36.474728" lon="-121.186294"><ele>462.017</ele><time>2026-09-18T17:05:02Z</time></trkpt><trkpt lat="36.474745" lon="-121.186287"><ele>462.215</ele><time>2026-09-18T17:05:04Z</time></trkpt><trkpt lat="36.47476" lon="-121.186273"><ele>462.493</ele><time>2026-09-18T17:05:07Z</time></trkpt><trkpt lat="36.474765" lon="-121.186242"><ele>462.677</ele><time>2026-09-18T17:05:15Z</time></trkpt><trkpt lat="36.474741" lon="-121.186248"><ele>462.665</ele><time>2026-09-18T17:05:19Z</time></trkpt><trkpt lat="36.474743" lon="-121.186234"><ele>463.033</ele><time>2026-09-18T17:05:28Z</time></trkpt><trkpt lat="36.474739" lon="-121.18623"><ele>463.055</ele><time>2026-09-18T17:05:29Z</time></trkpt><trkpt lat="36.47474" lon="-121.186241"><ele>463.260</ele><time>2026-09-18T17:05:34Z</time></trkpt><trkpt lat="36.474738" lon="-121.186243"><ele>463.252</ele><time>2026-09-18T17:05:35Z</time></trkpt><trkpt lat="36.474734" lon="-121.186242"><ele>463.253</ele><time>2026-09-18T17:05:36Z</time></trkpt><trkpt lat="36.474729" lon="-121.186242"><ele>463.208</ele><time>2026-09-18T17:05:37Z</time></trkpt><trkpt lat="36.474718" lon="-121.186244"><ele>463.409</ele><time>2026-09-18T17:05:44Z</time></trkpt><trkpt lat="36.474652" lon="-121.186262"><ele>463.037</ele><time>2026-09-18T17:05:50Z</time></trkpt><trkpt lat="36.474602" lon="-121.186276"><ele>463.283</ele><time>2026-09-18T17:05:57Z</time></trkpt><trkpt lat="36.474542" lon="-121.186328"><ele>463.671</ele><time>2026-09-18T17:06:05Z</time></trkpt><trkpt lat="36.474501" lon="-121.186339"><ele>463.639</ele><time>2026-09-18T17:06:10Z</time></trkpt><trkpt lat="36.474479" lon="-121.186353"><ele>464.293</ele><time>2026-09-18T17:06:14Z</time></trkpt><trkpt lat="36.474442" lon="-121.18635"><ele>464.461</ele><time>2026-09-18T17:06:18Z</time></trkpt><trkpt lat="36.474392" lon="-121.186358"><ele>464.629</ele><time>2026-09-18T17:06:24Z</time></trkpt><trkpt lat="36.474362" lon="-121.186368"><ele>465.281</ele><time>2026-09-18T17:06:33Z</time></trkpt><trkpt lat="36.47437" lon="-121.186372"><ele>465.296</ele><time>2026-09-18T17:06:34Z</time></trkpt><trkpt lat="36.474369" lon="-121.186374"><ele>465.269</ele><time>2026-09-18T17:06:35Z</time></trkpt><trkpt lat="36.474378" lon="-121.186379"><ele>465.504</ele><time>2026-09-18T17:06:36Z</time></trkpt><trkpt lat="36.474386" lon="-121.186383"><ele>465.824</ele><time>2026-09-18T17:06:37Z</time></trkpt><trkpt lat="36.473682" lon="-121.186584"><ele>489.009</ele><time>2026-09-18T17:14:09Z</time></trkpt><trkpt lat="36.473717" lon="-121.186621"><ele>490.468</ele><time>2026-09-18T17:14:13Z</time></trkpt><trkpt lat="36.473779" lon="-121.186671"><ele>492.894</ele><time>2026-09-18T17:14:22Z</time></trkpt><trkpt lat="36.473794" lon="-121.186665"><ele>492.612</ele><time>2026-09-18T17:14:33Z</time></trkpt><trkpt lat="36.473825" lon="-121.186672"><ele>492.820</ele><time>2026-09-18T17:14:38Z</time></trkpt><trkpt lat="36.473827" lon="-121.186674"><ele>492.854</ele><time>2026-09-18T17:14:39Z</time></trkpt><trkpt lat="36.473809" lon="-121.186663"><ele>493.032</ele><time>2026-09-18T17:14:46Z</time></trkpt><trkpt lat="36.4738" lon="-121.186661"><ele>492.830</ele><time>2026-09-18T17:14:51Z</time></trkpt><trkpt lat="36.473799" lon="-121.186664"><ele>492.812</ele><time>2026-09-18T17:14:52Z</time></trkpt><trkpt lat="36.473795" lon="-121.186668"><ele>492.867</ele><time>2026-09-18T17:14:53Z</time></trkpt><trkpt lat="36.473793" lon="-121.186669"><ele>492.828</ele><time>2026-09-18T17:14:55Z</time></trkpt><trkpt lat="36.473793" lon="-121.186673"><ele>492.889</ele><time>2026-09-18T17:14:57Z</time></trkpt><trkpt lat="36.473778" lon="-121.186672"><ele>493.017</ele><time>2026-09-18T17:15:00Z</time></trkpt><trkpt lat="36.47376" lon="-121.186667"><ele>493.209</ele><time>2026-09-18T17:15:08Z</time></trkpt><trkpt lat="36.473734" lon="-121.186667"><ele>493.844</ele><time>2026-09-18T17:15:12Z</time></trkpt><trkpt lat="36.473721" lon="-121.186676"><ele>494.410</ele><time>2026-09-18T17:15:15Z</time></trkpt><trkpt lat="36.473701" lon="-121.186676"><ele>494.838</ele><time>2026-09-18T17:15:18Z</time></trkpt><trkpt lat="36.473693" lon="-121.186676"><ele>494.856</ele><time>2026-09-18T17:15:19Z</time></trkpt><trkpt lat="36.473671" lon="-121.186667"><ele>495.470</ele><time>2026-09-18T17:15:22Z</time></trkpt><trkpt lat="36.473659" lon="-121.186671"><ele>495.638</ele><time>2026-09-18T17:15:24Z</time></trkpt><trkpt lat="36.473653" lon="-121.18667"><ele>495.846</ele><time>2026-09-18T17:15:25Z</time></trkpt><trkpt lat="36.47365" lon="-121.186655"><ele>495.848</ele><time>2026-09-18T17:15:26Z</time></trkpt><trkpt lat="36.473647" lon="-121.186648"><ele>495.853</ele><time>2026-09-18T17:15:27Z</time></trkpt><trkpt lat="36.473644" lon="-121.186617"><ele>496.013</ele><time>2026-09-18T17:15:30Z</time></trkpt><trkpt lat="36.473582" lon="-121.1866"><ele>497.043</ele><time>2026-09-18T17:15:36Z</time></trkpt><trkpt lat="36.473576" lon="-121.186567"><ele>497.807</ele><time>2026-09-18T17:15:39Z</time></trkpt><trkpt lat="36.473571" lon="-121.186556"><ele>498.009</ele><time>2026-09-18T17:15:41Z</time></trkpt><trkpt lat="36.47356" lon="-121.18653"><ele>499.273</ele><time>2026-09-18T17:15:47Z</time></trkpt><trkpt lat="36.473562" lon="-121.186537"><ele>499.639</ele><time>2026-09-18T17:15:49Z</time></trkpt><trkpt lat="36.473567" lon="-121.186532"><ele>500.077</ele><time>2026-09-18T17:15:51Z</time></trkpt><trkpt lat="36.473564" lon="-121.186506"><ele>500.265</ele><time>2026-09-18T17:15:53Z</time></trkpt><trkpt lat="36.473555" lon="-121.18649"><ele>500.639</ele><time>2026-09-18T17:15:57Z</time></trkpt><trkpt lat="36.473559" lon="-121.186479"><ele>500.817</ele><time>2026-09-18T17:16:00Z</time></trkpt><trkpt lat="36.473556" lon="-121.186473"><ele>501.045</ele><time>2026-09-18T17:16:01Z</time></trkpt><trkpt lat="36.473561" lon="-121.186469"><ele>501.437</ele><time>2026-09-18T17:16:02Z</time></trkpt><trkpt lat="36.473571" lon="-121.186447"><ele>501.812</ele><time>2026-09-18T17:16:06Z</time></trkpt><trkpt lat="36.47358" lon="-121.18641"><ele>502.087</ele><time>2026-09-18T17:16:09Z</time></trkpt><trkpt lat="36.473581" lon="-121.186394"><ele>502.242</ele><time>2026-09-18T17:16:14Z</time></trkpt><trkpt lat="36.47361" lon="-121.186381"><ele>502.426</ele><time>2026-09-18T17:16:23Z</time></trkpt><trkpt lat="36.473612" lon="-121.186377"><ele>502.609</ele><time>2026-09-18T17:16:24Z</time></trkpt><trkpt lat="36.473615" lon="-121.186367"><ele>503.020</ele><time>2026-09-18T17:16:27Z</time></trkpt><trkpt lat="36.473619" lon="-121.186354"><ele>503.616</ele><time>2026-09-18T17:16:29Z</time></trkpt><trkpt lat="36.473627" lon="-121.186321"><ele>503.824</ele><time>2026-09-18T17:16:32Z</time></trkpt><trkpt lat="36.473631" lon="-121.186307"><ele>504.282</ele><time>2026-09-18T17:16:34Z</time></trkpt><trkpt lat="36.473637" lon="-121.186279"><ele>504.626</ele><time>2026-09-18T17:16:37Z</time></trkpt><trkpt lat="36.473659" lon="-121.186217"><ele>505.434</ele><time>2026-09-18T17:16:44Z</time></trkpt><trkpt lat="36.473655" lon="-121.186188"><ele>505.692</ele><time>2026-09-18T17:16:47Z</time></trkpt><trkpt lat="36.473648" lon="-121.186183"><ele>505.854</ele><time>2026-09-18T17:16:48Z</time></trkpt><trkpt lat="36.473621" lon="-121.18619"><ele>506.219</ele><time>2026-09-18T17:16:51Z</time></trkpt><trkpt lat="36.473586" lon="-121.1862"><ele>506.845</ele><time>2026-09-18T17:16:55Z</time></trkpt><trkpt lat="36.473556" lon="-121.186206"><ele>507.647</ele><time>2026-09-18T17:17:00Z</time></trkpt><trkpt lat="36.473535" lon="-121.186217"><ele>507.811</ele><time>2026-09-18T17:17:03Z</time></trkpt><trkpt lat="36.473509" lon="-121.186236"><ele>508.409</ele><time>2026-09-18T17:17:07Z</time></trkpt><trkpt lat="36.473487" lon="-121.186257"><ele>508.886</ele><time>2026-09-18T17:17:10Z</time></trkpt><trkpt lat="36.473486" lon="-121.186263"><ele>509.492</ele><time>2026-09-18T17:17:14Z</time></trkpt><trkpt lat="36.473487" lon="-121.18626"><ele>509.480</ele><time>2026-09-18T17:17:15Z</time></trkpt><trkpt lat="36.473483" lon="-121.186263"><ele>509.488</ele><time>2026-09-18T17:17:16Z</time></trkpt><trkpt lat="36.473441" lon="-121.18629"><ele>509.632</ele><time>2026-09-18T17:17:21Z</time></trkpt><trkpt lat="36.473425" lon="-121.186308"><ele>510.020</ele><time>2026-09-18T17:17:23Z</time></trkpt><trkpt lat="36.473372" lon="-121.186323"><ele>510.438</ele><time>2026-09-18T17:17:29Z</time></trkpt><trkpt lat="36.473314" lon="-121.186336"><ele>510.680</ele><time>2026-09-18T17:17:37Z</time></trkpt><trkpt lat="36.473264" lon="-121.186405"><ele>509.895</ele><time>2026-09-18T17:17:45Z</time></trkpt><trkpt lat="36.473267" lon="-121.186401"><ele>509.616</ele><time>2026-09-18T17:17:51Z</time></trkpt><trkpt lat="36.473257" lon="-121.186388"><ele>509.676</ele><time>2026-09-18T17:17:53Z</time></trkpt><trkpt lat="36.473245" lon="-121.186387"><ele>509.813</ele><time>2026-09-18T17:17:55Z</time></trkpt><trkpt lat="36.473195" lon="-121.186373"><ele>509.609</ele><time>2026-09-18T17:18:00Z</time></trkpt><trkpt lat="36.473093" lon="-121.186392"><ele>509.223</ele><time>2026-09-18T17:18:08Z</time></trkpt><trkpt lat="36.473022" lon="-121.186413"><ele>509.639</ele><time>2026-09-18T17:18:16Z</time></trkpt><trkpt lat="36.47297" lon="-121.186422"><ele>509.627</ele><time>2026-09-18T17:18:21Z</time></trkpt><trkpt lat="36.472939" lon="-121.186432"><ele>509.875</ele><time>2026-09-18T17:18:25Z</time></trkpt><trkpt lat="36.472927" lon="-121.186431"><ele>509.649</ele><time>2026-09-18T17:18:27Z</time></trkpt><trkpt lat="36.472912" lon="-121.186437"><ele>509.437</ele><time>2026-09-18T17:18:30Z</time></trkpt><trkpt lat="36.472883" lon="-121.186429"><ele>508.835</ele><time>2026-09-18T17:18:33Z</time></trkpt><trkpt lat="36.472845" lon="-121.186405"><ele>508.687</ele><time>2026-09-18T17:18:35Z</time></trkpt><trkpt lat="36.472831" lon="-121.186375"><ele>507.832</ele><time>2026-09-18T17:18:42Z</time></trkpt><trkpt lat="36.472817" lon="-121.186372"><ele>508.055</ele><time>2026-09-18T17:18:47Z</time></trkpt><trkpt lat="36.472818" lon="-121.186375"><ele>507.807</ele><time>2026-09-18T17:18:49Z</time></trkpt><trkpt lat="36.472819" lon="-121.186378"><ele>507.817</ele><time>2026-09-18T17:18:50Z</time></trkpt><trkpt lat="36.47282" lon="-121.186388"><ele>507.609</ele><time>2026-09-18T17:18:51Z</time></trkpt><trkpt lat="36.472801" lon="-121.18643"><ele>506.897</ele><time>2026-09-18T17:18:55Z</time></trkpt><trkpt lat="36.472803" lon="-121.186452"><ele>506.083</ele><time>2026-09-18T17:18:58Z</time></trkpt><trkpt lat="36.472748" lon="-121.186416"><ele>505.691</ele><time>2026-09-18T17:19:04Z</time></trkpt><trkpt lat="36.47275" lon="-121.186414"><ele>505.419</ele><time>2026-09-18T17:19:05Z</time></trkpt><trkpt lat="36.472782" lon="-121.186438"><ele>504.683</ele><time>2026-09-18T17:19:13Z</time></trkpt><trkpt lat="36.472785" lon="-121.186441"><ele>504.691</ele><time>2026-09-18T17:19:14Z</time></trkpt><trkpt lat="36.472817" lon="-121.186508"><ele>503.699</ele><time>2026-09-18T17:19:23Z</time></trkpt><trkpt lat="36.472841" lon="-121.186571"><ele>503.421</ele><time>2026-09-18T17:19:29Z</time></trkpt><trkpt lat="36.472894" lon="-121.186593"><ele>500.686</ele><time>2026-09-18T17:20:02Z</time></trkpt><trkpt lat="36.472904" lon="-121.186664"><ele>500.263</ele><time>2026-09-18T17:20:07Z</time></trkpt><trkpt lat="36.47289" lon="-121.186743"><ele>499.844</ele><time>2026-09-18T17:20:12Z</time></trkpt><trkpt lat="36.472906" lon="-121.186754"><ele>499.618</ele><time>2026-09-18T17:20:22Z</time></trkpt><trkpt lat="36.472907" lon="-121.186737"><ele>499.609</ele><time>2026-09-18T17:20:24Z</time></trkpt><trkpt lat="36.472908" lon="-121.18673"><ele>499.658</ele><time>2026-09-18T17:20:25Z</time></trkpt><trkpt lat="36.472908" lon="-121.186724"><ele>499.084</ele><time>2026-09-18T17:20:34Z</time></trkpt><trkpt lat="36.47291" lon="-121.186881"><ele>498.862</ele><time>2026-09-18T17:20:46Z</time></trkpt><trkpt lat="36.473092" lon="-121.187118"><ele>499.620</ele><time>2026-09-18T17:22:36Z</time></trkpt><trkpt lat="36.473051" lon="-121.187089"><ele>500.074</ele><time>2026-09-18T17:22:39Z</time></trkpt><trkpt lat="36.473013" lon="-121.18708"><ele>500.212</ele><time>2026-09-18T17:22:40Z</time></trkpt><trkpt lat="36.472902" lon="-121.187153"><ele>501.250</ele><time>2026-09-18T17:22:46Z</time></trkpt><trkpt lat="36.47287" lon="-121.187167"><ele>501.692</ele><time>2026-09-18T17:22:48Z</time></trkpt><trkpt lat="36.472858" lon="-121.187167"><ele>502.277</ele><time>2026-09-18T17:22:51Z</time></trkpt><trkpt lat="36.472844" lon="-121.187165"><ele>502.474</ele><time>2026-09-18T17:22:52Z</time></trkpt><trkpt lat="36.47284" lon="-121.187167"><ele>502.656</ele><time>2026-09-18T17:22:53Z</time></trkpt><trkpt lat="36.472833" lon="-121.187171"><ele>503.421</ele><time>2026-09-18T17:23:00Z</time></trkpt><trkpt lat="36.47284" lon="-121.187166"><ele>503.809</ele><time>2026-09-18T17:23:02Z</time></trkpt><trkpt lat="36.472847" lon="-121.18716"><ele>504.459</ele><time>2026-09-18T17:23:06Z</time></trkpt><trkpt lat="36.472846" lon="-121.187173"><ele>504.645</ele><time>2026-09-18T17:23:07Z</time></trkpt><trkpt lat="36.472846" lon="-121.187191"><ele>505.263</ele><time>2026-09-18T17:23:10Z</time></trkpt><trkpt lat="36.472848" lon="-121.1872"><ele>505.881</ele><time>2026-09-18T17:23:12Z</time></trkpt><trkpt lat="36.472857" lon="-121.18727"><ele>506.265</ele><time>2026-09-18T17:23:19Z</time></trkpt><trkpt lat="36.472851" lon="-121.187278"><ele>506.833</ele><time>2026-09-18T17:23:22Z</time></trkpt><trkpt lat="36.472849" lon="-121.1873"><ele>507.871</ele><time>2026-09-18T17:23:26Z</time></trkpt><trkpt lat="36.472851" lon="-121.18732"><ele>508.263</ele><time>2026-09-18T17:23:28Z</time></trkpt><trkpt lat="36.472856" lon="-121.187347"><ele>509.018</ele><time>2026-09-18T17:23:32Z</time></trkpt><trkpt lat="36.472861" lon="-121.187359"><ele>509.433</ele><time>2026-09-18T17:23:34Z</time></trkpt><trkpt lat="36.472864" lon="-121.187376"><ele>509.823</ele><time>2026-09-18T17:23:36Z</time></trkpt><trkpt lat="36.472862" lon="-121.187395"><ele>510.015</ele><time>2026-09-18T17:23:38Z</time></trkpt><trkpt lat="36.472863" lon="-121.187416"><ele>510.609</ele><time>2026-09-18T17:23:42Z</time></trkpt><trkpt lat="36.47287" lon="-121.187437"><ele>511.245</ele><time>2026-09-18T17:23:46Z</time></trkpt><trkpt lat="36.472886" lon="-121.187446"><ele>511.641</ele><time>2026-09-18T17:23:49Z</time></trkpt><trkpt lat="36.472897" lon="-121.187458"><ele>512.479</ele><time>2026-09-18T17:23:52Z</time></trkpt><trkpt lat="36.472901" lon="-121.187472"><ele>513.237</ele><time>2026-09-18T17:23:56Z</time></trkpt><trkpt lat="36.472901" lon="-121.187478"><ele>513.431</ele><time>2026-09-18T17:23:58Z</time></trkpt><trkpt lat="36.4729" lon="-121.187488"><ele>513.819</ele><time>2026-09-18T17:24:03Z</time></trkpt><trkpt lat="36.4729" lon="-121.187488"><ele>513.817</ele><time>2026-09-18T17:24:07Z</time></trkpt><trkpt lat="36.472889" lon="-121.1875"><ele>513.459</ele><time>2026-09-18T17:24:11Z</time></trkpt><trkpt lat="36.472887" lon="-121.187496"><ele>513.234</ele><time>2026-09-18T17:24:13Z</time></trkpt><trkpt lat="36.472869" lon="-121.187454"><ele>512.699</ele><time>2026-09-18T17:24:21Z</time></trkpt><trkpt lat="36.472857" lon="-121.187438"><ele>512.407</ele><time>2026-09-18T17:24:22Z</time></trkpt><trkpt lat="36.472823" lon="-121.187367"><ele>512.227</ele><time>2026-09-18T17:24:28Z</time></trkpt><trkpt lat="36.472766" lon="-121.187291"><ele>511.609</ele><time>2026-09-18T17:24:36Z</time></trkpt><trkpt lat="36.472713" lon="-121.18728"><ele>511.491</ele><time>2026-09-18T17:24:41Z</time></trkpt><trkpt lat="36.4727" lon="-121.187289"><ele>511.287</ele><time>2026-09-18T17:24:42Z</time></trkpt><trkpt lat="36.472681" lon="-121.187318"><ele>510.635</ele><time>2026-09-18T17:24:47Z</time></trkpt><trkpt lat="36.472676" lon="-121.187333"><ele>510.693</ele><time>2026-09-18T17:24:57Z</time></trkpt><trkpt lat="36.472677" lon="-121.187336"><ele>510.437</ele><time>2026-09-18T17:25:01Z</time></trkpt><trkpt lat="36.472676" lon="-121.187333"><ele>510.085</ele><time>2026-09-18T17:25:08Z</time></trkpt><trkpt lat="36.472675" lon="-121.187326"><ele>509.873</ele><time>2026-09-18T17:25:19Z</time></trkpt><trkpt lat="36.472677" lon="-121.187323"><ele>509.695</ele><time>2026-09-18T17:25:24Z</time></trkpt><trkpt lat="36.472678" lon="-121.187327"><ele>509.410</ele><time>2026-09-18T17:25:26Z</time></trkpt><trkpt lat="36.472676" lon="-121.187333"><ele>509.483</ele><time>2026-09-18T17:25:27Z</time></trkpt><trkpt lat="36.472676" lon="-121.187333"><ele>509.425</ele><time>2026-09-18T17:25:28Z</time></trkpt><trkpt lat="36.472669" lon="-121.187331"><ele>508.817</ele><time>2026-09-18T17:25:32Z</time></trkpt><trkpt lat="36.472676" lon="-121.187328"><ele>508.609</ele><time>2026-09-18T17:25:41Z</time></trkpt><trkpt lat="36.472663" lon="-121.187322"><ele>508.450</ele><time>2026-09-18T17:25:51Z</time></trkpt><trkpt lat="36.472662" lon="-121.18732"><ele>508.476</ele><time>2026-09-18T17:26:00Z</time></trkpt><trkpt lat="36.472683" lon="-121.187326"><ele>508.454</ele><time>2026-09-18T17:26:08Z</time></trkpt><trkpt lat="36.472688" lon="-121.187331"><ele>508.452</ele><time>2026-09-18T17:26:10Z</time></trkpt><trkpt lat="36.472682" lon="-121.187335"><ele>508.256</ele><time>2026-09-18T17:26:12Z</time></trkpt><trkpt lat="36.472681" lon="-121.187338"><ele>507.874</ele><time>2026-09-18T17:26:15Z</time></trkpt><trkpt lat="36.472676" lon="-121.187337"><ele>507.672</ele><time>2026-09-18T17:26:17Z</time></trkpt><trkpt lat="36.472672" lon="-121.187336"><ele>507.644</ele><time>2026-09-18T17:26:19Z</time></trkpt><trkpt lat="36.472672" lon="-121.187333"><ele>507.899</ele><time>2026-09-18T17:26:22Z</time></trkpt><trkpt lat="36.472739" lon="-121.187288"><ele>506.635</ele><time>2026-09-18T17:38:30Z</time></trkpt><trkpt lat="36.47274" lon="-121.187287"><ele>506.686</ele><time>2026-09-18T17:38:31Z</time></trkpt><trkpt lat="36.472751" lon="-121.18729"><ele>506.814</ele><time>2026-09-18T17:38:33Z</time></trkpt><trkpt lat="36.472778" lon="-121.187324"><ele>506.809</ele><time>2026-09-18T17:38:41Z</time></trkpt><trkpt lat="36.472799" lon="-121.187353"><ele>506.825</ele><time>2026-09-18T17:38:45Z</time></trkpt><trkpt lat="36.472815" lon="-121.187388"><ele>507.061</ele><time>2026-09-18T17:38:49Z</time></trkpt><trkpt lat="36.472825" lon="-121.187409"><ele>507.059</ele><time>2026-09-18T17:38:51Z</time></trkpt><trkpt lat="36.472856" lon="-121.187451"><ele>507.087</ele><time>2026-09-18T17:38:59Z</time></trkpt><trkpt lat="36.472871" lon="-121.187478"><ele>507.031</ele><time>2026-09-18T17:39:07Z</time></trkpt><trkpt lat="36.472876" lon="-121.187488"><ele>506.899</ele><time>2026-09-18T17:39:10Z</time></trkpt><trkpt lat="36.4729" lon="-121.187511"><ele>507.457</ele><time>2026-09-18T17:39:22Z</time></trkpt><trkpt lat="36.472905" lon="-121.187517"><ele>507.429</ele><time>2026-09-18T17:39:24Z</time></trkpt><trkpt lat="36.472917" lon="-121.187527"><ele>507.694</ele><time>2026-09-18T17:39:30Z</time></trkpt><trkpt lat="36.472917" lon="-121.187531"><ele>507.864</ele><time>2026-09-18T17:39:31Z</time></trkpt><trkpt lat="36.472927" lon="-121.187553"><ele>508.006</ele><time>2026-09-18T17:39:40Z</time></trkpt><trkpt lat="36.472932" lon="-121.187593"><ele>508.816</ele><time>2026-09-18T17:39:48Z</time></trkpt><trkpt lat="36.472931" lon="-121.187594"><ele>508.809</ele><time>2026-09-18T17:39:50Z</time></trkpt><trkpt lat="36.47296" lon="-121.187586"><ele>509.638</ele><time>2026-09-18T17:40:00Z</time></trkpt><trkpt lat="36.472965" lon="-121.187584"><ele>509.894</ele><time>2026-09-18T17:40:01Z</time></trkpt><trkpt lat="36.472968" lon="-121.187578"><ele>509.832</ele><time>2026-09-18T17:40:07Z</time></trkpt><trkpt lat="36.472968" lon="-121.187577"><ele>510.260</ele><time>2026-09-18T17:40:10Z</time></trkpt><trkpt lat="36.472976" lon="-121.187566"><ele>510.894</ele><time>2026-09-18T17:40:14Z</time></trkpt><trkpt lat="36.472998" lon="-121.187547"><ele>511.062</ele><time>2026-09-18T17:40:19Z</time></trkpt><trkpt lat="36.473019" lon="-121.187526"><ele>511.230</ele><time>2026-09-18T17:40:26Z</time></trkpt><trkpt lat="36.473014" lon="-121.187513"><ele>511.072</ele><time>2026-09-18T17:40:34Z</time></trkpt><trkpt lat="36.473029" lon="-121.187466"><ele>511.887</ele><time>2026-09-18T17:40:41Z</time></trkpt><trkpt lat="36.473029" lon="-121.187464"><ele>511.815</ele><time>2026-09-18T17:40:42Z</time></trkpt><trkpt lat="36.473031" lon="-121.187427"><ele>512.065</ele><time>2026-09-18T17:40:50Z</time></trkpt><trkpt lat="36.473034" lon="-121.187433"><ele>511.811</ele><time>2026-09-18T17:40:51Z</time></trkpt><trkpt lat="36.47304" lon="-121.187427"><ele>511.809</ele><time>2026-09-18T17:40:58Z</time></trkpt><trkpt lat="36.47303" lon="-121.187422"><ele>511.673</ele><time>2026-09-18T17:41:08Z</time></trkpt><trkpt lat="36.473028" lon="-121.187424"><ele>511.649</ele><time>2026-09-18T17:41:09Z</time></trkpt><trkpt lat="36.473024" lon="-121.187426"><ele>512.057</ele><time>2026-09-18T17:41:17Z</time></trkpt><trkpt lat="36.473021" lon="-121.187428"><ele>511.885</ele><time>2026-09-18T17:41:20Z</time></trkpt><trkpt lat="36.473008" lon="-121.187421"><ele>511.489</ele><time>2026-09-18T17:41:29Z</time></trkpt><trkpt lat="36.473008" lon="-121.187422"><ele>511.417</ele><time>2026-09-18T17:41:31Z</time></trkpt><trkpt lat="36.472994" lon="-121.187438"><ele>511.485</ele><time>2026-09-18T17:41:40Z</time></trkpt><trkpt lat="36.473009" lon="-121.187426"><ele>511.217</ele><time>2026-09-18T17:41:49Z</time></trkpt><trkpt lat="36.473013" lon="-121.187402"><ele>511.832</ele><time>2026-09-18T17:41:59Z</time></trkpt><trkpt lat="36.473014" lon="-121.1874"><ele>511.868</ele><time>2026-09-18T17:42:00Z</time></trkpt><trkpt lat="36.473033" lon="-121.187378"><ele>512.042</ele><time>2026-09-18T17:42:10Z</time></trkpt><trkpt lat="36.473039" lon="-121.187386"><ele>512.226</ele><time>2026-09-18T17:42:15Z</time></trkpt><trkpt lat="36.473035" lon="-121.187363"><ele>512.209</ele><time>2026-09-18T17:42:20Z</time></trkpt><trkpt lat="36.473031" lon="-121.187348"><ele>512.458</ele><time>2026-09-18T17:42:26Z</time></trkpt><trkpt lat="36.473028" lon="-121.187345"><ele>512.634</ele><time>2026-09-18T17:42:27Z</time></trkpt><trkpt lat="36.473028" lon="-121.187346"><ele>512.642</ele><time>2026-09-18T17:42:28Z</time></trkpt><trkpt lat="36.473024" lon="-121.187343"><ele>512.610</ele><time>2026-09-18T17:42:30Z</time></trkpt><trkpt lat="36.473012" lon="-121.187307"><ele>512.874</ele><time>2026-09-18T17:42:37Z</time></trkpt><trkpt lat="36.473012" lon="-121.187303"><ele>513.052</ele><time>2026-09-18T17:42:38Z</time></trkpt><trkpt lat="36.473014" lon="-121.187288"><ele>513.240</ele><time>2026-09-18T17:42:41Z</time></trkpt><trkpt lat="36.473011" lon="-121.18728"><ele>513.252</ele><time>2026-09-18T17:42:43Z</time></trkpt><trkpt lat="36.473012" lon="-121.187282"><ele>513.247</ele><time>2026-09-18T17:42:45Z</time></trkpt><trkpt lat="36.473026" lon="-121.187296"><ele>513.015</ele><time>2026-09-18T17:42:55Z</time></trkpt><trkpt lat="36.47303" lon="-121.187245"><ele>513.465</ele><time>2026-09-18T17:43:02Z</time></trkpt><trkpt lat="36.473033" lon="-121.1872"><ele>513.811</ele><time>2026-09-18T17:43:09Z</time></trkpt><trkpt lat="36.473033" lon="-121.1872"><ele>513.809</ele><time>2026-09-18T17:43:10Z</time></trkpt><trkpt lat="36.473031" lon="-121.187198"><ele>514.083</ele><time>2026-09-18T17:43:12Z</time></trkpt><trkpt lat="36.473031" lon="-121.187198"><ele>514.099</ele><time>2026-09-18T17:43:16Z</time></trkpt><trkpt lat="36.473029" lon="-121.187183"><ele>514.047</ele><time>2026-09-18T17:43:25Z</time></trkpt><trkpt lat="36.47303" lon="-121.187173"><ele>514.075</ele><time>2026-09-18T17:43:27Z</time></trkpt><trkpt lat="36.473034" lon="-121.187145"><ele>514.289</ele><time>2026-09-18T17:43:32Z</time></trkpt><trkpt lat="36.473034" lon="-121.187103"><ele>514.417</ele><time>2026-09-18T17:43:40Z</time></trkpt><trkpt lat="36.473038" lon="-121.187062"><ele>514.665</ele><time>2026-09-18T17:43:48Z</time></trkpt><trkpt lat="36.473053" lon="-121.187034"><ele>514.837</ele><time>2026-09-18T17:43:58Z</time></trkpt><trkpt lat="36.473054" lon="-121.187032"><ele>514.842</ele><time>2026-09-18T17:43:59Z</time></trkpt><trkpt lat="36.473059" lon="-121.187015"><ele>515.024</ele><time>2026-09-18T17:44:05Z</time></trkpt><trkpt lat="36.473083" lon="-121.187013"><ele>516.004</ele><time>2026-09-18T17:44:11Z</time></trkpt><trkpt lat="36.473093" lon="-121.18701"><ele>516.014</ele><time>2026-09-18T17:44:13Z</time></trkpt><trkpt lat="36.473132" lon="-121.187005"><ele>516.409</ele><time>2026-09-18T17:44:23Z</time></trkpt><trkpt lat="36.473144" lon="-121.187004"><ele>516.474</ele><time>2026-09-18T17:44:29Z</time></trkpt><trkpt lat="36.473157" lon="-121.187005"><ele>516.690</ele><time>2026-09-18T17:44:32Z</time></trkpt><trkpt lat="36.473179" lon="-121.18699"><ele>516.858</ele><time>2026-09-18T17:44:39Z</time></trkpt><trkpt lat="36.473191" lon="-121.186988"><ele>517.096</ele><time>2026-09-18T17:44:42Z</time></trkpt><trkpt lat="36.473195" lon="-121.186988"><ele>517.080</ele><time>2026-09-18T17:44:43Z</time></trkpt><trkpt lat="36.473232" lon="-121.186987"><ele>517.428</ele><time>2026-09-18T17:44:52Z</time></trkpt><trkpt lat="36.473269" lon="-121.186992"><ele>517.436</ele><time>2026-09-18T17:44:58Z</time></trkpt><trkpt lat="36.47328" lon="-121.186993"><ele>517.438</ele><time>2026-09-18T17:45:00Z</time></trkpt><trkpt lat="36.473313" lon="-121.186991"><ele>517.633</ele><time>2026-09-18T17:45:11Z</time></trkpt><trkpt lat="36.473324" lon="-121.186988"><ele>518.023</ele><time>2026-09-18T17:45:15Z</time></trkpt><trkpt lat="36.473336" lon="-121.18698"><ele>518.283</ele><time>2026-09-18T17:45:20Z</time></trkpt><trkpt lat="36.473362" lon="-121.186973"><ele>518.611</ele><time>2026-09-18T17:45:27Z</time></trkpt><trkpt lat="36.473401" lon="-121.186951"><ele>518.809</ele><time>2026-09-18T17:45:34Z</time></trkpt><trkpt lat="36.473408" lon="-121.186943"><ele>519.034</ele><time>2026-09-18T17:45:35Z</time></trkpt><trkpt lat="36.473408" lon="-121.186921"><ele>519.260</ele><time>2026-09-18T17:45:38Z</time></trkpt><trkpt lat="36.473441" lon="-121.186913"><ele>519.218</ele><time>2026-09-18T17:45:42Z</time></trkpt><trkpt lat="36.47348" lon="-121.186958"><ele>519.286</ele><time>2026-09-18T17:45:49Z</time></trkpt><trkpt lat="36.47354" lon="-121.186976"><ele>519.660</ele><time>2026-09-18T17:45:57Z</time></trkpt><trkpt lat="36.473544" lon="-121.186977"><ele>519.468</ele><time>2026-09-18T17:46:02Z</time></trkpt><trkpt lat="36.473544" lon="-121.186976"><ele>519.636</ele><time>2026-09-18T17:46:04Z</time></trkpt><trkpt lat="36.47352" lon="-121.18699"><ele>519.298</ele><time>2026-09-18T17:46:15Z</time></trkpt><trkpt lat="36.473531" lon="-121.187001"><ele>518.873</ele><time>2026-09-18T17:46:23Z</time></trkpt><trkpt lat="36.473532" lon="-121.186996"><ele>518.637</ele><time>2026-09-18T17:46:26Z</time></trkpt><trkpt lat="36.473528" lon="-121.186994"><ele>518.449</ele><time>2026-09-18T17:46:32Z</time></trkpt><trkpt lat="36.473534" lon="-121.186969"><ele>518.613</ele><time>2026-09-18T17:46:38Z</time></trkpt><trkpt lat="36.473526" lon="-121.186972"><ele>518.609</ele><time>2026-09-18T17:46:41Z</time></trkpt><trkpt lat="36.473523" lon="-121.186979"><ele>518.445</ele><time>2026-09-18T17:46:43Z</time></trkpt><trkpt lat="36.47352" lon="-121.186982"><ele>518.421</ele><time>2026-09-18T17:46:48Z</time></trkpt><trkpt lat="36.47353" lon="-121.186982"><ele>518.279</ele><time>2026-09-18T17:46:56Z</time></trkpt><trkpt lat="36.473533" lon="-121.186979"><ele>518.227</ele><time>2026-09-18T17:46:57Z</time></trkpt><trkpt lat="36.473523" lon="-121.186976"><ele>518.021</ele><time>2026-09-18T17:47:04Z</time></trkpt><trkpt lat="36.473545" lon="-121.186997"><ele>517.899</ele><time>2026-09-18T17:47:11Z</time></trkpt><trkpt lat="36.473599" lon="-121.187004"><ele>517.827</ele><time>2026-09-18T17:47:20Z</time></trkpt><trkpt lat="36.473601" lon="-121.186992"><ele>517.429</ele><time>2026-09-18T17:47:29Z</time></trkpt><trkpt lat="36.4736" lon="-121.186985"><ele>517.014</ele><time>2026-09-18T17:47:32Z</time></trkpt><trkpt lat="36.47359" lon="-121.186982"><ele>517.058</ele><time>2026-09-18T17:47:43Z</time></trkpt><trkpt lat="36.473604" lon="-121.186974"><ele>517.052</ele><time>2026-09-18T17:47:55Z</time></trkpt><trkpt lat="36.473647" lon="-121.186996"><ele>517.017</ele><time>2026-09-18T17:47:59Z</time></trkpt><trkpt lat="36.473683" lon="-121.187022"><ele>517.209</ele><time>2026-09-18T17:48:02Z</time></trkpt><trkpt lat="36.4737" lon="-121.187059"><ele>517.237</ele><time>2026-09-18T17:48:07Z</time></trkpt><trkpt lat="36.473694" lon="-121.187063"><ele>517.483</ele><time>2026-09-18T17:48:09Z</time></trkpt><trkpt lat="36.473685" lon="-121.187063"><ele>517.041</ele><time>2026-09-18T17:48:21Z</time></trkpt><trkpt lat="36.473695" lon="-121.187068"><ele>516.889</ele><time>2026-09-18T17:48:29Z</time></trkpt><trkpt lat="36.473695" lon="-121.187069"><ele>516.833</ele><time>2026-09-18T17:48:30Z</time></trkpt><trkpt lat="36.473698" lon="-121.187076"><ele>516.891</ele><time>2026-09-18T17:48:32Z</time></trkpt><trkpt lat="36.473697" lon="-121.187076"><ele>516.649</ele><time>2026-09-18T17:48:33Z</time></trkpt><trkpt lat="36.473696" lon="-121.187082"><ele>516.671</ele><time>2026-09-18T17:48:37Z</time></trkpt><trkpt lat="36.473696" lon="-121.187083"><ele>516.666</ele><time>2026-09-18T17:48:38Z</time></trkpt><trkpt lat="36.473708" lon="-121.187092"><ele>516.649</ele><time>2026-09-18T17:48:44Z</time></trkpt><trkpt lat="36.473765" lon="-121.187171"><ele>517.202</ele><time>2026-09-18T17:48:52Z</time></trkpt><trkpt lat="36.473818" lon="-121.187216"><ele>517.222</ele><time>2026-09-18T17:48:58Z</time></trkpt><trkpt lat="36.473839" lon="-121.187228"><ele>517.409</ele><time>2026-09-18T17:49:00Z</time></trkpt><trkpt lat="36.473886" lon="-121.187266"><ele>517.456</ele><time>2026-09-18T17:49:05Z</time></trkpt><trkpt lat="36.473971" lon="-121.18732"><ele>517.692</ele><time>2026-09-18T17:49:14Z</time></trkpt><trkpt lat="36.474066" lon="-121.18737"><ele>518.080</ele><time>2026-09-18T17:49:24Z</time></trkpt><trkpt lat="36.474086" lon="-121.187381"><ele>518.258</ele><time>2026-09-18T17:49:26Z</time></trkpt><trkpt lat="36.474159" lon="-121.187463"><ele>518.022</ele><time>2026-09-18T17:49:34Z</time></trkpt><trkpt lat="36.474205" lon="-121.187585"><ele>518.470</ele><time>2026-09-18T17:49:44Z</time></trkpt><trkpt lat="36.474246" lon="-121.187615"><ele>518.418</ele><time>2026-09-18T17:49:49Z</time></trkpt><trkpt lat="36.474263" lon="-121.187602"><ele>518.620</ele><time>2026-09-18T17:49:51Z</time></trkpt><trkpt lat="36.474321" lon="-121.187576"><ele>518.625</ele><time>2026-09-18T17:49:58Z</time></trkpt><trkpt lat="36.474352" lon="-121.187506"><ele>519.277</ele><time>2026-09-18T17:50:04Z</time></trkpt><trkpt lat="36.47436" lon="-121.187496"><ele>519.461</ele><time>2026-09-18T17:50:05Z</time></trkpt><trkpt lat="36.474425" lon="-121.187432"><ele>520.027</ele><time>2026-09-18T17:50:13Z</time></trkpt><trkpt lat="36.474434" lon="-121.187428"><ele>520.209</ele><time>2026-09-18T17:50:14Z</time></trkpt><trkpt lat="36.474445" lon="-121.187423"><ele>520.269</ele><time>2026-09-18T17:50:15Z</time></trkpt><trkpt lat="36.474517" lon="-121.187401"><ele>521.415</ele><time>2026-09-18T17:50:23Z</time></trkpt><trkpt lat="36.474556" lon="-121.187317"><ele>521.823</ele><time>2026-09-18T17:50:30Z</time></trkpt><trkpt lat="36.474576" lon="-121.187225"><ele>520.281</ele><time>2026-09-18T17:50:37Z</time></trkpt><trkpt lat="36.474576" lon="-121.187208"><ele>520.095</ele><time>2026-09-18T17:50:38Z</time></trkpt><trkpt lat="36.474551" lon="-121.187131"><ele>519.263</ele><time>2026-09-18T17:50:43Z</time></trkpt><trkpt lat="36.47455" lon="-121.187113"><ele>519.271</ele><time>2026-09-18T17:50:44Z</time></trkpt><trkpt lat="36.474562" lon="-121.187098"><ele>519.463</ele><time>2026-09-18T17:50:46Z</time></trkpt><trkpt lat="36.474583" lon="-121.187076"><ele>520.028</ele><time>2026-09-18T17:50:49Z</time></trkpt><trkpt lat="36.474591" lon="-121.187069"><ele>520.262</ele><time>2026-09-18T17:50:50Z</time></trkpt><trkpt lat="36.474625" lon="-121.187034"><ele>521.483</ele><time>2026-09-18T17:50:55Z</time></trkpt><trkpt lat="36.474641" lon="-121.187031"><ele>522.011</ele><time>2026-09-18T17:50:57Z</time></trkpt><trkpt lat="36.474672" lon="-121.187014"><ele>522.609</ele><time>2026-09-18T17:51:01Z</time></trkpt><trkpt lat="36.474699" lon="-121.186986"><ele>523.418</ele><time>2026-09-18T17:51:06Z</time></trkpt><trkpt lat="36.474743" lon="-121.186942"><ele>523.224</ele><time>2026-09-18T17:51:11Z</time></trkpt><trkpt lat="36.474764" lon="-121.186933"><ele>523.452</ele><time>2026-09-18T17:51:13Z</time></trkpt><trkpt lat="36.474775" lon="-121.186932"><ele>523.620</ele><time>2026-09-18T17:51:15Z</time></trkpt><trkpt lat="36.474802" lon="-121.186919"><ele>524.274</ele><time>2026-09-18T17:51:19Z</time></trkpt><trkpt lat="36.474816" lon="-121.186914"><ele>524.012</ele><time>2026-09-18T17:51:21Z</time></trkpt><trkpt lat="36.474826" lon="-121.186913"><ele>523.690</ele><time>2026-09-18T17:51:28Z</time></trkpt><trkpt lat="36.474824" lon="-121.186917"><ele>523.652</ele><time>2026-09-18T17:51:31Z</time></trkpt><trkpt lat="36.47482" lon="-121.186914"><ele>523.697</ele><time>2026-09-18T17:51:32Z</time></trkpt><trkpt lat="36.474819" lon="-121.186912"><ele>523.487</ele><time>2026-09-18T17:51:33Z</time></trkpt><trkpt lat="36.47482" lon="-121.18691"><ele>523.442</ele><time>2026-09-18T17:51:34Z</time></trkpt><trkpt lat="36.474826" lon="-121.186913"><ele>523.426</ele><time>2026-09-18T17:51:41Z</time></trkpt><trkpt lat="36.47482" lon="-121.18691"><ele>523.409</ele><time>2026-09-18T17:51:46Z</time></trkpt><trkpt lat="36.474821" lon="-121.186911"><ele>523.490</ele><time>2026-09-18T17:51:47Z</time></trkpt><trkpt lat="36.474822" lon="-121.186913"><ele>523.426</ele><time>2026-09-18T17:51:48Z</time></trkpt><trkpt lat="36.474823" lon="-121.186912"><ele>523.424</ele><time>2026-09-18T17:51:49Z</time></trkpt><trkpt lat="36.474823" lon="-121.186912"><ele>523.482</ele><time>2026-09-18T17:51:51Z</time></trkpt><trkpt lat="36.474826" lon="-121.186913"><ele>522.646</ele><time>2026-09-18T17:51:59Z</time></trkpt><trkpt lat="36.474826" lon="-121.186913"><ele>522.694</ele><time>2026-09-18T17:52:14Z</time></trkpt><trkpt lat="36.474823" lon="-121.1869"><ele>521.412</ele><time>2026-09-18T17:52:17Z</time></trkpt><trkpt lat="36.474818" lon="-121.186899"><ele>521.884</ele><time>2026-09-18T17:52:19Z</time></trkpt><trkpt lat="36.474817" lon="-121.186901"><ele>522.089</ele><time>2026-09-18T17:52:20Z</time></trkpt><trkpt lat="36.47481" lon="-121.186905"><ele>521.837</ele><time>2026-09-18T17:52:24Z</time></trkpt><trkpt lat="36.47481" lon="-121.186905"><ele>521.849</ele><time>2026-09-18T17:52:27Z</time></trkpt><trkpt lat="36.47481" lon="-121.186905"><ele>521.813</ele><time>2026-09-18T17:52:30Z</time></trkpt><trkpt lat="36.474819" lon="-121.186906"><ele>521.809</ele><time>2026-09-18T17:52:33Z</time></trkpt><trkpt lat="36.47481" lon="-121.186905"><ele>521.625</ele><time>2026-09-18T17:52:41Z</time></trkpt><trkpt lat="36.474828" lon="-121.186895"><ele>521.431</ele><time>2026-09-18T17:52:47Z</time></trkpt><trkpt lat="36.474781" lon="-121.186922"><ele>521.419</ele><time>2026-09-18T17:52:54Z</time></trkpt><trkpt lat="36.474731" lon="-121.186939"><ele>520.477</ele><time>2026-09-18T17:52:59Z</time></trkpt><trkpt lat="36.474716" lon="-121.186952"><ele>520.211</ele><time>2026-09-18T17:53:01Z</time></trkpt><trkpt lat="36.474681" lon="-121.186996"><ele>520.099</ele><time>2026-09-18T17:53:08Z</time></trkpt><trkpt lat="36.474674" lon="-121.187003"><ele>520.057</ele><time>2026-09-18T17:53:09Z</time></trkpt><trkpt lat="36.474653" lon="-121.187019"><ele>519.459</ele><time>2026-09-18T17:53:12Z</time></trkpt><trkpt lat="36.474605" lon="-121.187034"><ele>518.254</ele><time>2026-09-18T17:53:17Z</time></trkpt><trkpt lat="36.474596" lon="-121.187039"><ele>518.086</ele><time>2026-09-18T17:53:18Z</time></trkpt><trkpt lat="36.47458" lon="-121.187056"><ele>517.260</ele><time>2026-09-18T17:53:21Z</time></trkpt><trkpt lat="36.474579" lon="-121.187066"><ele>517.026</ele><time>2026-09-18T17:53:22Z</time></trkpt><trkpt lat="36.474562" lon="-121.187093"><ele>516.209</ele><time>2026-09-18T17:53:25Z</time></trkpt><trkpt lat="36.474546" lon="-121.187156"><ele>515.030</ele><time>2026-09-18T17:53:30Z</time></trkpt><trkpt lat="36.474565" lon="-121.187182"><ele>514.856</ele><time>2026-09-18T17:53:32Z</time></trkpt><trkpt lat="36.474561" lon="-121.187252"><ele>515.484</ele><time>2026-09-18T17:53:38Z</time></trkpt><trkpt lat="36.474542" lon="-121.187338"><ele>516.262</ele><time>2026-09-18T17:53:44Z</time></trkpt><trkpt lat="36.474535" lon="-121.187377"><ele>516.666</ele><time>2026-09-18T17:53:47Z</time></trkpt><trkpt lat="36.474543" lon="-121.187387"><ele>516.894</ele><time>2026-09-18T17:53:48Z</time></trkpt><trkpt lat="36.474558" lon="-121.187393"><ele>517.252</ele><time>2026-09-18T17:53:50Z</time></trkpt><trkpt lat="36.474574" lon="-121.187389"><ele>517.464</ele><time>2026-09-18T17:53:52Z</time></trkpt><trkpt lat="36.474616" lon="-121.18739"><ele>518.079</ele><time>2026-09-18T17:53:56Z</time></trkpt><trkpt lat="36.474655" lon="-121.1874"><ele>518.435</ele><time>2026-09-18T17:53:59Z</time></trkpt><trkpt lat="36.474663" lon="-121.187408"><ele>518.486</ele><time>2026-09-18T17:54:00Z</time></trkpt><trkpt lat="36.474685" lon="-121.187431"><ele>519.014</ele><time>2026-09-18T17:54:04Z</time></trkpt><trkpt lat="36.474703" lon="-121.18744"><ele>519.409</ele><time>2026-09-18T17:54:06Z</time></trkpt><trkpt lat="36.474726" lon="-121.187459"><ele>519.865</ele><time>2026-09-18T17:54:09Z</time></trkpt><trkpt lat="36.474799" lon="-121.187527"><ele>519.891</ele><time>2026-09-18T17:54:17Z</time></trkpt><trkpt lat="36.474898" lon="-121.187528"><ele>519.229</ele><time>2026-09-18T17:54:27Z</time></trkpt><trkpt lat="36.474973" lon="-121.187547"><ele>518.677</ele><time>2026-09-18T17:54:34Z</time></trkpt><trkpt lat="36.474981" lon="-121.187553"><ele>518.691</ele><time>2026-09-18T17:54:35Z</time></trkpt><trkpt lat="36.474985" lon="-121.187554"><ele>518.449</ele><time>2026-09-18T17:54:36Z</time></trkpt><trkpt lat="36.475002" lon="-121.187548"><ele>518.247</ele><time>2026-09-18T17:54:38Z</time></trkpt><trkpt lat="36.475044" lon="-121.187534"><ele>517.899</ele><time>2026-09-18T17:54:41Z</time></trkpt><trkpt lat="36.475116" lon="-121.187537"><ele>517.464</ele><time>2026-09-18T17:54:49Z</time></trkpt><trkpt lat="36.475178" lon="-121.187527"><ele>516.286</ele><time>2026-09-18T17:54:56Z</time></trkpt><trkpt lat="36.475188" lon="-121.18753"><ele>516.060</ele><time>2026-09-18T17:54:57Z</time></trkpt><trkpt lat="36.475226" lon="-121.187527"><ele>515.026</ele><time>2026-09-18T17:55:01Z</time></trkpt><trkpt lat="36.475263" lon="-121.187513"><ele>514.609</ele><time>2026-09-18T17:55:04Z</time></trkpt><trkpt lat="36.47532" lon="-121.187475"><ele>513.880</ele><time>2026-09-18T17:55:12Z</time></trkpt><trkpt lat="36.475319" lon="-121.187476"><ele>513.886</ele><time>2026-09-18T17:55:13Z</time></trkpt><trkpt lat="36.475316" lon="-121.187488"><ele>513.674</ele><time>2026-09-18T17:55:15Z</time></trkpt><trkpt lat="36.475353" lon="-121.187515"><ele>513.492</ele><time>2026-09-18T17:55:19Z</time></trkpt><trkpt lat="36.475375" lon="-121.187512"><ele>513.266</ele><time>2026-09-18T17:55:21Z</time></trkpt><trkpt lat="36.475396" lon="-121.187496"><ele>512.834</ele><time>2026-09-18T17:55:23Z</time></trkpt><trkpt lat="36.475409" lon="-121.187488"><ele>512.692</ele><time>2026-09-18T17:55:24Z</time></trkpt><trkpt lat="36.475449" lon="-121.187452"><ele>511.694</ele><time>2026-09-18T17:55:28Z</time></trkpt><trkpt lat="36.475474" lon="-121.187449"><ele>511.079</ele><time>2026-09-18T17:55:30Z</time></trkpt><trkpt lat="36.475511" lon="-121.187458"><ele>510.443</ele><time>2026-09-18T17:55:34Z</time></trkpt><trkpt lat="36.475571" lon="-121.187498"><ele>509.664</ele><time>2026-09-18T17:55:39Z</time></trkpt><trkpt lat="36.475585" lon="-121.187502"><ele>509.410</ele><time>2026-09-18T17:55:40Z</time></trkpt><trkpt lat="36.475611" lon="-121.187522"><ele>509.009</ele><time>2026-09-18T17:55:45Z</time></trkpt><trkpt lat="36.475649" lon="-121.187535"><ele>508.216</ele><time>2026-09-18T17:55:50Z</time></trkpt><trkpt lat="36.475684" lon="-121.18754"><ele>507.612</ele><time>2026-09-18T17:55:53Z</time></trkpt><trkpt lat="36.475715" lon="-121.187556"><ele>507.040</ele><time>2026-09-18T17:55:56Z</time></trkpt><trkpt lat="36.475771" lon="-121.187603"><ele>506.458</ele><time>2026-09-18T17:56:02Z</time></trkpt><trkpt lat="36.475795" lon="-121.187627"><ele>506.012</ele><time>2026-09-18T17:56:05Z</time></trkpt><trkpt lat="36.475832" lon="-121.187605"><ele>505.210</ele><time>2026-09-18T17:56:09Z</time></trkpt><trkpt lat="36.475839" lon="-121.187593"><ele>505.298</ele><time>2026-09-18T17:56:10Z</time></trkpt><trkpt lat="36.475872" lon="-121.18757"><ele>504.890</ele><time>2026-09-18T17:56:13Z</time></trkpt><trkpt lat="36.475919" lon="-121.187565"><ele>504.485</ele><time>2026-09-18T17:56:18Z</time></trkpt><trkpt lat="36.475963" lon="-121.187566"><ele>503.842</ele><time>2026-09-18T17:56:22Z</time></trkpt><trkpt lat="36.476002" lon="-121.18759"><ele>503.222</ele><time>2026-09-18T17:56:26Z</time></trkpt><trkpt lat="36.476014" lon="-121.187583"><ele>503.014</ele><time>2026-09-18T17:56:27Z</time></trkpt><trkpt lat="36.476024" lon="-121.187585"><ele>502.809</ele><time>2026-09-18T17:56:28Z</time></trkpt><trkpt lat="36.476065" lon="-121.187605"><ele>502.236</ele><time>2026-09-18T17:56:32Z</time></trkpt><trkpt lat="36.476067" lon="-121.187628"><ele>502.272</ele><time>2026-09-18T17:56:38Z</time></trkpt><trkpt lat="36.476057" lon="-121.187608"><ele>502.050</ele><time>2026-09-18T17:56:49Z</time></trkpt><trkpt lat="36.476081" lon="-121.187641"><ele>502.028</ele><time>2026-09-18T17:56:53Z</time></trkpt><trkpt lat="36.476089" lon="-121.187646"><ele>501.612</ele><time>2026-09-18T17:56:54Z</time></trkpt><trkpt lat="36.47612" lon="-121.187667"><ele>500.820</ele><time>2026-09-18T17:56:57Z</time></trkpt><trkpt lat="36.476131" lon="-121.187676"><ele>500.648</ele><time>2026-09-18T17:56:58Z</time></trkpt><trkpt lat="36.47615" lon="-121.18769"><ele>500.460</ele><time>2026-09-18T17:57:00Z</time></trkpt><trkpt lat="36.476204" lon="-121.187717"><ele>499.625</ele><time>2026-09-18T17:57:06Z</time></trkpt><trkpt lat="36.476211" lon="-121.187725"><ele>499.643</ele><time>2026-09-18T17:57:07Z</time></trkpt><trkpt lat="36.476278" lon="-121.187783"><ele>498.464</ele><time>2026-09-18T17:57:14Z</time></trkpt><trkpt lat="36.476295" lon="-121.187799"><ele>498.010</ele><time>2026-09-18T17:57:16Z</time></trkpt><trkpt lat="36.476325" lon="-121.18784"><ele>497.409</ele><time>2026-09-18T17:57:20Z</time></trkpt><trkpt lat="36.476345" lon="-121.187833"><ele>497.076</ele><time>2026-09-18T17:57:22Z</time></trkpt><trkpt lat="36.476356" lon="-121.187821"><ele>497.012</ele><time>2026-09-18T17:57:23Z</time></trkpt><trkpt lat="36.4764" lon="-121.187713"><ele>497.480</ele><time>2026-09-18T17:57:31Z</time></trkpt><trkpt lat="36.476405" lon="-121.187684"><ele>497.458</ele><time>2026-09-18T17:57:33Z</time></trkpt><trkpt lat="36.476421" lon="-121.187647"><ele>497.452</ele><time>2026-09-18T17:57:36Z</time></trkpt><trkpt lat="36.476424" lon="-121.187636"><ele>497.430</ele><time>2026-09-18T17:57:37Z</time></trkpt><trkpt lat="36.476426" lon="-121.187622"><ele>497.688</ele><time>2026-09-18T17:57:38Z</time></trkpt><trkpt lat="36.476425" lon="-121.187593"><ele>497.670</ele><time>2026-09-18T17:57:40Z</time></trkpt><trkpt lat="36.476395" lon="-121.187477"><ele>497.845</ele><time>2026-09-18T17:57:48Z</time></trkpt><trkpt lat="36.476392" lon="-121.187447"><ele>497.642</ele><time>2026-09-18T17:57:50Z</time></trkpt><trkpt lat="36.476391" lon="-121.187433"><ele>497.622</ele><time>2026-09-18T17:57:51Z</time></trkpt><trkpt lat="36.476391" lon="-121.187391"><ele>497.614</ele><time>2026-09-18T17:57:54Z</time></trkpt><trkpt lat="36.476408" lon="-121.187332"><ele>497.409</ele><time>2026-09-18T17:57:58Z</time></trkpt><trkpt lat="36.476498" lon="-121.187286"><ele>497.086</ele><time>2026-09-18T17:58:06Z</time></trkpt><trkpt lat="36.476546" lon="-121.187271"><ele>496.242</ele><time>2026-09-18T17:58:10Z</time></trkpt><trkpt lat="36.476585" lon="-121.187257"><ele>495.690</ele><time>2026-09-18T17:58:13Z</time></trkpt><trkpt lat="36.47662" lon="-121.187242"><ele>495.288</ele><time>2026-09-18T17:58:16Z</time></trkpt><trkpt lat="36.47668" lon="-121.187234"><ele>494.462</ele><time>2026-09-18T17:58:22Z</time></trkpt><trkpt lat="36.476688" lon="-121.187232"><ele>494.230</ele><time>2026-09-18T17:58:23Z</time></trkpt><trkpt lat="36.476713" lon="-121.187228"><ele>494.228</ele><time>2026-09-18T17:58:25Z</time></trkpt><trkpt lat="36.476785" lon="-121.187229"><ele>493.890</ele><time>2026-09-18T17:58:32Z</time></trkpt><trkpt lat="36.476873" lon="-121.187235"><ele>493.425</ele><time>2026-09-18T17:58:40Z</time></trkpt><trkpt lat="36.476884" lon="-121.187236"><ele>493.472</ele><time>2026-09-18T17:58:41Z</time></trkpt><trkpt lat="36.47692" lon="-121.187232"><ele>493.013</ele><time>2026-09-18T17:58:44Z</time></trkpt><trkpt lat="36.476965" lon="-121.187247"><ele>492.414</ele><time>2026-09-18T17:58:49Z</time></trkpt><trkpt lat="36.476987" lon="-121.187234"><ele>491.809</ele><time>2026-09-18T17:58:51Z</time></trkpt><trkpt lat="36.477046" lon="-121.187208"><ele>491.099</ele><time>2026-09-18T17:58:56Z</time></trkpt><trkpt lat="36.477054" lon="-121.187203"><ele>490.855</ele><time>2026-09-18T17:58:57Z</time></trkpt><trkpt lat="36.477056" lon="-121.187183"><ele>490.653</ele><time>2026-09-18T17:58:59Z</time></trkpt><trkpt lat="36.47705" lon="-121.187169"><ele>490.421</ele><time>2026-09-18T17:59:02Z</time></trkpt><trkpt lat="36.477038" lon="-121.18713"><ele>490.235</ele><time>2026-09-18T17:59:08Z</time></trkpt><trkpt lat="36.477029" lon="-121.187111"><ele>490.433</ele><time>2026-09-18T17:59:12Z</time></trkpt><trkpt lat="36.477027" lon="-121.187107"><ele>490.211</ele><time>2026-09-18T17:59:14Z</time></trkpt><trkpt lat="36.477025" lon="-121.187106"><ele>490.273</ele><time>2026-09-18T17:59:16Z</time></trkpt><trkpt lat="36.477073" lon="-121.187173"><ele>490.478</ele><time>2026-09-18T17:59:24Z</time></trkpt><trkpt lat="36.47713" lon="-121.187181"><ele>489.844</ele><time>2026-09-18T17:59:29Z</time></trkpt><trkpt lat="36.477135" lon="-121.187183"><ele>489.605</ele><time>2026-09-18T17:59:30Z</time></trkpt><trkpt lat="36.477175" lon="-121.187192"><ele>489.015</ele><time>2026-09-18T17:59:38Z</time></trkpt><trkpt lat="36.47718" lon="-121.187158"><ele>489.009</ele><time>2026-09-18T17:59:45Z</time></trkpt><trkpt lat="36.47717" lon="-121.187151"><ele>488.896</ele><time>2026-09-18T17:59:46Z</time></trkpt><trkpt lat="36.47714" lon="-121.187127"><ele>488.462</ele><time>2026-09-18T17:59:50Z</time></trkpt><trkpt lat="36.47712" lon="-121.187109"><ele>488.270</ele><time>2026-09-18T17:59:52Z</time></trkpt><trkpt lat="36.477094" lon="-121.187103"><ele>487.638</ele><time>2026-09-18T17:59:55Z</time></trkpt><trkpt lat="36.477082" lon="-121.1871"><ele>487.242</ele><time>2026-09-18T17:59:56Z</time></trkpt><trkpt lat="36.477058" lon="-121.187085"><ele>486.640</ele><time>2026-09-18T17:59:59Z</time></trkpt><trkpt lat="36.477005" lon="-121.187088"><ele>486.088</ele><time>2026-09-18T18:00:03Z</time></trkpt><trkpt lat="36.476924" lon="-121.187076"><ele>485.410</ele><time>2026-09-18T18:00:10Z</time></trkpt><trkpt lat="36.476915" lon="-121.187069"><ele>485.215</ele><time>2026-09-18T18:00:11Z</time></trkpt><trkpt lat="36.476872" lon="-121.186997"><ele>484.461</ele><time>2026-09-18T18:00:17Z</time></trkpt><trkpt lat="36.476866" lon="-121.186985"><ele>484.221</ele><time>2026-09-18T18:00:18Z</time></trkpt><trkpt lat="36.476846" lon="-121.186931"><ele>483.213</ele><time>2026-09-18T18:00:23Z</time></trkpt><trkpt lat="36.476842" lon="-121.186916"><ele>483.009</ele><time>2026-09-18T18:00:24Z</time></trkpt><trkpt lat="36.476831" lon="-121.186868"><ele>482.018</ele><time>2026-09-18T18:00:28Z</time></trkpt><trkpt lat="36.476838" lon="-121.186808"><ele>481.214</ele><time>2026-09-18T18:00:32Z</time></trkpt><trkpt lat="36.476837" lon="-121.18679"><ele>481.032</ele><time>2026-09-18T18:00:33Z</time></trkpt><trkpt lat="36.47685" lon="-121.186703"><ele>479.820</ele><time>2026-09-18T18:00:39Z</time></trkpt><trkpt lat="36.476855" lon="-121.186689"><ele>479.434</ele><time>2026-09-18T18:00:40Z</time></trkpt><trkpt lat="36.476881" lon="-121.18665"><ele>478.612</ele><time>2026-09-18T18:00:45Z</time></trkpt><trkpt lat="36.476901" lon="-121.186617"><ele>478.290</ele><time>2026-09-18T18:00:48Z</time></trkpt><trkpt lat="36.476927" lon="-121.18659"><ele>477.612</ele><time>2026-09-18T18:00:51Z</time></trkpt><trkpt lat="36.476968" lon="-121.186533"><ele>476.897</ele><time>2026-09-18T18:00:57Z</time></trkpt><trkpt lat="36.476968" lon="-121.186505"><ele>476.662</ele><time>2026-09-18T18:00:59Z</time></trkpt><trkpt lat="36.476973" lon="-121.186455"><ele>475.883</ele><time>2026-09-18T18:01:04Z</time></trkpt><trkpt lat="36.476959" lon="-121.186437"><ele>475.611</ele><time>2026-09-18T18:01:06Z</time></trkpt><trkpt lat="36.476952" lon="-121.186432"><ele>475.609</ele><time>2026-09-18T18:01:07Z</time></trkpt><trkpt lat="36.476929" lon="-121.186398"><ele>474.848</ele><time>2026-09-18T18:01:11Z</time></trkpt><trkpt lat="36.476923" lon="-121.186382"><ele>474.494</ele><time>2026-09-18T18:01:13Z</time></trkpt><trkpt lat="36.476929" lon="-121.18638"><ele>474.282</ele><time>2026-09-18T18:01:15Z</time></trkpt><trkpt lat="36.476945" lon="-121.186395"><ele>474.230</ele><time>2026-09-18T18:01:17Z</time></trkpt><trkpt lat="36.477003" lon="-121.186409"><ele>474.084</ele><time>2026-09-18T18:01:22Z</time></trkpt><trkpt lat="36.477031" lon="-121.186424"><ele>473.812</ele><time>2026-09-18T18:01:24Z</time></trkpt><trkpt lat="36.47706" lon="-121.186439"><ele>473.460</ele><time>2026-09-18T18:01:27Z</time></trkpt><trkpt lat="36.477098" lon="-121.186443"><ele>473.032</ele><time>2026-09-18T18:01:30Z</time></trkpt><trkpt lat="36.477128" lon="-121.186461"><ele>472.867</ele><time>2026-09-18T18:01:33Z</time></trkpt><trkpt lat="36.477134" lon="-121.186523"><ele>472.464</ele><time>2026-09-18T18:01:39Z</time></trkpt><trkpt lat="36.477129" lon="-121.186535"><ele>472.206</ele><time>2026-09-18T18:01:40Z</time></trkpt><trkpt lat="36.477108" lon="-121.186584"><ele>471.216</ele><time>2026-09-18T18:01:45Z</time></trkpt><trkpt lat="36.477105" lon="-121.186624"><ele>470.809</ele><time>2026-09-18T18:01:48Z</time></trkpt><trkpt lat="36.477125" lon="-121.186676"><ele>470.048</ele><time>2026-09-18T18:01:53Z</time></trkpt><trkpt lat="36.477147" lon="-121.186684"><ele>469.834</ele><time>2026-09-18T18:01:55Z</time></trkpt><trkpt lat="36.477156" lon="-121.186684"><ele>469.862</ele><time>2026-09-18T18:01:56Z</time></trkpt><trkpt lat="36.477239" lon="-121.18668"><ele>469.080</ele><time>2026-09-18T18:02:03Z</time></trkpt><trkpt lat="36.477285" lon="-121.18669"><ele>468.614</ele><time>2026-09-18T18:02:06Z</time></trkpt><trkpt lat="36.47732" lon="-121.186727"><ele>468.062</ele><time>2026-09-18T18:02:11Z</time></trkpt><trkpt lat="36.477326" lon="-121.186739"><ele>467.880</ele><time>2026-09-18T18:02:12Z</time></trkpt><trkpt lat="36.477337" lon="-121.186759"><ele>467.622</ele><time>2026-09-18T18:02:14Z</time></trkpt><trkpt lat="36.47739" lon="-121.186823"><ele>466.857</ele><time>2026-09-18T18:02:21Z</time></trkpt><trkpt lat="36.477397" lon="-121.186826"><ele>466.635</ele><time>2026-09-18T18:02:22Z</time></trkpt><trkpt lat="36.477458" lon="-121.186868"><ele>465.886</ele><time>2026-09-18T18:02:29Z</time></trkpt><trkpt lat="36.477468" lon="-121.186879"><ele>465.614</ele><time>2026-09-18T18:02:30Z</time></trkpt><trkpt lat="36.477567" lon="-121.186941"><ele>464.809</ele><time>2026-09-18T18:02:39Z</time></trkpt><trkpt lat="36.477573" lon="-121.186925"><ele>464.835</ele><time>2026-09-18T18:02:40Z</time></trkpt><trkpt lat="36.477576" lon="-121.186888"><ele>464.631</ele><time>2026-09-18T18:02:43Z</time></trkpt><trkpt lat="36.477565" lon="-121.186875"><ele>464.499</ele><time>2026-09-18T18:02:44Z</time></trkpt><trkpt lat="36.477559" lon="-121.186867"><ele>464.287</ele><time>2026-09-18T18:02:45Z</time></trkpt><trkpt lat="36.477503" lon="-121.186844"><ele>463.641</ele><time>2026-09-18T18:02:49Z</time></trkpt><trkpt lat="36.477487" lon="-121.18683"><ele>463.229</ele><time>2026-09-18T18:02:51Z</time></trkpt><trkpt lat="36.477483" lon="-121.186801"><ele>463.097</ele><time>2026-09-18T18:02:53Z</time></trkpt><trkpt lat="36.477486" lon="-121.186769"><ele>463.029</ele><time>2026-09-18T18:02:55Z</time></trkpt><trkpt lat="36.47749" lon="-121.186743"><ele>462.824</ele><time>2026-09-18T18:02:57Z</time></trkpt><trkpt lat="36.477481" lon="-121.186708"><ele>462.472</ele><time>2026-09-18T18:03:00Z</time></trkpt><trkpt lat="36.477466" lon="-121.186701"><ele>462.213</ele><time>2026-09-18T18:03:02Z</time></trkpt><trkpt lat="36.477457" lon="-121.186696"><ele>462.014</ele><time>2026-09-18T18:03:03Z</time></trkpt><trkpt lat="36.47743" lon="-121.186673"><ele>461.209</ele><time>2026-09-18T18:03:06Z</time></trkpt><trkpt lat="36.477406" lon="-121.186656"><ele>460.669</ele><time>2026-09-18T18:03:09Z</time></trkpt><trkpt lat="36.477379" lon="-121.18663"><ele>460.265</ele><time>2026-09-18T18:03:12Z</time></trkpt><trkpt lat="36.477362" lon="-121.186595"><ele>459.853</ele><time>2026-09-18T18:03:15Z</time></trkpt><trkpt lat="36.477357" lon="-121.186532"><ele>459.221</ele><time>2026-09-18T18:03:20Z</time></trkpt><trkpt lat="36.477353" lon="-121.186512"><ele>458.875</ele><time>2026-09-18T18:03:22Z</time></trkpt><trkpt lat="36.477362" lon="-121.186415"><ele>458.083</ele><time>2026-09-18T18:03:29Z</time></trkpt><trkpt lat="36.477361" lon="-121.186403"><ele>457.871</ele><time>2026-09-18T18:03:30Z</time></trkpt><trkpt lat="36.477341" lon="-121.186357"><ele>457.093</ele><time>2026-09-18T18:03:34Z</time></trkpt><trkpt lat="36.477327" lon="-121.186331"><ele>456.698</ele><time>2026-09-18T18:03:37Z</time></trkpt><trkpt lat="36.477287" lon="-121.186269"><ele>455.848</ele><time>2026-09-18T18:03:43Z</time></trkpt><trkpt lat="36.477272" lon="-121.186243"><ele>455.461</ele><time>2026-09-18T18:03:45Z</time></trkpt><trkpt lat="36.477259" lon="-121.186224"><ele>454.817</ele><time>2026-09-18T18:03:47Z</time></trkpt><trkpt lat="36.477225" lon="-121.186142"><ele>454.009</ele><time>2026-09-18T18:03:53Z</time></trkpt><trkpt lat="36.477213" lon="-121.186094"><ele>453.686</ele><time>2026-09-18T18:03:56Z</time></trkpt><trkpt lat="36.477224" lon="-121.186051"><ele>453.232</ele><time>2026-09-18T18:03:59Z</time></trkpt><trkpt lat="36.477215" lon="-121.186012"><ele>453.070</ele><time>2026-09-18T18:04:01Z</time></trkpt><trkpt lat="36.477194" lon="-121.185973"><ele>452.658</ele><time>2026-09-18T18:04:04Z</time></trkpt><trkpt lat="36.477186" lon="-121.185962"><ele>452.432</ele><time>2026-09-18T18:04:05Z</time></trkpt><trkpt lat="36.47715" lon="-121.185906"><ele>451.490</ele><time>2026-09-18T18:04:09Z</time></trkpt><trkpt lat="36.477143" lon="-121.185879"><ele>451.098</ele><time>2026-09-18T18:04:11Z</time></trkpt><trkpt lat="36.47713" lon="-121.185829"><ele>450.280</ele><time>2026-09-18T18:04:15Z</time></trkpt><trkpt lat="36.477108" lon="-121.185796"><ele>449.855</ele><time>2026-09-18T18:04:18Z</time></trkpt><trkpt lat="36.477083" lon="-121.185755"><ele>449.416</ele><time>2026-09-18T18:04:21Z</time></trkpt><trkpt lat="36.477071" lon="-121.185736"><ele>449.276</ele><time>2026-09-18T18:04:23Z</time></trkpt><trkpt lat="36.477076" lon="-121.185728"><ele>449.013</ele><time>2026-09-18T18:04:25Z</time></trkpt><trkpt lat="36.477085" lon="-121.185735"><ele>449.009</ele><time>2026-09-18T18:04:26Z</time></trkpt><trkpt lat="36.477109" lon="-121.185774"><ele>448.483</ele><time>2026-09-18T18:04:29Z</time></trkpt><trkpt lat="36.477126" lon="-121.185793"><ele>448.239</ele><time>2026-09-18T18:04:31Z</time></trkpt><trkpt lat="36.477187" lon="-121.185858"><ele>447.027</ele><time>2026-09-18T18:04:37Z</time></trkpt><trkpt lat="36.477243" lon="-121.185889"><ele>446.095</ele><time>2026-09-18T18:04:44Z</time></trkpt><trkpt lat="36.477219" lon="-121.1858"><ele>445.069</ele><time>2026-09-18T18:04:50Z</time></trkpt><trkpt lat="36.477216" lon="-121.185788"><ele>444.877</ele><time>2026-09-18T18:04:51Z</time></trkpt><trkpt lat="36.477189" lon="-121.18572"><ele>443.835</ele><time>2026-09-18T18:04:56Z</time></trkpt><trkpt lat="36.477173" lon="-121.185701"><ele>443.477</ele><time>2026-09-18T18:04:58Z</time></trkpt><trkpt lat="36.47716" lon="-121.185672"><ele>443.022</ele><time>2026-09-18T18:05:01Z</time></trkpt><trkpt lat="36.477165" lon="-121.18567"><ele>442.887</ele><time>2026-09-18T18:05:02Z</time></trkpt><trkpt lat="36.47717" lon="-121.185672"><ele>442.642</ele><time>2026-09-18T18:05:03Z</time></trkpt><trkpt lat="36.477173" lon="-121.185674"><ele>442.426</ele><time>2026-09-18T18:05:04Z</time></trkpt><trkpt lat="36.477214" lon="-121.185707"><ele>441.609</ele><time>2026-09-18T18:05:10Z</time></trkpt><trkpt lat="36.477235" lon="-121.185723"><ele>441.420</ele><time>2026-09-18T18:05:12Z</time></trkpt><trkpt lat="36.477281" lon="-121.185751"><ele>440.626</ele><time>2026-09-18T18:05:16Z</time></trkpt><trkpt lat="36.477335" lon="-121.185779"><ele>439.844</ele><time>2026-09-18T18:05:21Z</time></trkpt><trkpt lat="36.477345" lon="-121.185775"><ele>439.652</ele><time>2026-09-18T18:05:23Z</time></trkpt><trkpt lat="36.477341" lon="-121.185755"><ele>439.496</ele><time>2026-09-18T18:05:25Z</time></trkpt><trkpt lat="36.477338" lon="-121.185745"><ele>439.434</ele><time>2026-09-18T18:05:26Z</time></trkpt><trkpt lat="36.477297" lon="-121.185683"><ele>438.412</ele><time>2026-09-18T18:05:31Z</time></trkpt><trkpt lat="36.477265" lon="-121.185638"><ele>437.834</ele><time>2026-09-18T18:05:34Z</time></trkpt><trkpt lat="36.477239" lon="-121.185608"><ele>437.259</ele><time>2026-09-18T18:05:37Z</time></trkpt><trkpt lat="36.477175" lon="-121.185531"><ele>436.697</ele><time>2026-09-18T18:05:43Z</time></trkpt><trkpt lat="36.477171" lon="-121.185501"><ele>436.223</ele><time>2026-09-18T18:05:46Z</time></trkpt><trkpt lat="36.477189" lon="-121.185466"><ele>435.825</ele><time>2026-09-18T18:05:50Z</time></trkpt><trkpt lat="36.477266" lon="-121.185422"><ele>436.409</ele><time>2026-09-18T18:05:58Z</time></trkpt><trkpt lat="36.477312" lon="-121.185422"><ele>437.281</ele><time>2026-09-18T18:06:02Z</time></trkpt><trkpt lat="36.477369" lon="-121.185432"><ele>438.097</ele><time>2026-09-18T18:06:07Z</time></trkpt><trkpt lat="36.477395" lon="-121.18543"><ele>438.215</ele><time>2026-09-18T18:06:10Z</time></trkpt><trkpt lat="36.477427" lon="-121.185413"><ele>438.643</ele><time>2026-09-18T18:06:14Z</time></trkpt><trkpt lat="36.477456" lon="-121.185397"><ele>438.847</ele><time>2026-09-18T18:06:17Z</time></trkpt><trkpt lat="36.477508" lon="-121.185382"><ele>439.015</ele><time>2026-09-18T18:06:21Z</time></trkpt><trkpt lat="36.477537" lon="-121.185378"><ele>439.223</ele><time>2026-09-18T18:06:23Z</time></trkpt><trkpt lat="36.477558" lon="-121.185373"><ele>439.435</ele><time>2026-09-18T18:06:25Z</time></trkpt><trkpt lat="36.477573" lon="-121.185369"><ele>439.660</ele><time>2026-09-18T18:06:26Z</time></trkpt><trkpt lat="36.477585" lon="-121.185363"><ele>439.696</ele><time>2026-09-18T18:06:27Z</time></trkpt><trkpt lat="36.477624" lon="-121.185355"><ele>439.231</ele><time>2026-09-18T18:06:30Z</time></trkpt><trkpt lat="36.477663" lon="-121.185332"><ele>438.424</ele><time>2026-09-18T18:06:35Z</time></trkpt><trkpt lat="36.477675" lon="-121.185316"><ele>438.209</ele><time>2026-09-18T18:06:37Z</time></trkpt><trkpt lat="36.477704" lon="-121.18526"><ele>437.281</ele><time>2026-09-18T18:06:43Z</time></trkpt><trkpt lat="36.477708" lon="-121.185253"><ele>437.027</ele><time>2026-09-18T18:06:44Z</time></trkpt><trkpt lat="36.477716" lon="-121.18525"><ele>436.245</ele><time>2026-09-18T18:06:49Z</time></trkpt><trkpt lat="36.477718" lon="-121.185268"><ele>436.463</ele><time>2026-09-18T18:07:00Z</time></trkpt><trkpt lat="36.477764" lon="-121.185214"><ele>436.097</ele><time>2026-09-18T18:07:04Z</time></trkpt><trkpt lat="36.477776" lon="-121.185189"><ele>435.655</ele><time>2026-09-18T18:07:06Z</time></trkpt><trkpt lat="36.477824" lon="-121.185101"><ele>434.883</ele><time>2026-09-18T18:07:12Z</time></trkpt><trkpt lat="36.477836" lon="-121.185057"><ele>434.455</ele><time>2026-09-18T18:07:15Z</time></trkpt><trkpt lat="36.47786" lon="-121.184993"><ele>433.870</ele><time>2026-09-18T18:07:21Z</time></trkpt><trkpt lat="36.477875" lon="-121.184952"><ele>433.294</ele><time>2026-09-18T18:07:25Z</time></trkpt><trkpt lat="36.477899" lon="-121.1849"><ele>432.657</ele><time>2026-09-18T18:07:29Z</time></trkpt><trkpt lat="36.477938" lon="-121.184829"><ele>431.422</ele><time>2026-09-18T18:07:35Z</time></trkpt><trkpt lat="36.477963" lon="-121.184718"><ele>430.209</ele><time>2026-09-18T18:07:42Z</time></trkpt><trkpt lat="36.477967" lon="-121.184624"><ele>429.271</ele><time>2026-09-18T18:07:48Z</time></trkpt><trkpt lat="36.477952" lon="-121.184576"><ele>428.697</ele><time>2026-09-18T18:07:51Z</time></trkpt><trkpt lat="36.477952" lon="-121.184532"><ele>428.035</ele><time>2026-09-18T18:07:54Z</time></trkpt><trkpt lat="36.477952" lon="-121.184465"><ele>427.233</ele><time>2026-09-18T18:07:59Z</time></trkpt><trkpt lat="36.477956" lon="-121.184451"><ele>427.067</ele><time>2026-09-18T18:08:00Z</time></trkpt><trkpt lat="36.477965" lon="-121.184356"><ele>425.875</ele><time>2026-09-18T18:08:07Z</time></trkpt><trkpt lat="36.477968" lon="-121.184337"><ele>425.643</ele><time>2026-09-18T18:08:08Z</time></trkpt><trkpt lat="36.477982" lon="-121.184277"><ele>424.875</ele><time>2026-09-18T18:08:13Z</time></trkpt><trkpt lat="36.477992" lon="-121.184234"><ele>424.260</ele><time>2026-09-18T18:08:17Z</time></trkpt><trkpt lat="36.478001" lon="-121.184198"><ele>423.817</ele><time>2026-09-18T18:08:20Z</time></trkpt><trkpt lat="36.478018" lon="-121.184099"><ele>422.687</ele><time>2026-09-18T18:08:26Z</time></trkpt><trkpt lat="36.478045" lon="-121.184048"><ele>422.015</ele><time>2026-09-18T18:08:32Z</time></trkpt><trkpt lat="36.478065" lon="-121.184021"><ele>421.409</ele><time>2026-09-18T18:08:35Z</time></trkpt><trkpt lat="36.478103" lon="-121.183965"><ele>420.443</ele><time>2026-09-18T18:08:42Z</time></trkpt><trkpt lat="36.47816" lon="-121.183897"><ele>419.669</ele><time>2026-09-18T18:08:49Z</time></trkpt><trkpt lat="36.478165" lon="-121.183889"><ele>419.457</ele><time>2026-09-18T18:08:50Z</time></trkpt><trkpt lat="36.478216" lon="-121.183844"><ele>418.415</ele><time>2026-09-18T18:08:57Z</time></trkpt><trkpt lat="36.478219" lon="-121.183839"><ele>418.249</ele><time>2026-09-18T18:08:58Z</time></trkpt><trkpt lat="36.478242" lon="-121.183819"><ele>417.817</ele><time>2026-09-18T18:09:01Z</time></trkpt><trkpt lat="36.478265" lon="-121.183791"><ele>417.435</ele><time>2026-09-18T18:09:04Z</time></trkpt><trkpt lat="36.478278" lon="-121.183777"><ele>417.227</ele><time>2026-09-18T18:09:06Z</time></trkpt><trkpt lat="36.478338" lon="-121.183728"><ele>416.272</ele><time>2026-09-18T18:09:13Z</time></trkpt><trkpt lat="36.478348" lon="-121.18372"><ele>416.097</ele><time>2026-09-18T18:09:14Z</time></trkpt><trkpt lat="36.478408" lon="-121.183663"><ele>414.823</ele><time>2026-09-18T18:09:22Z</time></trkpt><trkpt lat="36.478418" lon="-121.183654"><ele>414.825</ele><time>2026-09-18T18:09:23Z</time></trkpt><trkpt lat="36.478489" lon="-121.183618"><ele>413.809</ele><time>2026-09-18T18:09:31Z</time></trkpt><trkpt lat="36.478495" lon="-121.183635"><ele>413.641</ele><time>2026-09-18T18:09:33Z</time></trkpt><trkpt lat="36.478488" lon="-121.18371"><ele>413.427</ele><time>2026-09-18T18:09:39Z</time></trkpt><trkpt lat="36.478465" lon="-121.183803"><ele>413.285</ele><time>2026-09-18T18:09:47Z</time></trkpt><trkpt lat="36.478488" lon="-121.183889"><ele>413.443</ele><time>2026-09-18T18:09:54Z</time></trkpt></trkseg></trk></gpx>