<?xml version="1.0" encoding="UTF-8"?><gpx creator="Wikiloc - http://www.wikiloc.com" version="1.1" xmlns="http://www.topografix.com/GPX/1/1" xmlns:xsi="http://www.w3.org/2001/XMLSchema-instance" xsi:schemaLocation="http://www.topografix.com/GPX/1/1 http://www.topografix.com/GPX/1/1/gpx.xsd"><trk><name><![CDATA[Redwood National Park: Grove of Titans]]></name><cmt><![CDATA[Hiouchi]]></cmt><desc><![CDATA[Hiouchi]]></desc><trkseg><trkpt lat="41.772627" lon="-124.099221"><ele>39.469</ele><time>2026-08-26T23:48:32Z</time></trkpt><trkpt lat="41.772527" lon="-124.099249"><ele>39.404</ele><time>2026-08-26T23:48:39Z</time></trkpt><trkpt lat="41.772475" lon="-124.099275"><ele>39.424</ele><time>2026-08-26T23:48:47Z</time></trkpt><trkpt lat="41.772482" lon="-124.099304"><ele>39.409</ele><time>2026-08-26T23:48:48Z</time></trkpt><trkpt lat="41.772483" lon="-124.099381"><ele>39.488</ele><time>2026-08-26T23:48:50Z</time></trkpt><trkpt lat="41.772489" lon="-124.099442"><ele>39.454</ele><time>2026-08-26T23:48:52Z</time></trkpt><trkpt lat="41.772485" lon="-124.099509"><ele>39.478</ele><time>2026-08-26T23:48:55Z</time></trkpt><trkpt lat="41.772481" lon="-124.099532"><ele>39.459</ele><time>2026-08-26T23:48:57Z</time></trkpt><trkpt lat="41.772483" lon="-124.099543"><ele>39.487</ele><time>2026-08-26T23:48:58Z</time></trkpt><trkpt lat="41.772489" lon="-124.099603"><ele>39.026</ele><time>2026-08-26T23:49:05Z</time></trkpt><trkpt lat="41.772546" lon="-124.099636"><ele>39.262</ele><time>2026-08-26T23:49:11Z</time></trkpt><trkpt lat="41.772606" lon="-124.099636"><ele>39.616</ele><time>2026-08-26T23:49:19Z</time></trkpt><trkpt lat="41.772693" lon="-124.099708"><ele>40.274</ele><time>2026-08-26T23:49:31Z</time></trkpt><trkpt lat="41.772728" lon="-124.099833"><ele>40.011</ele><time>2026-08-26T23:49:39Z</time></trkpt><trkpt lat="41.772724" lon="-124.09985"><ele>39.821</ele><time>2026-08-26T23:49:40Z</time></trkpt><trkpt lat="41.77266" lon="-124.100013"><ele>40.203</ele><time>2026-08-26T23:49:52Z</time></trkpt><trkpt lat="41.772665" lon="-124.100135"><ele>40.409</ele><time>2026-08-26T23:49:58Z</time></trkpt><trkpt lat="41.772679" lon="-124.100176"><ele>40.453</ele><time>2026-08-26T23:50:01Z</time></trkpt><trkpt lat="41.772689" lon="-124.100283"><ele>40.899</ele><time>2026-08-26T23:50:08Z</time></trkpt><trkpt lat="41.772718" lon="-124.100365"><ele>41.623</ele><time>2026-08-26T23:50:14Z</time></trkpt><trkpt lat="41.772726" lon="-124.100384"><ele>41.894</ele><time>2026-08-26T23:50:16Z</time></trkpt><trkpt lat="41.772741" lon="-124.100464"><ele>42.422</ele><time>2026-08-26T23:50:21Z</time></trkpt><trkpt lat="41.772736" lon="-124.100489"><ele>42.681</ele><time>2026-08-26T23:50:23Z</time></trkpt><trkpt lat="41.77272" lon="-124.100556"><ele>43.477</ele><time>2026-08-26T23:50:28Z</time></trkpt><trkpt lat="41.772708" lon="-124.100625"><ele>43.671</ele><time>2026-08-26T23:50:32Z</time></trkpt><trkpt lat="41.772711" lon="-124.100683"><ele>44.019</ele><time>2026-08-26T23:50:36Z</time></trkpt><trkpt lat="41.772725" lon="-124.100707"><ele>44.213</ele><time>2026-08-26T23:50:38Z</time></trkpt><trkpt lat="41.772771" lon="-124.10069"><ele>44.243</ele><time>2026-08-26T23:50:42Z</time></trkpt><trkpt lat="41.772859" lon="-124.1007"><ele>43.807</ele><time>2026-08-26T23:50:49Z</time></trkpt><trkpt lat="41.772953" lon="-124.100698"><ele>44.009</ele><time>2026-08-26T23:50:58Z</time></trkpt><trkpt lat="41.773007" lon="-124.100693"><ele>44.423</ele><time>2026-08-26T23:51:07Z</time></trkpt><trkpt lat="41.773019" lon="-124.100692"><ele>44.619</ele><time>2026-08-26T23:51:11Z</time></trkpt><trkpt lat="41.773057" lon="-124.100696"><ele>45.023</ele><time>2026-08-26T23:51:16Z</time></trkpt><trkpt lat="41.773116" lon="-124.100752"><ele>45.844</ele><time>2026-08-26T23:51:25Z</time></trkpt><trkpt lat="41.773144" lon="-124.100777"><ele>47.042</ele><time>2026-08-26T23:51:30Z</time></trkpt><trkpt lat="41.773154" lon="-124.10077"><ele>47.431</ele><time>2026-08-26T23:51:33Z</time></trkpt><trkpt lat="41.77316" lon="-124.10076"><ele>47.627</ele><time>2026-08-26T23:51:36Z</time></trkpt><trkpt lat="41.773161" lon="-124.100759"><ele>47.611</ele><time>2026-08-26T23:51:37Z</time></trkpt><trkpt lat="41.773167" lon="-124.10076"><ele>47.649</ele><time>2026-08-26T23:51:38Z</time></trkpt><trkpt lat="41.773171" lon="-124.100766"><ele>47.616</ele><time>2026-08-26T23:51:39Z</time></trkpt><trkpt lat="41.773174" lon="-124.100768"><ele>47.876</ele><time>2026-08-26T23:51:41Z</time></trkpt><trkpt lat="41.773181" lon="-124.100777"><ele>48.013</ele><time>2026-08-26T23:51:43Z</time></trkpt><trkpt lat="41.7732" lon="-124.100807"><ele>48.209</ele><time>2026-08-26T23:51:47Z</time></trkpt><trkpt lat="41.773202" lon="-124.100804"><ele>48.673</ele><time>2026-08-26T23:51:51Z</time></trkpt><trkpt lat="41.773198" lon="-124.100799"><ele>48.659</ele><time>2026-08-26T23:51:54Z</time></trkpt><trkpt lat="41.773225" lon="-124.100825"><ele>48.413</ele><time>2026-08-26T23:52:02Z</time></trkpt><trkpt lat="41.773251" lon="-124.100865"><ele>49.084</ele><time>2026-08-26T23:52:08Z</time></trkpt><trkpt lat="41.773253" lon="-124.100862"><ele>49.232</ele><time>2026-08-26T23:52:09Z</time></trkpt><trkpt lat="41.773258" lon="-124.100813"><ele>49.841</ele><time>2026-08-26T23:52:16Z</time></trkpt><trkpt lat="41.773262" lon="-124.100799"><ele>49.627</ele><time>2026-08-26T23:52:17Z</time></trkpt><trkpt lat="41.773284" lon="-124.100684"><ele>49.681</ele><time>2026-08-26T23:52:25Z</time></trkpt><trkpt lat="41.773315" lon="-124.100604"><ele>50.239</ele><time>2026-08-26T23:52:31Z</time></trkpt><trkpt lat="41.773339" lon="-124.100555"><ele>51.061</ele><time>2026-08-26T23:52:35Z</time></trkpt><trkpt lat="41.773381" lon="-124.10049"><ele>51.221</ele><time>2026-08-26T23:52:41Z</time></trkpt><trkpt lat="41.7734" lon="-124.100461"><ele>52.213</ele><time>2026-08-26T23:52:46Z</time></trkpt><trkpt lat="41.773403" lon="-124.100455"><ele>52.409</ele><time>2026-08-26T23:52:47Z</time></trkpt><trkpt lat="41.773425" lon="-124.100355"><ele>52.468</ele><time>2026-08-26T23:52:56Z</time></trkpt><trkpt lat="41.773439" lon="-124.10028"><ele>52.274</ele><time>2026-08-26T23:53:01Z</time></trkpt><trkpt lat="41.773463" lon="-124.100195"><ele>52.268</ele><time>2026-08-26T23:53:07Z</time></trkpt><trkpt lat="41.773493" lon="-124.100133"><ele>52.839</ele><time>2026-08-26T23:53:12Z</time></trkpt><trkpt lat="41.773515" lon="-124.100115"><ele>53.497</ele><time>2026-08-26T23:53:15Z</time></trkpt><trkpt lat="41.77352" lon="-124.100121"><ele>53.676</ele><time>2026-08-26T23:53:16Z</time></trkpt><trkpt lat="41.773546" lon="-124.10014"><ele>54.052</ele><time>2026-08-26T23:53:19Z</time></trkpt><trkpt lat="41.773559" lon="-124.100159"><ele>54.216</ele><time>2026-08-26T23:53:21Z</time></trkpt><trkpt lat="41.773565" lon="-124.100169"><ele>54.434</ele><time>2026-08-26T23:53:22Z</time></trkpt><trkpt lat="41.77357" lon="-124.100181"><ele>54.689</ele><time>2026-08-26T23:53:23Z</time></trkpt><trkpt lat="41.773588" lon="-124.100222"><ele>54.806</ele><time>2026-08-26T23:53:25Z</time></trkpt><trkpt lat="41.773638" lon="-124.100309"><ele>55.426</ele><time>2026-08-26T23:53:31Z</time></trkpt><trkpt lat="41.773655" lon="-124.100357"><ele>56.009</ele><time>2026-08-26T23:53:35Z</time></trkpt><trkpt lat="41.773687" lon="-124.100418"><ele>56.630</ele><time>2026-08-26T23:53:41Z</time></trkpt><trkpt lat="41.773726" lon="-124.100462"><ele>57.266</ele><time>2026-08-26T23:53:45Z</time></trkpt><trkpt lat="41.773774" lon="-124.10055"><ele>57.660</ele><time>2026-08-26T23:53:51Z</time></trkpt><trkpt lat="41.7738" lon="-124.100586"><ele>58.011</ele><time>2026-08-26T23:53:55Z</time></trkpt><trkpt lat="41.773857" lon="-124.100612"><ele>58.649</ele><time>2026-08-26T23:54:02Z</time></trkpt><trkpt lat="41.773872" lon="-124.100612"><ele>58.858</ele><time>2026-08-26T23:54:04Z</time></trkpt><trkpt lat="41.7739" lon="-124.100619"><ele>59.094</ele><time>2026-08-26T23:54:13Z</time></trkpt><trkpt lat="41.773951" lon="-124.100679"><ele>59.858</ele><time>2026-08-26T23:54:22Z</time></trkpt><trkpt lat="41.773956" lon="-124.100689"><ele>60.046</ele><time>2026-08-26T23:54:23Z</time></trkpt><trkpt lat="41.77398" lon="-124.100783"><ele>60.844</ele><time>2026-08-26T23:54:29Z</time></trkpt><trkpt lat="41.773985" lon="-124.100826"><ele>61.005</ele><time>2026-08-26T23:54:32Z</time></trkpt><trkpt lat="41.773986" lon="-124.100845"><ele>61.215</ele><time>2026-08-26T23:54:34Z</time></trkpt><trkpt lat="41.773987" lon="-124.100871"><ele>61.409</ele><time>2026-08-26T23:54:36Z</time></trkpt><trkpt lat="41.773988" lon="-124.100935"><ele>61.886</ele><time>2026-08-26T23:54:41Z</time></trkpt><trkpt lat="41.773988" lon="-124.100941"><ele>61.892</ele><time>2026-08-26T23:54:42Z</time></trkpt><trkpt lat="41.773987" lon="-124.101058"><ele>62.646</ele><time>2026-08-26T23:54:52Z</time></trkpt><trkpt lat="41.773984" lon="-124.101094"><ele>62.847</ele><time>2026-08-26T23:54:56Z</time></trkpt><trkpt lat="41.773986" lon="-124.101168"><ele>63.415</ele><time>2026-08-26T23:55:02Z</time></trkpt><trkpt lat="41.773989" lon="-124.101195"><ele>63.684</ele><time>2026-08-26T23:55:04Z</time></trkpt><trkpt lat="41.773991" lon="-124.101245"><ele>64.040</ele><time>2026-08-26T23:55:07Z</time></trkpt><trkpt lat="41.774014" lon="-124.101306"><ele>64.844</ele><time>2026-08-26T23:55:15Z</time></trkpt><trkpt lat="41.774019" lon="-124.101304"><ele>64.872</ele><time>2026-08-26T23:55:16Z</time></trkpt><trkpt lat="41.774037" lon="-124.10128"><ele>65.048</ele><time>2026-08-26T23:55:20Z</time></trkpt><trkpt lat="41.77407" lon="-124.101224"><ele>65.661</ele><time>2026-08-26T23:55:24Z</time></trkpt><trkpt lat="41.774097" lon="-124.101175"><ele>66.217</ele><time>2026-08-26T23:55:28Z</time></trkpt><trkpt lat="41.774122" lon="-124.101133"><ele>66.409</ele><time>2026-08-26T23:55:31Z</time></trkpt><trkpt lat="41.774165" lon="-124.101062"><ele>67.066</ele><time>2026-08-26T23:55:38Z</time></trkpt><trkpt lat="41.77418" lon="-124.101039"><ele>67.262</ele><time>2026-08-26T23:55:40Z</time></trkpt><trkpt lat="41.774237" lon="-124.100981"><ele>67.656</ele><time>2026-08-26T23:55:46Z</time></trkpt><trkpt lat="41.774299" lon="-124.100944"><ele>68.227</ele><time>2026-08-26T23:55:52Z</time></trkpt><trkpt lat="41.774325" lon="-124.100955"><ele>68.475</ele><time>2026-08-26T23:55:55Z</time></trkpt><trkpt lat="41.774332" lon="-124.10096"><ele>68.484</ele><time>2026-08-26T23:55:56Z</time></trkpt><trkpt lat="41.774404" lon="-124.101017"><ele>67.690</ele><time>2026-08-26T23:56:05Z</time></trkpt><trkpt lat="41.774417" lon="-124.10106"><ele>68.034</ele><time>2026-08-26T23:56:09Z</time></trkpt><trkpt lat="41.774447" lon="-124.101131"><ele>68.222</ele><time>2026-08-26T23:56:14Z</time></trkpt><trkpt lat="41.774457" lon="-124.101154"><ele>68.676</ele><time>2026-08-26T23:56:16Z</time></trkpt><trkpt lat="41.774475" lon="-124.101198"><ele>69.290</ele><time>2026-08-26T23:56:19Z</time></trkpt><trkpt lat="41.774509" lon="-124.101262"><ele>69.819</ele><time>2026-08-26T23:56:26Z</time></trkpt><trkpt lat="41.774568" lon="-124.101318"><ele>69.409</ele><time>2026-08-26T23:56:35Z</time></trkpt><trkpt lat="41.774677" lon="-124.10142"><ele>68.479</ele><time>2026-08-26T23:56:46Z</time></trkpt><trkpt lat="41.774726" lon="-124.101445"><ele>68.275</ele><time>2026-08-26T23:56:50Z</time></trkpt><trkpt lat="41.774768" lon="-124.101454"><ele>68.249</ele><time>2026-08-26T23:56:54Z</time></trkpt><trkpt lat="41.774869" lon="-124.101448"><ele>69.270</ele><time>2026-08-26T23:57:03Z</time></trkpt><trkpt lat="41.774953" lon="-124.101426"><ele>68.858</ele><time>2026-08-26T23:57:14Z</time></trkpt><trkpt lat="41.774965" lon="-124.101442"><ele>68.897</ele><time>2026-08-26T23:57:16Z</time></trkpt><trkpt lat="41.775041" lon="-124.101488"><ele>67.493</ele><time>2026-08-26T23:57:23Z</time></trkpt><trkpt lat="41.775053" lon="-124.101494"><ele>67.037</ele><time>2026-08-26T23:57:24Z</time></trkpt><trkpt lat="41.775141" lon="-124.101513"><ele>66.255</ele><time>2026-08-26T23:57:31Z</time></trkpt><trkpt lat="41.775229" lon="-124.101538"><ele>66.019</ele><time>2026-08-26T23:57:37Z</time></trkpt><trkpt lat="41.775258" lon="-124.10155"><ele>65.809</ele><time>2026-08-26T23:57:40Z</time></trkpt><trkpt lat="41.775305" lon="-124.10152"><ele>65.619</ele><time>2026-08-26T23:57:44Z</time></trkpt><trkpt lat="41.775336" lon="-124.101472"><ele>65.009</ele><time>2026-08-26T23:57:48Z</time></trkpt><trkpt lat="41.775362" lon="-124.101358"><ele>64.053</ele><time>2026-08-26T23:57:55Z</time></trkpt><trkpt lat="41.775366" lon="-124.101327"><ele>63.639</ele><time>2026-08-26T23:57:57Z</time></trkpt><trkpt lat="41.775372" lon="-124.101305"><ele>63.643</ele><time>2026-08-26T23:57:58Z</time></trkpt><trkpt lat="41.775396" lon="-124.101246"><ele>63.054</ele><time>2026-08-26T23:58:03Z</time></trkpt><trkpt lat="41.775415" lon="-124.101194"><ele>62.622</ele><time>2026-08-26T23:58:08Z</time></trkpt><trkpt lat="41.775417" lon="-124.10109"><ele>62.431</ele><time>2026-08-26T23:58:18Z</time></trkpt><trkpt lat="41.775438" lon="-124.101108"><ele>62.657</ele><time>2026-08-26T23:58:24Z</time></trkpt><trkpt lat="41.775448" lon="-124.101126"><ele>62.681</ele><time>2026-08-26T23:58:26Z</time></trkpt><trkpt lat="41.775542" lon="-124.101213"><ele>62.039</ele><time>2026-08-26T23:58:35Z</time></trkpt><trkpt lat="41.775555" lon="-124.101214"><ele>61.889</ele><time>2026-08-26T23:58:37Z</time></trkpt><trkpt lat="41.775608" lon="-124.101251"><ele>61.606</ele><time>2026-08-26T23:58:46Z</time></trkpt><trkpt lat="41.775636" lon="-124.101296"><ele>61.626</ele><time>2026-08-26T23:58:54Z</time></trkpt><trkpt lat="41.775646" lon="-124.101307"><ele>61.409</ele><time>2026-08-26T23:58:56Z</time></trkpt><trkpt lat="41.775675" lon="-124.101316"><ele>61.260</ele><time>2026-08-26T23:59:02Z</time></trkpt><trkpt lat="41.775711" lon="-124.101349"><ele>61.036</ele><time>2026-08-26T23:59:11Z</time></trkpt><trkpt lat="41.775778" lon="-124.10134"><ele>61.050</ele><time>2026-08-26T23:59:21Z</time></trkpt><trkpt lat="41.775812" lon="-124.101292"><ele>61.431</ele><time>2026-08-26T23:59:33Z</time></trkpt><trkpt lat="41.775805" lon="-124.101301"><ele>61.499</ele><time>2026-08-26T23:59:40Z</time></trkpt><trkpt lat="41.7758" lon="-124.101312"><ele>61.438</ele><time>2026-08-26T23:59:41Z</time></trkpt><trkpt lat="41.775798" lon="-124.101333"><ele>61.294</ele><time>2026-08-26T23:59:43Z</time></trkpt><trkpt lat="41.775841" lon="-124.101369"><ele>61.018</ele><time>2026-08-26T23:59:52Z</time></trkpt><trkpt lat="41.77589" lon="-124.101447"><ele>61.466</ele><time>2026-08-27T00:00:00Z</time></trkpt><trkpt lat="41.775871" lon="-124.101462"><ele>61.485</ele><time>2026-08-27T00:00:02Z</time></trkpt><trkpt lat="41.775855" lon="-124.101477"><ele>61.289</ele><time>2026-08-27T00:00:09Z</time></trkpt><trkpt lat="41.775881" lon="-124.10158"><ele>61.417</ele><time>2026-08-27T00:00:18Z</time></trkpt><trkpt lat="41.775996" lon="-124.101607"><ele>60.409</ele><time>2026-08-27T00:00:29Z</time></trkpt><trkpt lat="41.776015" lon="-124.101604"><ele>60.270</ele><time>2026-08-27T00:00:30Z</time></trkpt><trkpt lat="41.776093" lon="-124.10161"><ele>59.066</ele><time>2026-08-27T00:00:36Z</time></trkpt><trkpt lat="41.77613" lon="-124.101635"><ele>58.440</ele><time>2026-08-27T00:00:41Z</time></trkpt><trkpt lat="41.776156" lon="-124.101653"><ele>58.031</ele><time>2026-08-27T00:00:45Z</time></trkpt><trkpt lat="41.776217" lon="-124.101646"><ele>58.099</ele><time>2026-08-27T00:00:51Z</time></trkpt><trkpt lat="41.776312" lon="-124.101657"><ele>57.458</ele><time>2026-08-27T00:01:01Z</time></trkpt><trkpt lat="41.776391" lon="-124.101714"><ele>57.494</ele><time>2026-08-27T00:01:07Z</time></trkpt><trkpt lat="41.776405" lon="-124.101735"><ele>57.628</ele><time>2026-08-27T00:01:09Z</time></trkpt><trkpt lat="41.776433" lon="-124.101769"><ele>58.096</ele><time>2026-08-27T00:01:13Z</time></trkpt><trkpt lat="41.776502" lon="-124.101896"><ele>58.451</ele><time>2026-08-27T00:01:24Z</time></trkpt><trkpt lat="41.776545" lon="-124.101885"><ele>57.001</ele><time>2026-08-27T00:01:31Z</time></trkpt><trkpt lat="41.776554" lon="-124.10188"><ele>57.011</ele><time>2026-08-27T00:01:32Z</time></trkpt><trkpt lat="41.776569" lon="-124.101869"><ele>57.209</ele><time>2026-08-27T00:01:33Z</time></trkpt><trkpt lat="41.776686" lon="-124.101751"><ele>56.697</ele><time>2026-08-27T00:01:43Z</time></trkpt><trkpt lat="41.776699" lon="-124.101682"><ele>56.033</ele><time>2026-08-27T00:01:49Z</time></trkpt><trkpt lat="41.776664" lon="-124.101635"><ele>55.637</ele><time>2026-08-27T00:01:53Z</time></trkpt><trkpt lat="41.77664" lon="-124.101596"><ele>55.088</ele><time>2026-08-27T00:01:57Z</time></trkpt><trkpt lat="41.776634" lon="-124.101541"><ele>54.636</ele><time>2026-08-27T00:02:01Z</time></trkpt><trkpt lat="41.776668" lon="-124.101492"><ele>54.075</ele><time>2026-08-27T00:02:08Z</time></trkpt><trkpt lat="41.77668" lon="-124.101487"><ele>53.671</ele><time>2026-08-27T00:02:10Z</time></trkpt><trkpt lat="41.776705" lon="-124.101453"><ele>52.815</ele><time>2026-08-27T00:02:15Z</time></trkpt><trkpt lat="41.776732" lon="-124.101439"><ele>52.013</ele><time>2026-08-27T00:02:19Z</time></trkpt><trkpt lat="41.776753" lon="-124.101428"><ele>51.838</ele><time>2026-08-27T00:02:21Z</time></trkpt><trkpt lat="41.776803" lon="-124.10141"><ele>51.670</ele><time>2026-08-27T00:02:30Z</time></trkpt><trkpt lat="41.776874" lon="-124.101434"><ele>51.217</ele><time>2026-08-27T00:02:39Z</time></trkpt><trkpt lat="41.776883" lon="-124.101457"><ele>51.409</ele><time>2026-08-27T00:02:49Z</time></trkpt><trkpt lat="41.776891" lon="-124.101477"><ele>51.445</ele><time>2026-08-27T00:02:54Z</time></trkpt><trkpt lat="41.776898" lon="-124.101466"><ele>51.651</ele><time>2026-08-27T00:02:57Z</time></trkpt><trkpt lat="41.776911" lon="-124.101465"><ele>51.685</ele><time>2026-08-27T00:02:59Z</time></trkpt><trkpt lat="41.77698" lon="-124.101463"><ele>51.426</ele><time>2026-08-27T00:03:05Z</time></trkpt><trkpt lat="41.777108" lon="-124.10145"><ele>51.234</ele><time>2026-08-27T00:03:14Z</time></trkpt><trkpt lat="41.777184" lon="-124.101453"><ele>50.633</ele><time>2026-08-27T00:03:21Z</time></trkpt><trkpt lat="41.777179" lon="-124.101445"><ele>50.669</ele><time>2026-08-27T00:03:27Z</time></trkpt><trkpt lat="41.777187" lon="-124.101443"><ele>50.653</ele><time>2026-08-27T00:03:28Z</time></trkpt><trkpt lat="41.777194" lon="-124.101448"><ele>50.621</ele><time>2026-08-27T00:03:34Z</time></trkpt><trkpt lat="41.7772" lon="-124.101445"><ele>50.614</ele><time>2026-08-27T00:03:35Z</time></trkpt><trkpt lat="41.777259" lon="-124.101441"><ele>50.454</ele><time>2026-08-27T00:03:42Z</time></trkpt><trkpt lat="41.777325" lon="-124.101443"><ele>49.809</ele><time>2026-08-27T00:03:49Z</time></trkpt><trkpt lat="41.777353" lon="-124.101435"><ele>49.609</ele><time>2026-08-27T00:03:52Z</time></trkpt><trkpt lat="41.777392" lon="-124.101431"><ele>49.083</ele><time>2026-08-27T00:03:56Z</time></trkpt><trkpt lat="41.777402" lon="-124.101413"><ele>48.659</ele><time>2026-08-27T00:03:59Z</time></trkpt><trkpt lat="41.777397" lon="-124.101398"><ele>48.233</ele><time>2026-08-27T00:04:01Z</time></trkpt><trkpt lat="41.777382" lon="-124.101386"><ele>47.884</ele><time>2026-08-27T00:04:03Z</time></trkpt><trkpt lat="41.777365" lon="-124.101367"><ele>47.452</ele><time>2026-08-27T00:04:05Z</time></trkpt><trkpt lat="41.777316" lon="-124.10133"><ele>46.491</ele><time>2026-08-27T00:04:09Z</time></trkpt><trkpt lat="41.777302" lon="-124.101319"><ele>46.497</ele><time>2026-08-27T00:04:10Z</time></trkpt><trkpt lat="41.77721" lon="-124.101222"><ele>45.671</ele><time>2026-08-27T00:04:18Z</time></trkpt><trkpt lat="41.777196" lon="-124.101207"><ele>45.269</ele><time>2026-08-27T00:04:20Z</time></trkpt><trkpt lat="41.777094" lon="-124.101158"><ele>45.069</ele><time>2026-08-27T00:04:30Z</time></trkpt><trkpt lat="41.777094" lon="-124.101164"><ele>45.004</ele><time>2026-08-27T00:04:39Z</time></trkpt><trkpt lat="41.77711" lon="-124.101159"><ele>45.224</ele><time>2026-08-27T00:04:43Z</time></trkpt><trkpt lat="41.777158" lon="-124.101171"><ele>45.409</ele><time>2026-08-27T00:04:50Z</time></trkpt><trkpt lat="41.777154" lon="-124.101171"><ele>45.438</ele><time>2026-08-27T00:04:53Z</time></trkpt><trkpt lat="41.777085" lon="-124.101157"><ele>45.234</ele><time>2026-08-27T00:04:58Z</time></trkpt><trkpt lat="41.776928" lon="-124.101068"><ele>45.478</ele><time>2026-08-27T00:05:08Z</time></trkpt><trkpt lat="41.776769" lon="-124.100996"><ele>44.489</ele><time>2026-08-27T00:05:17Z</time></trkpt><trkpt lat="41.776756" lon="-124.100987"><ele>44.247</ele><time>2026-08-27T00:05:18Z</time></trkpt><trkpt lat="41.776667" lon="-124.100908"><ele>44.036</ele><time>2026-08-27T00:05:26Z</time></trkpt><trkpt lat="41.776615" lon="-124.100833"><ele>43.692</ele><time>2026-08-27T00:05:35Z</time></trkpt><trkpt lat="41.776538" lon="-124.100809"><ele>43.616</ele><time>2026-08-27T00:05:46Z</time></trkpt><trkpt lat="41.776463" lon="-124.100839"><ele>43.844</ele><time>2026-08-27T00:05:53Z</time></trkpt><trkpt lat="41.776416" lon="-124.100855"><ele>43.848</ele><time>2026-08-27T00:05:58Z</time></trkpt><trkpt lat="41.776386" lon="-124.100863"><ele>43.861</ele><time>2026-08-27T00:06:00Z</time></trkpt><trkpt lat="41.776349" lon="-124.100831"><ele>43.617</ele><time>2026-08-27T00:06:06Z</time></trkpt><trkpt lat="41.776347" lon="-124.100808"><ele>43.409</ele><time>2026-08-27T00:06:08Z</time></trkpt><trkpt lat="41.77635" lon="-124.100768"><ele>43.266</ele><time>2026-08-27T00:06:11Z</time></trkpt><trkpt lat="41.776342" lon="-124.100739"><ele>42.872</ele><time>2026-08-27T00:06:15Z</time></trkpt><trkpt lat="41.776327" lon="-124.100796"><ele>43.066</ele><time>2026-08-27T00:06:23Z</time></trkpt><trkpt lat="41.776325" lon="-124.100812"><ele>43.077</ele><time>2026-08-27T00:06:33Z</time></trkpt><trkpt lat="41.776356" lon="-124.100788"><ele>43.215</ele><time>2026-08-27T00:06:40Z</time></trkpt><trkpt lat="41.776377" lon="-124.100762"><ele>43.244</ele><time>2026-08-27T00:06:44Z</time></trkpt><trkpt lat="41.776383" lon="-124.100749"><ele>43.230</ele><time>2026-08-27T00:06:46Z</time></trkpt><trkpt lat="41.77639" lon="-124.100748"><ele>43.254</ele><time>2026-08-27T00:06:47Z</time></trkpt><trkpt lat="41.776396" lon="-124.100725"><ele>43.212</ele><time>2026-08-27T00:06:53Z</time></trkpt><trkpt lat="41.776394" lon="-124.100709"><ele>43.241</ele><time>2026-08-27T00:06:54Z</time></trkpt><trkpt lat="41.776432" lon="-124.100627"><ele>43.081</ele><time>2026-08-27T00:07:01Z</time></trkpt><trkpt lat="41.776519" lon="-124.100623"><ele>43.009</ele><time>2026-08-27T00:07:08Z</time></trkpt><trkpt lat="41.776598" lon="-124.100613"><ele>42.409</ele><time>2026-08-27T00:07:15Z</time></trkpt><trkpt lat="41.776646" lon="-124.100556"><ele>42.646</ele><time>2026-08-27T00:07:23Z</time></trkpt><trkpt lat="41.776663" lon="-124.100548"><ele>42.812</ele><time>2026-08-27T00:07:25Z</time></trkpt><trkpt lat="41.776725" lon="-124.100549"><ele>42.666</ele><time>2026-08-27T00:07:32Z</time></trkpt><trkpt lat="41.776826" lon="-124.100592"><ele>42.427</ele><time>2026-08-27T00:07:40Z</time></trkpt><trkpt lat="41.776918" lon="-124.100697"><ele>42.655</ele><time>2026-08-27T00:07:50Z</time></trkpt><trkpt lat="41.777013" lon="-124.100756"><ele>42.814</ele><time>2026-08-27T00:07:58Z</time></trkpt><trkpt lat="41.777103" lon="-124.100784"><ele>42.840</ele><time>2026-08-27T00:08:03Z</time></trkpt><trkpt lat="41.777145" lon="-124.100781"><ele>42.684</ele><time>2026-08-27T00:08:06Z</time></trkpt><trkpt lat="41.777219" lon="-124.100737"><ele>42.872</ele><time>2026-08-27T00:08:15Z</time></trkpt><trkpt lat="41.777291" lon="-124.100804"><ele>42.811</ele><time>2026-08-27T00:08:23Z</time></trkpt><trkpt lat="41.777355" lon="-124.100961"><ele>42.821</ele><time>2026-08-27T00:08:33Z</time></trkpt><trkpt lat="41.777408" lon="-124.101008"><ele>43.603</ele><time>2026-08-27T00:08:43Z</time></trkpt><trkpt lat="41.777487" lon="-124.101035"><ele>43.609</ele><time>2026-08-27T00:08:53Z</time></trkpt><trkpt lat="41.777496" lon="-124.101039"><ele>43.673</ele><time>2026-08-27T00:08:55Z</time></trkpt><trkpt lat="41.777534" lon="-124.101023"><ele>43.659</ele><time>2026-08-27T00:09:03Z</time></trkpt><trkpt lat="41.777551" lon="-124.100993"><ele>43.863</ele><time>2026-08-27T00:09:06Z</time></trkpt><trkpt lat="41.777555" lon="-124.100943"><ele>43.884</ele><time>2026-08-27T00:09:13Z</time></trkpt><trkpt lat="41.777571" lon="-124.100975"><ele>43.882</ele><time>2026-08-27T00:09:19Z</time></trkpt><trkpt lat="41.777564" lon="-124.101012"><ele>43.891</ele><time>2026-08-27T00:09:26Z</time></trkpt><trkpt lat="41.777524" lon="-124.101007"><ele>44.227</ele><time>2026-08-27T00:09:32Z</time></trkpt><trkpt lat="41.777562" lon="-124.10103"><ele>44.281</ele><time>2026-08-27T00:09:37Z</time></trkpt><trkpt lat="41.777561" lon="-124.101024"><ele>44.259</ele><time>2026-08-27T00:09:38Z</time></trkpt><trkpt lat="41.777593" lon="-124.10104"><ele>44.052</ele><time>2026-08-27T00:09:44Z</time></trkpt><trkpt lat="41.777611" lon="-124.101048"><ele>44.453</ele><time>2026-08-27T00:09:54Z</time></trkpt><trkpt lat="41.77761" lon="-124.101021"><ele>44.408</ele><time>2026-08-27T00:10:01Z</time></trkpt><trkpt lat="41.77756" lon="-124.101007"><ele>44.409</ele><time>2026-08-27T00:10:09Z</time></trkpt><trkpt lat="41.777527" lon="-124.101017"><ele>44.457</ele><time>2026-08-27T00:10:19Z</time></trkpt><trkpt lat="41.777522" lon="-124.101012"><ele>45.033</ele><time>2026-08-27T00:10:29Z</time></trkpt><trkpt lat="41.777488" lon="-124.101016"><ele>45.267</ele><time>2026-08-27T00:10:36Z</time></trkpt><trkpt lat="41.777494" lon="-124.101017"><ele>45.298</ele><time>2026-08-27T00:10:38Z</time></trkpt><trkpt lat="41.777582" lon="-124.101018"><ele>44.876</ele><time>2026-08-27T00:10:45Z</time></trkpt><trkpt lat="41.777612" lon="-124.100988"><ele>44.895</ele><time>2026-08-27T00:10:49Z</time></trkpt><trkpt lat="41.777626" lon="-124.100906"><ele>44.661</ele><time>2026-08-27T00:10:54Z</time></trkpt><trkpt lat="41.777642" lon="-124.100886"><ele>44.215</ele><time>2026-08-27T00:10:57Z</time></trkpt><trkpt lat="41.777646" lon="-124.100883"><ele>44.213</ele><time>2026-08-27T00:10:58Z</time></trkpt><trkpt lat="41.777657" lon="-124.100877"><ele>43.886</ele><time>2026-08-27T00:11:00Z</time></trkpt><trkpt lat="41.777673" lon="-124.100878"><ele>43.660</ele><time>2026-08-27T00:11:01Z</time></trkpt><trkpt lat="41.777722" lon="-124.10088"><ele>43.026</ele><time>2026-08-27T00:11:06Z</time></trkpt><trkpt lat="41.777728" lon="-124.100877"><ele>42.809</ele><time>2026-08-27T00:11:07Z</time></trkpt><trkpt lat="41.777731" lon="-124.100872"><ele>42.880</ele><time>2026-08-27T00:11:08Z</time></trkpt><trkpt lat="41.777747" lon="-124.100859"><ele>41.816</ele><time>2026-08-27T00:11:16Z</time></trkpt><trkpt lat="41.777749" lon="-124.100855"><ele>41.630</ele><time>2026-08-27T00:11:17Z</time></trkpt><trkpt lat="41.777764" lon="-124.100754"><ele>40.691</ele><time>2026-08-27T00:11:24Z</time></trkpt><trkpt lat="41.777766" lon="-124.100745"><ele>40.479</ele><time>2026-08-27T00:11:25Z</time></trkpt><trkpt lat="41.777791" lon="-124.100679"><ele>39.668</ele><time>2026-08-27T00:11:30Z</time></trkpt><trkpt lat="41.777818" lon="-124.100653"><ele>39.054</ele><time>2026-08-27T00:11:34Z</time></trkpt><trkpt lat="41.777869" lon="-124.100523"><ele>39.658</ele><time>2026-08-27T00:11:46Z</time></trkpt><trkpt lat="41.77795" lon="-124.100416"><ele>40.446</ele><time>2026-08-27T00:11:56Z</time></trkpt><trkpt lat="41.777958" lon="-124.100313"><ele>40.441</ele><time>2026-08-27T00:12:04Z</time></trkpt><trkpt lat="41.777894" lon="-124.100216"><ele>40.681</ele><time>2026-08-27T00:12:10Z</time></trkpt><trkpt lat="41.777862" lon="-124.100187"><ele>40.609</ele><time>2026-08-27T00:12:12Z</time></trkpt><trkpt lat="41.777852" lon="-124.100176"><ele>40.609</ele><time>2026-08-27T00:12:13Z</time></trkpt><trkpt lat="41.777818" lon="-124.100115"><ele>39.676</ele><time>2026-08-27T00:12:19Z</time></trkpt><trkpt lat="41.777809" lon="-124.100077"><ele>39.252</ele><time>2026-08-27T00:12:22Z</time></trkpt><trkpt lat="41.777777" lon="-124.099962"><ele>39.076</ele><time>2026-08-27T00:12:31Z</time></trkpt><trkpt lat="41.777746" lon="-124.099893"><ele>39.247</ele><time>2026-08-27T00:12:39Z</time></trkpt><trkpt lat="41.777741" lon="-124.099892"><ele>39.265</ele><time>2026-08-27T00:12:42Z</time></trkpt><trkpt lat="41.777761" lon="-124.099927"><ele>39.294</ele><time>2026-08-27T00:12:47Z</time></trkpt><trkpt lat="41.777784" lon="-124.099965"><ele>39.260</ele><time>2026-08-27T00:12:50Z</time></trkpt><trkpt lat="41.77782" lon="-124.100022"><ele>39.264</ele><time>2026-08-27T00:12:56Z</time></trkpt><trkpt lat="41.777834" lon="-124.10006"><ele>39.212</ele><time>2026-08-27T00:13:04Z</time></trkpt><trkpt lat="41.777877" lon="-124.100072"><ele>39.268</ele><time>2026-08-27T00:13:10Z</time></trkpt><trkpt lat="41.777889" lon="-124.100072"><ele>39.242</ele><time>2026-08-27T00:13:11Z</time></trkpt><trkpt lat="41.777896" lon="-124.100073"><ele>39.226</ele><time>2026-08-27T00:13:12Z</time></trkpt><trkpt lat="41.777892" lon="-124.1001"><ele>39.209</ele><time>2026-08-27T00:13:15Z</time></trkpt><trkpt lat="41.777895" lon="-124.100117"><ele>39.268</ele><time>2026-08-27T00:13:17Z</time></trkpt><trkpt lat="41.777894" lon="-124.10015"><ele>39.254</ele><time>2026-08-27T00:13:21Z</time></trkpt><trkpt lat="41.777877" lon="-124.100159"><ele>39.278</ele><time>2026-08-27T00:13:24Z</time></trkpt><trkpt lat="41.777802" lon="-124.100163"><ele>39.429</ele><time>2026-08-27T00:13:28Z</time></trkpt><trkpt lat="41.77779" lon="-124.100187"><ele>39.497</ele><time>2026-08-27T00:13:31Z</time></trkpt><trkpt lat="41.777791" lon="-124.100216"><ele>39.856</ele><time>2026-08-27T00:13:35Z</time></trkpt><trkpt lat="41.777795" lon="-124.100234"><ele>40.012</ele><time>2026-08-27T00:13:37Z</time></trkpt><trkpt lat="41.77781" lon="-124.100278"><ele>40.646</ele><time>2026-08-27T00:13:41Z</time></trkpt><trkpt lat="41.77783" lon="-124.100313"><ele>40.824</ele><time>2026-08-27T00:13:44Z</time></trkpt><trkpt lat="41.777869" lon="-124.100339"><ele>40.695</ele><time>2026-08-27T00:13:48Z</time></trkpt><trkpt lat="41.777899" lon="-124.100359"><ele>40.649</ele><time>2026-08-27T00:13:51Z</time></trkpt><trkpt lat="41.777953" lon="-124.100397"><ele>40.823</ele><time>2026-08-27T00:13:58Z</time></trkpt><trkpt lat="41.778018" lon="-124.100439"><ele>41.009</ele><time>2026-08-27T00:14:04Z</time></trkpt><trkpt lat="41.778118" lon="-124.100468"><ele>41.231</ele><time>2026-08-27T00:14:14Z</time></trkpt><trkpt lat="41.778138" lon="-124.10048"><ele>41.237</ele><time>2026-08-27T00:14:20Z</time></trkpt><trkpt lat="41.778149" lon="-124.100491"><ele>41.221</ele><time>2026-08-27T00:14:24Z</time></trkpt><trkpt lat="41.778169" lon="-124.100518"><ele>41.242</ele><time>2026-08-27T00:14:32Z</time></trkpt><trkpt lat="41.778201" lon="-124.100613"><ele>41.080</ele><time>2026-08-27T00:14:41Z</time></trkpt><trkpt lat="41.778199" lon="-124.100629"><ele>41.019</ele><time>2026-08-27T00:14:42Z</time></trkpt><trkpt lat="41.778182" lon="-124.100641"><ele>41.435</ele><time>2026-08-27T00:14:46Z</time></trkpt><trkpt lat="41.778177" lon="-124.100655"><ele>41.459</ele><time>2026-08-27T00:14:47Z</time></trkpt><trkpt lat="41.77817" lon="-124.100698"><ele>41.417</ele><time>2026-08-27T00:14:51Z</time></trkpt><trkpt lat="41.778174" lon="-124.100729"><ele>41.295</ele><time>2026-08-27T00:14:53Z</time></trkpt><trkpt lat="41.778191" lon="-124.100745"><ele>41.449</ele><time>2026-08-27T00:14:56Z</time></trkpt><trkpt lat="41.778205" lon="-124.100742"><ele>41.623</ele><time>2026-08-27T00:14:58Z</time></trkpt><trkpt lat="41.778251" lon="-124.100724"><ele>41.009</ele><time>2026-08-27T00:15:04Z</time></trkpt><trkpt lat="41.778276" lon="-124.100749"><ele>41.211</ele><time>2026-08-27T00:15:07Z</time></trkpt><trkpt lat="41.778328" lon="-124.100784"><ele>41.447</ele><time>2026-08-27T00:15:12Z</time></trkpt><trkpt lat="41.778336" lon="-124.100786"><ele>41.461</ele><time>2026-08-27T00:15:13Z</time></trkpt><trkpt lat="41.778363" lon="-124.100787"><ele>42.282</ele><time>2026-08-27T00:15:22Z</time></trkpt><trkpt lat="41.778391" lon="-124.100891"><ele>42.280</ele><time>2026-08-27T00:15:34Z</time></trkpt><trkpt lat="41.778416" lon="-124.101021"><ele>42.629</ele><time>2026-08-27T00:15:43Z</time></trkpt><trkpt lat="41.778424" lon="-124.101036"><ele>42.615</ele><time>2026-08-27T00:15:45Z</time></trkpt><trkpt lat="41.778458" lon="-124.101109"><ele>43.049</ele><time>2026-08-27T00:15:53Z</time></trkpt><trkpt lat="41.778555" lon="-124.101301"><ele>43.687</ele><time>2026-08-27T00:16:02Z</time></trkpt><trkpt lat="41.778619" lon="-124.101325"><ele>43.641</ele><time>2026-08-27T00:16:10Z</time></trkpt><trkpt lat="41.778659" lon="-124.101328"><ele>43.681</ele><time>2026-08-27T00:16:13Z</time></trkpt><trkpt lat="41.778697" lon="-124.101328"><ele>43.609</ele><time>2026-08-27T00:16:16Z</time></trkpt><trkpt lat="41.778722" lon="-124.101331"><ele>43.609</ele><time>2026-08-27T00:16:19Z</time></trkpt><trkpt lat="41.778759" lon="-124.101347"><ele>44.056</ele><time>2026-08-27T00:16:24Z</time></trkpt><trkpt lat="41.778767" lon="-124.101351"><ele>44.042</ele><time>2026-08-27T00:16:26Z</time></trkpt><trkpt lat="41.77879" lon="-124.101339"><ele>44.066</ele><time>2026-08-27T00:16:33Z</time></trkpt><trkpt lat="41.778794" lon="-124.10134"><ele>44.067</ele><time>2026-08-27T00:16:34Z</time></trkpt><trkpt lat="41.778788" lon="-124.101291"><ele>44.445</ele><time>2026-08-27T00:16:42Z</time></trkpt><trkpt lat="41.77879" lon="-124.101272"><ele>44.434</ele><time>2026-08-27T00:16:47Z</time></trkpt><trkpt lat="41.778783" lon="-124.101269"><ele>44.450</ele><time>2026-08-27T00:16:52Z</time></trkpt><trkpt lat="41.778773" lon="-124.101296"><ele>44.464</ele><time>2026-08-27T00:16:55Z</time></trkpt><trkpt lat="41.778765" lon="-124.101287"><ele>44.632</ele><time>2026-08-27T00:17:03Z</time></trkpt><trkpt lat="41.77876" lon="-124.1013"><ele>44.677</ele><time>2026-08-27T00:17:06Z</time></trkpt><trkpt lat="41.778815" lon="-124.101352"><ele>45.061</ele><time>2026-08-27T00:17:12Z</time></trkpt><trkpt lat="41.778838" lon="-124.101346"><ele>45.227</ele><time>2026-08-27T00:17:15Z</time></trkpt><trkpt lat="41.778862" lon="-124.101341"><ele>45.409</ele><time>2026-08-27T00:17:18Z</time></trkpt><trkpt lat="41.778865" lon="-124.101338"><ele>45.639</ele><time>2026-08-27T00:17:19Z</time></trkpt><trkpt lat="41.778867" lon="-124.101338"><ele>45.625</ele><time>2026-08-27T00:17:21Z</time></trkpt><trkpt lat="41.778861" lon="-124.101351"><ele>45.679</ele><time>2026-08-27T00:17:28Z</time></trkpt><trkpt lat="41.778846" lon="-124.101415"><ele>45.650</ele><time>2026-08-27T00:17:36Z</time></trkpt><trkpt lat="41.77886" lon="-124.101422"><ele>45.678</ele><time>2026-08-27T00:17:43Z</time></trkpt><trkpt lat="41.778862" lon="-124.101422"><ele>45.897</ele><time>2026-08-27T00:17:45Z</time></trkpt><trkpt lat="41.778861" lon="-124.101422"><ele>45.873</ele><time>2026-08-27T00:17:46Z</time></trkpt><trkpt lat="41.778843" lon="-124.101405"><ele>45.897</ele><time>2026-08-27T00:17:55Z</time></trkpt><trkpt lat="41.778815" lon="-124.10139"><ele>46.035</ele><time>2026-08-27T00:18:03Z</time></trkpt><trkpt lat="41.778797" lon="-124.101375"><ele>46.227</ele><time>2026-08-27T00:18:12Z</time></trkpt><trkpt lat="41.778798" lon="-124.10135"><ele>46.268</ele><time>2026-08-27T00:18:21Z</time></trkpt><trkpt lat="41.778796" lon="-124.101362"><ele>46.214</ele><time>2026-08-27T00:18:30Z</time></trkpt><trkpt lat="41.77881" lon="-124.10139"><ele>46.209</ele><time>2026-08-27T00:18:37Z</time></trkpt><trkpt lat="41.778811" lon="-124.101392"><ele>46.294</ele><time>2026-08-27T00:18:39Z</time></trkpt><trkpt lat="41.778823" lon="-124.101365"><ele>46.470</ele><time>2026-08-27T00:18:46Z</time></trkpt><trkpt lat="41.778812" lon="-124.101343"><ele>46.424</ele><time>2026-08-27T00:18:49Z</time></trkpt><trkpt lat="41.778808" lon="-124.10134"><ele>46.235</ele><time>2026-08-27T00:18:52Z</time></trkpt><trkpt lat="41.778817" lon="-124.101333"><ele>46.453</ele><time>2026-08-27T00:18:55Z</time></trkpt><trkpt lat="41.778841" lon="-124.101347"><ele>46.442</ele><time>2026-08-27T00:18:58Z</time></trkpt><trkpt lat="41.778859" lon="-124.101358"><ele>46.698</ele><time>2026-08-27T00:19:05Z</time></trkpt><trkpt lat="41.77886" lon="-124.101358"><ele>46.652</ele><time>2026-08-27T00:19:07Z</time></trkpt><trkpt lat="41.778839" lon="-124.101346"><ele>47.050</ele><time>2026-08-27T00:19:13Z</time></trkpt><trkpt lat="41.778832" lon="-124.101337"><ele>46.822</ele><time>2026-08-27T00:19:21Z</time></trkpt><trkpt lat="41.778788" lon="-124.1013"><ele>46.662</ele><time>2026-08-27T00:19:29Z</time></trkpt><trkpt lat="41.778707" lon="-124.101304"><ele>46.408</ele><time>2026-08-27T00:19:38Z</time></trkpt><trkpt lat="41.778674" lon="-124.101328"><ele>46.409</ele><time>2026-08-27T00:19:46Z</time></trkpt><trkpt lat="41.778664" lon="-124.101326"><ele>46.624</ele><time>2026-08-27T00:19:51Z</time></trkpt><trkpt lat="41.778623" lon="-124.101322"><ele>46.860</ele><time>2026-08-27T00:19:56Z</time></trkpt><trkpt lat="41.778583" lon="-124.101342"><ele>46.824</ele><time>2026-08-27T00:20:05Z</time></trkpt><trkpt lat="41.778623" lon="-124.101353"><ele>46.895</ele><time>2026-08-27T00:20:10Z</time></trkpt><trkpt lat="41.778639" lon="-124.101348"><ele>46.613</ele><time>2026-08-27T00:20:12Z</time></trkpt><trkpt lat="41.778662" lon="-124.101335"><ele>46.892</ele><time>2026-08-27T00:20:19Z</time></trkpt><trkpt lat="41.778664" lon="-124.101334"><ele>46.838</ele><time>2026-08-27T00:20:20Z</time></trkpt><trkpt lat="41.778665" lon="-124.101331"><ele>46.822</ele><time>2026-08-27T00:20:22Z</time></trkpt><trkpt lat="41.778672" lon="-124.101326"><ele>46.840</ele><time>2026-08-27T00:20:24Z</time></trkpt><trkpt lat="41.778661" lon="-124.101325"><ele>46.844</ele><time>2026-08-27T00:20:32Z</time></trkpt><trkpt lat="41.778615" lon="-124.101298"><ele>46.805</ele><time>2026-08-27T00:20:39Z</time></trkpt><trkpt lat="41.778608" lon="-124.101268"><ele>46.815</ele><time>2026-08-27T00:20:43Z</time></trkpt><trkpt lat="41.778605" lon="-124.101218"><ele>47.009</ele><time>2026-08-27T00:20:47Z</time></trkpt><trkpt lat="41.778606" lon="-124.101097"><ele>46.686</ele><time>2026-08-27T00:20:55Z</time></trkpt><trkpt lat="41.778567" lon="-124.100968"><ele>46.452</ele><time>2026-08-27T00:21:04Z</time></trkpt><trkpt lat="41.778472" lon="-124.100825"><ele>45.816</ele><time>2026-08-27T00:21:14Z</time></trkpt><trkpt lat="41.778464" lon="-124.100762"><ele>45.817</ele><time>2026-08-27T00:21:22Z</time></trkpt><trkpt lat="41.778432" lon="-124.100699"><ele>45.635</ele><time>2026-08-27T00:21:27Z</time></trkpt><trkpt lat="41.77838" lon="-124.100689"><ele>45.624</ele><time>2026-08-27T00:21:30Z</time></trkpt><trkpt lat="41.778347" lon="-124.10068"><ele>45.630</ele><time>2026-08-27T00:21:32Z</time></trkpt><trkpt lat="41.778262" lon="-124.100682"><ele>45.484</ele><time>2026-08-27T00:21:41Z</time></trkpt><trkpt lat="41.778196" lon="-124.100708"><ele>45.432</ele><time>2026-08-27T00:21:51Z</time></trkpt><trkpt lat="41.778194" lon="-124.100673"><ele>45.459</ele><time>2026-08-27T00:21:55Z</time></trkpt><trkpt lat="41.778208" lon="-124.100627"><ele>45.603</ele><time>2026-08-27T00:21:59Z</time></trkpt><trkpt lat="41.778204" lon="-124.100493"><ele>45.623</ele><time>2026-08-27T00:22:09Z</time></trkpt><trkpt lat="41.778078" lon="-124.100413"><ele>45.409</ele><time>2026-08-27T00:22:18Z</time></trkpt><trkpt lat="41.777984" lon="-124.100342"><ele>45.247</ele><time>2026-08-27T00:22:28Z</time></trkpt><trkpt lat="41.777883" lon="-124.100369"><ele>45.453</ele><time>2026-08-27T00:22:38Z</time></trkpt><trkpt lat="41.777835" lon="-124.100469"><ele>44.827</ele><time>2026-08-27T00:22:46Z</time></trkpt><trkpt lat="41.777822" lon="-124.100496"><ele>44.628</ele><time>2026-08-27T00:22:49Z</time></trkpt><trkpt lat="41.777797" lon="-124.100594"><ele>44.466</ele><time>2026-08-27T00:22:54Z</time></trkpt><trkpt lat="41.777749" lon="-124.100753"><ele>44.415</ele><time>2026-08-27T00:23:05Z</time></trkpt><trkpt lat="41.777744" lon="-124.100776"><ele>45.661</ele><time>2026-08-27T00:23:10Z</time></trkpt><trkpt lat="41.777752" lon="-124.100798"><ele>46.085</ele><time>2026-08-27T00:23:13Z</time></trkpt><trkpt lat="41.777727" lon="-124.100881"><ele>46.673</ele><time>2026-08-27T00:23:19Z</time></trkpt><trkpt lat="41.777705" lon="-124.100911"><ele>47.076</ele><time>2026-08-27T00:23:22Z</time></trkpt><trkpt lat="41.777682" lon="-124.100964"><ele>47.690</ele><time>2026-08-27T00:23:26Z</time></trkpt><trkpt lat="41.777659" lon="-124.100995"><ele>48.019</ele><time>2026-08-27T00:23:31Z</time></trkpt><trkpt lat="41.777655" lon="-124.100997"><ele>48.009</ele><time>2026-08-27T00:23:32Z</time></trkpt><trkpt lat="41.777658" lon="-124.100973"><ele>48.289</ele><time>2026-08-27T00:23:33Z</time></trkpt><trkpt lat="41.77766" lon="-124.100949"><ele>48.295</ele><time>2026-08-27T00:23:34Z</time></trkpt><trkpt lat="41.777655" lon="-124.100932"><ele>48.419</ele><time>2026-08-27T00:23:35Z</time></trkpt><trkpt lat="41.777632" lon="-124.100906"><ele>48.680</ele><time>2026-08-27T00:23:37Z</time></trkpt><trkpt lat="41.777622" lon="-124.100902"><ele>48.828</ele><time>2026-08-27T00:23:38Z</time></trkpt><trkpt lat="41.777592" lon="-124.100943"><ele>49.637</ele><time>2026-08-27T00:23:44Z</time></trkpt><trkpt lat="41.777593" lon="-124.100954"><ele>49.823</ele><time>2026-08-27T00:23:45Z</time></trkpt><trkpt lat="41.77759" lon="-124.100962"><ele>50.057</ele><time>2026-08-27T00:23:46Z</time></trkpt><trkpt lat="41.777554" lon="-124.100987"><ele>50.245</ele><time>2026-08-27T00:23:51Z</time></trkpt><trkpt lat="41.777534" lon="-124.100971"><ele>50.278</ele><time>2026-08-27T00:23:53Z</time></trkpt><trkpt lat="41.777507" lon="-124.10095"><ele>50.433</ele><time>2026-08-27T00:23:55Z</time></trkpt><trkpt lat="41.777487" lon="-124.100941"><ele>50.426</ele><time>2026-08-27T00:23:57Z</time></trkpt><trkpt lat="41.777466" lon="-124.100924"><ele>50.409</ele><time>2026-08-27T00:24:00Z</time></trkpt><trkpt lat="41.777425" lon="-124.100897"><ele>50.469</ele><time>2026-08-27T00:24:04Z</time></trkpt><trkpt lat="41.777396" lon="-124.100879"><ele>50.285</ele><time>2026-08-27T00:24:07Z</time></trkpt><trkpt lat="41.777385" lon="-124.100864"><ele>49.649</ele><time>2026-08-27T00:24:10Z</time></trkpt><trkpt lat="41.777343" lon="-124.100803"><ele>49.850</ele><time>2026-08-27T00:24:17Z</time></trkpt><trkpt lat="41.777337" lon="-124.100792"><ele>49.818</ele><time>2026-08-27T00:24:18Z</time></trkpt><trkpt lat="41.777246" lon="-124.100741"><ele>49.897</ele><time>2026-08-27T00:24:28Z</time></trkpt><trkpt lat="41.777151" lon="-124.100812"><ele>50.083</ele><time>2026-08-27T00:24:37Z</time></trkpt><trkpt lat="41.777058" lon="-124.100818"><ele>50.067</ele><time>2026-08-27T00:24:46Z</time></trkpt><trkpt lat="41.777002" lon="-124.100767"><ele>50.285</ele><time>2026-08-27T00:24:51Z</time></trkpt><trkpt lat="41.776991" lon="-124.100734"><ele>50.232</ele><time>2026-08-27T00:24:54Z</time></trkpt><trkpt lat="41.77695" lon="-124.100647"><ele>50.292</ele><time>2026-08-27T00:25:02Z</time></trkpt><trkpt lat="41.776901" lon="-124.100587"><ele>50.211</ele><time>2026-08-27T00:25:08Z</time></trkpt><trkpt lat="41.776882" lon="-124.100569"><ele>50.209</ele><time>2026-08-27T00:25:11Z</time></trkpt><trkpt lat="41.776806" lon="-124.100515"><ele>50.095</ele><time>2026-08-27T00:25:19Z</time></trkpt><trkpt lat="41.776705" lon="-124.100547"><ele>50.291</ele><time>2026-08-27T00:25:26Z</time></trkpt><trkpt lat="41.77662" lon="-124.100652"><ele>50.495</ele><time>2026-08-27T00:25:34Z</time></trkpt><trkpt lat="41.776552" lon="-124.100665"><ele>50.876</ele><time>2026-08-27T00:25:40Z</time></trkpt><trkpt lat="41.776538" lon="-124.100661"><ele>51.064</ele><time>2026-08-27T00:25:41Z</time></trkpt><trkpt lat="41.776469" lon="-124.100635"><ele>51.073</ele><time>2026-08-27T00:25:47Z</time></trkpt><trkpt lat="41.776415" lon="-124.100648"><ele>51.089</ele><time>2026-08-27T00:25:51Z</time></trkpt><trkpt lat="41.776395" lon="-124.100693"><ele>51.263</ele><time>2026-08-27T00:25:54Z</time></trkpt><trkpt lat="41.776372" lon="-124.100764"><ele>51.461</ele><time>2026-08-27T00:25:59Z</time></trkpt><trkpt lat="41.776333" lon="-124.100895"><ele>51.868</ele><time>2026-08-27T00:26:07Z</time></trkpt><trkpt lat="41.776332" lon="-124.100913"><ele>51.842</ele><time>2026-08-27T00:26:08Z</time></trkpt><trkpt lat="41.776346" lon="-124.100951"><ele>52.426</ele><time>2026-08-27T00:26:13Z</time></trkpt><trkpt lat="41.776361" lon="-124.100941"><ele>52.609</ele><time>2026-08-27T00:26:15Z</time></trkpt><trkpt lat="41.77639" lon="-124.100936"><ele>52.668</ele><time>2026-08-27T00:26:19Z</time></trkpt><trkpt lat="41.776459" lon="-124.100912"><ele>52.834</ele><time>2026-08-27T00:26:25Z</time></trkpt><trkpt lat="41.776466" lon="-124.100911"><ele>52.828</ele><time>2026-08-27T00:26:26Z</time></trkpt><trkpt lat="41.776474" lon="-124.10092"><ele>52.839</ele><time>2026-08-27T00:26:33Z</time></trkpt><trkpt lat="41.776479" lon="-124.10092"><ele>52.897</ele><time>2026-08-27T00:26:34Z</time></trkpt><trkpt lat="41.776501" lon="-124.100926"><ele>53.046</ele><time>2026-08-27T00:26:39Z</time></trkpt><trkpt lat="41.776505" lon="-124.100929"><ele>53.042</ele><time>2026-08-27T00:26:42Z</time></trkpt><trkpt lat="41.776493" lon="-124.100942"><ele>53.026</ele><time>2026-08-27T00:26:48Z</time></trkpt><trkpt lat="41.776495" lon="-124.100939"><ele>53.074</ele><time>2026-08-27T00:26:50Z</time></trkpt><trkpt lat="41.776503" lon="-124.100932"><ele>53.085</ele><time>2026-08-27T00:26:52Z</time></trkpt><trkpt lat="41.776512" lon="-124.100934"><ele>53.089</ele><time>2026-08-27T00:26:54Z</time></trkpt><trkpt lat="41.776552" lon="-124.100936"><ele>52.817</ele><time>2026-08-27T00:26:57Z</time></trkpt><trkpt lat="41.776632" lon="-124.100987"><ele>52.809</ele><time>2026-08-27T00:27:04Z</time></trkpt><trkpt lat="41.77668" lon="-124.101033"><ele>53.030</ele><time>2026-08-27T00:27:10Z</time></trkpt><trkpt lat="41.776741" lon="-124.101041"><ele>53.426</ele><time>2026-08-27T00:27:17Z</time></trkpt><trkpt lat="41.776748" lon="-124.101042"><ele>53.470</ele><time>2026-08-27T00:27:18Z</time></trkpt><trkpt lat="41.776755" lon="-124.101046"><ele>53.451</ele><time>2026-08-27T00:27:19Z</time></trkpt><trkpt lat="41.776789" lon="-124.101091"><ele>53.249</ele><time>2026-08-27T00:27:28Z</time></trkpt><trkpt lat="41.776797" lon="-124.101107"><ele>53.058</ele><time>2026-08-27T00:27:33Z</time></trkpt><trkpt lat="41.776798" lon="-124.101132"><ele>53.084</ele><time>2026-08-27T00:27:39Z</time></trkpt><trkpt lat="41.776813" lon="-124.101143"><ele>53.018</ele><time>2026-08-27T00:27:41Z</time></trkpt><trkpt lat="41.776827" lon="-124.101158"><ele>53.296</ele><time>2026-08-27T00:27:43Z</time></trkpt><trkpt lat="41.776848" lon="-124.101177"><ele>53.868</ele><time>2026-08-27T00:27:46Z</time></trkpt><trkpt lat="41.77686" lon="-124.10119"><ele>54.042</ele><time>2026-08-27T00:27:48Z</time></trkpt><trkpt lat="41.776866" lon="-124.101193"><ele>54.226</ele><time>2026-08-27T00:27:49Z</time></trkpt><trkpt lat="41.7769" lon="-124.101183"><ele>54.609</ele><time>2026-08-27T00:27:53Z</time></trkpt><trkpt lat="41.776927" lon="-124.101171"><ele>55.078</ele><time>2026-08-27T00:27:57Z</time></trkpt><trkpt lat="41.776945" lon="-124.101173"><ele>55.014</ele><time>2026-08-27T00:27:59Z</time></trkpt><trkpt lat="41.777019" lon="-124.101195"><ele>54.838</ele><time>2026-08-27T00:28:04Z</time></trkpt><trkpt lat="41.777132" lon="-124.101238"><ele>55.269</ele><time>2026-08-27T00:28:11Z</time></trkpt><trkpt lat="41.777193" lon="-124.101295"><ele>55.447</ele><time>2026-08-27T00:28:18Z</time></trkpt><trkpt lat="41.777228" lon="-124.101329"><ele>56.016</ele><time>2026-08-27T00:28:26Z</time></trkpt><trkpt lat="41.777276" lon="-124.101356"><ele>57.272</ele><time>2026-08-27T00:28:34Z</time></trkpt><trkpt lat="41.777282" lon="-124.10136"><ele>57.646</ele><time>2026-08-27T00:28:36Z</time></trkpt><trkpt lat="41.777323" lon="-124.101377"><ele>58.294</ele><time>2026-08-27T00:28:42Z</time></trkpt><trkpt lat="41.777323" lon="-124.101364"><ele>59.232</ele><time>2026-08-27T00:28:47Z</time></trkpt><trkpt lat="41.777318" lon="-124.101355"><ele>59.492</ele><time>2026-08-27T00:28:48Z</time></trkpt><trkpt lat="41.777311" lon="-124.101353"><ele>59.611</ele><time>2026-08-27T00:28:49Z</time></trkpt><trkpt lat="41.77729" lon="-124.101351"><ele>59.809</ele><time>2026-08-27T00:28:52Z</time></trkpt><trkpt lat="41.777283" lon="-124.101355"><ele>60.085</ele><time>2026-08-27T00:28:54Z</time></trkpt><trkpt lat="41.777281" lon="-124.101354"><ele>60.251</ele><time>2026-08-27T00:28:55Z</time></trkpt><trkpt lat="41.777261" lon="-124.101356"><ele>60.655</ele><time>2026-08-27T00:28:58Z</time></trkpt><trkpt lat="41.777212" lon="-124.101356"><ele>61.446</ele><time>2026-08-27T00:29:04Z</time></trkpt><trkpt lat="41.777201" lon="-124.101356"><ele>61.614</ele><time>2026-08-27T00:29:06Z</time></trkpt><trkpt lat="41.777161" lon="-124.101379"><ele>62.093</ele><time>2026-08-27T00:29:13Z</time></trkpt><trkpt lat="41.77711" lon="-124.101393"><ele>62.649</ele><time>2026-08-27T00:29:20Z</time></trkpt><trkpt lat="41.777085" lon="-124.101402"><ele>62.893</ele><time>2026-08-27T00:29:23Z</time></trkpt><trkpt lat="41.777009" lon="-124.101399"><ele>63.641</ele><time>2026-08-27T00:29:30Z</time></trkpt><trkpt lat="41.776973" lon="-124.101392"><ele>63.823</ele><time>2026-08-27T00:29:33Z</time></trkpt><trkpt lat="41.77686" lon="-124.10133"><ele>64.283</ele><time>2026-08-27T00:29:42Z</time></trkpt><trkpt lat="41.776758" lon="-124.101336"><ele>64.811</ele><time>2026-08-27T00:29:50Z</time></trkpt><trkpt lat="41.776746" lon="-124.10135"><ele>65.209</ele><time>2026-08-27T00:29:52Z</time></trkpt><trkpt lat="41.776728" lon="-124.101371"><ele>66.014</ele><time>2026-08-27T00:29:55Z</time></trkpt><trkpt lat="41.776688" lon="-124.101447"><ele>67.070</ele><time>2026-08-27T00:30:02Z</time></trkpt><trkpt lat="41.776668" lon="-124.101525"><ele>67.674</ele><time>2026-08-27T00:30:07Z</time></trkpt><trkpt lat="41.776658" lon="-124.101582"><ele>68.015</ele><time>2026-08-27T00:30:10Z</time></trkpt><trkpt lat="41.776651" lon="-124.101609"><ele>68.093</ele><time>2026-08-27T00:30:11Z</time></trkpt><trkpt lat="41.776647" lon="-124.101627"><ele>68.052</ele><time>2026-08-27T00:30:12Z</time></trkpt><trkpt lat="41.776642" lon="-124.101653"><ele>68.218</ele><time>2026-08-27T00:30:14Z</time></trkpt><trkpt lat="41.776631" lon="-124.101706"><ele>68.682</ele><time>2026-08-27T00:30:18Z</time></trkpt><trkpt lat="41.776634" lon="-124.10173"><ele>69.060</ele><time>2026-08-27T00:30:21Z</time></trkpt><trkpt lat="41.776622" lon="-124.101792"><ele>69.883</ele><time>2026-08-27T00:30:27Z</time></trkpt><trkpt lat="41.776606" lon="-124.101802"><ele>70.225</ele><time>2026-08-27T00:30:30Z</time></trkpt><trkpt lat="41.776602" lon="-124.101826"><ele>70.617</ele><time>2026-08-27T00:30:33Z</time></trkpt><trkpt lat="41.77659" lon="-124.101849"><ele>71.209</ele><time>2026-08-27T00:30:37Z</time></trkpt><trkpt lat="41.776573" lon="-124.101855"><ele>71.460</ele><time>2026-08-27T00:30:39Z</time></trkpt><trkpt lat="41.776511" lon="-124.10188"><ele>71.626</ele><time>2026-08-27T00:30:47Z</time></trkpt><trkpt lat="41.776477" lon="-124.101865"><ele>72.440</ele><time>2026-08-27T00:30:50Z</time></trkpt><trkpt lat="41.776448" lon="-124.101807"><ele>72.881</ele><time>2026-08-27T00:30:56Z</time></trkpt><trkpt lat="41.776444" lon="-124.101719"><ele>72.859</ele><time>2026-08-27T00:31:03Z</time></trkpt><trkpt lat="41.77644" lon="-124.101705"><ele>72.878</ele><time>2026-08-27T00:31:04Z</time></trkpt><trkpt lat="41.776334" lon="-124.101613"><ele>72.454</ele><time>2026-08-27T00:31:13Z</time></trkpt><trkpt lat="41.77631" lon="-124.101612"><ele>72.418</ele><time>2026-08-27T00:31:14Z</time></trkpt><trkpt lat="41.776302" lon="-124.10161"><ele>72.466</ele><time>2026-08-27T00:31:15Z</time></trkpt><trkpt lat="41.776293" lon="-124.101607"><ele>72.663</ele><time>2026-08-27T00:31:16Z</time></trkpt><trkpt lat="41.776283" lon="-124.101605"><ele>72.644</ele><time>2026-08-27T00:31:17Z</time></trkpt><trkpt lat="41.77622" lon="-124.101605"><ele>73.218</ele><time>2026-08-27T00:31:23Z</time></trkpt><trkpt lat="41.776128" lon="-124.101572"><ele>73.409</ele><time>2026-08-27T00:31:32Z</time></trkpt><trkpt lat="41.776111" lon="-124.101566"><ele>73.448</ele><time>2026-08-27T00:31:33Z</time></trkpt><trkpt lat="41.776021" lon="-124.101549"><ele>74.654</ele><time>2026-08-27T00:31:41Z</time></trkpt><trkpt lat="41.775964" lon="-124.101532"><ele>75.628</ele><time>2026-08-27T00:31:48Z</time></trkpt><trkpt lat="41.775934" lon="-124.101495"><ele>76.079</ele><time>2026-08-27T00:31:52Z</time></trkpt><trkpt lat="41.775917" lon="-124.101482"><ele>76.267</ele><time>2026-08-27T00:31:54Z</time></trkpt><trkpt lat="41.775827" lon="-124.101418"><ele>76.656</ele><time>2026-08-27T00:32:03Z</time></trkpt><trkpt lat="41.775787" lon="-124.101353"><ele>76.082</ele><time>2026-08-27T00:32:11Z</time></trkpt><trkpt lat="41.775786" lon="-124.101344"><ele>76.036</ele><time>2026-08-27T00:32:12Z</time></trkpt><trkpt lat="41.775732" lon="-124.101255"><ele>75.834</ele><time>2026-08-27T00:32:21Z</time></trkpt><trkpt lat="41.775648" lon="-124.101178"><ele>76.055</ele><time>2026-08-27T00:32:30Z</time></trkpt><trkpt lat="41.775555" lon="-124.10106"><ele>76.407</ele><time>2026-08-27T00:32:41Z</time></trkpt><trkpt lat="41.775488" lon="-124.101057"><ele>76.217</ele><time>2026-08-27T00:32:46Z</time></trkpt><trkpt lat="41.775454" lon="-124.101084"><ele>75.809</ele><time>2026-08-27T00:32:49Z</time></trkpt><trkpt lat="41.77545" lon="-124.101095"><ele>75.857</ele><time>2026-08-27T00:32:50Z</time></trkpt><trkpt lat="41.775438" lon="-124.101131"><ele>75.663</ele><time>2026-08-27T00:32:52Z</time></trkpt><trkpt lat="41.775415" lon="-124.101235"><ele>75.827</ele><time>2026-08-27T00:32:59Z</time></trkpt><trkpt lat="41.775395" lon="-124.101274"><ele>76.078</ele><time>2026-08-27T00:33:03Z</time></trkpt><trkpt lat="41.775385" lon="-124.101317"><ele>76.096</ele><time>2026-08-27T00:33:06Z</time></trkpt><trkpt lat="41.775365" lon="-124.10141"><ele>76.845</ele><time>2026-08-27T00:33:13Z</time></trkpt><trkpt lat="41.77536" lon="-124.10142"><ele>77.091</ele><time>2026-08-27T00:33:14Z</time></trkpt><trkpt lat="41.775328" lon="-124.101485"><ele>77.235</ele><time>2026-08-27T00:33:20Z</time></trkpt><trkpt lat="41.775332" lon="-124.101487"><ele>77.413</ele><time>2026-08-27T00:33:22Z</time></trkpt><trkpt lat="41.775316" lon="-124.101493"><ele>77.698</ele><time>2026-08-27T00:33:24Z</time></trkpt><trkpt lat="41.775289" lon="-124.101499"><ele>77.815</ele><time>2026-08-27T00:33:26Z</time></trkpt><trkpt lat="41.775267" lon="-124.101501"><ele>78.026</ele><time>2026-08-27T00:33:28Z</time></trkpt><trkpt lat="41.775243" lon="-124.101481"><ele>77.809</ele><time>2026-08-27T00:33:31Z</time></trkpt><trkpt lat="41.775226" lon="-124.101457"><ele>77.811</ele><time>2026-08-27T00:33:34Z</time></trkpt><trkpt lat="41.775199" lon="-124.101449"><ele>78.037</ele><time>2026-08-27T00:33:38Z</time></trkpt><trkpt lat="41.775174" lon="-124.101441"><ele>78.061</ele><time>2026-08-27T00:33:40Z</time></trkpt><trkpt lat="41.775071" lon="-124.101441"><ele>78.692</ele><time>2026-08-27T00:33:49Z</time></trkpt><trkpt lat="41.77506" lon="-124.101437"><ele>79.020</ele><time>2026-08-27T00:33:51Z</time></trkpt><trkpt lat="41.775048" lon="-124.101415"><ele>79.489</ele><time>2026-08-27T00:33:54Z</time></trkpt><trkpt lat="41.775048" lon="-124.101402"><ele>79.865</ele><time>2026-08-27T00:33:58Z</time></trkpt><trkpt lat="41.775037" lon="-124.101395"><ele>80.089</ele><time>2026-08-27T00:34:00Z</time></trkpt><trkpt lat="41.775017" lon="-124.101417"><ele>79.897</ele><time>2026-08-27T00:34:03Z</time></trkpt><trkpt lat="41.774995" lon="-124.101428"><ele>79.628</ele><time>2026-08-27T00:34:05Z</time></trkpt><trkpt lat="41.774878" lon="-124.101476"><ele>79.889</ele><time>2026-08-27T00:34:16Z</time></trkpt><trkpt lat="41.774779" lon="-124.101436"><ele>79.017</ele><time>2026-08-27T00:34:24Z</time></trkpt><trkpt lat="41.774762" lon="-124.101424"><ele>79.009</ele><time>2026-08-27T00:34:25Z</time></trkpt><trkpt lat="41.774683" lon="-124.101383"><ele>79.254</ele><time>2026-08-27T00:34:33Z</time></trkpt><trkpt lat="41.774635" lon="-124.101307"><ele>79.680</ele><time>2026-08-27T00:34:41Z</time></trkpt><trkpt lat="41.774627" lon="-124.101299"><ele>79.674</ele><time>2026-08-27T00:34:42Z</time></trkpt><trkpt lat="41.774572" lon="-124.101238"><ele>80.055</ele><time>2026-08-27T00:34:48Z</time></trkpt><trkpt lat="41.774559" lon="-124.101216"><ele>80.033</ele><time>2026-08-27T00:34:50Z</time></trkpt><trkpt lat="41.774534" lon="-124.101132"><ele>79.242</ele><time>2026-08-27T00:34:56Z</time></trkpt><trkpt lat="41.77452" lon="-124.101109"><ele>78.828</ele><time>2026-08-27T00:34:58Z</time></trkpt><trkpt lat="41.774465" lon="-124.101045"><ele>77.872</ele><time>2026-08-27T00:35:04Z</time></trkpt><trkpt lat="41.774347" lon="-124.100971"><ele>77.270</ele><time>2026-08-27T00:35:12Z</time></trkpt><trkpt lat="41.774333" lon="-124.100964"><ele>77.435</ele><time>2026-08-27T00:35:14Z</time></trkpt><trkpt lat="41.774271" lon="-124.100969"><ele>77.486</ele><time>2026-08-27T00:35:21Z</time></trkpt><trkpt lat="41.774226" lon="-124.100996"><ele>76.814</ele><time>2026-08-27T00:35:25Z</time></trkpt><trkpt lat="41.774173" lon="-124.101041"><ele>76.409</ele><time>2026-08-27T00:35:30Z</time></trkpt><trkpt lat="41.774145" lon="-124.101086"><ele>75.895</ele><time>2026-08-27T00:35:34Z</time></trkpt><trkpt lat="41.774122" lon="-124.101155"><ele>75.461</ele><time>2026-08-27T00:35:40Z</time></trkpt><trkpt lat="41.774065" lon="-124.101222"><ele>74.685</ele><time>2026-08-27T00:35:46Z</time></trkpt><trkpt lat="41.774039" lon="-124.101258"><ele>74.066</ele><time>2026-08-27T00:35:49Z</time></trkpt><trkpt lat="41.774021" lon="-124.101299"><ele>73.874</ele><time>2026-08-27T00:35:51Z</time></trkpt><trkpt lat="41.773986" lon="-124.101293"><ele>73.413</ele><time>2026-08-27T00:35:53Z</time></trkpt><trkpt lat="41.77397" lon="-124.101264"><ele>73.459</ele><time>2026-08-27T00:35:56Z</time></trkpt><trkpt lat="41.773976" lon="-124.10119"><ele>72.293</ele><time>2026-08-27T00:36:01Z</time></trkpt><trkpt lat="41.773975" lon="-124.101172"><ele>72.061</ele><time>2026-08-27T00:36:02Z</time></trkpt><trkpt lat="41.773974" lon="-124.101045"><ele>71.262</ele><time>2026-08-27T00:36:10Z</time></trkpt><trkpt lat="41.773992" lon="-124.100917"><ele>70.283</ele><time>2026-08-27T00:36:19Z</time></trkpt><trkpt lat="41.774001" lon="-124.100877"><ele>70.011</ele><time>2026-08-27T00:36:21Z</time></trkpt><trkpt lat="41.774014" lon="-124.100816"><ele>69.609</ele><time>2026-08-27T00:36:24Z</time></trkpt><trkpt lat="41.774025" lon="-124.10073"><ele>69.258</ele><time>2026-08-27T00:36:29Z</time></trkpt><trkpt lat="41.774015" lon="-124.10068"><ele>68.684</ele><time>2026-08-27T00:36:32Z</time></trkpt><trkpt lat="41.773991" lon="-124.100653"><ele>68.048</ele><time>2026-08-27T00:36:36Z</time></trkpt><trkpt lat="41.773946" lon="-124.100616"><ele>67.229</ele><time>2026-08-27T00:36:41Z</time></trkpt><trkpt lat="41.773935" lon="-124.1006"><ele>67.097</ele><time>2026-08-27T00:36:43Z</time></trkpt><trkpt lat="41.773901" lon="-124.100554"><ele>66.436</ele><time>2026-08-27T00:36:49Z</time></trkpt><trkpt lat="41.773855" lon="-124.100491"><ele>66.042</ele><time>2026-08-27T00:36:55Z</time></trkpt><trkpt lat="41.773833" lon="-124.100469"><ele>65.886</ele><time>2026-08-27T00:36:57Z</time></trkpt><trkpt lat="41.773802" lon="-124.10041"><ele>64.884</ele><time>2026-08-27T00:37:04Z</time></trkpt><trkpt lat="41.773775" lon="-124.100376"><ele>64.644</ele><time>2026-08-27T00:37:08Z</time></trkpt><trkpt lat="41.773719" lon="-124.10035"><ele>64.005</ele><time>2026-08-27T00:37:12Z</time></trkpt><trkpt lat="41.773709" lon="-124.100343"><ele>63.815</ele><time>2026-08-27T00:37:13Z</time></trkpt><trkpt lat="41.773671" lon="-124.100295"><ele>63.409</ele><time>2026-08-27T00:37:17Z</time></trkpt><trkpt lat="41.773666" lon="-124.100244"><ele>62.876</ele><time>2026-08-27T00:37:21Z</time></trkpt><trkpt lat="41.773644" lon="-124.100183"><ele>62.012</ele><time>2026-08-27T00:37:26Z</time></trkpt><trkpt lat="41.773623" lon="-124.100146"><ele>61.676</ele><time>2026-08-27T00:37:29Z</time></trkpt><trkpt lat="41.773572" lon="-124.100118"><ele>60.677</ele><time>2026-08-27T00:37:34Z</time></trkpt><trkpt lat="41.773568" lon="-124.100128"><ele>60.495</ele><time>2026-08-27T00:37:35Z</time></trkpt><trkpt lat="41.773552" lon="-124.100138"><ele>60.444</ele><time>2026-08-27T00:37:36Z</time></trkpt><trkpt lat="41.773494" lon="-124.100213"><ele>59.650</ele><time>2026-08-27T00:37:41Z</time></trkpt><trkpt lat="41.773486" lon="-124.100229"><ele>59.484</ele><time>2026-08-27T00:37:42Z</time></trkpt><trkpt lat="41.77346" lon="-124.100382"><ele>59.632</ele><time>2026-08-27T00:37:52Z</time></trkpt><trkpt lat="41.773432" lon="-124.100489"><ele>59.495</ele><time>2026-08-27T00:38:00Z</time></trkpt><trkpt lat="41.773406" lon="-124.100522"><ele>58.649</ele><time>2026-08-27T00:38:03Z</time></trkpt><trkpt lat="41.773384" lon="-124.100568"><ele>58.223</ele><time>2026-08-27T00:38:07Z</time></trkpt><trkpt lat="41.773355" lon="-124.100627"><ele>57.809</ele><time>2026-08-27T00:38:11Z</time></trkpt><trkpt lat="41.773332" lon="-124.100666"><ele>57.491</ele><time>2026-08-27T00:38:13Z</time></trkpt><trkpt lat="41.773321" lon="-124.100683"><ele>57.297</ele><time>2026-08-27T00:38:14Z</time></trkpt><trkpt lat="41.773287" lon="-124.100783"><ele>56.651</ele><time>2026-08-27T00:38:20Z</time></trkpt><trkpt lat="41.773252" lon="-124.100857"><ele>56.842</ele><time>2026-08-27T00:38:27Z</time></trkpt><trkpt lat="41.77322" lon="-124.100845"><ele>56.450</ele><time>2026-08-27T00:38:32Z</time></trkpt><trkpt lat="41.773213" lon="-124.100823"><ele>56.069</ele><time>2026-08-27T00:38:34Z</time></trkpt><trkpt lat="41.773197" lon="-124.100786"><ele>55.455</ele><time>2026-08-27T00:38:37Z</time></trkpt><trkpt lat="41.77318" lon="-124.100759"><ele>55.029</ele><time>2026-08-27T00:38:39Z</time></trkpt><trkpt lat="41.773172" lon="-124.10072"><ele>54.097</ele><time>2026-08-27T00:38:42Z</time></trkpt><trkpt lat="41.773162" lon="-124.100685"><ele>53.256</ele><time>2026-08-27T00:38:46Z</time></trkpt><trkpt lat="41.773158" lon="-124.100675"><ele>52.859</ele><time>2026-08-27T00:38:47Z</time></trkpt><trkpt lat="41.773148" lon="-124.100662"><ele>52.414</ele><time>2026-08-27T00:38:49Z</time></trkpt><trkpt lat="41.773058" lon="-124.100635"><ele>52.009</ele><time>2026-08-27T00:38:58Z</time></trkpt><trkpt lat="41.773029" lon="-124.100635"><ele>51.897</ele><time>2026-08-27T00:39:00Z</time></trkpt><trkpt lat="41.772965" lon="-124.100645"><ele>51.683</ele><time>2026-08-27T00:39:06Z</time></trkpt><trkpt lat="41.77291" lon="-124.10062"><ele>51.437</ele><time>2026-08-27T00:39:12Z</time></trkpt><trkpt lat="41.772826" lon="-124.100637"><ele>51.428</ele><time>2026-08-27T00:39:21Z</time></trkpt><trkpt lat="41.772752" lon="-124.100617"><ele>52.026</ele><time>2026-08-27T00:39:30Z</time></trkpt><trkpt lat="41.772785" lon="-124.100535"><ele>51.445</ele><time>2026-08-27T00:39:35Z</time></trkpt><trkpt lat="41.7728" lon="-124.100457"><ele>50.841</ele><time>2026-08-27T00:39:40Z</time></trkpt><trkpt lat="41.772818" lon="-124.100372"><ele>50.625</ele><time>2026-08-27T00:39:44Z</time></trkpt><trkpt lat="41.772793" lon="-124.100276"><ele>49.863</ele><time>2026-08-27T00:39:50Z</time></trkpt><trkpt lat="41.77276" lon="-124.100138"><ele>48.859</ele><time>2026-08-27T00:39:58Z</time></trkpt><trkpt lat="41.772732" lon="-124.100061"><ele>48.603</ele><time>2026-08-27T00:40:04Z</time></trkpt><trkpt lat="41.772736" lon="-124.100012"><ele>48.423</ele><time>2026-08-27T00:40:13Z</time></trkpt><trkpt lat="41.77274" lon="-124.099982"><ele>48.409</ele><time>2026-08-27T00:40:15Z</time></trkpt><trkpt lat="41.772778" lon="-124.099905"><ele>48.647</ele><time>2026-08-27T00:40:21Z</time></trkpt><trkpt lat="41.77278" lon="-124.099914"><ele>48.633</ele><time>2026-08-27T00:40:27Z</time></trkpt><trkpt lat="41.772779" lon="-124.099918"><ele>48.617</ele><time>2026-08-27T00:40:28Z</time></trkpt><trkpt lat="41.772749" lon="-124.099966"><ele>48.448</ele><time>2026-08-27T00:40:35Z</time></trkpt><trkpt lat="41.772742" lon="-124.099991"><ele>48.486</ele><time>2026-08-27T00:40:38Z</time></trkpt><trkpt lat="41.772774" lon="-124.099957"><ele>49.065</ele><time>2026-08-27T00:40:46Z</time></trkpt><trkpt lat="41.772783" lon="-124.099856"><ele>48.831</ele><time>2026-08-27T00:40:53Z</time></trkpt><trkpt lat="41.77277" lon="-124.099854"><ele>49.025</ele><time>2026-08-27T00:40:56Z</time></trkpt><trkpt lat="41.772763" lon="-124.099848"><ele>49.093</ele><time>2026-08-27T00:41:00Z</time></trkpt><trkpt lat="41.772763" lon="-124.099852"><ele>49.034</ele><time>2026-08-27T00:41:01Z</time></trkpt><trkpt lat="41.772767" lon="-124.099859"><ele>49.055</ele><time>2026-08-27T00:41:09Z</time></trkpt><trkpt lat="41.772762" lon="-124.099845"><ele>49.210</ele><time>2026-08-27T00:41:17Z</time></trkpt><trkpt lat="41.772759" lon="-124.099842"><ele>49.209</ele><time>2026-08-27T00:41:19Z</time></trkpt><trkpt lat="41.772749" lon="-124.099834"><ele>49.265</ele><time>2026-08-27T00:41:21Z</time></trkpt><trkpt lat="41.772751" lon="-124.099821"><ele>49.281</ele><time>2026-08-27T00:41:22Z</time></trkpt><trkpt lat="41.772747" lon="-124.099816"><ele>49.475</ele><time>2026-08-27T00:41:23Z</time></trkpt><trkpt lat="41.772743" lon="-124.09979"><ele>49.846</ele><time>2026-08-27T00:41:27Z</time></trkpt><trkpt lat="41.772751" lon="-124.099749"><ele>49.864</ele><time>2026-08-27T00:41:32Z</time></trkpt><trkpt lat="41.772751" lon="-124.099742"><ele>49.883</ele><time>2026-08-27T00:41:33Z</time></trkpt><trkpt lat="41.772751" lon="-124.09974"><ele>49.829</ele><time>2026-08-27T00:41:34Z</time></trkpt><trkpt lat="41.772749" lon="-124.099732"><ele>49.883</ele><time>2026-08-27T00:41:36Z</time></trkpt><trkpt lat="41.772749" lon="-124.099737"><ele>49.821</ele><time>2026-08-27T00:41:40Z</time></trkpt><trkpt lat="41.772737" lon="-124.09976"><ele>49.868</ele><time>2026-08-27T00:41:48Z</time></trkpt><trkpt lat="41.772738" lon="-124.099765"><ele>50.042</ele><time>2026-08-27T00:41:52Z</time></trkpt><trkpt lat="41.772726" lon="-124.099792"><ele>49.826</ele><time>2026-08-27T00:41:55Z</time></trkpt><trkpt lat="41.772757" lon="-124.099759"><ele>49.609</ele><time>2026-08-27T00:42:00Z</time></trkpt><trkpt lat="41.772747" lon="-124.099693"><ele>49.888</ele><time>2026-08-27T00:42:07Z</time></trkpt><trkpt lat="41.772707" lon="-124.099651"><ele>49.654</ele><time>2026-08-27T00:42:13Z</time></trkpt><trkpt lat="41.772651" lon="-124.099607"><ele>49.298</ele><time>2026-08-27T00:42:20Z</time></trkpt><trkpt lat="41.772596" lon="-124.099583"><ele>48.839</ele><time>2026-08-27T00:42:24Z</time></trkpt><trkpt lat="41.772537" lon="-124.099582"><ele>48.667</ele><time>2026-08-27T00:42:29Z</time></trkpt><trkpt lat="41.77248" lon="-124.099554"><ele>48.646</ele><time>2026-08-27T00:42:35Z</time></trkpt><trkpt lat="41.772482" lon="-124.099531"><ele>48.432</ele><time>2026-08-27T00:42:37Z</time></trkpt><trkpt lat="41.772483" lon="-124.099519"><ele>48.476</ele><time>2026-08-27T00:42:39Z</time></trkpt><trkpt lat="41.772493" lon="-124.09946"><ele>48.454</ele><time>2026-08-27T00:42:48Z</time></trkpt><trkpt lat="41.772473" lon="-124.099446"><ele>48.651</ele><time>2026-08-27T00:42:56Z</time></trkpt><trkpt lat="41.772471" lon="-124.0994"><ele>49.001</ele><time>2026-08-27T00:43:01Z</time></trkpt><trkpt lat="41.772485" lon="-124.099358"><ele>49.211</ele><time>2026-08-27T00:43:05Z</time></trkpt><trkpt lat="41.772496" lon="-124.099323"><ele>49.009</ele><time>2026-08-27T00:43:11Z</time></trkpt><trkpt lat="41.772496" lon="-124.099319"><ele>49.047</ele><time>2026-08-27T00:43:12Z</time></trkpt><trkpt lat="41.772508" lon="-124.099309"><ele>49.243</ele><time>2026-08-27T00:43:19Z</time></trkpt><trkpt lat="41.772527" lon="-124.099337"><ele>49.477</ele><time>2026-08-27T00:43:24Z</time></trkpt><trkpt lat="41.772581" lon="-124.099391"><ele>49.238</ele><time>2026-08-27T00:43:30Z</time></trkpt><trkpt lat="41.772606" lon="-124.09941"><ele>49.436</ele><time>2026-08-27T00:43:34Z</time></trkpt><trkpt lat="41.772655" lon="-124.099428"><ele>49.265</ele><time>2026-08-27T00:43:40Z</time></trkpt><trkpt lat="41.772733" lon="-124.099431"><ele>49.231</ele><time>2026-08-27T00:43:46Z</time></trkpt><trkpt lat="41.772753" lon="-124.09943"><ele>49.265</ele><time>2026-08-27T00:43:48Z</time></trkpt></trkseg></trk></gpx>