<?xml version="1.0" encoding="UTF-8"?><gpx creator="Wikiloc - http://www.wikiloc.com" version="1.1" xmlns="http://www.topografix.com/GPX/1/1" xmlns:xsi="http://www.w3.org/2001/XMLSchema-instance" xsi:schemaLocation="http://www.topografix.com/GPX/1/1 http://www.topografix.com/GPX/1/1/gpx.xsd"><trk><name><![CDATA[Saguaro National Park: Desert Discovery Nature Trail]]></name><cmt><![CDATA[Avra]]></cmt><desc><![CDATA[Avra]]></desc><trkseg><trkpt lat="32.262583" lon="-111.210498"><ele>740.013</ele><time>2026-09-20T17:42:42Z</time></trkpt><trkpt lat="32.262591" lon="-111.210497"><ele>739.843</ele><time>2026-09-20T17:42:47Z</time></trkpt><trkpt lat="32.262586" lon="-111.210543"><ele>739.807</ele><time>2026-09-20T17:42:52Z</time></trkpt><trkpt lat="32.262577" lon="-111.210559"><ele>739.809</ele><time>2026-09-20T17:42:54Z</time></trkpt><trkpt lat="32.262554" lon="-111.210624"><ele>740.213</ele><time>2026-09-20T17:43:01Z</time></trkpt><trkpt lat="32.262486" lon="-111.210675"><ele>739.439</ele><time>2026-09-20T17:43:09Z</time></trkpt><trkpt lat="32.26245" lon="-111.210671"><ele>739.427</ele><time>2026-09-20T17:43:13Z</time></trkpt><trkpt lat="32.262427" lon="-111.210692"><ele>739.050</ele><time>2026-09-20T17:43:16Z</time></trkpt><trkpt lat="32.262348" lon="-111.210724"><ele>739.099</ele><time>2026-09-20T17:43:24Z</time></trkpt><trkpt lat="32.262295" lon="-111.210759"><ele>738.623</ele><time>2026-09-20T17:43:31Z</time></trkpt><trkpt lat="32.262253" lon="-111.210794"><ele>738.017</ele><time>2026-09-20T17:43:37Z</time></trkpt><trkpt lat="32.262241" lon="-111.210798"><ele>737.883</ele><time>2026-09-20T17:43:38Z</time></trkpt><trkpt lat="32.262152" lon="-111.210799"><ele>738.273</ele><time>2026-09-20T17:43:46Z</time></trkpt><trkpt lat="32.262143" lon="-111.210798"><ele>738.486</ele><time>2026-09-20T17:43:47Z</time></trkpt><trkpt lat="32.262057" lon="-111.210792"><ele>738.060</ele><time>2026-09-20T17:43:55Z</time></trkpt><trkpt lat="32.262006" lon="-111.210778"><ele>737.626</ele><time>2026-09-20T17:44:03Z</time></trkpt><trkpt lat="32.261987" lon="-111.21081"><ele>737.209</ele><time>2026-09-20T17:44:08Z</time></trkpt><trkpt lat="32.261983" lon="-111.210817"><ele>737.230</ele><time>2026-09-20T17:44:09Z</time></trkpt><trkpt lat="32.261934" lon="-111.210891"><ele>736.866</ele><time>2026-09-20T17:44:16Z</time></trkpt><trkpt lat="32.26192" lon="-111.210919"><ele>736.824</ele><time>2026-09-20T17:44:19Z</time></trkpt><trkpt lat="32.261857" lon="-111.210996"><ele>736.847</ele><time>2026-09-20T17:44:27Z</time></trkpt><trkpt lat="32.261779" lon="-111.211039"><ele>736.426</ele><time>2026-09-20T17:44:35Z</time></trkpt><trkpt lat="32.261691" lon="-111.211089"><ele>736.020</ele><time>2026-09-20T17:44:46Z</time></trkpt><trkpt lat="32.261667" lon="-111.211163"><ele>735.814</ele><time>2026-09-20T17:44:53Z</time></trkpt><trkpt lat="32.261654" lon="-111.211196"><ele>735.430</ele><time>2026-09-20T17:44:56Z</time></trkpt><trkpt lat="32.261616" lon="-111.211238"><ele>735.220</ele><time>2026-09-20T17:45:03Z</time></trkpt><trkpt lat="32.261615" lon="-111.211242"><ele>735.224</ele><time>2026-09-20T17:45:06Z</time></trkpt><trkpt lat="32.261611" lon="-111.211248"><ele>735.204</ele><time>2026-09-20T17:45:07Z</time></trkpt><trkpt lat="32.26161" lon="-111.211254"><ele>735.214</ele><time>2026-09-20T17:45:08Z</time></trkpt><trkpt lat="32.2616" lon="-111.21128"><ele>735.009</ele><time>2026-09-20T17:45:11Z</time></trkpt><trkpt lat="32.261573" lon="-111.211355"><ele>735.034</ele><time>2026-09-20T17:45:18Z</time></trkpt><trkpt lat="32.261558" lon="-111.211369"><ele>734.840</ele><time>2026-09-20T17:45:20Z</time></trkpt><trkpt lat="32.261515" lon="-111.211408"><ele>734.638</ele><time>2026-09-20T17:45:25Z</time></trkpt><trkpt lat="32.261424" lon="-111.211478"><ele>734.471</ele><time>2026-09-20T17:45:35Z</time></trkpt><trkpt lat="32.261368" lon="-111.211446"><ele>734.220</ele><time>2026-09-20T17:45:42Z</time></trkpt><trkpt lat="32.261314" lon="-111.211397"><ele>734.234</ele><time>2026-09-20T17:45:51Z</time></trkpt><trkpt lat="32.261293" lon="-111.211406"><ele>734.438</ele><time>2026-09-20T17:45:56Z</time></trkpt><trkpt lat="32.261252" lon="-111.21148"><ele>734.264</ele><time>2026-09-20T17:46:03Z</time></trkpt><trkpt lat="32.261235" lon="-111.211538"><ele>733.824</ele><time>2026-09-20T17:46:08Z</time></trkpt><trkpt lat="32.261227" lon="-111.211576"><ele>733.661</ele><time>2026-09-20T17:46:11Z</time></trkpt><trkpt lat="32.261191" lon="-111.211704"><ele>732.821</ele><time>2026-09-20T17:46:22Z</time></trkpt><trkpt lat="32.261181" lon="-111.211778"><ele>732.613</ele><time>2026-09-20T17:46:28Z</time></trkpt><trkpt lat="32.261188" lon="-111.211802"><ele>732.609</ele><time>2026-09-20T17:46:30Z</time></trkpt><trkpt lat="32.261209" lon="-111.211902"><ele>732.678</ele><time>2026-09-20T17:46:39Z</time></trkpt><trkpt lat="32.261214" lon="-111.211933"><ele>732.484</ele><time>2026-09-20T17:46:45Z</time></trkpt><trkpt lat="32.261267" lon="-111.212026"><ele>732.282</ele><time>2026-09-20T17:46:54Z</time></trkpt><trkpt lat="32.261292" lon="-111.212016"><ele>732.455</ele><time>2026-09-20T17:46:57Z</time></trkpt><trkpt lat="32.261315" lon="-111.212012"><ele>732.454</ele><time>2026-09-20T17:47:00Z</time></trkpt><trkpt lat="32.261335" lon="-111.212009"><ele>732.438</ele><time>2026-09-20T17:47:02Z</time></trkpt><trkpt lat="32.261354" lon="-111.211975"><ele>732.462</ele><time>2026-09-20T17:47:06Z</time></trkpt><trkpt lat="32.261375" lon="-111.211955"><ele>732.648</ele><time>2026-09-20T17:47:11Z</time></trkpt><trkpt lat="32.261385" lon="-111.211955"><ele>732.628</ele><time>2026-09-20T17:47:12Z</time></trkpt><trkpt lat="32.261416" lon="-111.211949"><ele>732.475</ele><time>2026-09-20T17:47:16Z</time></trkpt><trkpt lat="32.261465" lon="-111.21195"><ele>732.628</ele><time>2026-09-20T17:47:21Z</time></trkpt><trkpt lat="32.261498" lon="-111.211949"><ele>732.420</ele><time>2026-09-20T17:47:24Z</time></trkpt><trkpt lat="32.261543" lon="-111.211953"><ele>732.209</ele><time>2026-09-20T17:47:32Z</time></trkpt><trkpt lat="32.261545" lon="-111.211957"><ele>732.229</ele><time>2026-09-20T17:47:36Z</time></trkpt><trkpt lat="32.261545" lon="-111.211957"><ele>732.215</ele><time>2026-09-20T17:47:38Z</time></trkpt><trkpt lat="32.261545" lon="-111.211957"><ele>732.493</ele><time>2026-09-20T17:47:43Z</time></trkpt><trkpt lat="32.261545" lon="-111.211957"><ele>732.416</ele><time>2026-09-20T17:47:44Z</time></trkpt><trkpt lat="32.261542" lon="-111.211956"><ele>732.435</ele><time>2026-09-20T17:47:51Z</time></trkpt><trkpt lat="32.261547" lon="-111.211954"><ele>732.639</ele><time>2026-09-20T17:47:54Z</time></trkpt><trkpt lat="32.261585" lon="-111.211939"><ele>732.873</ele><time>2026-09-20T17:47:59Z</time></trkpt><trkpt lat="32.261621" lon="-111.21194"><ele>732.899</ele><time>2026-09-20T17:48:02Z</time></trkpt><trkpt lat="32.261645" lon="-111.211946"><ele>732.859</ele><time>2026-09-20T17:48:04Z</time></trkpt><trkpt lat="32.26166" lon="-111.211947"><ele>733.053</ele><time>2026-09-20T17:48:06Z</time></trkpt><trkpt lat="32.261709" lon="-111.212"><ele>732.804</ele><time>2026-09-20T17:48:13Z</time></trkpt><trkpt lat="32.261709" lon="-111.212027"><ele>733.014</ele><time>2026-09-20T17:48:20Z</time></trkpt><trkpt lat="32.261721" lon="-111.212058"><ele>732.809</ele><time>2026-09-20T17:48:25Z</time></trkpt><trkpt lat="32.261757" lon="-111.212119"><ele>732.857</ele><time>2026-09-20T17:48:32Z</time></trkpt><trkpt lat="32.261807" lon="-111.21216"><ele>732.843</ele><time>2026-09-20T17:48:40Z</time></trkpt><trkpt lat="32.261848" lon="-111.212203"><ele>732.651</ele><time>2026-09-20T17:48:45Z</time></trkpt><trkpt lat="32.261937" lon="-111.212259"><ele>732.854</ele><time>2026-09-20T17:48:54Z</time></trkpt><trkpt lat="32.261982" lon="-111.21231"><ele>732.653</ele><time>2026-09-20T17:49:02Z</time></trkpt><trkpt lat="32.262008" lon="-111.212323"><ele>732.687</ele><time>2026-09-20T17:49:09Z</time></trkpt><trkpt lat="32.262073" lon="-111.212317"><ele>732.851</ele><time>2026-09-20T17:49:17Z</time></trkpt><trkpt lat="32.262097" lon="-111.212351"><ele>732.837</ele><time>2026-09-20T17:49:24Z</time></trkpt><trkpt lat="32.262099" lon="-111.212377"><ele>732.827</ele><time>2026-09-20T17:49:32Z</time></trkpt><trkpt lat="32.262181" lon="-111.212352"><ele>733.251</ele><time>2026-09-20T17:49:39Z</time></trkpt><trkpt lat="32.262227" lon="-111.212397"><ele>733.001</ele><time>2026-09-20T17:49:45Z</time></trkpt><trkpt lat="32.262292" lon="-111.212439"><ele>733.011</ele><time>2026-09-20T17:49:52Z</time></trkpt><trkpt lat="32.262304" lon="-111.212437"><ele>733.009</ele><time>2026-09-20T17:49:53Z</time></trkpt><trkpt lat="32.262354" lon="-111.212367"><ele>733.237</ele><time>2026-09-20T17:50:01Z</time></trkpt><trkpt lat="32.262391" lon="-111.212275"><ele>733.683</ele><time>2026-09-20T17:50:09Z</time></trkpt><trkpt lat="32.262394" lon="-111.212268"><ele>733.811</ele><time>2026-09-20T17:50:10Z</time></trkpt><trkpt lat="32.262411" lon="-111.212255"><ele>733.854</ele><time>2026-09-20T17:50:12Z</time></trkpt><trkpt lat="32.262429" lon="-111.212255"><ele>733.853</ele><time>2026-09-20T17:50:14Z</time></trkpt><trkpt lat="32.262469" lon="-111.212271"><ele>733.877</ele><time>2026-09-20T17:50:19Z</time></trkpt><trkpt lat="32.262478" lon="-111.212277"><ele>733.851</ele><time>2026-09-20T17:50:21Z</time></trkpt><trkpt lat="32.262483" lon="-111.212283"><ele>733.837</ele><time>2026-09-20T17:50:26Z</time></trkpt><trkpt lat="32.262484" lon="-111.212283"><ele>733.657</ele><time>2026-09-20T17:50:29Z</time></trkpt><trkpt lat="32.262499" lon="-111.212266"><ele>733.672</ele><time>2026-09-20T17:50:31Z</time></trkpt><trkpt lat="32.262499" lon="-111.212258"><ele>733.813</ele><time>2026-09-20T17:50:35Z</time></trkpt><trkpt lat="32.262499" lon="-111.212258"><ele>733.814</ele><time>2026-09-20T17:50:38Z</time></trkpt><trkpt lat="32.262518" lon="-111.212216"><ele>734.209</ele><time>2026-09-20T17:50:45Z</time></trkpt><trkpt lat="32.262502" lon="-111.21211"><ele>734.669</ele><time>2026-09-20T17:50:54Z</time></trkpt><trkpt lat="32.262475" lon="-111.212016"><ele>734.895</ele><time>2026-09-20T17:51:02Z</time></trkpt><trkpt lat="32.262477" lon="-111.212003"><ele>734.833</ele><time>2026-09-20T17:51:03Z</time></trkpt><trkpt lat="32.262493" lon="-111.21191"><ele>735.426</ele><time>2026-09-20T17:51:11Z</time></trkpt><trkpt lat="32.262501" lon="-111.211862"><ele>735.415</ele><time>2026-09-20T17:51:15Z</time></trkpt><trkpt lat="32.262512" lon="-111.211832"><ele>735.629</ele><time>2026-09-20T17:51:18Z</time></trkpt><trkpt lat="32.262508" lon="-111.211819"><ele>735.693</ele><time>2026-09-20T17:51:19Z</time></trkpt><trkpt lat="32.262508" lon="-111.21175"><ele>735.899</ele><time>2026-09-20T17:51:24Z</time></trkpt><trkpt lat="32.262512" lon="-111.211726"><ele>735.839</ele><time>2026-09-20T17:51:26Z</time></trkpt><trkpt lat="32.262527" lon="-111.211597"><ele>736.236</ele><time>2026-09-20T17:51:37Z</time></trkpt><trkpt lat="32.262547" lon="-111.211468"><ele>736.417</ele><time>2026-09-20T17:51:48Z</time></trkpt><trkpt lat="32.262581" lon="-111.211373"><ele>736.818</ele><time>2026-09-20T17:51:56Z</time></trkpt><trkpt lat="32.262592" lon="-111.211328"><ele>736.809</ele><time>2026-09-20T17:52:00Z</time></trkpt><trkpt lat="32.262603" lon="-111.211253"><ele>737.035</ele><time>2026-09-20T17:52:06Z</time></trkpt><trkpt lat="32.262653" lon="-111.211163"><ele>737.441</ele><time>2026-09-20T17:52:15Z</time></trkpt><trkpt lat="32.262666" lon="-111.21109"><ele>737.689</ele><time>2026-09-20T17:52:21Z</time></trkpt><trkpt lat="32.262676" lon="-111.211002"><ele>737.882</ele><time>2026-09-20T17:52:28Z</time></trkpt><trkpt lat="32.262676" lon="-111.210991"><ele>738.041</ele><time>2026-09-20T17:52:29Z</time></trkpt><trkpt lat="32.262675" lon="-111.210875"><ele>738.255</ele><time>2026-09-20T17:52:37Z</time></trkpt><trkpt lat="32.262627" lon="-111.210786"><ele>738.619</ele><time>2026-09-20T17:52:45Z</time></trkpt><trkpt lat="32.262548" lon="-111.210701"><ele>738.835</ele><time>2026-09-20T17:52:54Z</time></trkpt><trkpt lat="32.262557" lon="-111.21061"><ele>738.825</ele><time>2026-09-20T17:53:02Z</time></trkpt><trkpt lat="32.262567" lon="-111.210578"><ele>739.032</ele><time>2026-09-20T17:53:05Z</time></trkpt><trkpt lat="32.262569" lon="-111.210519"><ele>739.292</ele><time>2026-09-20T17:53:09Z</time></trkpt><trkpt lat="32.262556" lon="-111.210496"><ele>739.411</ele><time>2026-09-20T17:53:11Z</time></trkpt><trkpt lat="32.262538" lon="-111.210474"><ele>739.409</ele><time>2026-09-20T17:53:14Z</time></trkpt><trkpt lat="32.262515" lon="-111.210428"><ele>740.075</ele><time>2026-09-20T17:57:10Z</time></trkpt><trkpt lat="32.262514" lon="-111.210434"><ele>740.011</ele><time>2026-09-20T17:57:11Z</time></trkpt><trkpt lat="32.262512" lon="-111.210436"><ele>740.039</ele><time>2026-09-20T17:57:12Z</time></trkpt></trkseg></trk></gpx>