<?xml version="1.0" encoding="UTF-8"?><gpx creator="Wikiloc - http://www.wikiloc.com" version="1.1" xmlns="http://www.topografix.com/GPX/1/1" xmlns:xsi="http://www.w3.org/2001/XMLSchema-instance" xsi:schemaLocation="http://www.topografix.com/GPX/1/1 http://www.topografix.com/GPX/1/1/gpx.xsd"><wpt lat="47.551992" lon="-122.24712"><ele>6.6</ele><name><![CDATA[Foto]]></name><cmt><![CDATA[Foto]]></cmt><desc><![CDATA[]]></desc><type>36</type></wpt><wpt lat="47.562137" lon="-122.251787"><ele>6.2</ele><name><![CDATA[Foto]]></name><cmt><![CDATA[Foto]]></cmt><desc><![CDATA[]]></desc><type>36</type></wpt><wpt lat="47.553087" lon="-122.254602"><ele>9.0</ele><name><![CDATA[Foto]]></name><cmt><![CDATA[Foto]]></cmt><desc><![CDATA[]]></desc><type>36</type></wpt><trk><name><![CDATA[Seattle - Seward Park - Seattle]]></name><cmt><![CDATA[Seward Park]]></cmt><desc><![CDATA[Seward Park]]></desc><trkseg><trkpt lat="47.549626" lon="-122.251693"><ele>14.083</ele><time>2026-08-17T17:03:32Z</time></trkpt><trkpt lat="47.549572" lon="-122.251531"><ele>12.825</ele><time>2026-08-17T17:03:37Z</time></trkpt><trkpt lat="47.549564" lon="-122.251494"><ele>12.617</ele><time>2026-08-17T17:03:38Z</time></trkpt><trkpt lat="47.549527" lon="-122.251468"><ele>11.609</ele><time>2026-08-17T17:03:42Z</time></trkpt><trkpt lat="47.549525" lon="-122.251456"><ele>10.630</ele><time>2026-08-17T17:03:46Z</time></trkpt><trkpt lat="47.549483" lon="-122.251363"><ele>9.446</ele><time>2026-08-17T17:03:55Z</time></trkpt><trkpt lat="47.549463" lon="-122.251331"><ele>9.058</ele><time>2026-08-17T17:03:57Z</time></trkpt><trkpt lat="47.549417" lon="-122.251227"><ele>8.422</ele><time>2026-08-17T17:04:03Z</time></trkpt><trkpt lat="47.549415" lon="-122.251213"><ele>8.441</ele><time>2026-08-17T17:04:04Z</time></trkpt><trkpt lat="47.549412" lon="-122.251104"><ele>7.879</ele><time>2026-08-17T17:04:11Z</time></trkpt><trkpt lat="47.549407" lon="-122.251051"><ele>7.687</ele><time>2026-08-17T17:04:14Z</time></trkpt><trkpt lat="47.549403" lon="-122.251022"><ele>7.468</ele><time>2026-08-17T17:04:16Z</time></trkpt><trkpt lat="47.549391" lon="-122.250965"><ele>7.089</ele><time>2026-08-17T17:04:20Z</time></trkpt><trkpt lat="47.549393" lon="-122.250819"><ele>6.676</ele><time>2026-08-17T17:04:30Z</time></trkpt><trkpt lat="47.549427" lon="-122.250678"><ele>6.690</ele><time>2026-08-17T17:04:39Z</time></trkpt><trkpt lat="47.54948" lon="-122.250519"><ele>6.619</ele><time>2026-08-17T17:04:48Z</time></trkpt><trkpt lat="47.549511" lon="-122.250376"><ele>6.609</ele><time>2026-08-17T17:04:56Z</time></trkpt><trkpt lat="47.549563" lon="-122.25021"><ele>6.859</ele><time>2026-08-17T17:05:06Z</time></trkpt><trkpt lat="47.549602" lon="-122.250086"><ele>6.645</ele><time>2026-08-17T17:05:14Z</time></trkpt><trkpt lat="47.549659" lon="-122.249959"><ele>6.637</ele><time>2026-08-17T17:05:22Z</time></trkpt><trkpt lat="47.549726" lon="-122.249833"><ele>6.651</ele><time>2026-08-17T17:05:31Z</time></trkpt><trkpt lat="47.549776" lon="-122.24969"><ele>6.440</ele><time>2026-08-17T17:05:40Z</time></trkpt><trkpt lat="47.549831" lon="-122.249602"><ele>6.638</ele><time>2026-08-17T17:05:49Z</time></trkpt><trkpt lat="47.549891" lon="-122.249484"><ele>6.466</ele><time>2026-08-17T17:05:57Z</time></trkpt><trkpt lat="47.549917" lon="-122.249442"><ele>6.477</ele><time>2026-08-17T17:06:00Z</time></trkpt><trkpt lat="47.549945" lon="-122.249377"><ele>6.478</ele><time>2026-08-17T17:06:05Z</time></trkpt><trkpt lat="47.550001" lon="-122.249271"><ele>6.484</ele><time>2026-08-17T17:06:11Z</time></trkpt><trkpt lat="47.55008" lon="-122.249162"><ele>6.407</ele><time>2026-08-17T17:06:20Z</time></trkpt><trkpt lat="47.550155" lon="-122.249058"><ele>6.417</ele><time>2026-08-17T17:06:29Z</time></trkpt><trkpt lat="47.550252" lon="-122.248951"><ele>6.409</ele><time>2026-08-17T17:06:38Z</time></trkpt><trkpt lat="47.550326" lon="-122.248863"><ele>6.290</ele><time>2026-08-17T17:06:47Z</time></trkpt><trkpt lat="47.550408" lon="-122.248776"><ele>6.456</ele><time>2026-08-17T17:06:55Z</time></trkpt><trkpt lat="47.550478" lon="-122.248697"><ele>6.498</ele><time>2026-08-17T17:07:02Z</time></trkpt><trkpt lat="47.550563" lon="-122.248619"><ele>6.692</ele><time>2026-08-17T17:07:10Z</time></trkpt><trkpt lat="47.550651" lon="-122.248523"><ele>6.611</ele><time>2026-08-17T17:07:20Z</time></trkpt><trkpt lat="47.55076" lon="-122.248418"><ele>6.889</ele><time>2026-08-17T17:07:30Z</time></trkpt><trkpt lat="47.550852" lon="-122.24832"><ele>6.617</ele><time>2026-08-17T17:07:40Z</time></trkpt><trkpt lat="47.550933" lon="-122.248205"><ele>6.498</ele><time>2026-08-17T17:07:49Z</time></trkpt><trkpt lat="47.55103" lon="-122.248106"><ele>6.429</ele><time>2026-08-17T17:07:59Z</time></trkpt><trkpt lat="47.551104" lon="-122.248027"><ele>6.627</ele><time>2026-08-17T17:08:07Z</time></trkpt><trkpt lat="47.551197" lon="-122.247953"><ele>6.468</ele><time>2026-08-17T17:08:15Z</time></trkpt><trkpt lat="47.551285" lon="-122.247868"><ele>6.614</ele><time>2026-08-17T17:08:25Z</time></trkpt><trkpt lat="47.551366" lon="-122.24778"><ele>6.609</ele><time>2026-08-17T17:08:34Z</time></trkpt><trkpt lat="47.551448" lon="-122.247682"><ele>6.464</ele><time>2026-08-17T17:08:43Z</time></trkpt><trkpt lat="47.551549" lon="-122.247555"><ele>6.410</ele><time>2026-08-17T17:08:53Z</time></trkpt><trkpt lat="47.551629" lon="-122.247477"><ele>6.472</ele><time>2026-08-17T17:09:01Z</time></trkpt><trkpt lat="47.551717" lon="-122.247371"><ele>6.636</ele><time>2026-08-17T17:09:11Z</time></trkpt><trkpt lat="47.551834" lon="-122.247279"><ele>6.475</ele><time>2026-08-17T17:09:22Z</time></trkpt><trkpt lat="47.551942" lon="-122.247148"><ele>6.663</ele><time>2026-08-17T17:09:32Z</time></trkpt><trkpt lat="47.551992" lon="-122.24712"><ele>6.651</ele><time>2026-08-17T17:09:40Z</time></trkpt><trkpt lat="47.552083" lon="-122.24704"><ele>6.612</ele><time>2026-08-17T17:09:49Z</time></trkpt><trkpt lat="47.552147" lon="-122.247003"><ele>6.493</ele><time>2026-08-17T17:09:55Z</time></trkpt><trkpt lat="47.552154" lon="-122.247"><ele>6.246</ele><time>2026-08-17T17:09:56Z</time></trkpt><trkpt lat="47.552216" lon="-122.24698"><ele>6.488</ele><time>2026-08-17T17:10:02Z</time></trkpt><trkpt lat="47.552247" lon="-122.246968"><ele>6.616</ele><time>2026-08-17T17:10:05Z</time></trkpt><trkpt lat="47.552342" lon="-122.246899"><ele>6.409</ele><time>2026-08-17T17:10:14Z</time></trkpt><trkpt lat="47.552461" lon="-122.246835"><ele>6.476</ele><time>2026-08-17T17:10:24Z</time></trkpt><trkpt lat="47.55261" lon="-122.246766"><ele>6.492</ele><time>2026-08-17T17:10:36Z</time></trkpt><trkpt lat="47.552649" lon="-122.246728"><ele>6.434</ele><time>2026-08-17T17:10:40Z</time></trkpt><trkpt lat="47.55266" lon="-122.246717"><ele>6.428</ele><time>2026-08-17T17:10:41Z</time></trkpt><trkpt lat="47.55267" lon="-122.246708"><ele>6.497</ele><time>2026-08-17T17:10:42Z</time></trkpt><trkpt lat="47.552681" lon="-122.2467"><ele>6.435</ele><time>2026-08-17T17:10:43Z</time></trkpt><trkpt lat="47.552696" lon="-122.246691"><ele>6.433</ele><time>2026-08-17T17:10:45Z</time></trkpt><trkpt lat="47.552779" lon="-122.246672"><ele>6.414</ele><time>2026-08-17T17:10:52Z</time></trkpt><trkpt lat="47.552852" lon="-122.246652"><ele>6.495</ele><time>2026-08-17T17:10:58Z</time></trkpt><trkpt lat="47.552962" lon="-122.246634"><ele>6.492</ele><time>2026-08-17T17:11:06Z</time></trkpt><trkpt lat="47.553092" lon="-122.246655"><ele>6.673</ele><time>2026-08-17T17:11:17Z</time></trkpt><trkpt lat="47.55318" lon="-122.246615"><ele>6.620</ele><time>2026-08-17T17:11:24Z</time></trkpt><trkpt lat="47.553219" lon="-122.246606"><ele>6.409</ele><time>2026-08-17T17:11:27Z</time></trkpt><trkpt lat="47.55336" lon="-122.246581"><ele>6.631</ele><time>2026-08-17T17:11:38Z</time></trkpt><trkpt lat="47.553477" lon="-122.246542"><ele>6.877</ele><time>2026-08-17T17:11:48Z</time></trkpt><trkpt lat="47.553563" lon="-122.246538"><ele>6.839</ele><time>2026-08-17T17:11:56Z</time></trkpt><trkpt lat="47.553657" lon="-122.246511"><ele>7.013</ele><time>2026-08-17T17:12:04Z</time></trkpt><trkpt lat="47.553793" lon="-122.246538"><ele>7.072</ele><time>2026-08-17T17:12:15Z</time></trkpt><trkpt lat="47.553897" lon="-122.246623"><ele>6.870</ele><time>2026-08-17T17:12:25Z</time></trkpt><trkpt lat="47.554024" lon="-122.246747"><ele>6.648</ele><time>2026-08-17T17:12:36Z</time></trkpt><trkpt lat="47.554146" lon="-122.246787"><ele>6.699</ele><time>2026-08-17T17:12:45Z</time></trkpt><trkpt lat="47.554237" lon="-122.246824"><ele>6.890</ele><time>2026-08-17T17:12:54Z</time></trkpt><trkpt lat="47.55433" lon="-122.246826"><ele>7.068</ele><time>2026-08-17T17:13:02Z</time></trkpt><trkpt lat="47.554426" lon="-122.246827"><ele>7.042</ele><time>2026-08-17T17:13:10Z</time></trkpt><trkpt lat="47.554524" lon="-122.246862"><ele>6.826</ele><time>2026-08-17T17:13:19Z</time></trkpt><trkpt lat="47.5546" lon="-122.246894"><ele>6.809</ele><time>2026-08-17T17:13:25Z</time></trkpt><trkpt lat="47.55463" lon="-122.246921"><ele>6.848</ele><time>2026-08-17T17:13:28Z</time></trkpt><trkpt lat="47.554723" lon="-122.247017"><ele>6.854</ele><time>2026-08-17T17:13:37Z</time></trkpt><trkpt lat="47.554823" lon="-122.247132"><ele>7.056</ele><time>2026-08-17T17:13:47Z</time></trkpt><trkpt lat="47.5549" lon="-122.247187"><ele>6.840</ele><time>2026-08-17T17:13:55Z</time></trkpt><trkpt lat="47.554984" lon="-122.247212"><ele>7.079</ele><time>2026-08-17T17:14:02Z</time></trkpt><trkpt lat="47.555122" lon="-122.247218"><ele>7.227</ele><time>2026-08-17T17:14:13Z</time></trkpt><trkpt lat="47.555233" lon="-122.247196"><ele>7.265</ele><time>2026-08-17T17:14:23Z</time></trkpt><trkpt lat="47.555337" lon="-122.247233"><ele>7.426</ele><time>2026-08-17T17:14:31Z</time></trkpt><trkpt lat="47.555448" lon="-122.247228"><ele>7.477</ele><time>2026-08-17T17:14:39Z</time></trkpt><trkpt lat="47.555529" lon="-122.247236"><ele>7.698</ele><time>2026-08-17T17:14:46Z</time></trkpt><trkpt lat="47.55554" lon="-122.247243"><ele>7.615</ele><time>2026-08-17T17:14:47Z</time></trkpt><trkpt lat="47.555627" lon="-122.247313"><ele>8.026</ele><time>2026-08-17T17:14:55Z</time></trkpt><trkpt lat="47.555705" lon="-122.247398"><ele>8.009</ele><time>2026-08-17T17:15:03Z</time></trkpt><trkpt lat="47.555797" lon="-122.2475"><ele>8.211</ele><time>2026-08-17T17:15:12Z</time></trkpt><trkpt lat="47.555892" lon="-122.247595"><ele>8.257</ele><time>2026-08-17T17:15:21Z</time></trkpt><trkpt lat="47.555925" lon="-122.247626"><ele>8.279</ele><time>2026-08-17T17:15:25Z</time></trkpt><trkpt lat="47.555974" lon="-122.247669"><ele>8.243</ele><time>2026-08-17T17:15:29Z</time></trkpt><trkpt lat="47.556086" lon="-122.24777"><ele>8.432</ele><time>2026-08-17T17:15:40Z</time></trkpt><trkpt lat="47.556181" lon="-122.247824"><ele>8.280</ele><time>2026-08-17T17:15:49Z</time></trkpt><trkpt lat="47.556282" lon="-122.247872"><ele>8.058</ele><time>2026-08-17T17:15:58Z</time></trkpt><trkpt lat="47.556403" lon="-122.247931"><ele>7.899</ele><time>2026-08-17T17:16:09Z</time></trkpt><trkpt lat="47.556518" lon="-122.247954"><ele>8.040</ele><time>2026-08-17T17:16:19Z</time></trkpt><trkpt lat="47.556637" lon="-122.247956"><ele>7.813</ele><time>2026-08-17T17:16:28Z</time></trkpt><trkpt lat="47.556742" lon="-122.247937"><ele>7.643</ele><time>2026-08-17T17:16:37Z</time></trkpt><trkpt lat="47.556831" lon="-122.247931"><ele>7.407</ele><time>2026-08-17T17:16:45Z</time></trkpt><trkpt lat="47.556941" lon="-122.247925"><ele>7.409</ele><time>2026-08-17T17:16:54Z</time></trkpt><trkpt lat="47.557056" lon="-122.247911"><ele>7.493</ele><time>2026-08-17T17:17:03Z</time></trkpt><trkpt lat="47.557177" lon="-122.247894"><ele>7.689</ele><time>2026-08-17T17:17:12Z</time></trkpt><trkpt lat="47.557294" lon="-122.247869"><ele>7.651</ele><time>2026-08-17T17:17:22Z</time></trkpt><trkpt lat="47.557403" lon="-122.247841"><ele>7.265</ele><time>2026-08-17T17:17:31Z</time></trkpt><trkpt lat="47.557521" lon="-122.247845"><ele>7.224</ele><time>2026-08-17T17:17:39Z</time></trkpt><trkpt lat="47.557608" lon="-122.247843"><ele>7.222</ele><time>2026-08-17T17:17:46Z</time></trkpt><trkpt lat="47.557707" lon="-122.247829"><ele>7.050</ele><time>2026-08-17T17:17:54Z</time></trkpt><trkpt lat="47.557791" lon="-122.247837"><ele>7.491</ele><time>2026-08-17T17:18:02Z</time></trkpt><trkpt lat="47.557932" lon="-122.247837"><ele>7.232</ele><time>2026-08-17T17:18:12Z</time></trkpt><trkpt lat="47.55806" lon="-122.247867"><ele>7.229</ele><time>2026-08-17T17:18:23Z</time></trkpt><trkpt lat="47.558169" lon="-122.247904"><ele>7.000</ele><time>2026-08-17T17:18:32Z</time></trkpt><trkpt lat="47.558292" lon="-122.247953"><ele>7.020</ele><time>2026-08-17T17:18:42Z</time></trkpt><trkpt lat="47.558409" lon="-122.247981"><ele>6.809</ele><time>2026-08-17T17:18:51Z</time></trkpt><trkpt lat="47.558516" lon="-122.248054"><ele>6.824</ele><time>2026-08-17T17:19:01Z</time></trkpt><trkpt lat="47.558595" lon="-122.248112"><ele>6.820</ele><time>2026-08-17T17:19:08Z</time></trkpt><trkpt lat="47.558635" lon="-122.248153"><ele>6.642</ele><time>2026-08-17T17:19:12Z</time></trkpt><trkpt lat="47.558748" lon="-122.248246"><ele>6.636</ele><time>2026-08-17T17:19:21Z</time></trkpt><trkpt lat="47.558845" lon="-122.248298"><ele>6.695</ele><time>2026-08-17T17:19:30Z</time></trkpt><trkpt lat="47.558956" lon="-122.248361"><ele>6.613</ele><time>2026-08-17T17:19:40Z</time></trkpt><trkpt lat="47.559051" lon="-122.248437"><ele>6.681</ele><time>2026-08-17T17:19:49Z</time></trkpt><trkpt lat="47.559187" lon="-122.248515"><ele>6.692</ele><time>2026-08-17T17:20:00Z</time></trkpt><trkpt lat="47.559284" lon="-122.248606"><ele>6.663</ele><time>2026-08-17T17:20:09Z</time></trkpt><trkpt lat="47.559411" lon="-122.248708"><ele>6.867</ele><time>2026-08-17T17:20:19Z</time></trkpt><trkpt lat="47.559528" lon="-122.248789"><ele>6.881</ele><time>2026-08-17T17:20:29Z</time></trkpt><trkpt lat="47.559615" lon="-122.248882"><ele>7.019</ele><time>2026-08-17T17:20:39Z</time></trkpt><trkpt lat="47.559706" lon="-122.248997"><ele>6.809</ele><time>2026-08-17T17:20:49Z</time></trkpt><trkpt lat="47.559716" lon="-122.249006"><ele>6.858</ele><time>2026-08-17T17:20:50Z</time></trkpt><trkpt lat="47.559768" lon="-122.249073"><ele>6.874</ele><time>2026-08-17T17:20:55Z</time></trkpt><trkpt lat="47.559802" lon="-122.249117"><ele>7.046</ele><time>2026-08-17T17:21:00Z</time></trkpt><trkpt lat="47.559899" lon="-122.249187"><ele>7.080</ele><time>2026-08-17T17:21:08Z</time></trkpt><trkpt lat="47.559984" lon="-122.249288"><ele>7.269</ele><time>2026-08-17T17:21:17Z</time></trkpt><trkpt lat="47.56003" lon="-122.24933"><ele>7.297</ele><time>2026-08-17T17:21:22Z</time></trkpt><trkpt lat="47.560101" lon="-122.249367"><ele>7.065</ele><time>2026-08-17T17:21:27Z</time></trkpt><trkpt lat="47.560213" lon="-122.249444"><ele>6.676</ele><time>2026-08-17T17:21:37Z</time></trkpt><trkpt lat="47.560356" lon="-122.249565"><ele>7.097</ele><time>2026-08-17T17:21:49Z</time></trkpt><trkpt lat="47.560478" lon="-122.249661"><ele>7.026</ele><time>2026-08-17T17:22:01Z</time></trkpt><trkpt lat="47.560589" lon="-122.249729"><ele>7.047</ele><time>2026-08-17T17:22:10Z</time></trkpt><trkpt lat="47.56069" lon="-122.24979"><ele>7.011</ele><time>2026-08-17T17:22:18Z</time></trkpt><trkpt lat="47.560708" lon="-122.249805"><ele>7.009</ele><time>2026-08-17T17:22:20Z</time></trkpt><trkpt lat="47.560829" lon="-122.249883"><ele>7.214</ele><time>2026-08-17T17:22:31Z</time></trkpt><trkpt lat="47.560946" lon="-122.249964"><ele>7.040</ele><time>2026-08-17T17:22:42Z</time></trkpt><trkpt lat="47.561067" lon="-122.250064"><ele>7.282</ele><time>2026-08-17T17:22:52Z</time></trkpt><trkpt lat="47.561168" lon="-122.250137"><ele>7.086</ele><time>2026-08-17T17:23:01Z</time></trkpt><trkpt lat="47.561231" lon="-122.250186"><ele>7.275</ele><time>2026-08-17T17:23:06Z</time></trkpt><trkpt lat="47.561243" lon="-122.250193"><ele>7.213</ele><time>2026-08-17T17:23:07Z</time></trkpt><trkpt lat="47.561286" lon="-122.250219"><ele>7.261</ele><time>2026-08-17T17:23:10Z</time></trkpt><trkpt lat="47.561386" lon="-122.250257"><ele>7.062</ele><time>2026-08-17T17:23:20Z</time></trkpt><trkpt lat="47.561487" lon="-122.250308"><ele>7.073</ele><time>2026-08-17T17:23:28Z</time></trkpt><trkpt lat="47.561571" lon="-122.250336"><ele>7.036</ele><time>2026-08-17T17:23:36Z</time></trkpt><trkpt lat="47.56166" lon="-122.250365"><ele>7.217</ele><time>2026-08-17T17:23:44Z</time></trkpt><trkpt lat="47.561761" lon="-122.250443"><ele>7.218</ele><time>2026-08-17T17:23:54Z</time></trkpt><trkpt lat="47.56182" lon="-122.25052"><ele>7.209</ele><time>2026-08-17T17:24:01Z</time></trkpt><trkpt lat="47.561882" lon="-122.250582"><ele>7.065</ele><time>2026-08-17T17:24:08Z</time></trkpt><trkpt lat="47.561966" lon="-122.250686"><ele>7.031</ele><time>2026-08-17T17:24:17Z</time></trkpt><trkpt lat="47.562035" lon="-122.250827"><ele>7.043</ele><time>2026-08-17T17:24:27Z</time></trkpt><trkpt lat="47.562088" lon="-122.250966"><ele>6.877</ele><time>2026-08-17T17:24:37Z</time></trkpt><trkpt lat="47.562114" lon="-122.251064"><ele>6.826</ele><time>2026-08-17T17:24:44Z</time></trkpt><trkpt lat="47.56214" lon="-122.251203"><ele>6.684</ele><time>2026-08-17T17:24:52Z</time></trkpt><trkpt lat="47.562156" lon="-122.251315"><ele>6.442</ele><time>2026-08-17T17:24:59Z</time></trkpt><trkpt lat="47.562159" lon="-122.251338"><ele>6.213</ele><time>2026-08-17T17:25:01Z</time></trkpt><trkpt lat="47.56217" lon="-122.251467"><ele>6.294</ele><time>2026-08-17T17:25:09Z</time></trkpt><trkpt lat="47.562171" lon="-122.251616"><ele>6.294</ele><time>2026-08-17T17:25:17Z</time></trkpt><trkpt lat="47.562161" lon="-122.251737"><ele>6.257</ele><time>2026-08-17T17:25:25Z</time></trkpt><trkpt lat="47.562137" lon="-122.251787"><ele>6.222</ele><time>2026-08-17T17:25:33Z</time></trkpt><trkpt lat="47.562111" lon="-122.251853"><ele>6.409</ele><time>2026-08-17T17:25:39Z</time></trkpt><trkpt lat="47.562071" lon="-122.251995"><ele>6.671</ele><time>2026-08-17T17:25:47Z</time></trkpt><trkpt lat="47.562015" lon="-122.252105"><ele>6.847</ele><time>2026-08-17T17:25:57Z</time></trkpt><trkpt lat="47.561968" lon="-122.252227"><ele>7.089</ele><time>2026-08-17T17:26:05Z</time></trkpt><trkpt lat="47.561953" lon="-122.252286"><ele>7.293</ele><time>2026-08-17T17:26:09Z</time></trkpt><trkpt lat="47.561949" lon="-122.252304"><ele>7.212</ele><time>2026-08-17T17:26:10Z</time></trkpt><trkpt lat="47.56195" lon="-122.25236"><ele>7.230</ele><time>2026-08-17T17:26:13Z</time></trkpt><trkpt lat="47.56195" lon="-122.252381"><ele>7.258</ele><time>2026-08-17T17:26:14Z</time></trkpt><trkpt lat="47.561935" lon="-122.252526"><ele>7.229</ele><time>2026-08-17T17:26:22Z</time></trkpt><trkpt lat="47.561911" lon="-122.252697"><ele>7.250</ele><time>2026-08-17T17:26:31Z</time></trkpt><trkpt lat="47.561881" lon="-122.252827"><ele>7.271</ele><time>2026-08-17T17:26:39Z</time></trkpt><trkpt lat="47.561841" lon="-122.252994"><ele>7.041</ele><time>2026-08-17T17:26:48Z</time></trkpt><trkpt lat="47.561786" lon="-122.253095"><ele>6.815</ele><time>2026-08-17T17:26:57Z</time></trkpt><trkpt lat="47.561718" lon="-122.253211"><ele>6.809</ele><time>2026-08-17T17:27:06Z</time></trkpt><trkpt lat="47.561625" lon="-122.253294"><ele>7.489</ele><time>2026-08-17T17:27:16Z</time></trkpt><trkpt lat="47.561609" lon="-122.25331"><ele>7.865</ele><time>2026-08-17T17:27:18Z</time></trkpt><trkpt lat="47.561554" lon="-122.253334"><ele>8.867</ele><time>2026-08-17T17:27:23Z</time></trkpt><trkpt lat="47.561542" lon="-122.253336"><ele>9.011</ele><time>2026-08-17T17:27:24Z</time></trkpt><trkpt lat="47.561507" lon="-122.253355"><ele>9.680</ele><time>2026-08-17T17:27:28Z</time></trkpt><trkpt lat="47.561491" lon="-122.253372"><ele>9.868</ele><time>2026-08-17T17:27:30Z</time></trkpt><trkpt lat="47.561477" lon="-122.253395"><ele>10.076</ele><time>2026-08-17T17:27:32Z</time></trkpt><trkpt lat="47.561448" lon="-122.253537"><ele>10.677</ele><time>2026-08-17T17:27:40Z</time></trkpt><trkpt lat="47.561444" lon="-122.25358"><ele>10.838</ele><time>2026-08-17T17:27:44Z</time></trkpt><trkpt lat="47.561455" lon="-122.253588"><ele>10.852</ele><time>2026-08-17T17:27:45Z</time></trkpt><trkpt lat="47.561465" lon="-122.253592"><ele>10.653</ele><time>2026-08-17T17:27:47Z</time></trkpt><trkpt lat="47.561484" lon="-122.253635"><ele>10.008</ele><time>2026-08-17T17:27:53Z</time></trkpt><trkpt lat="47.561489" lon="-122.253644"><ele>9.809</ele><time>2026-08-17T17:27:54Z</time></trkpt><trkpt lat="47.56149" lon="-122.253699"><ele>10.087</ele><time>2026-08-17T17:28:02Z</time></trkpt><trkpt lat="47.561506" lon="-122.253732"><ele>9.813</ele><time>2026-08-17T17:28:11Z</time></trkpt><trkpt lat="47.561535" lon="-122.253726"><ele>9.275</ele><time>2026-08-17T17:28:19Z</time></trkpt><trkpt lat="47.561513" lon="-122.253638"><ele>9.679</ele><time>2026-08-17T17:28:28Z</time></trkpt><trkpt lat="47.561505" lon="-122.253652"><ele>9.888</ele><time>2026-08-17T17:28:37Z</time></trkpt><trkpt lat="47.561507" lon="-122.253662"><ele>9.626</ele><time>2026-08-17T17:28:39Z</time></trkpt><trkpt lat="47.561518" lon="-122.25365"><ele>9.864</ele><time>2026-08-17T17:28:49Z</time></trkpt><trkpt lat="47.561534" lon="-122.253649"><ele>9.635</ele><time>2026-08-17T17:28:58Z</time></trkpt><trkpt lat="47.561517" lon="-122.253654"><ele>9.896</ele><time>2026-08-17T17:29:03Z</time></trkpt><trkpt lat="47.561503" lon="-122.253644"><ele>9.682</ele><time>2026-08-17T17:29:10Z</time></trkpt><trkpt lat="47.561515" lon="-122.2536"><ele>9.643</ele><time>2026-08-17T17:29:20Z</time></trkpt><trkpt lat="47.56151" lon="-122.253585"><ele>9.417</ele><time>2026-08-17T17:29:24Z</time></trkpt><trkpt lat="47.561523" lon="-122.253606"><ele>9.409</ele><time>2026-08-17T17:29:30Z</time></trkpt><trkpt lat="47.56155" lon="-122.253629"><ele>9.660</ele><time>2026-08-17T17:29:38Z</time></trkpt><trkpt lat="47.561506" lon="-122.253656"><ele>10.626</ele><time>2026-08-17T17:36:27Z</time></trkpt><trkpt lat="47.561507" lon="-122.253648"><ele>10.878</ele><time>2026-08-17T17:36:28Z</time></trkpt><trkpt lat="47.561511" lon="-122.253627"><ele>10.822</ele><time>2026-08-17T17:36:30Z</time></trkpt><trkpt lat="47.561504" lon="-122.253609"><ele>11.071</ele><time>2026-08-17T17:36:35Z</time></trkpt><trkpt lat="47.561487" lon="-122.253574"><ele>10.819</ele><time>2026-08-17T17:36:43Z</time></trkpt><trkpt lat="47.561484" lon="-122.253456"><ele>11.617</ele><time>2026-08-17T17:36:53Z</time></trkpt><trkpt lat="47.561496" lon="-122.253427"><ele>11.668</ele><time>2026-08-17T17:37:00Z</time></trkpt><trkpt lat="47.561526" lon="-122.253389"><ele>11.419</ele><time>2026-08-17T17:37:07Z</time></trkpt><trkpt lat="47.561572" lon="-122.25337"><ele>10.463</ele><time>2026-08-17T17:37:14Z</time></trkpt><trkpt lat="47.561594" lon="-122.25337"><ele>9.844</ele><time>2026-08-17T17:37:20Z</time></trkpt><trkpt lat="47.561607" lon="-122.253347"><ele>9.618</ele><time>2026-08-17T17:37:24Z</time></trkpt><trkpt lat="47.561653" lon="-122.253299"><ele>8.809</ele><time>2026-08-17T17:37:30Z</time></trkpt><trkpt lat="47.56167" lon="-122.253299"><ele>8.448</ele><time>2026-08-17T17:37:33Z</time></trkpt><trkpt lat="47.561714" lon="-122.253335"><ele>8.284</ele><time>2026-08-17T17:37:39Z</time></trkpt><trkpt lat="47.561754" lon="-122.253395"><ele>8.096</ele><time>2026-08-17T17:37:47Z</time></trkpt><trkpt lat="47.561766" lon="-122.253481"><ele>8.090</ele><time>2026-08-17T17:37:55Z</time></trkpt><trkpt lat="47.561763" lon="-122.253548"><ele>8.059</ele><time>2026-08-17T17:38:02Z</time></trkpt><trkpt lat="47.561764" lon="-122.253548"><ele>8.097</ele><time>2026-08-17T17:38:03Z</time></trkpt><trkpt lat="47.56176" lon="-122.253589"><ele>8.035</ele><time>2026-08-17T17:38:09Z</time></trkpt><trkpt lat="47.561755" lon="-122.253645"><ele>7.826</ele><time>2026-08-17T17:38:16Z</time></trkpt><trkpt lat="47.561754" lon="-122.253644"><ele>7.617</ele><time>2026-08-17T17:38:17Z</time></trkpt><trkpt lat="47.561752" lon="-122.253641"><ele>7.483</ele><time>2026-08-17T17:38:26Z</time></trkpt><trkpt lat="47.561752" lon="-122.253641"><ele>7.425</ele><time>2026-08-17T17:38:27Z</time></trkpt><trkpt lat="47.561752" lon="-122.253641"><ele>7.417</ele><time>2026-08-17T17:38:30Z</time></trkpt><trkpt lat="47.561756" lon="-122.253653"><ele>7.409</ele><time>2026-08-17T17:38:34Z</time></trkpt><trkpt lat="47.561748" lon="-122.253683"><ele>7.470</ele><time>2026-08-17T17:38:40Z</time></trkpt><trkpt lat="47.561761" lon="-122.253676"><ele>7.456</ele><time>2026-08-17T17:38:46Z</time></trkpt><trkpt lat="47.561764" lon="-122.253658"><ele>7.488</ele><time>2026-08-17T17:39:02Z</time></trkpt><trkpt lat="47.561756" lon="-122.253662"><ele>7.622</ele><time>2026-08-17T17:39:07Z</time></trkpt><trkpt lat="47.561749" lon="-122.253689"><ele>7.841</ele><time>2026-08-17T17:39:09Z</time></trkpt><trkpt lat="47.561725" lon="-122.253833"><ele>7.879</ele><time>2026-08-17T17:39:17Z</time></trkpt><trkpt lat="47.561711" lon="-122.253988"><ele>8.077</ele><time>2026-08-17T17:39:25Z</time></trkpt><trkpt lat="47.561681" lon="-122.254174"><ele>8.298</ele><time>2026-08-17T17:39:34Z</time></trkpt><trkpt lat="47.561662" lon="-122.254295"><ele>8.469</ele><time>2026-08-17T17:39:40Z</time></trkpt><trkpt lat="47.561637" lon="-122.254411"><ele>8.429</ele><time>2026-08-17T17:39:47Z</time></trkpt><trkpt lat="47.561594" lon="-122.254542"><ele>8.200</ele><time>2026-08-17T17:39:54Z</time></trkpt><trkpt lat="47.561552" lon="-122.254702"><ele>8.420</ele><time>2026-08-17T17:40:03Z</time></trkpt><trkpt lat="47.56152" lon="-122.254766"><ele>8.209</ele><time>2026-08-17T17:40:07Z</time></trkpt><trkpt lat="47.561476" lon="-122.254836"><ele>8.444</ele><time>2026-08-17T17:40:12Z</time></trkpt><trkpt lat="47.561394" lon="-122.255011"><ele>8.290</ele><time>2026-08-17T17:40:22Z</time></trkpt><trkpt lat="47.561301" lon="-122.255125"><ele>8.232</ele><time>2026-08-17T17:40:31Z</time></trkpt><trkpt lat="47.561217" lon="-122.255163"><ele>8.226</ele><time>2026-08-17T17:40:38Z</time></trkpt><trkpt lat="47.561072" lon="-122.255202"><ele>8.295</ele><time>2026-08-17T17:40:49Z</time></trkpt><trkpt lat="47.560969" lon="-122.255212"><ele>8.053</ele><time>2026-08-17T17:40:56Z</time></trkpt><trkpt lat="47.560957" lon="-122.255213"><ele>8.041</ele><time>2026-08-17T17:40:57Z</time></trkpt><trkpt lat="47.560827" lon="-122.255231"><ele>8.052</ele><time>2026-08-17T17:41:07Z</time></trkpt><trkpt lat="47.560744" lon="-122.25525"><ele>7.833</ele><time>2026-08-17T17:41:13Z</time></trkpt><trkpt lat="47.560706" lon="-122.255247"><ele>7.815</ele><time>2026-08-17T17:41:16Z</time></trkpt><trkpt lat="47.560603" lon="-122.255254"><ele>7.865</ele><time>2026-08-17T17:41:23Z</time></trkpt><trkpt lat="47.560575" lon="-122.255256"><ele>7.811</ele><time>2026-08-17T17:41:25Z</time></trkpt><trkpt lat="47.560474" lon="-122.255273"><ele>7.809</ele><time>2026-08-17T17:41:32Z</time></trkpt><trkpt lat="47.560336" lon="-122.255319"><ele>7.823</ele><time>2026-08-17T17:41:43Z</time></trkpt><trkpt lat="47.560217" lon="-122.25536"><ele>7.869</ele><time>2026-08-17T17:41:52Z</time></trkpt><trkpt lat="47.560078" lon="-122.255399"><ele>7.841</ele><time>2026-08-17T17:42:03Z</time></trkpt><trkpt lat="47.56002" lon="-122.2554"><ele>8.085</ele><time>2026-08-17T17:42:07Z</time></trkpt><trkpt lat="47.559989" lon="-122.255401"><ele>8.044</ele><time>2026-08-17T17:42:09Z</time></trkpt><trkpt lat="47.559937" lon="-122.255399"><ele>8.032</ele><time>2026-08-17T17:42:16Z</time></trkpt><trkpt lat="47.559922" lon="-122.255379"><ele>8.090</ele><time>2026-08-17T17:42:23Z</time></trkpt><trkpt lat="47.559836" lon="-122.255381"><ele>8.071</ele><time>2026-08-17T17:42:29Z</time></trkpt><trkpt lat="47.559807" lon="-122.255372"><ele>8.032</ele><time>2026-08-17T17:42:31Z</time></trkpt><trkpt lat="47.559698" lon="-122.255397"><ele>8.096</ele><time>2026-08-17T17:42:40Z</time></trkpt><trkpt lat="47.559695" lon="-122.255416"><ele>8.031</ele><time>2026-08-17T17:42:41Z</time></trkpt><trkpt lat="47.559703" lon="-122.255425"><ele>7.824</ele><time>2026-08-17T17:42:43Z</time></trkpt><trkpt lat="47.559714" lon="-122.255438"><ele>7.809</ele><time>2026-08-17T17:42:45Z</time></trkpt><trkpt lat="47.559713" lon="-122.255403"><ele>7.891</ele><time>2026-08-17T17:42:50Z</time></trkpt><trkpt lat="47.55971" lon="-122.255356"><ele>7.857</ele><time>2026-08-17T17:42:54Z</time></trkpt><trkpt lat="47.559724" lon="-122.255304"><ele>7.849</ele><time>2026-08-17T17:43:02Z</time></trkpt><trkpt lat="47.559736" lon="-122.25537"><ele>7.823</ele><time>2026-08-17T17:43:11Z</time></trkpt><trkpt lat="47.559729" lon="-122.255366"><ele>7.842</ele><time>2026-08-17T17:43:20Z</time></trkpt><trkpt lat="47.559724" lon="-122.255358"><ele>7.620</ele><time>2026-08-17T17:43:25Z</time></trkpt><trkpt lat="47.559717" lon="-122.255397"><ele>7.898</ele><time>2026-08-17T17:43:30Z</time></trkpt><trkpt lat="47.559718" lon="-122.255388"><ele>7.879</ele><time>2026-08-17T17:43:38Z</time></trkpt><trkpt lat="47.55967" lon="-122.255313"><ele>7.830</ele><time>2026-08-17T17:43:46Z</time></trkpt><trkpt lat="47.559658" lon="-122.255305"><ele>7.841</ele><time>2026-08-17T17:43:47Z</time></trkpt><trkpt lat="47.559553" lon="-122.255274"><ele>7.681</ele><time>2026-08-17T17:43:55Z</time></trkpt><trkpt lat="47.559435" lon="-122.255261"><ele>7.609</ele><time>2026-08-17T17:44:04Z</time></trkpt><trkpt lat="47.559326" lon="-122.255239"><ele>7.609</ele><time>2026-08-17T17:44:12Z</time></trkpt><trkpt lat="47.559186" lon="-122.255231"><ele>7.436</ele><time>2026-08-17T17:44:22Z</time></trkpt><trkpt lat="47.559077" lon="-122.2552"><ele>7.452</ele><time>2026-08-17T17:44:31Z</time></trkpt><trkpt lat="47.558953" lon="-122.255177"><ele>7.454</ele><time>2026-08-17T17:44:39Z</time></trkpt><trkpt lat="47.558862" lon="-122.255135"><ele>7.658</ele><time>2026-08-17T17:44:47Z</time></trkpt><trkpt lat="47.558762" lon="-122.255111"><ele>7.677</ele><time>2026-08-17T17:44:55Z</time></trkpt><trkpt lat="47.558654" lon="-122.25508"><ele>7.655</ele><time>2026-08-17T17:45:03Z</time></trkpt><trkpt lat="47.558534" lon="-122.25506"><ele>7.413</ele><time>2026-08-17T17:45:12Z</time></trkpt><trkpt lat="47.558404" lon="-122.255037"><ele>7.824</ele><time>2026-08-17T17:45:22Z</time></trkpt><trkpt lat="47.558299" lon="-122.255028"><ele>7.875</ele><time>2026-08-17T17:45:31Z</time></trkpt><trkpt lat="47.558211" lon="-122.25498"><ele>7.824</ele><time>2026-08-17T17:45:39Z</time></trkpt><trkpt lat="47.558125" lon="-122.254918"><ele>8.004</ele><time>2026-08-17T17:45:47Z</time></trkpt><trkpt lat="47.558025" lon="-122.25489"><ele>8.014</ele><time>2026-08-17T17:45:54Z</time></trkpt><trkpt lat="47.557988" lon="-122.254885"><ele>8.009</ele><time>2026-08-17T17:45:57Z</time></trkpt><trkpt lat="47.55792" lon="-122.254867"><ele>8.094</ele><time>2026-08-17T17:46:02Z</time></trkpt><trkpt lat="47.55781" lon="-122.254835"><ele>8.270</ele><time>2026-08-17T17:46:11Z</time></trkpt><trkpt lat="47.557741" lon="-122.254799"><ele>8.282</ele><time>2026-08-17T17:46:17Z</time></trkpt><trkpt lat="47.557592" lon="-122.254762"><ele>8.296</ele><time>2026-08-17T17:46:28Z</time></trkpt><trkpt lat="47.557489" lon="-122.254704"><ele>8.455</ele><time>2026-08-17T17:46:36Z</time></trkpt><trkpt lat="47.557377" lon="-122.25466"><ele>8.423</ele><time>2026-08-17T17:46:45Z</time></trkpt><trkpt lat="47.557227" lon="-122.254605"><ele>8.691</ele><time>2026-08-17T17:46:56Z</time></trkpt><trkpt lat="47.557186" lon="-122.254593"><ele>8.622</ele><time>2026-08-17T17:46:59Z</time></trkpt><trkpt lat="47.557095" lon="-122.254581"><ele>8.633</ele><time>2026-08-17T17:47:05Z</time></trkpt><trkpt lat="47.557068" lon="-122.254582"><ele>8.657</ele><time>2026-08-17T17:47:07Z</time></trkpt><trkpt lat="47.556953" lon="-122.254601"><ele>8.600</ele><time>2026-08-17T17:47:16Z</time></trkpt><trkpt lat="47.556842" lon="-122.254585"><ele>8.620</ele><time>2026-08-17T17:47:25Z</time></trkpt><trkpt lat="47.55672" lon="-122.254597"><ele>8.809</ele><time>2026-08-17T17:47:35Z</time></trkpt><trkpt lat="47.556707" lon="-122.254604"><ele>8.887</ele><time>2026-08-17T17:47:36Z</time></trkpt><trkpt lat="47.556637" lon="-122.254615"><ele>8.883</ele><time>2026-08-17T17:47:41Z</time></trkpt><trkpt lat="47.55659" lon="-122.254624"><ele>8.815</ele><time>2026-08-17T17:47:44Z</time></trkpt><trkpt lat="47.556562" lon="-122.254631"><ele>8.829</ele><time>2026-08-17T17:47:46Z</time></trkpt><trkpt lat="47.556496" lon="-122.254656"><ele>9.098</ele><time>2026-08-17T17:47:52Z</time></trkpt><trkpt lat="47.556397" lon="-122.25469"><ele>8.816</ele><time>2026-08-17T17:48:00Z</time></trkpt><trkpt lat="47.556264" lon="-122.254715"><ele>9.034</ele><time>2026-08-17T17:48:10Z</time></trkpt><trkpt lat="47.556179" lon="-122.254725"><ele>9.035</ele><time>2026-08-17T17:48:17Z</time></trkpt><trkpt lat="47.556138" lon="-122.254732"><ele>9.076</ele><time>2026-08-17T17:48:20Z</time></trkpt><trkpt lat="47.556051" lon="-122.254757"><ele>9.084</ele><time>2026-08-17T17:48:28Z</time></trkpt><trkpt lat="47.555922" lon="-122.254752"><ele>9.007</ele><time>2026-08-17T17:48:37Z</time></trkpt><trkpt lat="47.555809" lon="-122.254749"><ele>9.217</ele><time>2026-08-17T17:48:46Z</time></trkpt><trkpt lat="47.55566" lon="-122.254741"><ele>9.209</ele><time>2026-08-17T17:48:56Z</time></trkpt><trkpt lat="47.555543" lon="-122.254745"><ele>9.030</ele><time>2026-08-17T17:49:05Z</time></trkpt><trkpt lat="47.555428" lon="-122.254725"><ele>9.096</ele><time>2026-08-17T17:49:13Z</time></trkpt><trkpt lat="47.555275" lon="-122.254733"><ele>8.818</ele><time>2026-08-17T17:49:24Z</time></trkpt><trkpt lat="47.555151" lon="-122.254718"><ele>8.842</ele><time>2026-08-17T17:49:34Z</time></trkpt><trkpt lat="47.555058" lon="-122.254701"><ele>8.821</ele><time>2026-08-17T17:49:41Z</time></trkpt><trkpt lat="47.555032" lon="-122.254695"><ele>8.859</ele><time>2026-08-17T17:49:43Z</time></trkpt><trkpt lat="47.554906" lon="-122.254648"><ele>8.877</ele><time>2026-08-17T17:49:53Z</time></trkpt><trkpt lat="47.554819" lon="-122.254557"><ele>8.228</ele><time>2026-08-17T17:50:02Z</time></trkpt><trkpt lat="47.554731" lon="-122.254444"><ele>7.849</ele><time>2026-08-17T17:50:12Z</time></trkpt><trkpt lat="47.554642" lon="-122.254327"><ele>7.618</ele><time>2026-08-17T17:50:20Z</time></trkpt><trkpt lat="47.554556" lon="-122.254165"><ele>7.298</ele><time>2026-08-17T17:50:30Z</time></trkpt><trkpt lat="47.554454" lon="-122.254072"><ele>7.217</ele><time>2026-08-17T17:50:38Z</time></trkpt><trkpt lat="47.554346" lon="-122.253995"><ele>7.409</ele><time>2026-08-17T17:50:47Z</time></trkpt><trkpt lat="47.554336" lon="-122.25399"><ele>7.453</ele><time>2026-08-17T17:50:48Z</time></trkpt><trkpt lat="47.554193" lon="-122.253937"><ele>7.669</ele><time>2026-08-17T17:50:58Z</time></trkpt><trkpt lat="47.554054" lon="-122.253921"><ele>7.861</ele><time>2026-08-17T17:51:08Z</time></trkpt><trkpt lat="47.553919" lon="-122.253944"><ele>7.895</ele><time>2026-08-17T17:51:19Z</time></trkpt><trkpt lat="47.553796" lon="-122.253982"><ele>7.874</ele><time>2026-08-17T17:51:28Z</time></trkpt><trkpt lat="47.553693" lon="-122.254003"><ele>7.812</ele><time>2026-08-17T17:51:37Z</time></trkpt><trkpt lat="47.553576" lon="-122.254058"><ele>8.060</ele><time>2026-08-17T17:51:45Z</time></trkpt><trkpt lat="47.553486" lon="-122.254124"><ele>8.431</ele><time>2026-08-17T17:51:53Z</time></trkpt><trkpt lat="47.553385" lon="-122.254231"><ele>8.612</ele><time>2026-08-17T17:52:02Z</time></trkpt><trkpt lat="47.553275" lon="-122.254325"><ele>8.648</ele><time>2026-08-17T17:52:11Z</time></trkpt><trkpt lat="47.553191" lon="-122.254428"><ele>8.861</ele><time>2026-08-17T17:52:20Z</time></trkpt><trkpt lat="47.553173" lon="-122.254451"><ele>9.017</ele><time>2026-08-17T17:52:22Z</time></trkpt><trkpt lat="47.553116" lon="-122.254566"><ele>9.009</ele><time>2026-08-17T17:52:30Z</time></trkpt><trkpt lat="47.553087" lon="-122.254602"><ele>9.096</ele><time>2026-08-17T17:52:37Z</time></trkpt><trkpt lat="47.553013" lon="-122.254697"><ele>9.692</ele><time>2026-08-17T17:52:45Z</time></trkpt><trkpt lat="47.552985" lon="-122.254749"><ele>9.654</ele><time>2026-08-17T17:52:48Z</time></trkpt><trkpt lat="47.552975" lon="-122.254767"><ele>9.628</ele><time>2026-08-17T17:52:49Z</time></trkpt><trkpt lat="47.552939" lon="-122.254854"><ele>9.877</ele><time>2026-08-17T17:52:55Z</time></trkpt><trkpt lat="47.552905" lon="-122.254923"><ele>9.815</ele><time>2026-08-17T17:52:58Z</time></trkpt><trkpt lat="47.552861" lon="-122.255028"><ele>10.053</ele><time>2026-08-17T17:53:04Z</time></trkpt><trkpt lat="47.552792" lon="-122.255191"><ele>10.084</ele><time>2026-08-17T17:53:14Z</time></trkpt><trkpt lat="47.552786" lon="-122.255209"><ele>10.275</ele><time>2026-08-17T17:53:15Z</time></trkpt><trkpt lat="47.552716" lon="-122.255345"><ele>10.235</ele><time>2026-08-17T17:53:23Z</time></trkpt><trkpt lat="47.552657" lon="-122.255513"><ele>10.286</ele><time>2026-08-17T17:53:33Z</time></trkpt><trkpt lat="47.552593" lon="-122.255681"><ele>10.414</ele><time>2026-08-17T17:53:43Z</time></trkpt><trkpt lat="47.552543" lon="-122.255872"><ele>10.409</ele><time>2026-08-17T17:53:53Z</time></trkpt><trkpt lat="47.552517" lon="-122.255999"><ele>10.225</ele><time>2026-08-17T17:54:00Z</time></trkpt><trkpt lat="47.552503" lon="-122.25603"><ele>10.231</ele><time>2026-08-17T17:54:02Z</time></trkpt><trkpt lat="47.552496" lon="-122.256051"><ele>10.253</ele><time>2026-08-17T17:54:03Z</time></trkpt><trkpt lat="47.552444" lon="-122.256178"><ele>10.087</ele><time>2026-08-17T17:54:11Z</time></trkpt><trkpt lat="47.552369" lon="-122.256328"><ele>10.066</ele><time>2026-08-17T17:54:20Z</time></trkpt><trkpt lat="47.552295" lon="-122.256488"><ele>9.824</ele><time>2026-08-17T17:54:30Z</time></trkpt><trkpt lat="47.552208" lon="-122.256579"><ele>9.892</ele><time>2026-08-17T17:54:39Z</time></trkpt><trkpt lat="47.552125" lon="-122.256681"><ele>10.023</ele><time>2026-08-17T17:54:48Z</time></trkpt><trkpt lat="47.552041" lon="-122.256804"><ele>9.864</ele><time>2026-08-17T17:54:57Z</time></trkpt><trkpt lat="47.551938" lon="-122.256923"><ele>10.013</ele><time>2026-08-17T17:55:06Z</time></trkpt><trkpt lat="47.551829" lon="-122.256994"><ele>9.843</ele><time>2026-08-17T17:55:16Z</time></trkpt><trkpt lat="47.551726" lon="-122.257007"><ele>9.607</ele><time>2026-08-17T17:55:25Z</time></trkpt><trkpt lat="47.551605" lon="-122.257016"><ele>9.609</ele><time>2026-08-17T17:55:33Z</time></trkpt><trkpt lat="47.55149" lon="-122.257031"><ele>9.493</ele><time>2026-08-17T17:55:42Z</time></trkpt><trkpt lat="47.551377" lon="-122.25706"><ele>9.459</ele><time>2026-08-17T17:55:50Z</time></trkpt><trkpt lat="47.551279" lon="-122.257058"><ele>9.661</ele><time>2026-08-17T17:55:58Z</time></trkpt><trkpt lat="47.551214" lon="-122.257048"><ele>9.645</ele><time>2026-08-17T17:56:03Z</time></trkpt><trkpt lat="47.55108" lon="-122.257041"><ele>9.484</ele><time>2026-08-17T17:56:13Z</time></trkpt><trkpt lat="47.550983" lon="-122.257008"><ele>9.472</ele><time>2026-08-17T17:56:21Z</time></trkpt><trkpt lat="47.550858" lon="-122.256993"><ele>9.480</ele><time>2026-08-17T17:56:31Z</time></trkpt><trkpt lat="47.550753" lon="-122.256945"><ele>9.691</ele><time>2026-08-17T17:56:40Z</time></trkpt><trkpt lat="47.550739" lon="-122.256891"><ele>9.612</ele><time>2026-08-17T17:56:43Z</time></trkpt><trkpt lat="47.550734" lon="-122.256807"><ele>9.822</ele><time>2026-08-17T17:56:48Z</time></trkpt><trkpt lat="47.550679" lon="-122.256714"><ele>10.862</ele><time>2026-08-17T17:56:57Z</time></trkpt><trkpt lat="47.55064" lon="-122.256694"><ele>10.808</ele><time>2026-08-17T17:57:00Z</time></trkpt><trkpt lat="47.550608" lon="-122.256682"><ele>10.609</ele><time>2026-08-17T17:57:03Z</time></trkpt><trkpt lat="47.550564" lon="-122.256685"><ele>10.624</ele><time>2026-08-17T17:57:07Z</time></trkpt><trkpt lat="47.550453" lon="-122.256627"><ele>10.610</ele><time>2026-08-17T17:57:16Z</time></trkpt><trkpt lat="47.550359" lon="-122.256548"><ele>10.822</ele><time>2026-08-17T17:57:25Z</time></trkpt><trkpt lat="47.550307" lon="-122.256497"><ele>10.826</ele><time>2026-08-17T17:57:29Z</time></trkpt><trkpt lat="47.550269" lon="-122.256449"><ele>10.815</ele><time>2026-08-17T17:57:33Z</time></trkpt><trkpt lat="47.550186" lon="-122.256386"><ele>10.883</ele><time>2026-08-17T17:57:41Z</time></trkpt><trkpt lat="47.550108" lon="-122.256373"><ele>11.041</ele><time>2026-08-17T17:57:47Z</time></trkpt><trkpt lat="47.550095" lon="-122.256377"><ele>11.042</ele><time>2026-08-17T17:57:48Z</time></trkpt><trkpt lat="47.549949" lon="-122.256389"><ele>11.493</ele><time>2026-08-17T17:57:59Z</time></trkpt><trkpt lat="47.54985" lon="-122.256366"><ele>11.465</ele><time>2026-08-17T17:58:09Z</time></trkpt><trkpt lat="47.549749" lon="-122.256372"><ele>11.268</ele><time>2026-08-17T17:58:17Z</time></trkpt><trkpt lat="47.549643" lon="-122.256386"><ele>11.014</ele><time>2026-08-17T17:58:25Z</time></trkpt><trkpt lat="47.549552" lon="-122.256374"><ele>11.209</ele><time>2026-08-17T17:58:33Z</time></trkpt><trkpt lat="47.549444" lon="-122.256366"><ele>10.828</ele><time>2026-08-17T17:58:42Z</time></trkpt><trkpt lat="47.549408" lon="-122.256318"><ele>11.214</ele><time>2026-08-17T17:58:51Z</time></trkpt><trkpt lat="47.549391" lon="-122.256289"><ele>10.686</ele><time>2026-08-17T17:59:00Z</time></trkpt><trkpt lat="47.5494" lon="-122.256302"><ele>11.010</ele><time>2026-08-17T17:59:08Z</time></trkpt><trkpt lat="47.549415" lon="-122.256347"><ele>10.839</ele><time>2026-08-17T17:59:16Z</time></trkpt><trkpt lat="47.549455" lon="-122.256382"><ele>11.097</ele><time>2026-08-17T17:59:25Z</time></trkpt><trkpt lat="47.549447" lon="-122.256382"><ele>11.085</ele><time>2026-08-17T17:59:31Z</time></trkpt><trkpt lat="47.549474" lon="-122.25639"><ele>10.666</ele><time>2026-08-17T17:59:42Z</time></trkpt><trkpt lat="47.549473" lon="-122.256391"><ele>10.627</ele><time>2026-08-17T17:59:43Z</time></trkpt><trkpt lat="47.549461" lon="-122.256407"><ele>10.645</ele><time>2026-08-17T17:59:55Z</time></trkpt><trkpt lat="47.549471" lon="-122.256407"><ele>10.647</ele><time>2026-08-17T18:00:06Z</time></trkpt><trkpt lat="47.549494" lon="-122.256391"><ele>10.611</ele><time>2026-08-17T18:00:15Z</time></trkpt><trkpt lat="47.549518" lon="-122.256378"><ele>10.609</ele><time>2026-08-17T18:00:21Z</time></trkpt><trkpt lat="47.549521" lon="-122.256385"><ele>10.626</ele><time>2026-08-17T18:00:31Z</time></trkpt><trkpt lat="47.549495" lon="-122.256382"><ele>10.432</ele><time>2026-08-17T18:00:39Z</time></trkpt><trkpt lat="47.549476" lon="-122.25638"><ele>10.434</ele><time>2026-08-17T18:00:45Z</time></trkpt><trkpt lat="47.549485" lon="-122.256379"><ele>10.468</ele><time>2026-08-17T18:00:49Z</time></trkpt><trkpt lat="47.549438" lon="-122.256361"><ele>10.457</ele><time>2026-08-17T18:00:59Z</time></trkpt><trkpt lat="47.54945" lon="-122.25636"><ele>9.875</ele><time>2026-08-17T18:01:04Z</time></trkpt><trkpt lat="47.549466" lon="-122.256356"><ele>9.873</ele><time>2026-08-17T18:01:07Z</time></trkpt><trkpt lat="47.549476" lon="-122.256342"><ele>9.844</ele><time>2026-08-17T18:01:17Z</time></trkpt><trkpt lat="47.549455" lon="-122.256354"><ele>10.055</ele><time>2026-08-17T18:01:31Z</time></trkpt><trkpt lat="47.549242" lon="-122.25608"><ele>11.015</ele><time>2026-08-17T18:34:26Z</time></trkpt><trkpt lat="47.549237" lon="-122.256063"><ele>11.065</ele><time>2026-08-17T18:34:27Z</time></trkpt><trkpt lat="47.549228" lon="-122.255976"><ele>11.011</ele><time>2026-08-17T18:34:32Z</time></trkpt><trkpt lat="47.549221" lon="-122.255933"><ele>11.209</ele><time>2026-08-17T18:34:34Z</time></trkpt><trkpt lat="47.549213" lon="-122.255893"><ele>11.273</ele><time>2026-08-17T18:34:36Z</time></trkpt><trkpt lat="47.549187" lon="-122.255805"><ele>11.259</ele><time>2026-08-17T18:34:41Z</time></trkpt><trkpt lat="47.549187" lon="-122.255755"><ele>11.231</ele><time>2026-08-17T18:34:45Z</time></trkpt><trkpt lat="47.549168" lon="-122.255632"><ele>11.085</ele><time>2026-08-17T18:34:53Z</time></trkpt><trkpt lat="47.54917" lon="-122.255427"><ele>10.834</ele><time>2026-08-17T18:35:04Z</time></trkpt><trkpt lat="47.549171" lon="-122.255188"><ele>10.292</ele><time>2026-08-17T18:35:16Z</time></trkpt><trkpt lat="47.549177" lon="-122.254972"><ele>10.630</ele><time>2026-08-17T18:35:28Z</time></trkpt><trkpt lat="47.549176" lon="-122.254892"><ele>10.491</ele><time>2026-08-17T18:35:32Z</time></trkpt><trkpt lat="47.549181" lon="-122.254804"><ele>10.232</ele><time>2026-08-17T18:35:36Z</time></trkpt><trkpt lat="47.549187" lon="-122.254746"><ele>10.463</ele><time>2026-08-17T18:35:39Z</time></trkpt><trkpt lat="47.549199" lon="-122.254543"><ele>10.844</ele><time>2026-08-17T18:35:50Z</time></trkpt><trkpt lat="47.54921" lon="-122.254414"><ele>11.018</ele><time>2026-08-17T18:35:56Z</time></trkpt><trkpt lat="47.549217" lon="-122.254316"><ele>11.009</ele><time>2026-08-17T18:36:01Z</time></trkpt><trkpt lat="47.549213" lon="-122.254139"><ele>10.878</ele><time>2026-08-17T18:36:10Z</time></trkpt><trkpt lat="47.549221" lon="-122.253934"><ele>10.654</ele><time>2026-08-17T18:36:20Z</time></trkpt><trkpt lat="47.549237" lon="-122.25373"><ele>10.826</ele><time>2026-08-17T18:36:31Z</time></trkpt><trkpt lat="47.549242" lon="-122.253535"><ele>10.820</ele><time>2026-08-17T18:36:40Z</time></trkpt><trkpt lat="47.549244" lon="-122.253456"><ele>11.049</ele><time>2026-08-17T18:36:44Z</time></trkpt><trkpt lat="47.549261" lon="-122.253228"><ele>11.287</ele><time>2026-08-17T18:36:56Z</time></trkpt><trkpt lat="47.549258" lon="-122.25319"><ele>11.455</ele><time>2026-08-17T18:36:58Z</time></trkpt><trkpt lat="47.549268" lon="-122.253009"><ele>11.666</ele><time>2026-08-17T18:37:08Z</time></trkpt><trkpt lat="47.549273" lon="-122.252971"><ele>11.677</ele><time>2026-08-17T18:37:10Z</time></trkpt><trkpt lat="47.549263" lon="-122.252826"><ele>12.088</ele><time>2026-08-17T18:37:19Z</time></trkpt><trkpt lat="47.549235" lon="-122.252636"><ele>11.824</ele><time>2026-08-17T18:37:26Z</time></trkpt><trkpt lat="47.549221" lon="-122.252456"><ele>11.226</ele><time>2026-08-17T18:37:36Z</time></trkpt><trkpt lat="47.549228" lon="-122.252386"><ele>11.009</ele><time>2026-08-17T18:37:40Z</time></trkpt><trkpt lat="47.549252" lon="-122.25231"><ele>10.850</ele><time>2026-08-17T18:37:44Z</time></trkpt><trkpt lat="47.5493" lon="-122.252224"><ele>11.216</ele><time>2026-08-17T18:37:51Z</time></trkpt><trkpt lat="47.54935" lon="-122.252171"><ele>11.438</ele><time>2026-08-17T18:37:56Z</time></trkpt><trkpt lat="47.549384" lon="-122.252158"><ele>11.692</ele><time>2026-08-17T18:37:59Z</time></trkpt><trkpt lat="47.549413" lon="-122.252134"><ele>12.071</ele><time>2026-08-17T18:38:02Z</time></trkpt><trkpt lat="47.549451" lon="-122.252072"><ele>12.689</ele><time>2026-08-17T18:38:08Z</time></trkpt><trkpt lat="47.549495" lon="-122.25198"><ele>13.077</ele><time>2026-08-17T18:38:15Z</time></trkpt><trkpt lat="47.549496" lon="-122.251978"><ele>13.048</ele><time>2026-08-17T18:38:16Z</time></trkpt><trkpt lat="47.549498" lon="-122.251977"><ele>13.089</ele><time>2026-08-17T18:38:17Z</time></trkpt><trkpt lat="47.549524" lon="-122.251958"><ele>13.219</ele><time>2026-08-17T18:38:20Z</time></trkpt><trkpt lat="47.549559" lon="-122.25188"><ele>13.809</ele><time>2026-08-17T18:38:25Z</time></trkpt><trkpt lat="47.549563" lon="-122.251868"><ele>14.019</ele><time>2026-08-17T18:38:26Z</time></trkpt><trkpt lat="47.549599" lon="-122.251787"><ele>14.809</ele><time>2026-08-17T18:38:34Z</time></trkpt><trkpt lat="47.549606" lon="-122.251776"><ele>15.213</ele><time>2026-08-17T18:38:36Z</time></trkpt><trkpt lat="47.549639" lon="-122.251764"><ele>16.079</ele><time>2026-08-17T18:38:42Z</time></trkpt><trkpt lat="47.549654" lon="-122.251755"><ele>16.281</ele><time>2026-08-17T18:38:44Z</time></trkpt><trkpt lat="47.549686" lon="-122.251723"><ele>16.825</ele><time>2026-08-17T18:38:52Z</time></trkpt><trkpt lat="47.549717" lon="-122.251743"><ele>16.614</ele><time>2026-08-17T18:38:59Z</time></trkpt><trkpt lat="47.549734" lon="-122.251705"><ele>16.852</ele><time>2026-08-17T18:39:08Z</time></trkpt><trkpt lat="47.549716" lon="-122.251727"><ele>16.640</ele><time>2026-08-17T18:39:18Z</time></trkpt><trkpt lat="47.549714" lon="-122.251711"><ele>16.851</ele><time>2026-08-17T18:39:22Z</time></trkpt></trkseg></trk></gpx>