<?xml version="1.0" encoding="UTF-8"?><gpx creator="Wikiloc - http://www.wikiloc.com" version="1.1" xmlns="http://www.topografix.com/GPX/1/1" xmlns:xsi="http://www.w3.org/2001/XMLSchema-instance" xsi:schemaLocation="http://www.topografix.com/GPX/1/1 http://www.topografix.com/GPX/1/1/gpx.xsd"><wpt lat="60.447335" lon="-150.213633"><ele>75.8</ele><name><![CDATA[Foto]]></name><cmt><![CDATA[Foto]]></cmt><desc><![CDATA[]]></desc><type>36</type></wpt><wpt lat="60.438383" lon="-150.208293"><ele>59.0</ele><name><![CDATA[Foto]]></name><cmt><![CDATA[Foto]]></cmt><desc><![CDATA[]]></desc><type>36</type></wpt><wpt lat="60.438266" lon="-150.215291"><ele>57.400000000000006</ele><name><![CDATA[Foto]]></name><cmt><![CDATA[Foto]]></cmt><desc><![CDATA[]]></desc><type>36</type></wpt><trk><name><![CDATA[Skilak Lake]]></name><cmt><![CDATA[Cooper Landing]]></cmt><desc><![CDATA[Cooper Landing]]></desc><trkseg><trkpt lat="60.45443" lon="-150.218508"><ele>134.885</ele><time>2026-08-04T19:31:14Z</time></trkpt><trkpt lat="60.454417" lon="-150.218646"><ele>134.889</ele><time>2026-08-04T19:31:21Z</time></trkpt><trkpt lat="60.454389" lon="-150.218693"><ele>135.217</ele><time>2026-08-04T19:31:25Z</time></trkpt><trkpt lat="60.45438" lon="-150.218721"><ele>135.009</ele><time>2026-08-04T19:31:28Z</time></trkpt><trkpt lat="60.454355" lon="-150.218726"><ele>135.050</ele><time>2026-08-04T19:31:35Z</time></trkpt><trkpt lat="60.454352" lon="-150.21875"><ele>135.295</ele><time>2026-08-04T19:31:41Z</time></trkpt><trkpt lat="60.454369" lon="-150.218753"><ele>135.085</ele><time>2026-08-04T19:31:47Z</time></trkpt><trkpt lat="60.454371" lon="-150.218757"><ele>135.056</ele><time>2026-08-04T19:31:50Z</time></trkpt><trkpt lat="60.454372" lon="-150.218766"><ele>134.872</ele><time>2026-08-04T19:31:53Z</time></trkpt><trkpt lat="60.454377" lon="-150.218785"><ele>135.063</ele><time>2026-08-04T19:31:57Z</time></trkpt><trkpt lat="60.454379" lon="-150.218791"><ele>135.077</ele><time>2026-08-04T19:31:58Z</time></trkpt><trkpt lat="60.454378" lon="-150.218793"><ele>135.045</ele><time>2026-08-04T19:32:07Z</time></trkpt><trkpt lat="60.454378" lon="-150.218794"><ele>135.068</ele><time>2026-08-04T19:32:09Z</time></trkpt><trkpt lat="60.454386" lon="-150.218765"><ele>135.275</ele><time>2026-08-04T19:32:16Z</time></trkpt><trkpt lat="60.454337" lon="-150.218755"><ele>135.828</ele><time>2026-08-04T19:32:22Z</time></trkpt><trkpt lat="60.454328" lon="-150.21876"><ele>135.820</ele><time>2026-08-04T19:32:23Z</time></trkpt><trkpt lat="60.454319" lon="-150.218763"><ele>135.809</ele><time>2026-08-04T19:32:24Z</time></trkpt><trkpt lat="60.454275" lon="-150.218771"><ele>135.619</ele><time>2026-08-04T19:32:30Z</time></trkpt><trkpt lat="60.454262" lon="-150.218758"><ele>135.214</ele><time>2026-08-04T19:32:32Z</time></trkpt><trkpt lat="60.454246" lon="-150.218733"><ele>134.854</ele><time>2026-08-04T19:32:35Z</time></trkpt><trkpt lat="60.454222" lon="-150.218722"><ele>134.665</ele><time>2026-08-04T19:32:39Z</time></trkpt><trkpt lat="60.454204" lon="-150.218682"><ele>133.631</ele><time>2026-08-04T19:32:44Z</time></trkpt><trkpt lat="60.454188" lon="-150.218632"><ele>132.652</ele><time>2026-08-04T19:32:48Z</time></trkpt><trkpt lat="60.45417" lon="-150.218555"><ele>131.466</ele><time>2026-08-04T19:32:52Z</time></trkpt><trkpt lat="60.454165" lon="-150.218526"><ele>131.244</ele><time>2026-08-04T19:32:55Z</time></trkpt><trkpt lat="60.454184" lon="-150.218504"><ele>130.667</ele><time>2026-08-04T19:33:04Z</time></trkpt><trkpt lat="60.454189" lon="-150.218486"><ele>130.466</ele><time>2026-08-04T19:33:10Z</time></trkpt><trkpt lat="60.454188" lon="-150.218481"><ele>130.229</ele><time>2026-08-04T19:33:11Z</time></trkpt><trkpt lat="60.454189" lon="-150.218469"><ele>130.221</ele><time>2026-08-04T19:33:13Z</time></trkpt><trkpt lat="60.454156" lon="-150.218426"><ele>130.009</ele><time>2026-08-04T19:33:21Z</time></trkpt><trkpt lat="60.454121" lon="-150.218307"><ele>130.058</ele><time>2026-08-04T19:33:30Z</time></trkpt><trkpt lat="60.454075" lon="-150.218235"><ele>129.463</ele><time>2026-08-04T19:33:38Z</time></trkpt><trkpt lat="60.45406" lon="-150.218195"><ele>128.863</ele><time>2026-08-04T19:33:41Z</time></trkpt><trkpt lat="60.454034" lon="-150.218136"><ele>128.284</ele><time>2026-08-04T19:33:44Z</time></trkpt><trkpt lat="60.454016" lon="-150.218107"><ele>127.850</ele><time>2026-08-04T19:33:46Z</time></trkpt><trkpt lat="60.453983" lon="-150.218043"><ele>127.071</ele><time>2026-08-04T19:33:50Z</time></trkpt><trkpt lat="60.453932" lon="-150.21795"><ele>126.495</ele><time>2026-08-04T19:33:56Z</time></trkpt><trkpt lat="60.453919" lon="-150.217942"><ele>126.033</ele><time>2026-08-04T19:33:57Z</time></trkpt><trkpt lat="60.453838" lon="-150.217871"><ele>125.626</ele><time>2026-08-04T19:34:05Z</time></trkpt><trkpt lat="60.453758" lon="-150.217818"><ele>125.285</ele><time>2026-08-04T19:34:13Z</time></trkpt><trkpt lat="60.45373" lon="-150.217811"><ele>124.889</ele><time>2026-08-04T19:34:16Z</time></trkpt><trkpt lat="60.453664" lon="-150.217823"><ele>124.617</ele><time>2026-08-04T19:34:22Z</time></trkpt><trkpt lat="60.453593" lon="-150.217797"><ele>123.809</ele><time>2026-08-04T19:34:29Z</time></trkpt><trkpt lat="60.453561" lon="-150.217785"><ele>123.470</ele><time>2026-08-04T19:34:32Z</time></trkpt><trkpt lat="60.453489" lon="-150.217736"><ele>123.245</ele><time>2026-08-04T19:34:38Z</time></trkpt><trkpt lat="60.453465" lon="-150.217709"><ele>122.895</ele><time>2026-08-04T19:34:40Z</time></trkpt><trkpt lat="60.453407" lon="-150.21763"><ele>122.076</ele><time>2026-08-04T19:34:47Z</time></trkpt><trkpt lat="60.453383" lon="-150.217614"><ele>121.642</ele><time>2026-08-04T19:34:49Z</time></trkpt><trkpt lat="60.453325" lon="-150.21759"><ele>120.843</ele><time>2026-08-04T19:34:55Z</time></trkpt><trkpt lat="60.453309" lon="-150.217585"><ele>120.637</ele><time>2026-08-04T19:34:57Z</time></trkpt><trkpt lat="60.453231" lon="-150.217552"><ele>119.655</ele><time>2026-08-04T19:35:05Z</time></trkpt><trkpt lat="60.453142" lon="-150.217457"><ele>119.048</ele><time>2026-08-04T19:35:14Z</time></trkpt><trkpt lat="60.453126" lon="-150.217436"><ele>118.828</ele><time>2026-08-04T19:35:16Z</time></trkpt><trkpt lat="60.453118" lon="-150.217422"><ele>118.689</ele><time>2026-08-04T19:35:17Z</time></trkpt><trkpt lat="60.453077" lon="-150.217337"><ele>117.417</ele><time>2026-08-04T19:35:23Z</time></trkpt><trkpt lat="60.453014" lon="-150.21724"><ele>116.209</ele><time>2026-08-04T19:35:32Z</time></trkpt><trkpt lat="60.45296" lon="-150.217127"><ele>115.244</ele><time>2026-08-04T19:35:39Z</time></trkpt><trkpt lat="60.452946" lon="-150.217083"><ele>114.899</ele><time>2026-08-04T19:35:40Z</time></trkpt><trkpt lat="60.452919" lon="-150.217015"><ele>114.089</ele><time>2026-08-04T19:35:43Z</time></trkpt><trkpt lat="60.452869" lon="-150.216928"><ele>112.830</ele><time>2026-08-04T19:35:49Z</time></trkpt><trkpt lat="60.452858" lon="-150.216911"><ele>112.616</ele><time>2026-08-04T19:35:50Z</time></trkpt><trkpt lat="60.452835" lon="-150.216863"><ele>111.867</ele><time>2026-08-04T19:35:53Z</time></trkpt><trkpt lat="60.452786" lon="-150.216769"><ele>110.631</ele><time>2026-08-04T19:36:00Z</time></trkpt><trkpt lat="60.452732" lon="-150.216664"><ele>109.689</ele><time>2026-08-04T19:36:07Z</time></trkpt><trkpt lat="60.452723" lon="-150.21665"><ele>109.662</ele><time>2026-08-04T19:36:08Z</time></trkpt><trkpt lat="60.452693" lon="-150.21661"><ele>109.881</ele><time>2026-08-04T19:36:11Z</time></trkpt><trkpt lat="60.452594" lon="-150.216488"><ele>109.661</ele><time>2026-08-04T19:36:22Z</time></trkpt><trkpt lat="60.452567" lon="-150.216444"><ele>108.617</ele><time>2026-08-04T19:36:26Z</time></trkpt><trkpt lat="60.452538" lon="-150.216384"><ele>107.609</ele><time>2026-08-04T19:36:29Z</time></trkpt><trkpt lat="60.452524" lon="-150.216362"><ele>107.420</ele><time>2026-08-04T19:36:30Z</time></trkpt><trkpt lat="60.452447" lon="-150.216267"><ele>107.045</ele><time>2026-08-04T19:36:37Z</time></trkpt><trkpt lat="60.452359" lon="-150.216207"><ele>106.415</ele><time>2026-08-04T19:36:45Z</time></trkpt><trkpt lat="60.452329" lon="-150.216214"><ele>106.016</ele><time>2026-08-04T19:36:47Z</time></trkpt><trkpt lat="60.452277" lon="-150.216236"><ele>105.492</ele><time>2026-08-04T19:36:51Z</time></trkpt><trkpt lat="60.452207" lon="-150.216268"><ele>104.423</ele><time>2026-08-04T19:36:56Z</time></trkpt><trkpt lat="60.452193" lon="-150.216276"><ele>104.267</ele><time>2026-08-04T19:36:57Z</time></trkpt><trkpt lat="60.452091" lon="-150.216362"><ele>103.625</ele><time>2026-08-04T19:37:06Z</time></trkpt><trkpt lat="60.452074" lon="-150.216371"><ele>103.228</ele><time>2026-08-04T19:37:08Z</time></trkpt><trkpt lat="60.452003" lon="-150.216423"><ele>102.874</ele><time>2026-08-04T19:37:15Z</time></trkpt><trkpt lat="60.451963" lon="-150.216439"><ele>102.256</ele><time>2026-08-04T19:37:19Z</time></trkpt><trkpt lat="60.451919" lon="-150.216448"><ele>101.021</ele><time>2026-08-04T19:37:23Z</time></trkpt><trkpt lat="60.451907" lon="-150.216452"><ele>100.809</ele><time>2026-08-04T19:37:24Z</time></trkpt><trkpt lat="60.451831" lon="-150.216439"><ele>100.499</ele><time>2026-08-04T19:37:30Z</time></trkpt><trkpt lat="60.451787" lon="-150.21644"><ele>100.264</ele><time>2026-08-04T19:37:33Z</time></trkpt><trkpt lat="60.451748" lon="-150.21644"><ele>100.054</ele><time>2026-08-04T19:37:36Z</time></trkpt><trkpt lat="60.451712" lon="-150.216449"><ele>99.675</ele><time>2026-08-04T19:37:39Z</time></trkpt><trkpt lat="60.451636" lon="-150.216463"><ele>98.891</ele><time>2026-08-04T19:37:45Z</time></trkpt><trkpt lat="60.451622" lon="-150.216471"><ele>98.612</ele><time>2026-08-04T19:37:46Z</time></trkpt><trkpt lat="60.451595" lon="-150.216474"><ele>97.046</ele><time>2026-08-04T19:37:48Z</time></trkpt><trkpt lat="60.451567" lon="-150.216466"><ele>95.834</ele><time>2026-08-04T19:37:50Z</time></trkpt><trkpt lat="60.451524" lon="-150.216448"><ele>95.267</ele><time>2026-08-04T19:37:54Z</time></trkpt><trkpt lat="60.451465" lon="-150.216368"><ele>94.887</ele><time>2026-08-04T19:38:01Z</time></trkpt><trkpt lat="60.451453" lon="-150.216352"><ele>94.842</ele><time>2026-08-04T19:38:02Z</time></trkpt><trkpt lat="60.451438" lon="-150.216343"><ele>94.826</ele><time>2026-08-04T19:38:03Z</time></trkpt><trkpt lat="60.451418" lon="-150.216342"><ele>94.809</ele><time>2026-08-04T19:38:04Z</time></trkpt><trkpt lat="60.45139" lon="-150.216335"><ele>95.060</ele><time>2026-08-04T19:38:06Z</time></trkpt><trkpt lat="60.451358" lon="-150.216337"><ele>95.065</ele><time>2026-08-04T19:38:09Z</time></trkpt><trkpt lat="60.451285" lon="-150.216347"><ele>94.045</ele><time>2026-08-04T19:38:16Z</time></trkpt><trkpt lat="60.45127" lon="-150.216353"><ele>93.686</ele><time>2026-08-04T19:38:18Z</time></trkpt><trkpt lat="60.451192" lon="-150.216355"><ele>93.032</ele><time>2026-08-04T19:38:24Z</time></trkpt><trkpt lat="60.451119" lon="-150.216341"><ele>92.633</ele><time>2026-08-04T19:38:28Z</time></trkpt><trkpt lat="60.451061" lon="-150.216336"><ele>92.017</ele><time>2026-08-04T19:38:31Z</time></trkpt><trkpt lat="60.451005" lon="-150.216321"><ele>91.635</ele><time>2026-08-04T19:38:35Z</time></trkpt><trkpt lat="60.450977" lon="-150.216309"><ele>91.068</ele><time>2026-08-04T19:38:38Z</time></trkpt><trkpt lat="60.450875" lon="-150.216307"><ele>90.426</ele><time>2026-08-04T19:38:46Z</time></trkpt><trkpt lat="60.450864" lon="-150.216313"><ele>90.447</ele><time>2026-08-04T19:38:47Z</time></trkpt><trkpt lat="60.450759" lon="-150.216356"><ele>89.611</ele><time>2026-08-04T19:38:56Z</time></trkpt><trkpt lat="60.450749" lon="-150.216362"><ele>89.409</ele><time>2026-08-04T19:38:57Z</time></trkpt><trkpt lat="60.450676" lon="-150.216378"><ele>88.674</ele><time>2026-08-04T19:39:05Z</time></trkpt><trkpt lat="60.450658" lon="-150.216368"><ele>88.229</ele><time>2026-08-04T19:39:07Z</time></trkpt><trkpt lat="60.450622" lon="-150.216307"><ele>87.869</ele><time>2026-08-04T19:39:11Z</time></trkpt><trkpt lat="60.450619" lon="-150.216293"><ele>87.690</ele><time>2026-08-04T19:39:12Z</time></trkpt><trkpt lat="60.450608" lon="-150.216262"><ele>87.446</ele><time>2026-08-04T19:39:14Z</time></trkpt><trkpt lat="60.450597" lon="-150.216245"><ele>87.257</ele><time>2026-08-04T19:39:15Z</time></trkpt><trkpt lat="60.450564" lon="-150.216228"><ele>86.231</ele><time>2026-08-04T19:39:18Z</time></trkpt><trkpt lat="60.450536" lon="-150.216227"><ele>85.059</ele><time>2026-08-04T19:39:21Z</time></trkpt><trkpt lat="60.450458" lon="-150.216233"><ele>85.692</ele><time>2026-08-04T19:39:28Z</time></trkpt><trkpt lat="60.450395" lon="-150.216228"><ele>85.696</ele><time>2026-08-04T19:39:33Z</time></trkpt><trkpt lat="60.450298" lon="-150.216188"><ele>84.831</ele><time>2026-08-04T19:39:41Z</time></trkpt><trkpt lat="60.450286" lon="-150.216174"><ele>84.824</ele><time>2026-08-04T19:39:42Z</time></trkpt><trkpt lat="60.450202" lon="-150.216089"><ele>85.409</ele><time>2026-08-04T19:39:50Z</time></trkpt><trkpt lat="60.450116" lon="-150.216009"><ele>85.241</ele><time>2026-08-04T19:39:58Z</time></trkpt><trkpt lat="60.450029" lon="-150.215898"><ele>84.856</ele><time>2026-08-04T19:40:07Z</time></trkpt><trkpt lat="60.45002" lon="-150.215886"><ele>84.626</ele><time>2026-08-04T19:40:08Z</time></trkpt><trkpt lat="60.450005" lon="-150.215866"><ele>84.267</ele><time>2026-08-04T19:40:10Z</time></trkpt><trkpt lat="60.449988" lon="-150.21585"><ele>84.073</ele><time>2026-08-04T19:40:12Z</time></trkpt><trkpt lat="60.449941" lon="-150.215769"><ele>83.474</ele><time>2026-08-04T19:40:18Z</time></trkpt><trkpt lat="60.449903" lon="-150.215672"><ele>82.618</ele><time>2026-08-04T19:40:24Z</time></trkpt><trkpt lat="60.449894" lon="-150.215652"><ele>82.496</ele><time>2026-08-04T19:40:25Z</time></trkpt><trkpt lat="60.449825" lon="-150.215579"><ele>82.459</ele><time>2026-08-04T19:40:32Z</time></trkpt><trkpt lat="60.449725" lon="-150.215478"><ele>81.623</ele><time>2026-08-04T19:40:42Z</time></trkpt><trkpt lat="60.4497" lon="-150.215441"><ele>81.483</ele><time>2026-08-04T19:40:45Z</time></trkpt><trkpt lat="60.449666" lon="-150.215358"><ele>81.211</ele><time>2026-08-04T19:40:50Z</time></trkpt><trkpt lat="60.449585" lon="-150.215198"><ele>81.209</ele><time>2026-08-04T19:40:59Z</time></trkpt><trkpt lat="60.449484" lon="-150.215078"><ele>81.454</ele><time>2026-08-04T19:41:08Z</time></trkpt><trkpt lat="60.449402" lon="-150.21495"><ele>80.889</ele><time>2026-08-04T19:41:16Z</time></trkpt><trkpt lat="60.449391" lon="-150.214913"><ele>80.459</ele><time>2026-08-04T19:41:18Z</time></trkpt><trkpt lat="60.449382" lon="-150.214887"><ele>80.290</ele><time>2026-08-04T19:41:19Z</time></trkpt><trkpt lat="60.449326" lon="-150.214815"><ele>79.486</ele><time>2026-08-04T19:41:24Z</time></trkpt><trkpt lat="60.44925" lon="-150.214729"><ele>79.277</ele><time>2026-08-04T19:41:32Z</time></trkpt><trkpt lat="60.4492" lon="-150.21464"><ele>78.241</ele><time>2026-08-04T19:41:38Z</time></trkpt><trkpt lat="60.449192" lon="-150.214627"><ele>77.819</ele><time>2026-08-04T19:41:39Z</time></trkpt><trkpt lat="60.449181" lon="-150.214604"><ele>77.432</ele><time>2026-08-04T19:41:40Z</time></trkpt><trkpt lat="60.449115" lon="-150.214491"><ele>77.416</ele><time>2026-08-04T19:41:48Z</time></trkpt><trkpt lat="60.449041" lon="-150.214339"><ele>77.476</ele><time>2026-08-04T19:41:57Z</time></trkpt><trkpt lat="60.449" lon="-150.214227"><ele>76.813</ele><time>2026-08-04T19:42:03Z</time></trkpt><trkpt lat="60.448962" lon="-150.214196"><ele>76.009</ele><time>2026-08-04T19:42:06Z</time></trkpt><trkpt lat="60.448944" lon="-150.214202"><ele>75.683</ele><time>2026-08-04T19:42:07Z</time></trkpt><trkpt lat="60.448877" lon="-150.214223"><ele>76.048</ele><time>2026-08-04T19:42:13Z</time></trkpt><trkpt lat="60.448844" lon="-150.214261"><ele>76.828</ele><time>2026-08-04T19:42:16Z</time></trkpt><trkpt lat="60.448806" lon="-150.214306"><ele>76.899</ele><time>2026-08-04T19:42:20Z</time></trkpt><trkpt lat="60.448711" lon="-150.214364"><ele>77.065</ele><time>2026-08-04T19:42:29Z</time></trkpt><trkpt lat="60.448654" lon="-150.214328"><ele>77.616</ele><time>2026-08-04T19:42:35Z</time></trkpt><trkpt lat="60.448647" lon="-150.214316"><ele>77.620</ele><time>2026-08-04T19:42:36Z</time></trkpt><trkpt lat="60.448618" lon="-150.214276"><ele>77.838</ele><time>2026-08-04T19:42:39Z</time></trkpt><trkpt lat="60.448583" lon="-150.214239"><ele>78.281</ele><time>2026-08-04T19:42:44Z</time></trkpt><trkpt lat="60.448501" lon="-150.214255"><ele>77.853</ele><time>2026-08-04T19:42:50Z</time></trkpt><trkpt lat="60.448486" lon="-150.214265"><ele>77.604</ele><time>2026-08-04T19:42:51Z</time></trkpt><trkpt lat="60.448412" lon="-150.214384"><ele>77.614</ele><time>2026-08-04T19:42:59Z</time></trkpt><trkpt lat="60.448371" lon="-150.214458"><ele>78.009</ele><time>2026-08-04T19:43:06Z</time></trkpt><trkpt lat="60.448298" lon="-150.214452"><ele>77.837</ele><time>2026-08-04T19:43:16Z</time></trkpt><trkpt lat="60.448271" lon="-150.214439"><ele>78.662</ele><time>2026-08-04T19:43:26Z</time></trkpt><trkpt lat="60.448268" lon="-150.21444"><ele>78.432</ele><time>2026-08-04T19:43:35Z</time></trkpt><trkpt lat="60.448275" lon="-150.214446"><ele>78.683</ele><time>2026-08-04T19:43:42Z</time></trkpt><trkpt lat="60.448275" lon="-150.214449"><ele>78.669</ele><time>2026-08-04T19:43:43Z</time></trkpt><trkpt lat="60.448276" lon="-150.214451"><ele>78.630</ele><time>2026-08-04T19:43:44Z</time></trkpt><trkpt lat="60.44828" lon="-150.214451"><ele>78.684</ele><time>2026-08-04T19:43:45Z</time></trkpt><trkpt lat="60.448283" lon="-150.214451"><ele>78.472</ele><time>2026-08-04T19:43:49Z</time></trkpt><trkpt lat="60.448266" lon="-150.214465"><ele>77.855</ele><time>2026-08-04T19:44:00Z</time></trkpt><trkpt lat="60.44826" lon="-150.214452"><ele>76.834</ele><time>2026-08-04T19:44:06Z</time></trkpt><trkpt lat="60.448261" lon="-150.214464"><ele>76.655</ele><time>2026-08-04T19:44:11Z</time></trkpt><trkpt lat="60.448279" lon="-150.214459"><ele>77.810</ele><time>2026-08-04T19:44:20Z</time></trkpt><trkpt lat="60.448281" lon="-150.214461"><ele>78.209</ele><time>2026-08-04T19:44:21Z</time></trkpt><trkpt lat="60.448266" lon="-150.214346"><ele>78.435</ele><time>2026-08-04T19:44:29Z</time></trkpt><trkpt lat="60.448187" lon="-150.214243"><ele>77.650</ele><time>2026-08-04T19:44:38Z</time></trkpt><trkpt lat="60.448158" lon="-150.214176"><ele>76.830</ele><time>2026-08-04T19:44:43Z</time></trkpt><trkpt lat="60.448119" lon="-150.214134"><ele>76.241</ele><time>2026-08-04T19:44:46Z</time></trkpt><trkpt lat="60.448023" lon="-150.214126"><ele>77.427</ele><time>2026-08-04T19:44:54Z</time></trkpt><trkpt lat="60.447983" lon="-150.214133"><ele>77.848</ele><time>2026-08-04T19:44:57Z</time></trkpt><trkpt lat="60.447944" lon="-150.21415"><ele>78.642</ele><time>2026-08-04T19:45:00Z</time></trkpt><trkpt lat="60.447918" lon="-150.214154"><ele>78.890</ele><time>2026-08-04T19:45:02Z</time></trkpt><trkpt lat="60.447876" lon="-150.21415"><ele>79.613</ele><time>2026-08-04T19:45:06Z</time></trkpt><trkpt lat="60.447858" lon="-150.214144"><ele>79.832</ele><time>2026-08-04T19:45:08Z</time></trkpt><trkpt lat="60.447802" lon="-150.21409"><ele>78.892</ele><time>2026-08-04T19:45:13Z</time></trkpt><trkpt lat="60.447708" lon="-150.21401"><ele>78.211</ele><time>2026-08-04T19:45:21Z</time></trkpt><trkpt lat="60.447691" lon="-150.213976"><ele>77.809</ele><time>2026-08-04T19:45:23Z</time></trkpt><trkpt lat="60.447682" lon="-150.213966"><ele>77.635</ele><time>2026-08-04T19:45:24Z</time></trkpt><trkpt lat="60.447647" lon="-150.213944"><ele>77.490</ele><time>2026-08-04T19:45:27Z</time></trkpt><trkpt lat="60.447585" lon="-150.213887"><ele>76.420</ele><time>2026-08-04T19:45:32Z</time></trkpt><trkpt lat="60.447564" lon="-150.213861"><ele>76.811</ele><time>2026-08-04T19:45:35Z</time></trkpt><trkpt lat="60.447497" lon="-150.213751"><ele>75.277</ele><time>2026-08-04T19:45:42Z</time></trkpt><trkpt lat="60.447491" lon="-150.21374"><ele>75.028</ele><time>2026-08-04T19:45:43Z</time></trkpt><trkpt lat="60.447423" lon="-150.213638"><ele>75.012</ele><time>2026-08-04T19:45:50Z</time></trkpt><trkpt lat="60.447335" lon="-150.213633"><ele>75.810</ele><time>2026-08-04T19:45:57Z</time></trkpt><trkpt lat="60.447243" lon="-150.213664"><ele>75.873</ele><time>2026-08-04T19:46:05Z</time></trkpt><trkpt lat="60.447167" lon="-150.213695"><ele>76.019</ele><time>2026-08-04T19:46:13Z</time></trkpt><trkpt lat="60.447157" lon="-150.213698"><ele>76.209</ele><time>2026-08-04T19:46:14Z</time></trkpt><trkpt lat="60.447057" lon="-150.213726"><ele>76.619</ele><time>2026-08-04T19:46:23Z</time></trkpt><trkpt lat="60.446964" lon="-150.213696"><ele>76.409</ele><time>2026-08-04T19:46:32Z</time></trkpt><trkpt lat="60.446903" lon="-150.213625"><ele>76.853</ele><time>2026-08-04T19:46:39Z</time></trkpt><trkpt lat="60.446876" lon="-150.21362"><ele>76.828</ele><time>2026-08-04T19:46:41Z</time></trkpt><trkpt lat="60.446777" lon="-150.213609"><ele>77.078</ele><time>2026-08-04T19:46:48Z</time></trkpt><trkpt lat="60.446726" lon="-150.213583"><ele>77.259</ele><time>2026-08-04T19:46:53Z</time></trkpt><trkpt lat="60.446706" lon="-150.213553"><ele>77.625</ele><time>2026-08-04T19:46:57Z</time></trkpt><trkpt lat="60.446657" lon="-150.213464"><ele>78.016</ele><time>2026-08-04T19:47:03Z</time></trkpt><trkpt lat="60.446587" lon="-150.213442"><ele>78.270</ele><time>2026-08-04T19:47:09Z</time></trkpt><trkpt lat="60.446558" lon="-150.213437"><ele>78.428</ele><time>2026-08-04T19:47:11Z</time></trkpt><trkpt lat="60.446504" lon="-150.213412"><ele>78.421</ele><time>2026-08-04T19:47:16Z</time></trkpt><trkpt lat="60.446442" lon="-150.213354"><ele>79.017</ele><time>2026-08-04T19:47:22Z</time></trkpt><trkpt lat="60.446371" lon="-150.213275"><ele>79.487</ele><time>2026-08-04T19:47:29Z</time></trkpt><trkpt lat="60.446349" lon="-150.213225"><ele>79.415</ele><time>2026-08-04T19:47:32Z</time></trkpt><trkpt lat="60.446301" lon="-150.213177"><ele>80.209</ele><time>2026-08-04T19:47:37Z</time></trkpt><trkpt lat="60.446296" lon="-150.213176"><ele>80.423</ele><time>2026-08-04T19:47:38Z</time></trkpt><trkpt lat="60.44625" lon="-150.213157"><ele>80.298</ele><time>2026-08-04T19:47:42Z</time></trkpt><trkpt lat="60.446222" lon="-150.213142"><ele>79.838</ele><time>2026-08-04T19:47:44Z</time></trkpt><trkpt lat="60.4462" lon="-150.213127"><ele>79.249</ele><time>2026-08-04T19:47:46Z</time></trkpt><trkpt lat="60.446144" lon="-150.213073"><ele>78.835</ele><time>2026-08-04T19:47:52Z</time></trkpt><trkpt lat="60.446071" lon="-150.213026"><ele>78.466</ele><time>2026-08-04T19:47:58Z</time></trkpt><trkpt lat="60.446037" lon="-150.213031"><ele>78.210</ele><time>2026-08-04T19:48:00Z</time></trkpt><trkpt lat="60.445981" lon="-150.213041"><ele>78.068</ele><time>2026-08-04T19:48:05Z</time></trkpt><trkpt lat="60.445869" lon="-150.21305"><ele>78.251</ele><time>2026-08-04T19:48:14Z</time></trkpt><trkpt lat="60.445804" lon="-150.213029"><ele>79.292</ele><time>2026-08-04T19:48:20Z</time></trkpt><trkpt lat="60.445785" lon="-150.213022"><ele>79.473</ele><time>2026-08-04T19:48:22Z</time></trkpt><trkpt lat="60.445705" lon="-150.213034"><ele>79.620</ele><time>2026-08-04T19:48:29Z</time></trkpt><trkpt lat="60.445625" lon="-150.213017"><ele>80.209</ele><time>2026-08-04T19:48:36Z</time></trkpt><trkpt lat="60.445614" lon="-150.213013"><ele>80.451</ele><time>2026-08-04T19:48:37Z</time></trkpt><trkpt lat="60.445554" lon="-150.213004"><ele>80.846</ele><time>2026-08-04T19:48:43Z</time></trkpt><trkpt lat="60.445497" lon="-150.212968"><ele>81.456</ele><time>2026-08-04T19:48:49Z</time></trkpt><trkpt lat="60.445434" lon="-150.212998"><ele>81.817</ele><time>2026-08-04T19:48:55Z</time></trkpt><trkpt lat="60.445399" lon="-150.213065"><ele>82.473</ele><time>2026-08-04T19:49:00Z</time></trkpt><trkpt lat="60.445387" lon="-150.213104"><ele>82.654</ele><time>2026-08-04T19:49:02Z</time></trkpt><trkpt lat="60.445341" lon="-150.213186"><ele>83.658</ele><time>2026-08-04T19:49:09Z</time></trkpt><trkpt lat="60.445284" lon="-150.213211"><ele>84.896</ele><time>2026-08-04T19:49:15Z</time></trkpt><trkpt lat="60.445261" lon="-150.213214"><ele>85.029</ele><time>2026-08-04T19:49:17Z</time></trkpt><trkpt lat="60.445195" lon="-150.213262"><ele>85.247</ele><time>2026-08-04T19:49:24Z</time></trkpt><trkpt lat="60.445135" lon="-150.213364"><ele>85.429</ele><time>2026-08-04T19:49:32Z</time></trkpt><trkpt lat="60.445097" lon="-150.213511"><ele>85.621</ele><time>2026-08-04T19:49:39Z</time></trkpt><trkpt lat="60.445075" lon="-150.213585"><ele>85.409</ele><time>2026-08-04T19:49:43Z</time></trkpt><trkpt lat="60.445052" lon="-150.213654"><ele>85.876</ele><time>2026-08-04T19:49:47Z</time></trkpt><trkpt lat="60.445022" lon="-150.21375"><ele>85.671</ele><time>2026-08-04T19:49:52Z</time></trkpt><trkpt lat="60.444967" lon="-150.213903"><ele>86.261</ele><time>2026-08-04T19:50:00Z</time></trkpt><trkpt lat="60.444931" lon="-150.214008"><ele>86.852</ele><time>2026-08-04T19:50:05Z</time></trkpt><trkpt lat="60.444916" lon="-150.21407"><ele>87.028</ele><time>2026-08-04T19:50:08Z</time></trkpt><trkpt lat="60.444901" lon="-150.214192"><ele>87.459</ele><time>2026-08-04T19:50:14Z</time></trkpt><trkpt lat="60.444892" lon="-150.214206"><ele>87.453</ele><time>2026-08-04T19:50:15Z</time></trkpt><trkpt lat="60.444871" lon="-150.214241"><ele>87.891</ele><time>2026-08-04T19:50:18Z</time></trkpt><trkpt lat="60.444845" lon="-150.214313"><ele>88.024</ele><time>2026-08-04T19:50:22Z</time></trkpt><trkpt lat="60.444811" lon="-150.214438"><ele>88.049</ele><time>2026-08-04T19:50:29Z</time></trkpt><trkpt lat="60.444773" lon="-150.214564"><ele>87.202</ele><time>2026-08-04T19:50:36Z</time></trkpt><trkpt lat="60.444749" lon="-150.214615"><ele>87.222</ele><time>2026-08-04T19:50:38Z</time></trkpt><trkpt lat="60.444737" lon="-150.214638"><ele>87.409</ele><time>2026-08-04T19:50:39Z</time></trkpt><trkpt lat="60.444726" lon="-150.214664"><ele>87.656</ele><time>2026-08-04T19:50:40Z</time></trkpt><trkpt lat="60.44471" lon="-150.214692"><ele>88.291</ele><time>2026-08-04T19:50:42Z</time></trkpt><trkpt lat="60.444683" lon="-150.214707"><ele>89.031</ele><time>2026-08-04T19:50:45Z</time></trkpt><trkpt lat="60.444635" lon="-150.214743"><ele>89.492</ele><time>2026-08-04T19:50:49Z</time></trkpt><trkpt lat="60.444573" lon="-150.214804"><ele>89.658</ele><time>2026-08-04T19:50:56Z</time></trkpt><trkpt lat="60.444539" lon="-150.214801"><ele>89.449</ele><time>2026-08-04T19:51:01Z</time></trkpt><trkpt lat="60.444529" lon="-150.214805"><ele>89.463</ele><time>2026-08-04T19:51:02Z</time></trkpt><trkpt lat="60.444471" lon="-150.214844"><ele>90.071</ele><time>2026-08-04T19:51:07Z</time></trkpt><trkpt lat="60.444458" lon="-150.214858"><ele>90.074</ele><time>2026-08-04T19:51:08Z</time></trkpt><trkpt lat="60.444407" lon="-150.214895"><ele>88.827</ele><time>2026-08-04T19:51:13Z</time></trkpt><trkpt lat="60.444355" lon="-150.214937"><ele>89.268</ele><time>2026-08-04T19:51:18Z</time></trkpt><trkpt lat="60.444308" lon="-150.214951"><ele>89.214</ele><time>2026-08-04T19:51:22Z</time></trkpt><trkpt lat="60.4443" lon="-150.214953"><ele>89.209</ele><time>2026-08-04T19:51:23Z</time></trkpt><trkpt lat="60.444249" lon="-150.214961"><ele>88.674</ele><time>2026-08-04T19:51:29Z</time></trkpt><trkpt lat="60.444239" lon="-150.214861"><ele>88.689</ele><time>2026-08-04T19:51:35Z</time></trkpt><trkpt lat="60.444191" lon="-150.214683"><ele>89.239</ele><time>2026-08-04T19:51:43Z</time></trkpt><trkpt lat="60.444118" lon="-150.214499"><ele>88.620</ele><time>2026-08-04T19:51:52Z</time></trkpt><trkpt lat="60.444074" lon="-150.214331"><ele>87.856</ele><time>2026-08-04T19:52:00Z</time></trkpt><trkpt lat="60.444058" lon="-150.214188"><ele>86.867</ele><time>2026-08-04T19:52:06Z</time></trkpt><trkpt lat="60.444051" lon="-150.21413"><ele>86.821</ele><time>2026-08-04T19:52:08Z</time></trkpt><trkpt lat="60.444012" lon="-150.213986"><ele>85.439</ele><time>2026-08-04T19:52:15Z</time></trkpt><trkpt lat="60.443954" lon="-150.213857"><ele>84.622</ele><time>2026-08-04T19:52:22Z</time></trkpt><trkpt lat="60.443925" lon="-150.213728"><ele>84.265</ele><time>2026-08-04T19:52:27Z</time></trkpt><trkpt lat="60.443876" lon="-150.213642"><ele>83.468</ele><time>2026-08-04T19:52:32Z</time></trkpt><trkpt lat="60.44383" lon="-150.213507"><ele>83.214</ele><time>2026-08-04T19:52:39Z</time></trkpt><trkpt lat="60.443822" lon="-150.213484"><ele>83.009</ele><time>2026-08-04T19:52:40Z</time></trkpt><trkpt lat="60.443775" lon="-150.21338"><ele>82.458</ele><time>2026-08-04T19:52:46Z</time></trkpt><trkpt lat="60.443743" lon="-150.213292"><ele>82.013</ele><time>2026-08-04T19:52:50Z</time></trkpt><trkpt lat="60.443716" lon="-150.21323"><ele>81.893</ele><time>2026-08-04T19:52:54Z</time></trkpt><trkpt lat="60.443647" lon="-150.213136"><ele>81.614</ele><time>2026-08-04T19:53:01Z</time></trkpt><trkpt lat="60.443628" lon="-150.213134"><ele>81.050</ele><time>2026-08-04T19:53:05Z</time></trkpt><trkpt lat="60.443618" lon="-150.213128"><ele>81.091</ele><time>2026-08-04T19:53:06Z</time></trkpt><trkpt lat="60.443554" lon="-150.213021"><ele>80.495</ele><time>2026-08-04T19:53:12Z</time></trkpt><trkpt lat="60.443504" lon="-150.212932"><ele>81.413</ele><time>2026-08-04T19:53:18Z</time></trkpt><trkpt lat="60.443459" lon="-150.21276"><ele>80.616</ele><time>2026-08-04T19:53:25Z</time></trkpt><trkpt lat="60.443445" lon="-150.212696"><ele>80.655</ele><time>2026-08-04T19:53:27Z</time></trkpt><trkpt lat="60.443393" lon="-150.212571"><ele>79.807</ele><time>2026-08-04T19:53:33Z</time></trkpt><trkpt lat="60.443318" lon="-150.212538"><ele>80.017</ele><time>2026-08-04T19:53:39Z</time></trkpt><trkpt lat="60.443303" lon="-150.212522"><ele>80.009</ele><time>2026-08-04T19:53:41Z</time></trkpt><trkpt lat="60.443264" lon="-150.212482"><ele>79.637</ele><time>2026-08-04T19:53:45Z</time></trkpt><trkpt lat="60.44325" lon="-150.212465"><ele>79.412</ele><time>2026-08-04T19:53:46Z</time></trkpt><trkpt lat="60.443176" lon="-150.212379"><ele>79.252</ele><time>2026-08-04T19:53:53Z</time></trkpt><trkpt lat="60.443147" lon="-150.212358"><ele>79.093</ele><time>2026-08-04T19:53:55Z</time></trkpt><trkpt lat="60.443127" lon="-150.212341"><ele>78.879</ele><time>2026-08-04T19:53:57Z</time></trkpt><trkpt lat="60.443079" lon="-150.212296"><ele>78.640</ele><time>2026-08-04T19:54:02Z</time></trkpt><trkpt lat="60.443007" lon="-150.212242"><ele>78.024</ele><time>2026-08-04T19:54:09Z</time></trkpt><trkpt lat="60.442939" lon="-150.212216"><ele>79.012</ele><time>2026-08-04T19:54:15Z</time></trkpt><trkpt lat="60.442867" lon="-150.212185"><ele>78.435</ele><time>2026-08-04T19:54:22Z</time></trkpt><trkpt lat="60.442756" lon="-150.212205"><ele>78.246</ele><time>2026-08-04T19:54:31Z</time></trkpt><trkpt lat="60.442733" lon="-150.212198"><ele>77.688</ele><time>2026-08-04T19:54:33Z</time></trkpt><trkpt lat="60.442684" lon="-150.212145"><ele>77.016</ele><time>2026-08-04T19:54:38Z</time></trkpt><trkpt lat="60.442629" lon="-150.212035"><ele>76.609</ele><time>2026-08-04T19:54:44Z</time></trkpt><trkpt lat="60.442611" lon="-150.212034"><ele>76.616</ele><time>2026-08-04T19:54:45Z</time></trkpt><trkpt lat="60.442515" lon="-150.211965"><ele>76.431</ele><time>2026-08-04T19:54:54Z</time></trkpt><trkpt lat="60.442435" lon="-150.211888"><ele>76.241</ele><time>2026-08-04T19:55:01Z</time></trkpt><trkpt lat="60.442329" lon="-150.211833"><ele>75.482</ele><time>2026-08-04T19:55:10Z</time></trkpt><trkpt lat="60.442292" lon="-150.211682"><ele>74.468</ele><time>2026-08-04T19:55:17Z</time></trkpt><trkpt lat="60.442271" lon="-150.211677"><ele>74.049</ele><time>2026-08-04T19:55:19Z</time></trkpt><trkpt lat="60.44222" lon="-150.211672"><ele>73.453</ele><time>2026-08-04T19:55:24Z</time></trkpt><trkpt lat="60.442208" lon="-150.211664"><ele>73.441</ele><time>2026-08-04T19:55:25Z</time></trkpt><trkpt lat="60.442156" lon="-150.211553"><ele>73.234</ele><time>2026-08-04T19:55:31Z</time></trkpt><trkpt lat="60.442138" lon="-150.211518"><ele>73.475</ele><time>2026-08-04T19:55:33Z</time></trkpt><trkpt lat="60.442091" lon="-150.211446"><ele>74.028</ele><time>2026-08-04T19:55:38Z</time></trkpt><trkpt lat="60.442042" lon="-150.211251"><ele>73.620</ele><time>2026-08-04T19:55:47Z</time></trkpt><trkpt lat="60.441981" lon="-150.211103"><ele>73.409</ele><time>2026-08-04T19:55:56Z</time></trkpt><trkpt lat="60.441932" lon="-150.210948"><ele>73.869</ele><time>2026-08-04T19:56:03Z</time></trkpt><trkpt lat="60.441871" lon="-150.210753"><ele>72.844</ele><time>2026-08-04T19:56:12Z</time></trkpt><trkpt lat="60.44181" lon="-150.210656"><ele>72.494</ele><time>2026-08-04T19:56:18Z</time></trkpt><trkpt lat="60.441801" lon="-150.210644"><ele>72.215</ele><time>2026-08-04T19:56:19Z</time></trkpt><trkpt lat="60.441747" lon="-150.210542"><ele>71.891</ele><time>2026-08-04T19:56:25Z</time></trkpt><trkpt lat="60.441743" lon="-150.210518"><ele>71.842</ele><time>2026-08-04T19:56:26Z</time></trkpt><trkpt lat="60.441687" lon="-150.21038"><ele>71.236</ele><time>2026-08-04T19:56:33Z</time></trkpt><trkpt lat="60.441677" lon="-150.210369"><ele>71.234</ele><time>2026-08-04T19:56:34Z</time></trkpt><trkpt lat="60.441637" lon="-150.210252"><ele>70.227</ele><time>2026-08-04T19:56:40Z</time></trkpt><trkpt lat="60.441605" lon="-150.210227"><ele>69.836</ele><time>2026-08-04T19:56:43Z</time></trkpt><trkpt lat="60.441565" lon="-150.210153"><ele>70.017</ele><time>2026-08-04T19:56:47Z</time></trkpt><trkpt lat="60.441519" lon="-150.210055"><ele>70.418</ele><time>2026-08-04T19:56:53Z</time></trkpt><trkpt lat="60.44145" lon="-150.209949"><ele>69.809</ele><time>2026-08-04T19:57:01Z</time></trkpt><trkpt lat="60.441386" lon="-150.209897"><ele>69.055</ele><time>2026-08-04T19:57:07Z</time></trkpt><trkpt lat="60.441377" lon="-150.209881"><ele>68.840</ele><time>2026-08-04T19:57:08Z</time></trkpt><trkpt lat="60.44131" lon="-150.209805"><ele>68.490</ele><time>2026-08-04T19:57:15Z</time></trkpt><trkpt lat="60.441295" lon="-150.209797"><ele>68.051</ele><time>2026-08-04T19:57:17Z</time></trkpt><trkpt lat="60.441246" lon="-150.209772"><ele>67.477</ele><time>2026-08-04T19:57:22Z</time></trkpt><trkpt lat="60.441225" lon="-150.209745"><ele>66.818</ele><time>2026-08-04T19:57:24Z</time></trkpt><trkpt lat="60.441172" lon="-150.209637"><ele>65.682</ele><time>2026-08-04T19:57:29Z</time></trkpt><trkpt lat="60.441116" lon="-150.209491"><ele>65.230</ele><time>2026-08-04T19:57:35Z</time></trkpt><trkpt lat="60.441069" lon="-150.209467"><ele>65.413</ele><time>2026-08-04T19:57:40Z</time></trkpt><trkpt lat="60.441058" lon="-150.209472"><ele>65.471</ele><time>2026-08-04T19:57:41Z</time></trkpt><trkpt lat="60.441031" lon="-150.209456"><ele>65.441</ele><time>2026-08-04T19:57:44Z</time></trkpt><trkpt lat="60.440983" lon="-150.209447"><ele>65.415</ele><time>2026-08-04T19:57:48Z</time></trkpt><trkpt lat="60.4409" lon="-150.209449"><ele>64.809</ele><time>2026-08-04T19:57:55Z</time></trkpt><trkpt lat="60.440891" lon="-150.209449"><ele>64.679</ele><time>2026-08-04T19:57:56Z</time></trkpt><trkpt lat="60.440853" lon="-150.209415"><ele>63.434</ele><time>2026-08-04T19:58:00Z</time></trkpt><trkpt lat="60.440812" lon="-150.209407"><ele>62.894</ele><time>2026-08-04T19:58:03Z</time></trkpt><trkpt lat="60.440737" lon="-150.209409"><ele>62.485</ele><time>2026-08-04T19:58:09Z</time></trkpt><trkpt lat="60.440713" lon="-150.209393"><ele>62.471</ele><time>2026-08-04T19:58:11Z</time></trkpt><trkpt lat="60.440665" lon="-150.209401"><ele>62.492</ele><time>2026-08-04T19:58:15Z</time></trkpt><trkpt lat="60.440591" lon="-150.2094"><ele>62.286</ele><time>2026-08-04T19:58:21Z</time></trkpt><trkpt lat="60.440511" lon="-150.209421"><ele>61.884</ele><time>2026-08-04T19:58:28Z</time></trkpt><trkpt lat="60.440453" lon="-150.209437"><ele>62.297</ele><time>2026-08-04T19:58:34Z</time></trkpt><trkpt lat="60.440381" lon="-150.209489"><ele>61.627</ele><time>2026-08-04T19:58:41Z</time></trkpt><trkpt lat="60.44037" lon="-150.209495"><ele>61.468</ele><time>2026-08-04T19:58:42Z</time></trkpt><trkpt lat="60.440303" lon="-150.209465"><ele>60.614</ele><time>2026-08-04T19:58:48Z</time></trkpt><trkpt lat="60.440221" lon="-150.209402"><ele>60.209</ele><time>2026-08-04T19:58:56Z</time></trkpt><trkpt lat="60.440139" lon="-150.209461"><ele>59.864</ele><time>2026-08-04T19:59:05Z</time></trkpt><trkpt lat="60.440105" lon="-150.20958"><ele>59.449</ele><time>2026-08-04T19:59:12Z</time></trkpt><trkpt lat="60.440094" lon="-150.209604"><ele>59.259</ele><time>2026-08-04T19:59:13Z</time></trkpt><trkpt lat="60.44004" lon="-150.209623"><ele>58.820</ele><time>2026-08-04T19:59:19Z</time></trkpt><trkpt lat="60.439966" lon="-150.209724"><ele>58.286</ele><time>2026-08-04T19:59:27Z</time></trkpt><trkpt lat="60.439907" lon="-150.209819"><ele>58.267</ele><time>2026-08-04T19:59:36Z</time></trkpt><trkpt lat="60.439869" lon="-150.209814"><ele>58.661</ele><time>2026-08-04T19:59:40Z</time></trkpt><trkpt lat="60.439841" lon="-150.209792"><ele>58.699</ele><time>2026-08-04T19:59:44Z</time></trkpt><trkpt lat="60.43976" lon="-150.209808"><ele>58.012</ele><time>2026-08-04T19:59:55Z</time></trkpt><trkpt lat="60.439689" lon="-150.20983"><ele>58.664</ele><time>2026-08-04T20:00:02Z</time></trkpt><trkpt lat="60.439598" lon="-150.2098"><ele>58.406</ele><time>2026-08-04T20:00:10Z</time></trkpt><trkpt lat="60.439571" lon="-150.209801"><ele>58.016</ele><time>2026-08-04T20:00:16Z</time></trkpt><trkpt lat="60.439574" lon="-150.209802"><ele>58.209</ele><time>2026-08-04T20:00:21Z</time></trkpt><trkpt lat="60.439568" lon="-150.209789"><ele>58.478</ele><time>2026-08-04T20:00:27Z</time></trkpt><trkpt lat="60.43953" lon="-150.209829"><ele>57.423</ele><time>2026-08-04T20:00:36Z</time></trkpt><trkpt lat="60.439522" lon="-150.209846"><ele>57.453</ele><time>2026-08-04T20:00:43Z</time></trkpt><trkpt lat="60.439455" lon="-150.209884"><ele>58.484</ele><time>2026-08-04T20:00:50Z</time></trkpt><trkpt lat="60.439414" lon="-150.209879"><ele>58.640</ele><time>2026-08-04T20:00:57Z</time></trkpt><trkpt lat="60.439409" lon="-150.209863"><ele>58.621</ele><time>2026-08-04T20:01:01Z</time></trkpt><trkpt lat="60.439401" lon="-150.209862"><ele>58.255</ele><time>2026-08-04T20:01:05Z</time></trkpt><trkpt lat="60.4394" lon="-150.209861"><ele>58.233</ele><time>2026-08-04T20:01:06Z</time></trkpt><trkpt lat="60.439403" lon="-150.209862"><ele>58.246</ele><time>2026-08-04T20:01:09Z</time></trkpt><trkpt lat="60.439404" lon="-150.209863"><ele>58.271</ele><time>2026-08-04T20:01:10Z</time></trkpt><trkpt lat="60.439374" lon="-150.209885"><ele>58.041</ele><time>2026-08-04T20:01:16Z</time></trkpt><trkpt lat="60.439315" lon="-150.209921"><ele>58.815</ele><time>2026-08-04T20:01:22Z</time></trkpt><trkpt lat="60.43921" lon="-150.210015"><ele>58.209</ele><time>2026-08-04T20:01:31Z</time></trkpt><trkpt lat="60.439079" lon="-150.210025"><ele>58.239</ele><time>2026-08-04T20:01:41Z</time></trkpt><trkpt lat="60.439003" lon="-150.210034"><ele>58.294</ele><time>2026-08-04T20:01:50Z</time></trkpt><trkpt lat="60.438985" lon="-150.209976"><ele>58.684</ele><time>2026-08-04T20:01:53Z</time></trkpt><trkpt lat="60.43895" lon="-150.209887"><ele>58.485</ele><time>2026-08-04T20:01:56Z</time></trkpt><trkpt lat="60.438894" lon="-150.209712"><ele>58.691</ele><time>2026-08-04T20:02:04Z</time></trkpt><trkpt lat="60.4389" lon="-150.20958"><ele>58.652</ele><time>2026-08-04T20:02:10Z</time></trkpt><trkpt lat="60.438869" lon="-150.209438"><ele>58.696</ele><time>2026-08-04T20:02:17Z</time></trkpt><trkpt lat="60.438833" lon="-150.20928"><ele>58.864</ele><time>2026-08-04T20:02:25Z</time></trkpt><trkpt lat="60.43881" lon="-150.209226"><ele>59.297</ele><time>2026-08-04T20:02:29Z</time></trkpt><trkpt lat="60.438802" lon="-150.209201"><ele>59.245</ele><time>2026-08-04T20:02:31Z</time></trkpt><trkpt lat="60.438795" lon="-150.209135"><ele>59.447</ele><time>2026-08-04T20:02:34Z</time></trkpt><trkpt lat="60.438774" lon="-150.209017"><ele>59.211</ele><time>2026-08-04T20:02:39Z</time></trkpt><trkpt lat="60.438707" lon="-150.208872"><ele>58.809</ele><time>2026-08-04T20:02:47Z</time></trkpt><trkpt lat="60.438659" lon="-150.20875"><ele>58.076</ele><time>2026-08-04T20:02:54Z</time></trkpt><trkpt lat="60.438655" lon="-150.208734"><ele>57.851</ele><time>2026-08-04T20:02:55Z</time></trkpt><trkpt lat="60.43864" lon="-150.208672"><ele>57.881</ele><time>2026-08-04T20:02:58Z</time></trkpt><trkpt lat="60.438612" lon="-150.20856"><ele>58.422</ele><time>2026-08-04T20:03:04Z</time></trkpt><trkpt lat="60.438564" lon="-150.208409"><ele>58.858</ele><time>2026-08-04T20:03:13Z</time></trkpt><trkpt lat="60.438526" lon="-150.208411"><ele>59.039</ele><time>2026-08-04T20:03:17Z</time></trkpt><trkpt lat="60.438485" lon="-150.208381"><ele>59.273</ele><time>2026-08-04T20:03:21Z</time></trkpt><trkpt lat="60.438416" lon="-150.208293"><ele>59.221</ele><time>2026-08-04T20:03:29Z</time></trkpt><trkpt lat="60.438422" lon="-150.208279"><ele>58.894</ele><time>2026-08-04T20:03:36Z</time></trkpt><trkpt lat="60.438424" lon="-150.208278"><ele>58.022</ele><time>2026-08-04T20:03:41Z</time></trkpt><trkpt lat="60.438419" lon="-150.208293"><ele>57.462</ele><time>2026-08-04T20:03:50Z</time></trkpt><trkpt lat="60.438415" lon="-150.208282"><ele>57.608</ele><time>2026-08-04T20:03:52Z</time></trkpt><trkpt lat="60.438415" lon="-150.20828"><ele>57.609</ele><time>2026-08-04T20:03:54Z</time></trkpt><trkpt lat="60.438412" lon="-150.208293"><ele>57.474</ele><time>2026-08-04T20:04:06Z</time></trkpt><trkpt lat="60.438411" lon="-150.208294"><ele>56.819</ele><time>2026-08-04T20:04:09Z</time></trkpt><trkpt lat="60.438399" lon="-150.208273"><ele>59.039</ele><time>2026-08-04T20:04:17Z</time></trkpt><trkpt lat="60.438403" lon="-150.208281"><ele>60.620</ele><time>2026-08-04T20:04:19Z</time></trkpt><trkpt lat="60.438409" lon="-150.208285"><ele>59.826</ele><time>2026-08-04T20:04:21Z</time></trkpt><trkpt lat="60.438411" lon="-150.208285"><ele>59.467</ele><time>2026-08-04T20:04:22Z</time></trkpt><trkpt lat="60.438412" lon="-150.208286"><ele>59.011</ele><time>2026-08-04T20:04:23Z</time></trkpt><trkpt lat="60.438411" lon="-150.208279"><ele>58.229</ele><time>2026-08-04T20:04:25Z</time></trkpt><trkpt lat="60.438411" lon="-150.208279"><ele>58.242</ele><time>2026-08-04T20:04:26Z</time></trkpt><trkpt lat="60.438406" lon="-150.208273"><ele>58.618</ele><time>2026-08-04T20:04:30Z</time></trkpt><trkpt lat="60.438404" lon="-150.208277"><ele>59.098</ele><time>2026-08-04T20:04:34Z</time></trkpt><trkpt lat="60.438402" lon="-150.20828"><ele>58.617</ele><time>2026-08-04T20:04:40Z</time></trkpt><trkpt lat="60.438383" lon="-150.208293"><ele>59.009</ele><time>2026-08-04T20:04:50Z</time></trkpt><trkpt lat="60.438378" lon="-150.2083"><ele>59.243</ele><time>2026-08-04T20:04:52Z</time></trkpt><trkpt lat="60.438367" lon="-150.208305"><ele>58.818</ele><time>2026-08-04T20:04:56Z</time></trkpt><trkpt lat="60.438363" lon="-150.208303"><ele>58.648</ele><time>2026-08-04T20:04:58Z</time></trkpt><trkpt lat="60.438366" lon="-150.208299"><ele>59.099</ele><time>2026-08-04T20:05:03Z</time></trkpt><trkpt lat="60.438349" lon="-150.208307"><ele>58.825</ele><time>2026-08-04T20:05:08Z</time></trkpt><trkpt lat="60.438301" lon="-150.208308"><ele>58.236</ele><time>2026-08-04T20:05:14Z</time></trkpt><trkpt lat="60.438272" lon="-150.208307"><ele>58.610</ele><time>2026-08-04T20:05:19Z</time></trkpt><trkpt lat="60.438262" lon="-150.208312"><ele>58.638</ele><time>2026-08-04T20:05:25Z</time></trkpt><trkpt lat="60.438259" lon="-150.208324"><ele>58.621</ele><time>2026-08-04T20:05:28Z</time></trkpt><trkpt lat="60.438243" lon="-150.208318"><ele>58.251</ele><time>2026-08-04T20:05:36Z</time></trkpt><trkpt lat="60.43822" lon="-150.208291"><ele>58.201</ele><time>2026-08-04T20:05:45Z</time></trkpt><trkpt lat="60.438212" lon="-150.208266"><ele>58.011</ele><time>2026-08-04T20:05:53Z</time></trkpt><trkpt lat="60.438209" lon="-150.20827"><ele>58.009</ele><time>2026-08-04T20:05:55Z</time></trkpt><trkpt lat="60.438226" lon="-150.208296"><ele>58.647</ele><time>2026-08-04T20:06:02Z</time></trkpt><trkpt lat="60.438237" lon="-150.2083"><ele>58.682</ele><time>2026-08-04T20:06:03Z</time></trkpt><trkpt lat="60.438259" lon="-150.208308"><ele>58.822</ele><time>2026-08-04T20:06:11Z</time></trkpt><trkpt lat="60.438221" lon="-150.20828"><ele>58.233</ele><time>2026-08-04T20:06:21Z</time></trkpt><trkpt lat="60.43815" lon="-150.208179"><ele>57.899</ele><time>2026-08-04T20:06:30Z</time></trkpt><trkpt lat="60.438093" lon="-150.208068"><ele>57.250</ele><time>2026-08-04T20:06:38Z</time></trkpt><trkpt lat="60.438086" lon="-150.208065"><ele>57.044</ele><time>2026-08-04T20:06:40Z</time></trkpt><trkpt lat="60.438083" lon="-150.208068"><ele>57.282</ele><time>2026-08-04T20:06:46Z</time></trkpt><trkpt lat="60.438087" lon="-150.208075"><ele>57.485</ele><time>2026-08-04T20:06:53Z</time></trkpt><trkpt lat="60.438086" lon="-150.208074"><ele>57.457</ele><time>2026-08-04T20:06:57Z</time></trkpt><trkpt lat="60.438087" lon="-150.208075"><ele>58.200</ele><time>2026-08-04T20:07:03Z</time></trkpt><trkpt lat="60.438087" lon="-150.208075"><ele>57.820</ele><time>2026-08-04T20:07:09Z</time></trkpt><trkpt lat="60.438087" lon="-150.208075"><ele>57.409</ele><time>2026-08-04T20:07:14Z</time></trkpt><trkpt lat="60.438087" lon="-150.208075"><ele>57.077</ele><time>2026-08-04T20:07:15Z</time></trkpt><trkpt lat="60.438087" lon="-150.208075"><ele>57.872</ele><time>2026-08-04T20:07:20Z</time></trkpt><trkpt lat="60.438087" lon="-150.208075"><ele>58.062</ele><time>2026-08-04T20:07:23Z</time></trkpt><trkpt lat="60.438087" lon="-150.208075"><ele>57.613</ele><time>2026-08-04T20:07:30Z</time></trkpt><trkpt lat="60.438087" lon="-150.208075"><ele>57.439</ele><time>2026-08-04T20:07:32Z</time></trkpt><trkpt lat="60.438084" lon="-150.208114"><ele>58.030</ele><time>2026-08-04T20:07:37Z</time></trkpt><trkpt lat="60.438099" lon="-150.208215"><ele>58.814</ele><time>2026-08-04T20:07:42Z</time></trkpt><trkpt lat="60.438102" lon="-150.208232"><ele>59.092</ele><time>2026-08-04T20:07:43Z</time></trkpt><trkpt lat="60.438106" lon="-150.208253"><ele>59.065</ele><time>2026-08-04T20:07:44Z</time></trkpt><trkpt lat="60.438108" lon="-150.208423"><ele>58.628</ele><time>2026-08-04T20:07:52Z</time></trkpt><trkpt lat="60.438116" lon="-150.208546"><ele>59.689</ele><time>2026-08-04T20:07:58Z</time></trkpt><trkpt lat="60.438121" lon="-150.208591"><ele>59.417</ele><time>2026-08-04T20:08:00Z</time></trkpt><trkpt lat="60.438142" lon="-150.208653"><ele>59.009</ele><time>2026-08-04T20:08:06Z</time></trkpt><trkpt lat="60.43814" lon="-150.208659"><ele>59.044</ele><time>2026-08-04T20:08:07Z</time></trkpt><trkpt lat="60.43814" lon="-150.208676"><ele>59.049</ele><time>2026-08-04T20:08:08Z</time></trkpt><trkpt lat="60.438147" lon="-150.208754"><ele>59.279</ele><time>2026-08-04T20:08:12Z</time></trkpt><trkpt lat="60.43814" lon="-150.208768"><ele>59.280</ele><time>2026-08-04T20:08:13Z</time></trkpt><trkpt lat="60.438129" lon="-150.208822"><ele>59.286</ele><time>2026-08-04T20:08:17Z</time></trkpt><trkpt lat="60.438131" lon="-150.208835"><ele>59.297</ele><time>2026-08-04T20:08:18Z</time></trkpt><trkpt lat="60.438136" lon="-150.208844"><ele>59.231</ele><time>2026-08-04T20:08:25Z</time></trkpt><trkpt lat="60.438145" lon="-150.208917"><ele>59.049</ele><time>2026-08-04T20:08:31Z</time></trkpt><trkpt lat="60.43815" lon="-150.208918"><ele>58.422</ele><time>2026-08-04T20:08:40Z</time></trkpt><trkpt lat="60.438152" lon="-150.208945"><ele>59.061</ele><time>2026-08-04T20:08:50Z</time></trkpt><trkpt lat="60.438178" lon="-150.209127"><ele>58.621</ele><time>2026-08-04T20:08:58Z</time></trkpt><trkpt lat="60.438179" lon="-150.209204"><ele>58.813</ele><time>2026-08-04T20:09:02Z</time></trkpt><trkpt lat="60.438178" lon="-150.209281"><ele>58.609</ele><time>2026-08-04T20:09:05Z</time></trkpt><trkpt lat="60.438176" lon="-150.20934"><ele>58.458</ele><time>2026-08-04T20:09:11Z</time></trkpt><trkpt lat="60.438214" lon="-150.209418"><ele>58.043</ele><time>2026-08-04T20:09:16Z</time></trkpt><trkpt lat="60.438238" lon="-150.20945"><ele>57.623</ele><time>2026-08-04T20:09:19Z</time></trkpt><trkpt lat="60.438285" lon="-150.20958"><ele>58.244</ele><time>2026-08-04T20:09:27Z</time></trkpt><trkpt lat="60.438285" lon="-150.209605"><ele>58.290</ele><time>2026-08-04T20:09:28Z</time></trkpt><trkpt lat="60.438301" lon="-150.20972"><ele>58.221</ele><time>2026-08-04T20:09:34Z</time></trkpt><trkpt lat="60.438311" lon="-150.209771"><ele>59.015</ele><time>2026-08-04T20:09:40Z</time></trkpt><trkpt lat="60.438307" lon="-150.20978"><ele>59.063</ele><time>2026-08-04T20:09:41Z</time></trkpt><trkpt lat="60.438299" lon="-150.209788"><ele>59.286</ele><time>2026-08-04T20:09:42Z</time></trkpt><trkpt lat="60.438249" lon="-150.20988"><ele>58.298</ele><time>2026-08-04T20:09:50Z</time></trkpt><trkpt lat="60.438247" lon="-150.210026"><ele>58.615</ele><time>2026-08-04T20:09:57Z</time></trkpt><trkpt lat="60.438259" lon="-150.210178"><ele>58.026</ele><time>2026-08-04T20:10:04Z</time></trkpt><trkpt lat="60.438263" lon="-150.210196"><ele>57.809</ele><time>2026-08-04T20:10:05Z</time></trkpt><trkpt lat="60.438276" lon="-150.210299"><ele>58.071</ele><time>2026-08-04T20:10:12Z</time></trkpt><trkpt lat="60.438246" lon="-150.210456"><ele>58.446</ele><time>2026-08-04T20:10:21Z</time></trkpt><trkpt lat="60.438242" lon="-150.210595"><ele>58.236</ele><time>2026-08-04T20:10:27Z</time></trkpt><trkpt lat="60.438245" lon="-150.210623"><ele>58.227</ele><time>2026-08-04T20:10:28Z</time></trkpt><trkpt lat="60.438248" lon="-150.210754"><ele>58.453</ele><time>2026-08-04T20:10:34Z</time></trkpt><trkpt lat="60.438235" lon="-150.210772"><ele>58.244</ele><time>2026-08-04T20:10:36Z</time></trkpt><trkpt lat="60.438223" lon="-150.210799"><ele>58.478</ele><time>2026-08-04T20:10:38Z</time></trkpt><trkpt lat="60.43822" lon="-150.210836"><ele>58.436</ele><time>2026-08-04T20:10:40Z</time></trkpt><trkpt lat="60.438229" lon="-150.210862"><ele>58.629</ele><time>2026-08-04T20:10:42Z</time></trkpt><trkpt lat="60.43826" lon="-150.21093"><ele>58.242</ele><time>2026-08-04T20:10:47Z</time></trkpt><trkpt lat="60.438278" lon="-150.211023"><ele>58.622</ele><time>2026-08-04T20:10:54Z</time></trkpt><trkpt lat="60.438279" lon="-150.211089"><ele>57.814</ele><time>2026-08-04T20:10:57Z</time></trkpt><trkpt lat="60.43828" lon="-150.211171"><ele>57.409</ele><time>2026-08-04T20:11:01Z</time></trkpt><trkpt lat="60.438266" lon="-150.211308"><ele>58.026</ele><time>2026-08-04T20:11:08Z</time></trkpt><trkpt lat="60.438246" lon="-150.211364"><ele>58.011</ele><time>2026-08-04T20:11:11Z</time></trkpt><trkpt lat="60.43826" lon="-150.21141"><ele>58.251</ele><time>2026-08-04T20:11:13Z</time></trkpt><trkpt lat="60.438271" lon="-150.211523"><ele>58.452</ele><time>2026-08-04T20:11:19Z</time></trkpt><trkpt lat="60.438253" lon="-150.211546"><ele>58.048</ele><time>2026-08-04T20:11:22Z</time></trkpt><trkpt lat="60.438257" lon="-150.211586"><ele>58.059</ele><time>2026-08-04T20:11:24Z</time></trkpt><trkpt lat="60.438253" lon="-150.211601"><ele>58.253</ele><time>2026-08-04T20:11:28Z</time></trkpt><trkpt lat="60.438251" lon="-150.211587"><ele>58.271</ele><time>2026-08-04T20:11:29Z</time></trkpt><trkpt lat="60.438219" lon="-150.211592"><ele>57.844</ele><time>2026-08-04T20:11:33Z</time></trkpt><trkpt lat="60.438239" lon="-150.211698"><ele>57.872</ele><time>2026-08-04T20:11:40Z</time></trkpt><trkpt lat="60.438243" lon="-150.211804"><ele>58.013</ele><time>2026-08-04T20:11:47Z</time></trkpt><trkpt lat="60.438243" lon="-150.211808"><ele>58.414</ele><time>2026-08-04T20:11:52Z</time></trkpt><trkpt lat="60.438244" lon="-150.211835"><ele>58.409</ele><time>2026-08-04T20:11:53Z</time></trkpt><trkpt lat="60.438254" lon="-150.211869"><ele>58.279</ele><time>2026-08-04T20:11:55Z</time></trkpt><trkpt lat="60.43826" lon="-150.211865"><ele>58.634</ele><time>2026-08-04T20:11:59Z</time></trkpt><trkpt lat="60.438258" lon="-150.211865"><ele>59.034</ele><time>2026-08-04T20:12:01Z</time></trkpt><trkpt lat="60.438277" lon="-150.211885"><ele>58.235</ele><time>2026-08-04T20:12:10Z</time></trkpt><trkpt lat="60.438283" lon="-150.211888"><ele>58.091</ele><time>2026-08-04T20:12:17Z</time></trkpt><trkpt lat="60.43829" lon="-150.211878"><ele>58.652</ele><time>2026-08-04T20:12:21Z</time></trkpt><trkpt lat="60.438295" lon="-150.211822"><ele>59.056</ele><time>2026-08-04T20:12:29Z</time></trkpt><trkpt lat="60.438284" lon="-150.211774"><ele>57.874</ele><time>2026-08-04T20:12:34Z</time></trkpt><trkpt lat="60.438282" lon="-150.211758"><ele>58.087</ele><time>2026-08-04T20:12:35Z</time></trkpt><trkpt lat="60.438281" lon="-150.211738"><ele>58.211</ele><time>2026-08-04T20:12:36Z</time></trkpt><trkpt lat="60.438278" lon="-150.211717"><ele>58.421</ele><time>2026-08-04T20:12:37Z</time></trkpt><trkpt lat="60.438275" lon="-150.211667"><ele>58.803</ele><time>2026-08-04T20:12:40Z</time></trkpt><trkpt lat="60.438293" lon="-150.211626"><ele>59.009</ele><time>2026-08-04T20:12:45Z</time></trkpt><trkpt lat="60.438305" lon="-150.211588"><ele>59.083</ele><time>2026-08-04T20:12:53Z</time></trkpt><trkpt lat="60.438279" lon="-150.211502"><ele>59.068</ele><time>2026-08-04T20:12:59Z</time></trkpt><trkpt lat="60.438271" lon="-150.211495"><ele>59.068</ele><time>2026-08-04T20:13:00Z</time></trkpt><trkpt lat="60.438239" lon="-150.211379"><ele>58.849</ele><time>2026-08-04T20:13:06Z</time></trkpt><trkpt lat="60.438245" lon="-150.211334"><ele>58.635</ele><time>2026-08-04T20:13:09Z</time></trkpt><trkpt lat="60.438258" lon="-150.211306"><ele>58.656</ele><time>2026-08-04T20:13:12Z</time></trkpt><trkpt lat="60.438262" lon="-150.211183"><ele>58.020</ele><time>2026-08-04T20:13:20Z</time></trkpt><trkpt lat="60.438259" lon="-150.211146"><ele>57.848</ele><time>2026-08-04T20:13:22Z</time></trkpt><trkpt lat="60.438258" lon="-150.211087"><ele>57.841</ele><time>2026-08-04T20:13:25Z</time></trkpt><trkpt lat="60.438254" lon="-150.211031"><ele>58.623</ele><time>2026-08-04T20:13:29Z</time></trkpt><trkpt lat="60.438251" lon="-150.211016"><ele>59.083</ele><time>2026-08-04T20:13:30Z</time></trkpt><trkpt lat="60.438264" lon="-150.210855"><ele>59.611</ele><time>2026-08-04T20:13:38Z</time></trkpt><trkpt lat="60.43826" lon="-150.210813"><ele>59.009</ele><time>2026-08-04T20:13:41Z</time></trkpt><trkpt lat="60.438257" lon="-150.210812"><ele>58.654</ele><time>2026-08-04T20:13:44Z</time></trkpt><trkpt lat="60.438237" lon="-150.210759"><ele>58.099</ele><time>2026-08-04T20:13:52Z</time></trkpt><trkpt lat="60.438237" lon="-150.210749"><ele>58.059</ele><time>2026-08-04T20:13:53Z</time></trkpt><trkpt lat="60.438234" lon="-150.210647"><ele>58.650</ele><time>2026-08-04T20:13:57Z</time></trkpt><trkpt lat="60.438235" lon="-150.21061"><ele>60.076</ele><time>2026-08-04T20:13:59Z</time></trkpt><trkpt lat="60.438234" lon="-150.210451"><ele>59.237</ele><time>2026-08-04T20:14:06Z</time></trkpt><trkpt lat="60.438234" lon="-150.210433"><ele>59.061</ele><time>2026-08-04T20:14:07Z</time></trkpt><trkpt lat="60.43825" lon="-150.210325"><ele>58.859</ele><time>2026-08-04T20:14:13Z</time></trkpt><trkpt lat="60.438266" lon="-150.210274"><ele>59.242</ele><time>2026-08-04T20:14:18Z</time></trkpt><trkpt lat="60.438282" lon="-150.210217"><ele>58.848</ele><time>2026-08-04T20:14:25Z</time></trkpt><trkpt lat="60.438315" lon="-150.210203"><ele>58.461</ele><time>2026-08-04T20:14:29Z</time></trkpt><trkpt lat="60.438319" lon="-150.210199"><ele>58.617</ele><time>2026-08-04T20:14:31Z</time></trkpt><trkpt lat="60.438348" lon="-150.21019"><ele>58.409</ele><time>2026-08-04T20:14:38Z</time></trkpt><trkpt lat="60.438383" lon="-150.210187"><ele>58.646</ele><time>2026-08-04T20:14:46Z</time></trkpt><trkpt lat="60.438428" lon="-150.210232"><ele>58.411</ele><time>2026-08-04T20:14:55Z</time></trkpt><trkpt lat="60.438464" lon="-150.210264"><ele>58.811</ele><time>2026-08-04T20:15:04Z</time></trkpt><trkpt lat="60.438498" lon="-150.210306"><ele>59.072</ele><time>2026-08-04T20:15:11Z</time></trkpt><trkpt lat="60.438565" lon="-150.210424"><ele>59.038</ele><time>2026-08-04T20:15:20Z</time></trkpt><trkpt lat="60.438558" lon="-150.210486"><ele>59.269</ele><time>2026-08-04T20:15:26Z</time></trkpt><trkpt lat="60.438551" lon="-150.210494"><ele>59.283</ele><time>2026-08-04T20:15:37Z</time></trkpt><trkpt lat="60.438548" lon="-150.210482"><ele>59.051</ele><time>2026-08-04T20:15:41Z</time></trkpt><trkpt lat="60.43855" lon="-150.210554"><ele>59.494</ele><time>2026-08-04T20:15:48Z</time></trkpt><trkpt lat="60.43857" lon="-150.210714"><ele>58.817</ele><time>2026-08-04T20:15:54Z</time></trkpt><trkpt lat="60.438573" lon="-150.21075"><ele>58.887</ele><time>2026-08-04T20:15:55Z</time></trkpt><trkpt lat="60.438574" lon="-150.21078"><ele>58.815</ele><time>2026-08-04T20:15:56Z</time></trkpt><trkpt lat="60.438575" lon="-150.21081"><ele>58.809</ele><time>2026-08-04T20:15:57Z</time></trkpt><trkpt lat="60.438588" lon="-150.210975"><ele>58.443</ele><time>2026-08-04T20:16:03Z</time></trkpt><trkpt lat="60.438595" lon="-150.211218"><ele>58.888</ele><time>2026-08-04T20:16:12Z</time></trkpt><trkpt lat="60.438602" lon="-150.211373"><ele>59.038</ele><time>2026-08-04T20:16:18Z</time></trkpt><trkpt lat="60.438612" lon="-150.211646"><ele>59.489</ele><time>2026-08-04T20:16:28Z</time></trkpt><trkpt lat="60.438607" lon="-150.211801"><ele>59.065</ele><time>2026-08-04T20:16:35Z</time></trkpt><trkpt lat="60.438624" lon="-150.211848"><ele>59.016</ele><time>2026-08-04T20:16:37Z</time></trkpt><trkpt lat="60.438633" lon="-150.21204"><ele>59.490</ele><time>2026-08-04T20:16:44Z</time></trkpt><trkpt lat="60.43865" lon="-150.212237"><ele>59.078</ele><time>2026-08-04T20:16:52Z</time></trkpt><trkpt lat="60.438688" lon="-150.212412"><ele>58.411</ele><time>2026-08-04T20:16:59Z</time></trkpt><trkpt lat="60.438711" lon="-150.212628"><ele>59.233</ele><time>2026-08-04T20:17:07Z</time></trkpt><trkpt lat="60.438721" lon="-150.212922"><ele>59.223</ele><time>2026-08-04T20:17:19Z</time></trkpt><trkpt lat="60.438744" lon="-150.213068"><ele>59.015</ele><time>2026-08-04T20:17:26Z</time></trkpt><trkpt lat="60.438774" lon="-150.213213"><ele>59.409</ele><time>2026-08-04T20:17:32Z</time></trkpt><trkpt lat="60.438766" lon="-150.213421"><ele>59.445</ele><time>2026-08-04T20:17:41Z</time></trkpt><trkpt lat="60.438784" lon="-150.213652"><ele>58.620</ele><time>2026-08-04T20:17:51Z</time></trkpt><trkpt lat="60.438782" lon="-150.213737"><ele>58.240</ele><time>2026-08-04T20:17:55Z</time></trkpt><trkpt lat="60.438771" lon="-150.213798"><ele>58.051</ele><time>2026-08-04T20:17:58Z</time></trkpt><trkpt lat="60.438753" lon="-150.213862"><ele>57.857</ele><time>2026-08-04T20:18:00Z</time></trkpt><trkpt lat="60.43872" lon="-150.214022"><ele>57.438</ele><time>2026-08-04T20:18:06Z</time></trkpt><trkpt lat="60.438683" lon="-150.21419"><ele>57.452</ele><time>2026-08-04T20:18:14Z</time></trkpt><trkpt lat="60.438658" lon="-150.214221"><ele>57.640</ele><time>2026-08-04T20:18:16Z</time></trkpt><trkpt lat="60.438636" lon="-150.214301"><ele>57.893</ele><time>2026-08-04T20:18:20Z</time></trkpt><trkpt lat="60.438586" lon="-150.214424"><ele>58.067</ele><time>2026-08-04T20:18:27Z</time></trkpt><trkpt lat="60.438517" lon="-150.214596"><ele>57.881</ele><time>2026-08-04T20:18:36Z</time></trkpt><trkpt lat="60.438486" lon="-150.214768"><ele>58.219</ele><time>2026-08-04T20:18:43Z</time></trkpt><trkpt lat="60.438466" lon="-150.215027"><ele>58.209</ele><time>2026-08-04T20:18:53Z</time></trkpt><trkpt lat="60.438439" lon="-150.215278"><ele>57.678</ele><time>2026-08-04T20:19:03Z</time></trkpt><trkpt lat="60.438393" lon="-150.215435"><ele>57.243</ele><time>2026-08-04T20:19:11Z</time></trkpt><trkpt lat="60.438388" lon="-150.215424"><ele>57.213</ele><time>2026-08-04T20:19:12Z</time></trkpt><trkpt lat="60.438337" lon="-150.21539"><ele>57.474</ele><time>2026-08-04T20:19:18Z</time></trkpt><trkpt lat="60.438268" lon="-150.215313"><ele>57.480</ele><time>2026-08-04T20:19:27Z</time></trkpt><trkpt lat="60.438266" lon="-150.215291"><ele>57.411</ele><time>2026-08-04T20:19:29Z</time></trkpt><trkpt lat="60.438404" lon="-150.215473"><ele>59.695</ele><time>2026-08-04T20:42:09Z</time></trkpt><trkpt lat="60.43841" lon="-150.215479"><ele>59.833</ele><time>2026-08-04T20:42:10Z</time></trkpt><trkpt lat="60.438416" lon="-150.215506"><ele>59.816</ele><time>2026-08-04T20:42:12Z</time></trkpt><trkpt lat="60.43843" lon="-150.21556"><ele>59.674</ele><time>2026-08-04T20:42:19Z</time></trkpt><trkpt lat="60.438429" lon="-150.215575"><ele>59.856</ele><time>2026-08-04T20:42:23Z</time></trkpt><trkpt lat="60.438436" lon="-150.215599"><ele>60.021</ele><time>2026-08-04T20:42:27Z</time></trkpt><trkpt lat="60.438454" lon="-150.215652"><ele>59.609</ele><time>2026-08-04T20:42:34Z</time></trkpt><trkpt lat="60.438455" lon="-150.215661"><ele>59.639</ele><time>2026-08-04T20:42:35Z</time></trkpt><trkpt lat="60.43846" lon="-150.215672"><ele>59.494</ele><time>2026-08-04T20:42:38Z</time></trkpt><trkpt lat="60.438467" lon="-150.215694"><ele>59.294</ele><time>2026-08-04T20:42:42Z</time></trkpt><trkpt lat="60.438485" lon="-150.215764"><ele>59.055</ele><time>2026-08-04T20:42:49Z</time></trkpt><trkpt lat="60.438489" lon="-150.215842"><ele>58.891</ele><time>2026-08-04T20:42:57Z</time></trkpt><trkpt lat="60.438491" lon="-150.215876"><ele>58.852</ele><time>2026-08-04T20:43:05Z</time></trkpt><trkpt lat="60.438491" lon="-150.215876"><ele>58.866</ele><time>2026-08-04T20:43:07Z</time></trkpt><trkpt lat="60.438494" lon="-150.215907"><ele>58.654</ele><time>2026-08-04T20:43:12Z</time></trkpt><trkpt lat="60.438497" lon="-150.215913"><ele>58.697</ele><time>2026-08-04T20:43:13Z</time></trkpt><trkpt lat="60.438511" lon="-150.215972"><ele>58.636</ele><time>2026-08-04T20:43:19Z</time></trkpt><trkpt lat="60.438522" lon="-150.216008"><ele>58.817</ele><time>2026-08-04T20:43:25Z</time></trkpt><trkpt lat="60.438523" lon="-150.216015"><ele>58.818</ele><time>2026-08-04T20:43:27Z</time></trkpt><trkpt lat="60.438533" lon="-150.216039"><ele>58.809</ele><time>2026-08-04T20:43:33Z</time></trkpt><trkpt lat="60.43854" lon="-150.216044"><ele>58.445</ele><time>2026-08-04T20:43:41Z</time></trkpt><trkpt lat="60.438545" lon="-150.216045"><ele>58.440</ele><time>2026-08-04T20:43:53Z</time></trkpt><trkpt lat="60.438539" lon="-150.216056"><ele>58.630</ele><time>2026-08-04T20:44:08Z</time></trkpt><trkpt lat="60.438561" lon="-150.216041"><ele>58.681</ele><time>2026-08-04T20:44:17Z</time></trkpt><trkpt lat="60.438556" lon="-150.216063"><ele>59.017</ele><time>2026-08-04T20:44:32Z</time></trkpt><trkpt lat="60.438567" lon="-150.216176"><ele>59.478</ele><time>2026-08-04T20:44:39Z</time></trkpt><trkpt lat="60.438583" lon="-150.216266"><ele>59.412</ele><time>2026-08-04T20:44:45Z</time></trkpt><trkpt lat="60.438634" lon="-150.216336"><ele>59.480</ele><time>2026-08-04T20:44:51Z</time></trkpt><trkpt lat="60.43865" lon="-150.216363"><ele>59.623</ele><time>2026-08-04T20:44:53Z</time></trkpt><trkpt lat="60.438658" lon="-150.216376"><ele>59.644</ele><time>2026-08-04T20:44:54Z</time></trkpt><trkpt lat="60.438666" lon="-150.216392"><ele>59.805</ele><time>2026-08-04T20:44:55Z</time></trkpt><trkpt lat="60.438723" lon="-150.216501"><ele>60.415</ele><time>2026-08-04T20:45:02Z</time></trkpt><trkpt lat="60.438804" lon="-150.21665"><ele>60.209</ele><time>2026-08-04T20:45:11Z</time></trkpt><trkpt lat="60.438848" lon="-150.216748"><ele>60.486</ele><time>2026-08-04T20:45:17Z</time></trkpt><trkpt lat="60.438879" lon="-150.216802"><ele>60.431</ele><time>2026-08-04T20:45:20Z</time></trkpt><trkpt lat="60.438923" lon="-150.216865"><ele>60.061</ele><time>2026-08-04T20:45:25Z</time></trkpt><trkpt lat="60.438969" lon="-150.216921"><ele>59.832</ele><time>2026-08-04T20:45:29Z</time></trkpt><trkpt lat="60.438991" lon="-150.21699"><ele>59.688</ele><time>2026-08-04T20:45:35Z</time></trkpt><trkpt lat="60.438992" lon="-150.216997"><ele>59.629</ele><time>2026-08-04T20:45:36Z</time></trkpt><trkpt lat="60.439037" lon="-150.217043"><ele>59.633</ele><time>2026-08-04T20:45:43Z</time></trkpt><trkpt lat="60.439062" lon="-150.217059"><ele>59.641</ele><time>2026-08-04T20:45:46Z</time></trkpt><trkpt lat="60.439119" lon="-150.217111"><ele>59.654</ele><time>2026-08-04T20:45:53Z</time></trkpt><trkpt lat="60.439182" lon="-150.217151"><ele>60.011</ele><time>2026-08-04T20:46:00Z</time></trkpt><trkpt lat="60.439255" lon="-150.217188"><ele>60.421</ele><time>2026-08-04T20:46:09Z</time></trkpt><trkpt lat="60.439314" lon="-150.217201"><ele>60.803</ele><time>2026-08-04T20:46:16Z</time></trkpt><trkpt lat="60.439341" lon="-150.217214"><ele>61.009</ele><time>2026-08-04T20:46:19Z</time></trkpt><trkpt lat="60.439381" lon="-150.217228"><ele>61.293</ele><time>2026-08-04T20:46:24Z</time></trkpt><trkpt lat="60.43942" lon="-150.217228"><ele>61.238</ele><time>2026-08-04T20:46:28Z</time></trkpt><trkpt lat="60.439493" lon="-150.217269"><ele>61.648</ele><time>2026-08-04T20:46:35Z</time></trkpt><trkpt lat="60.439584" lon="-150.21726"><ele>61.429</ele><time>2026-08-04T20:46:44Z</time></trkpt><trkpt lat="60.439592" lon="-150.217268"><ele>61.475</ele><time>2026-08-04T20:46:45Z</time></trkpt><trkpt lat="60.439631" lon="-150.217352"><ele>61.456</ele><time>2026-08-04T20:46:50Z</time></trkpt><trkpt lat="60.439668" lon="-150.217471"><ele>61.430</ele><time>2026-08-04T20:46:58Z</time></trkpt><trkpt lat="60.439683" lon="-150.217555"><ele>61.818</ele><time>2026-08-04T20:47:02Z</time></trkpt><trkpt lat="60.439692" lon="-150.217594"><ele>61.811</ele><time>2026-08-04T20:47:05Z</time></trkpt><trkpt lat="60.439741" lon="-150.217819"><ele>62.657</ele><time>2026-08-04T20:47:16Z</time></trkpt><trkpt lat="60.439753" lon="-150.21785"><ele>62.800</ele><time>2026-08-04T20:47:18Z</time></trkpt><trkpt lat="60.439785" lon="-150.217952"><ele>63.420</ele><time>2026-08-04T20:47:24Z</time></trkpt><trkpt lat="60.439809" lon="-150.21804"><ele>63.809</ele><time>2026-08-04T20:47:29Z</time></trkpt><trkpt lat="60.439842" lon="-150.218093"><ele>64.077</ele><time>2026-08-04T20:47:33Z</time></trkpt><trkpt lat="60.439906" lon="-150.218137"><ele>64.212</ele><time>2026-08-04T20:47:41Z</time></trkpt><trkpt lat="60.439996" lon="-150.218206"><ele>64.672</ele><time>2026-08-04T20:47:50Z</time></trkpt><trkpt lat="60.44008" lon="-150.218264"><ele>64.863</ele><time>2026-08-04T20:47:56Z</time></trkpt><trkpt lat="60.4401" lon="-150.218288"><ele>65.059</ele><time>2026-08-04T20:47:58Z</time></trkpt><trkpt lat="60.440169" lon="-150.218366"><ele>65.460</ele><time>2026-08-04T20:48:06Z</time></trkpt><trkpt lat="60.440248" lon="-150.218421"><ele>65.874</ele><time>2026-08-04T20:48:13Z</time></trkpt><trkpt lat="60.440257" lon="-150.218428"><ele>65.812</ele><time>2026-08-04T20:48:14Z</time></trkpt><trkpt lat="60.440359" lon="-150.218423"><ele>66.245</ele><time>2026-08-04T20:48:24Z</time></trkpt><trkpt lat="60.440444" lon="-150.218376"><ele>66.229</ele><time>2026-08-04T20:48:32Z</time></trkpt><trkpt lat="60.440494" lon="-150.218323"><ele>66.600</ele><time>2026-08-04T20:48:37Z</time></trkpt><trkpt lat="60.440512" lon="-150.218292"><ele>66.620</ele><time>2026-08-04T20:48:39Z</time></trkpt><trkpt lat="60.440595" lon="-150.218227"><ele>66.609</ele><time>2026-08-04T20:48:48Z</time></trkpt><trkpt lat="60.440679" lon="-150.218209"><ele>66.834</ele><time>2026-08-04T20:48:56Z</time></trkpt><trkpt lat="60.440688" lon="-150.218217"><ele>66.829</ele><time>2026-08-04T20:48:57Z</time></trkpt><trkpt lat="60.440757" lon="-150.218238"><ele>66.679</ele><time>2026-08-04T20:49:03Z</time></trkpt><trkpt lat="60.440845" lon="-150.218307"><ele>67.080</ele><time>2026-08-04T20:49:13Z</time></trkpt><trkpt lat="60.440874" lon="-150.218369"><ele>67.686</ele><time>2026-08-04T20:49:17Z</time></trkpt><trkpt lat="60.440913" lon="-150.218438"><ele>67.837</ele><time>2026-08-04T20:49:21Z</time></trkpt><trkpt lat="60.440972" lon="-150.218534"><ele>68.671</ele><time>2026-08-04T20:49:29Z</time></trkpt><trkpt lat="60.441019" lon="-150.218539"><ele>69.049</ele><time>2026-08-04T20:49:33Z</time></trkpt><trkpt lat="60.441046" lon="-150.218545"><ele>69.212</ele><time>2026-08-04T20:49:35Z</time></trkpt><trkpt lat="60.441063" lon="-150.218554"><ele>69.895</ele><time>2026-08-04T20:49:37Z</time></trkpt><trkpt lat="60.44107" lon="-150.218562"><ele>70.049</ele><time>2026-08-04T20:49:38Z</time></trkpt><trkpt lat="60.441129" lon="-150.218596"><ele>71.223</ele><time>2026-08-04T20:49:44Z</time></trkpt><trkpt lat="60.441138" lon="-150.218594"><ele>71.209</ele><time>2026-08-04T20:49:45Z</time></trkpt><trkpt lat="60.441191" lon="-150.218555"><ele>71.871</ele><time>2026-08-04T20:49:50Z</time></trkpt><trkpt lat="60.441223" lon="-150.218525"><ele>71.846</ele><time>2026-08-04T20:49:53Z</time></trkpt><trkpt lat="60.441288" lon="-150.218497"><ele>72.036</ele><time>2026-08-04T20:50:01Z</time></trkpt><trkpt lat="60.441297" lon="-150.218504"><ele>72.217</ele><time>2026-08-04T20:50:02Z</time></trkpt><trkpt lat="60.441365" lon="-150.218571"><ele>73.243</ele><time>2026-08-04T20:50:09Z</time></trkpt><trkpt lat="60.441441" lon="-150.218551"><ele>74.224</ele><time>2026-08-04T20:50:15Z</time></trkpt><trkpt lat="60.441464" lon="-150.218516"><ele>74.688</ele><time>2026-08-04T20:50:18Z</time></trkpt><trkpt lat="60.441554" lon="-150.218441"><ele>75.416</ele><time>2026-08-04T20:50:27Z</time></trkpt><trkpt lat="60.441636" lon="-150.218467"><ele>76.089</ele><time>2026-08-04T20:50:37Z</time></trkpt><trkpt lat="60.441699" lon="-150.218368"><ele>76.436</ele><time>2026-08-04T20:50:44Z</time></trkpt><trkpt lat="60.441785" lon="-150.218302"><ele>77.217</ele><time>2026-08-04T20:50:52Z</time></trkpt><trkpt lat="60.441828" lon="-150.218289"><ele>77.418</ele><time>2026-08-04T20:50:56Z</time></trkpt><trkpt lat="60.441874" lon="-150.218271"><ele>78.209</ele><time>2026-08-04T20:51:01Z</time></trkpt><trkpt lat="60.441885" lon="-150.218258"><ele>78.275</ele><time>2026-08-04T20:51:02Z</time></trkpt><trkpt lat="60.441903" lon="-150.218233"><ele>78.440</ele><time>2026-08-04T20:51:04Z</time></trkpt><trkpt lat="60.441948" lon="-150.218138"><ele>79.010</ele><time>2026-08-04T20:51:10Z</time></trkpt><trkpt lat="60.441979" lon="-150.218074"><ele>79.681</ele><time>2026-08-04T20:51:14Z</time></trkpt><trkpt lat="60.442005" lon="-150.217999"><ele>79.847</ele><time>2026-08-04T20:51:18Z</time></trkpt><trkpt lat="60.442088" lon="-150.217951"><ele>80.248</ele><time>2026-08-04T20:51:26Z</time></trkpt><trkpt lat="60.442105" lon="-150.217938"><ele>80.662</ele><time>2026-08-04T20:51:28Z</time></trkpt><trkpt lat="60.442162" lon="-150.217871"><ele>81.030</ele><time>2026-08-04T20:51:34Z</time></trkpt><trkpt lat="60.44225" lon="-150.217829"><ele>81.633</ele><time>2026-08-04T20:51:42Z</time></trkpt><trkpt lat="60.442273" lon="-150.217828"><ele>81.818</ele><time>2026-08-04T20:51:44Z</time></trkpt><trkpt lat="60.44234" lon="-150.217772"><ele>81.898</ele><time>2026-08-04T20:51:52Z</time></trkpt><trkpt lat="60.442425" lon="-150.217713"><ele>81.417</ele><time>2026-08-04T20:52:00Z</time></trkpt><trkpt lat="60.442545" lon="-150.217638"><ele>82.009</ele><time>2026-08-04T20:52:10Z</time></trkpt><trkpt lat="60.442622" lon="-150.217569"><ele>82.673</ele><time>2026-08-04T20:52:19Z</time></trkpt><trkpt lat="60.442629" lon="-150.217567"><ele>82.868</ele><time>2026-08-04T20:52:20Z</time></trkpt><trkpt lat="60.442721" lon="-150.217519"><ele>83.428</ele><time>2026-08-04T20:52:29Z</time></trkpt><trkpt lat="60.44274" lon="-150.217509"><ele>83.849</ele><time>2026-08-04T20:52:31Z</time></trkpt><trkpt lat="60.442817" lon="-150.217519"><ele>84.425</ele><time>2026-08-04T20:52:37Z</time></trkpt><trkpt lat="60.442845" lon="-150.217516"><ele>84.836</ele><time>2026-08-04T20:52:39Z</time></trkpt><trkpt lat="60.442912" lon="-150.217495"><ele>84.620</ele><time>2026-08-04T20:52:45Z</time></trkpt><trkpt lat="60.443016" lon="-150.217424"><ele>84.268</ele><time>2026-08-04T20:52:54Z</time></trkpt><trkpt lat="60.443121" lon="-150.217369"><ele>84.241</ele><time>2026-08-04T20:53:03Z</time></trkpt><trkpt lat="60.443218" lon="-150.217271"><ele>84.276</ele><time>2026-08-04T20:53:12Z</time></trkpt><trkpt lat="60.443305" lon="-150.217112"><ele>84.290</ele><time>2026-08-04T20:53:22Z</time></trkpt><trkpt lat="60.443344" lon="-150.216937"><ele>84.619</ele><time>2026-08-04T20:53:30Z</time></trkpt><trkpt lat="60.443371" lon="-150.216703"><ele>84.809</ele><time>2026-08-04T20:53:40Z</time></trkpt><trkpt lat="60.443407" lon="-150.216555"><ele>85.899</ele><time>2026-08-04T20:53:48Z</time></trkpt><trkpt lat="60.443413" lon="-150.216531"><ele>85.814</ele><time>2026-08-04T20:53:49Z</time></trkpt><trkpt lat="60.443442" lon="-150.216313"><ele>85.064</ele><time>2026-08-04T20:53:57Z</time></trkpt><trkpt lat="60.443462" lon="-150.216146"><ele>85.695</ele><time>2026-08-04T20:54:04Z</time></trkpt><trkpt lat="60.443539" lon="-150.215982"><ele>85.281</ele><time>2026-08-04T20:54:14Z</time></trkpt><trkpt lat="60.443608" lon="-150.215939"><ele>85.012</ele><time>2026-08-04T20:54:20Z</time></trkpt><trkpt lat="60.443632" lon="-150.215864"><ele>85.276</ele><time>2026-08-04T20:54:24Z</time></trkpt><trkpt lat="60.443659" lon="-150.215673"><ele>85.494</ele><time>2026-08-04T20:54:31Z</time></trkpt><trkpt lat="60.443686" lon="-150.215461"><ele>86.047</ele><time>2026-08-04T20:54:40Z</time></trkpt><trkpt lat="60.443696" lon="-150.215313"><ele>86.011</ele><time>2026-08-04T20:54:46Z</time></trkpt><trkpt lat="60.443702" lon="-150.215274"><ele>86.021</ele><time>2026-08-04T20:54:48Z</time></trkpt><trkpt lat="60.443715" lon="-150.215096"><ele>85.603</ele><time>2026-08-04T20:54:54Z</time></trkpt><trkpt lat="60.44377" lon="-150.21502"><ele>86.209</ele><time>2026-08-04T20:55:02Z</time></trkpt><trkpt lat="60.443859" lon="-150.214993"><ele>86.863</ele><time>2026-08-04T20:55:10Z</time></trkpt><trkpt lat="60.443961" lon="-150.215006"><ele>87.468</ele><time>2026-08-04T20:55:18Z</time></trkpt><trkpt lat="60.444059" lon="-150.214997"><ele>87.028</ele><time>2026-08-04T20:55:26Z</time></trkpt><trkpt lat="60.444186" lon="-150.215002"><ele>87.039</ele><time>2026-08-04T20:55:36Z</time></trkpt><trkpt lat="60.444252" lon="-150.214982"><ele>87.245</ele><time>2026-08-04T20:55:43Z</time></trkpt><trkpt lat="60.44432" lon="-150.214952"><ele>87.836</ele><time>2026-08-04T20:55:48Z</time></trkpt><trkpt lat="60.444332" lon="-150.214946"><ele>87.830</ele><time>2026-08-04T20:55:49Z</time></trkpt><trkpt lat="60.444377" lon="-150.214912"><ele>88.058</ele><time>2026-08-04T20:55:53Z</time></trkpt><trkpt lat="60.444449" lon="-150.214892"><ele>88.481</ele><time>2026-08-04T20:55:58Z</time></trkpt><trkpt lat="60.444537" lon="-150.214824"><ele>88.662</ele><time>2026-08-04T20:56:06Z</time></trkpt><trkpt lat="60.444611" lon="-150.214793"><ele>88.483</ele><time>2026-08-04T20:56:12Z</time></trkpt><trkpt lat="60.444709" lon="-150.214729"><ele>88.011</ele><time>2026-08-04T20:56:20Z</time></trkpt><trkpt lat="60.444771" lon="-150.214591"><ele>86.609</ele><time>2026-08-04T20:56:27Z</time></trkpt><trkpt lat="60.444789" lon="-150.214515"><ele>86.268</ele><time>2026-08-04T20:56:31Z</time></trkpt><trkpt lat="60.444808" lon="-150.214387"><ele>85.833</ele><time>2026-08-04T20:56:36Z</time></trkpt><trkpt lat="60.444825" lon="-150.214353"><ele>85.643</ele><time>2026-08-04T20:56:38Z</time></trkpt><trkpt lat="60.444871" lon="-150.214268"><ele>85.494</ele><time>2026-08-04T20:56:43Z</time></trkpt><trkpt lat="60.444901" lon="-150.214164"><ele>84.480</ele><time>2026-08-04T20:56:48Z</time></trkpt><trkpt lat="60.444908" lon="-150.214098"><ele>84.031</ele><time>2026-08-04T20:56:51Z</time></trkpt><trkpt lat="60.444937" lon="-150.213994"><ele>83.655</ele><time>2026-08-04T20:56:56Z</time></trkpt><trkpt lat="60.444963" lon="-150.213919"><ele>83.633</ele><time>2026-08-04T20:57:00Z</time></trkpt><trkpt lat="60.444992" lon="-150.213849"><ele>83.456</ele><time>2026-08-04T20:57:04Z</time></trkpt><trkpt lat="60.445015" lon="-150.213794"><ele>83.258</ele><time>2026-08-04T20:57:07Z</time></trkpt><trkpt lat="60.44507" lon="-150.213619"><ele>83.252</ele><time>2026-08-04T20:57:15Z</time></trkpt><trkpt lat="60.445118" lon="-150.213447"><ele>83.017</ele><time>2026-08-04T20:57:23Z</time></trkpt><trkpt lat="60.445189" lon="-150.213283"><ele>82.609</ele><time>2026-08-04T20:57:32Z</time></trkpt><trkpt lat="60.445211" lon="-150.213274"><ele>82.477</ele><time>2026-08-04T20:57:34Z</time></trkpt><trkpt lat="60.445277" lon="-150.213223"><ele>81.292</ele><time>2026-08-04T20:57:40Z</time></trkpt><trkpt lat="60.445363" lon="-150.213189"><ele>80.692</ele><time>2026-08-04T20:57:47Z</time></trkpt><trkpt lat="60.445383" lon="-150.213155"><ele>80.023</ele><time>2026-08-04T20:57:49Z</time></trkpt><trkpt lat="60.445408" lon="-150.213083"><ele>78.899</ele><time>2026-08-04T20:57:53Z</time></trkpt><trkpt lat="60.445417" lon="-150.213063"><ele>78.690</ele><time>2026-08-04T20:57:54Z</time></trkpt><trkpt lat="60.445475" lon="-150.212977"><ele>77.664</ele><time>2026-08-04T20:58:00Z</time></trkpt><trkpt lat="60.445499" lon="-150.212995"><ele>77.082</ele><time>2026-08-04T20:58:02Z</time></trkpt><trkpt lat="60.445522" lon="-150.213019"><ele>76.845</ele><time>2026-08-04T20:58:04Z</time></trkpt><trkpt lat="60.445598" lon="-150.213036"><ele>77.088</ele><time>2026-08-04T20:58:10Z</time></trkpt><trkpt lat="60.44562" lon="-150.213041"><ele>76.424</ele><time>2026-08-04T20:58:12Z</time></trkpt><trkpt lat="60.445665" lon="-150.213045"><ele>75.226</ele><time>2026-08-04T20:58:16Z</time></trkpt><trkpt lat="60.4457" lon="-150.213061"><ele>74.209</ele><time>2026-08-04T20:58:19Z</time></trkpt><trkpt lat="60.445816" lon="-150.213063"><ele>74.090</ele><time>2026-08-04T20:58:28Z</time></trkpt><trkpt lat="60.44593" lon="-150.213059"><ele>73.265</ele><time>2026-08-04T20:58:37Z</time></trkpt><trkpt lat="60.445944" lon="-150.21306"><ele>73.035</ele><time>2026-08-04T20:58:38Z</time></trkpt><trkpt lat="60.446024" lon="-150.213061"><ele>72.646</ele><time>2026-08-04T20:58:45Z</time></trkpt><trkpt lat="60.44613" lon="-150.213099"><ele>73.412</ele><time>2026-08-04T20:58:54Z</time></trkpt><trkpt lat="60.446207" lon="-150.213155"><ele>73.463</ele><time>2026-08-04T20:59:01Z</time></trkpt><trkpt lat="60.446218" lon="-150.213167"><ele>73.437</ele><time>2026-08-04T20:59:02Z</time></trkpt><trkpt lat="60.446296" lon="-150.213224"><ele>73.865</ele><time>2026-08-04T20:59:09Z</time></trkpt><trkpt lat="60.446327" lon="-150.213228"><ele>74.278</ele><time>2026-08-04T20:59:12Z</time></trkpt><trkpt lat="60.446378" lon="-150.213316"><ele>74.066</ele><time>2026-08-04T20:59:18Z</time></trkpt><trkpt lat="60.446461" lon="-150.2134"><ele>74.229</ele><time>2026-08-04T20:59:25Z</time></trkpt><trkpt lat="60.446563" lon="-150.213461"><ele>73.621</ele><time>2026-08-04T20:59:34Z</time></trkpt><trkpt lat="60.446601" lon="-150.213466"><ele>73.009</ele><time>2026-08-04T20:59:37Z</time></trkpt><trkpt lat="60.446666" lon="-150.213536"><ele>72.238</ele><time>2026-08-04T20:59:43Z</time></trkpt><trkpt lat="60.446687" lon="-150.213573"><ele>72.013</ele><time>2026-08-04T20:59:45Z</time></trkpt><trkpt lat="60.446727" lon="-150.213625"><ele>72.013</ele><time>2026-08-04T20:59:49Z</time></trkpt><trkpt lat="60.446764" lon="-150.213644"><ele>72.064</ele><time>2026-08-04T20:59:52Z</time></trkpt><trkpt lat="60.446814" lon="-150.213638"><ele>71.490</ele><time>2026-08-04T20:59:56Z</time></trkpt><trkpt lat="60.446887" lon="-150.213649"><ele>71.421</ele><time>2026-08-04T21:00:01Z</time></trkpt><trkpt lat="60.446898" lon="-150.21365"><ele>71.415</ele><time>2026-08-04T21:00:02Z</time></trkpt><trkpt lat="60.446974" lon="-150.213753"><ele>71.673</ele><time>2026-08-04T21:00:11Z</time></trkpt><trkpt lat="60.447099" lon="-150.213747"><ele>71.446</ele><time>2026-08-04T21:00:21Z</time></trkpt><trkpt lat="60.447164" lon="-150.213718"><ele>70.878</ele><time>2026-08-04T21:00:26Z</time></trkpt><trkpt lat="60.447224" lon="-150.213689"><ele>70.433</ele><time>2026-08-04T21:00:30Z</time></trkpt><trkpt lat="60.447274" lon="-150.213682"><ele>70.226</ele><time>2026-08-04T21:00:34Z</time></trkpt><trkpt lat="60.447302" lon="-150.213677"><ele>70.209</ele><time>2026-08-04T21:00:36Z</time></trkpt><trkpt lat="60.447368" lon="-150.213662"><ele>70.269</ele><time>2026-08-04T21:00:40Z</time></trkpt><trkpt lat="60.447407" lon="-150.213688"><ele>70.044</ele><time>2026-08-04T21:00:43Z</time></trkpt><trkpt lat="60.447437" lon="-150.21373"><ele>70.274</ele><time>2026-08-04T21:00:46Z</time></trkpt><trkpt lat="60.447531" lon="-150.213881"><ele>71.445</ele><time>2026-08-04T21:00:55Z</time></trkpt><trkpt lat="60.447556" lon="-150.213909"><ele>71.811</ele><time>2026-08-04T21:00:58Z</time></trkpt><trkpt lat="60.447608" lon="-150.213953"><ele>72.862</ele><time>2026-08-04T21:01:02Z</time></trkpt><trkpt lat="60.447617" lon="-150.213962"><ele>72.876</ele><time>2026-08-04T21:01:03Z</time></trkpt><trkpt lat="60.447668" lon="-150.213998"><ele>73.024</ele><time>2026-08-04T21:01:08Z</time></trkpt><trkpt lat="60.447678" lon="-150.21401"><ele>73.217</ele><time>2026-08-04T21:01:09Z</time></trkpt><trkpt lat="60.447708" lon="-150.21403"><ele>73.895</ele><time>2026-08-04T21:01:12Z</time></trkpt><trkpt lat="60.447719" lon="-150.214036"><ele>74.049</ele><time>2026-08-04T21:01:13Z</time></trkpt><trkpt lat="60.447753" lon="-150.214067"><ele>74.423</ele><time>2026-08-04T21:01:16Z</time></trkpt><trkpt lat="60.447835" lon="-150.214171"><ele>75.009</ele><time>2026-08-04T21:01:24Z</time></trkpt><trkpt lat="60.447847" lon="-150.214179"><ele>75.091</ele><time>2026-08-04T21:01:25Z</time></trkpt><trkpt lat="60.447952" lon="-150.214159"><ele>74.886</ele><time>2026-08-04T21:01:33Z</time></trkpt><trkpt lat="60.448056" lon="-150.214131"><ele>73.886</ele><time>2026-08-04T21:01:39Z</time></trkpt><trkpt lat="60.448124" lon="-150.214185"><ele>73.257</ele><time>2026-08-04T21:01:44Z</time></trkpt><trkpt lat="60.448205" lon="-150.214287"><ele>73.653</ele><time>2026-08-04T21:01:51Z</time></trkpt><trkpt lat="60.448266" lon="-150.214426"><ele>74.074</ele><time>2026-08-04T21:01:59Z</time></trkpt><trkpt lat="60.448374" lon="-150.21447"><ele>74.028</ele><time>2026-08-04T21:02:08Z</time></trkpt><trkpt lat="60.448436" lon="-150.214324"><ele>73.696</ele><time>2026-08-04T21:02:15Z</time></trkpt><trkpt lat="60.448445" lon="-150.214312"><ele>73.669</ele><time>2026-08-04T21:02:16Z</time></trkpt><trkpt lat="60.448489" lon="-150.214291"><ele>73.445</ele><time>2026-08-04T21:02:20Z</time></trkpt><trkpt lat="60.44854" lon="-150.214321"><ele>74.047</ele><time>2026-08-04T21:02:25Z</time></trkpt><trkpt lat="60.448658" lon="-150.214402"><ele>73.011</ele><time>2026-08-04T21:02:35Z</time></trkpt><trkpt lat="60.448779" lon="-150.214368"><ele>72.809</ele><time>2026-08-04T21:02:43Z</time></trkpt><trkpt lat="60.448898" lon="-150.214223"><ele>72.856</ele><time>2026-08-04T21:02:52Z</time></trkpt><trkpt lat="60.448968" lon="-150.214288"><ele>73.211</ele><time>2026-08-04T21:02:59Z</time></trkpt><trkpt lat="60.449048" lon="-150.214463"><ele>73.651</ele><time>2026-08-04T21:03:09Z</time></trkpt><trkpt lat="60.449075" lon="-150.214506"><ele>73.892</ele><time>2026-08-04T21:03:13Z</time></trkpt><trkpt lat="60.44911" lon="-150.214559"><ele>74.248</ele><time>2026-08-04T21:03:17Z</time></trkpt><trkpt lat="60.449155" lon="-150.214627"><ele>74.899</ele><time>2026-08-04T21:03:22Z</time></trkpt><trkpt lat="60.449182" lon="-150.214688"><ele>75.643</ele><time>2026-08-04T21:03:26Z</time></trkpt><trkpt lat="60.44919" lon="-150.214708"><ele>76.091</ele><time>2026-08-04T21:03:27Z</time></trkpt><trkpt lat="60.449298" lon="-150.214862"><ele>76.414</ele><time>2026-08-04T21:03:37Z</time></trkpt><trkpt lat="60.449351" lon="-150.214947"><ele>77.036</ele><time>2026-08-04T21:03:42Z</time></trkpt><trkpt lat="60.449389" lon="-150.215018"><ele>77.617</ele><time>2026-08-04T21:03:46Z</time></trkpt><trkpt lat="60.449417" lon="-150.215078"><ele>78.018</ele><time>2026-08-04T21:03:49Z</time></trkpt><trkpt lat="60.449489" lon="-150.215164"><ele>78.209</ele><time>2026-08-04T21:03:55Z</time></trkpt><trkpt lat="60.449563" lon="-150.215263"><ele>78.295</ele><time>2026-08-04T21:04:02Z</time></trkpt><trkpt lat="60.449631" lon="-150.215433"><ele>79.280</ele><time>2026-08-04T21:04:11Z</time></trkpt><trkpt lat="60.449689" lon="-150.215554"><ele>80.260</ele><time>2026-08-04T21:04:18Z</time></trkpt><trkpt lat="60.449709" lon="-150.21559"><ele>80.681</ele><time>2026-08-04T21:04:20Z</time></trkpt><trkpt lat="60.449749" lon="-150.215622"><ele>81.437</ele><time>2026-08-04T21:04:25Z</time></trkpt><trkpt lat="60.449794" lon="-150.215658"><ele>81.658</ele><time>2026-08-04T21:04:29Z</time></trkpt><trkpt lat="60.449883" lon="-150.215787"><ele>82.052</ele><time>2026-08-04T21:04:37Z</time></trkpt><trkpt lat="60.44991" lon="-150.215844"><ele>82.430</ele><time>2026-08-04T21:04:41Z</time></trkpt><trkpt lat="60.449957" lon="-150.215908"><ele>83.293</ele><time>2026-08-04T21:04:46Z</time></trkpt><trkpt lat="60.449987" lon="-150.21594"><ele>83.424</ele><time>2026-08-04T21:04:49Z</time></trkpt><trkpt lat="60.450056" lon="-150.216032"><ele>84.204</ele><time>2026-08-04T21:04:55Z</time></trkpt><trkpt lat="60.450139" lon="-150.216124"><ele>84.614</ele><time>2026-08-04T21:05:04Z</time></trkpt><trkpt lat="60.450153" lon="-150.216132"><ele>84.609</ele><time>2026-08-04T21:05:05Z</time></trkpt><trkpt lat="60.450247" lon="-150.216227"><ele>85.034</ele><time>2026-08-04T21:05:13Z</time></trkpt><trkpt lat="60.450276" lon="-150.216255"><ele>85.239</ele><time>2026-08-04T21:05:16Z</time></trkpt><trkpt lat="60.450295" lon="-150.216257"><ele>85.499</ele><time>2026-08-04T21:05:18Z</time></trkpt><trkpt lat="60.450319" lon="-150.216255"><ele>85.630</ele><time>2026-08-04T21:05:20Z</time></trkpt><trkpt lat="60.450338" lon="-150.216258"><ele>85.696</ele><time>2026-08-04T21:05:21Z</time></trkpt><trkpt lat="60.45045" lon="-150.216269"><ele>86.267</ele><time>2026-08-04T21:05:30Z</time></trkpt><trkpt lat="60.450556" lon="-150.216314"><ele>86.461</ele><time>2026-08-04T21:05:38Z</time></trkpt><trkpt lat="60.450579" lon="-150.216357"><ele>86.669</ele><time>2026-08-04T21:05:41Z</time></trkpt><trkpt lat="60.450626" lon="-150.216432"><ele>86.812</ele><time>2026-08-04T21:05:48Z</time></trkpt><trkpt lat="60.45073" lon="-150.216451"><ele>87.095</ele><time>2026-08-04T21:05:57Z</time></trkpt><trkpt lat="60.450783" lon="-150.216429"><ele>87.649</ele><time>2026-08-04T21:06:02Z</time></trkpt><trkpt lat="60.450834" lon="-150.216424"><ele>88.423</ele><time>2026-08-04T21:06:07Z</time></trkpt><trkpt lat="60.450868" lon="-150.216425"><ele>88.609</ele><time>2026-08-04T21:06:10Z</time></trkpt><trkpt lat="60.450889" lon="-150.216427"><ele>88.821</ele><time>2026-08-04T21:06:12Z</time></trkpt><trkpt lat="60.450953" lon="-150.216432"><ele>89.266</ele><time>2026-08-04T21:06:18Z</time></trkpt><trkpt lat="60.450964" lon="-150.216433"><ele>89.496</ele><time>2026-08-04T21:06:19Z</time></trkpt><trkpt lat="60.450971" lon="-150.216434"><ele>89.827</ele><time>2026-08-04T21:06:20Z</time></trkpt><trkpt lat="60.451001" lon="-150.216439"><ele>91.233</ele><time>2026-08-04T21:06:23Z</time></trkpt><trkpt lat="60.451085" lon="-150.21644"><ele>92.294</ele><time>2026-08-04T21:06:31Z</time></trkpt><trkpt lat="60.451174" lon="-150.216433"><ele>93.028</ele><time>2026-08-04T21:06:38Z</time></trkpt><trkpt lat="60.451195" lon="-150.216429"><ele>93.266</ele><time>2026-08-04T21:06:40Z</time></trkpt><trkpt lat="60.451284" lon="-150.216409"><ele>94.449</ele><time>2026-08-04T21:06:48Z</time></trkpt><trkpt lat="60.451341" lon="-150.216394"><ele>95.041</ele><time>2026-08-04T21:06:54Z</time></trkpt><trkpt lat="60.45136" lon="-150.216396"><ele>95.481</ele><time>2026-08-04T21:06:56Z</time></trkpt><trkpt lat="60.451419" lon="-150.216429"><ele>94.809</ele><time>2026-08-04T21:07:02Z</time></trkpt><trkpt lat="60.451505" lon="-150.216502"><ele>95.009</ele><time>2026-08-04T21:07:11Z</time></trkpt><trkpt lat="60.451572" lon="-150.216521"><ele>96.496</ele><time>2026-08-04T21:07:18Z</time></trkpt><trkpt lat="60.451592" lon="-150.21652"><ele>96.811</ele><time>2026-08-04T21:07:22Z</time></trkpt><trkpt lat="60.451622" lon="-150.216522"><ele>97.421</ele><time>2026-08-04T21:07:26Z</time></trkpt><trkpt lat="60.451679" lon="-150.216526"><ele>98.472</ele><time>2026-08-04T21:07:33Z</time></trkpt><trkpt lat="60.451716" lon="-150.21652"><ele>98.648</ele><time>2026-08-04T21:07:37Z</time></trkpt><trkpt lat="60.451789" lon="-150.216506"><ele>99.429</ele><time>2026-08-04T21:07:45Z</time></trkpt><trkpt lat="60.451797" lon="-150.216507"><ele>99.663</ele><time>2026-08-04T21:07:46Z</time></trkpt><trkpt lat="60.451876" lon="-150.216478"><ele>100.221</ele><time>2026-08-04T21:07:55Z</time></trkpt><trkpt lat="60.451927" lon="-150.21648"><ele>100.884</ele><time>2026-08-04T21:08:00Z</time></trkpt><trkpt lat="60.451961" lon="-150.216497"><ele>101.615</ele><time>2026-08-04T21:08:04Z</time></trkpt><trkpt lat="60.451984" lon="-150.216499"><ele>101.865</ele><time>2026-08-04T21:08:05Z</time></trkpt><trkpt lat="60.452012" lon="-150.216507"><ele>102.011</ele><time>2026-08-04T21:08:07Z</time></trkpt><trkpt lat="60.452065" lon="-150.216467"><ele>102.209</ele><time>2026-08-04T21:08:13Z</time></trkpt><trkpt lat="60.452086" lon="-150.216442"><ele>102.063</ele><time>2026-08-04T21:08:16Z</time></trkpt><trkpt lat="60.45209" lon="-150.216437"><ele>102.018</ele><time>2026-08-04T21:08:17Z</time></trkpt><trkpt lat="60.45213" lon="-150.216382"><ele>103.028</ele><time>2026-08-04T21:08:22Z</time></trkpt><trkpt lat="60.452194" lon="-150.216302"><ele>103.839</ele><time>2026-08-04T21:08:29Z</time></trkpt><trkpt lat="60.452204" lon="-150.216289"><ele>104.035</ele><time>2026-08-04T21:08:30Z</time></trkpt><trkpt lat="60.452293" lon="-150.216252"><ele>104.666</ele><time>2026-08-04T21:08:41Z</time></trkpt><trkpt lat="60.452348" lon="-150.216291"><ele>105.060</ele><time>2026-08-04T21:08:46Z</time></trkpt><trkpt lat="60.452383" lon="-150.216318"><ele>105.268</ele><time>2026-08-04T21:08:50Z</time></trkpt><trkpt lat="60.452511" lon="-150.21648"><ele>105.881</ele><time>2026-08-04T21:09:04Z</time></trkpt><trkpt lat="60.452528" lon="-150.216507"><ele>106.013</ele><time>2026-08-04T21:09:06Z</time></trkpt><trkpt lat="60.452583" lon="-150.216597"><ele>107.243</ele><time>2026-08-04T21:09:14Z</time></trkpt><trkpt lat="60.452599" lon="-150.216613"><ele>107.407</ele><time>2026-08-04T21:09:16Z</time></trkpt><trkpt lat="60.452644" lon="-150.216667"><ele>108.209</ele><time>2026-08-04T21:09:21Z</time></trkpt><trkpt lat="60.452679" lon="-150.21671"><ele>109.223</ele><time>2026-08-04T21:09:26Z</time></trkpt><trkpt lat="60.452686" lon="-150.21672"><ele>109.468</ele><time>2026-08-04T21:09:27Z</time></trkpt><trkpt lat="60.45273" lon="-150.216803"><ele>110.438</ele><time>2026-08-04T21:09:33Z</time></trkpt><trkpt lat="60.452741" lon="-150.216835"><ele>110.819</ele><time>2026-08-04T21:09:35Z</time></trkpt><trkpt lat="60.452794" lon="-150.216943"><ele>111.415</ele><time>2026-08-04T21:09:44Z</time></trkpt><trkpt lat="60.452807" lon="-150.216969"><ele>111.496</ele><time>2026-08-04T21:09:47Z</time></trkpt><trkpt lat="60.452853" lon="-150.217058"><ele>112.640</ele><time>2026-08-04T21:09:55Z</time></trkpt><trkpt lat="60.452907" lon="-150.217117"><ele>113.638</ele><time>2026-08-04T21:10:02Z</time></trkpt><trkpt lat="60.452934" lon="-150.217176"><ele>114.231</ele><time>2026-08-04T21:10:06Z</time></trkpt><trkpt lat="60.452954" lon="-150.217219"><ele>114.696</ele><time>2026-08-04T21:10:09Z</time></trkpt><trkpt lat="60.452988" lon="-150.21729"><ele>115.831</ele><time>2026-08-04T21:10:15Z</time></trkpt><trkpt lat="60.453004" lon="-150.21733"><ele>116.024</ele><time>2026-08-04T21:10:18Z</time></trkpt><trkpt lat="60.453056" lon="-150.217444"><ele>116.609</ele><time>2026-08-04T21:10:26Z</time></trkpt><trkpt lat="60.453063" lon="-150.217461"><ele>116.881</ele><time>2026-08-04T21:10:27Z</time></trkpt><trkpt lat="60.45307" lon="-150.217478"><ele>117.036</ele><time>2026-08-04T21:10:28Z</time></trkpt><trkpt lat="60.453129" lon="-150.217561"><ele>118.076</ele><time>2026-08-04T21:10:35Z</time></trkpt><trkpt lat="60.453161" lon="-150.217569"><ele>118.487</ele><time>2026-08-04T21:10:39Z</time></trkpt><trkpt lat="60.453217" lon="-150.217605"><ele>119.243</ele><time>2026-08-04T21:10:46Z</time></trkpt><trkpt lat="60.453247" lon="-150.217623"><ele>119.654</ele><time>2026-08-04T21:10:49Z</time></trkpt><trkpt lat="60.453338" lon="-150.217685"><ele>120.278</ele><time>2026-08-04T21:10:59Z</time></trkpt><trkpt lat="60.45335" lon="-150.217689"><ele>120.216</ele><time>2026-08-04T21:11:00Z</time></trkpt><trkpt lat="60.453438" lon="-150.217757"><ele>121.019</ele><time>2026-08-04T21:11:09Z</time></trkpt><trkpt lat="60.453447" lon="-150.217765"><ele>121.211</ele><time>2026-08-04T21:11:10Z</time></trkpt><trkpt lat="60.453521" lon="-150.217796"><ele>121.621</ele><time>2026-08-04T21:11:19Z</time></trkpt><trkpt lat="60.453605" lon="-150.217847"><ele>122.203</ele><time>2026-08-04T21:11:28Z</time></trkpt><trkpt lat="60.453618" lon="-150.217855"><ele>122.409</ele><time>2026-08-04T21:11:29Z</time></trkpt><trkpt lat="60.453699" lon="-150.217878"><ele>122.833</ele><time>2026-08-04T21:11:35Z</time></trkpt><trkpt lat="60.45377" lon="-150.217907"><ele>123.068</ele><time>2026-08-04T21:11:41Z</time></trkpt><trkpt lat="60.453868" lon="-150.217978"><ele>123.478</ele><time>2026-08-04T21:11:50Z</time></trkpt><trkpt lat="60.453936" lon="-150.218052"><ele>123.689</ele><time>2026-08-04T21:11:57Z</time></trkpt><trkpt lat="60.45395" lon="-150.218079"><ele>123.895</ele><time>2026-08-04T21:11:59Z</time></trkpt><trkpt lat="60.453986" lon="-150.218148"><ele>124.476</ele><time>2026-08-04T21:12:04Z</time></trkpt><trkpt lat="60.454006" lon="-150.218183"><ele>125.070</ele><time>2026-08-04T21:12:07Z</time></trkpt><trkpt lat="60.454033" lon="-150.218231"><ele>125.668</ele><time>2026-08-04T21:12:11Z</time></trkpt><trkpt lat="60.454074" lon="-150.218285"><ele>126.841</ele><time>2026-08-04T21:12:17Z</time></trkpt><trkpt lat="60.45413" lon="-150.218385"><ele>127.446</ele><time>2026-08-04T21:12:24Z</time></trkpt><trkpt lat="60.454145" lon="-150.21843"><ele>127.688</ele><time>2026-08-04T21:12:27Z</time></trkpt><trkpt lat="60.454158" lon="-150.218533"><ele>127.816</ele><time>2026-08-04T21:12:32Z</time></trkpt><trkpt lat="60.454156" lon="-150.218551"><ele>127.809</ele><time>2026-08-04T21:12:33Z</time></trkpt><trkpt lat="60.454162" lon="-150.218655"><ele>129.026</ele><time>2026-08-04T21:12:39Z</time></trkpt><trkpt lat="60.454165" lon="-150.218671"><ele>129.211</ele><time>2026-08-04T21:12:40Z</time></trkpt><trkpt lat="60.454184" lon="-150.218721"><ele>130.021</ele><time>2026-08-04T21:12:44Z</time></trkpt><trkpt lat="60.454205" lon="-150.218756"><ele>130.872</ele><time>2026-08-04T21:12:48Z</time></trkpt><trkpt lat="60.454213" lon="-150.218775"><ele>131.238</ele><time>2026-08-04T21:12:50Z</time></trkpt><trkpt lat="60.454234" lon="-150.218795"><ele>131.849</ele><time>2026-08-04T21:12:53Z</time></trkpt><trkpt lat="60.454269" lon="-150.218803"><ele>132.233</ele><time>2026-08-04T21:12:57Z</time></trkpt><trkpt lat="60.454278" lon="-150.2188"><ele>132.411</ele><time>2026-08-04T21:12:58Z</time></trkpt><trkpt lat="60.454361" lon="-150.21876"><ele>132.664</ele><time>2026-08-04T21:13:05Z</time></trkpt><trkpt lat="60.454442" lon="-150.218714"><ele>132.442</ele><time>2026-08-04T21:13:12Z</time></trkpt><trkpt lat="60.454508" lon="-150.218679"><ele>131.822</ele><time>2026-08-04T21:13:18Z</time></trkpt><trkpt lat="60.454519" lon="-150.218668"><ele>131.814</ele><time>2026-08-04T21:13:19Z</time></trkpt><trkpt lat="60.454582" lon="-150.218632"><ele>132.009</ele><time>2026-08-04T21:13:27Z</time></trkpt><trkpt lat="60.454588" lon="-150.218641"><ele>132.046</ele><time>2026-08-04T21:13:28Z</time></trkpt><trkpt lat="60.454599" lon="-150.218642"><ele>132.611</ele><time>2026-08-04T21:13:35Z</time></trkpt><trkpt lat="60.454599" lon="-150.218638"><ele>132.881</ele><time>2026-08-04T21:13:36Z</time></trkpt><trkpt lat="60.454593" lon="-150.218615"><ele>133.052</ele><time>2026-08-04T21:13:45Z</time></trkpt><trkpt lat="60.454599" lon="-150.218637"><ele>133.438</ele><time>2026-08-04T21:13:50Z</time></trkpt><trkpt lat="60.454609" lon="-150.218642"><ele>133.899</ele><time>2026-08-04T21:13:53Z</time></trkpt><trkpt lat="60.454614" lon="-150.218641"><ele>132.823</ele><time>2026-08-04T21:14:02Z</time></trkpt><trkpt lat="60.454611" lon="-150.218634"><ele>133.021</ele><time>2026-08-04T21:14:03Z</time></trkpt><trkpt lat="60.454606" lon="-150.218631"><ele>133.494</ele><time>2026-08-04T21:14:05Z</time></trkpt><trkpt lat="60.454592" lon="-150.218645"><ele>133.847</ele><time>2026-08-04T21:14:12Z</time></trkpt><trkpt lat="60.454598" lon="-150.218662"><ele>134.429</ele><time>2026-08-04T21:14:23Z</time></trkpt><trkpt lat="60.4546" lon="-150.21866"><ele>134.621</ele><time>2026-08-04T21:14:24Z</time></trkpt><trkpt lat="60.454589" lon="-150.218672"><ele>133.809</ele><time>2026-08-04T21:14:37Z</time></trkpt><trkpt lat="60.454598" lon="-150.218693"><ele>133.446</ele><time>2026-08-04T21:14:42Z</time></trkpt><trkpt lat="60.454608" lon="-150.218708"><ele>133.011</ele><time>2026-08-04T21:14:48Z</time></trkpt><trkpt lat="60.454605" lon="-150.218713"><ele>132.421</ele><time>2026-08-04T21:14:58Z</time></trkpt><trkpt lat="60.4546" lon="-150.218726"><ele>133.292</ele><time>2026-08-04T21:15:06Z</time></trkpt><trkpt lat="60.454593" lon="-150.218717"><ele>133.288</ele><time>2026-08-04T21:15:08Z</time></trkpt><trkpt lat="60.454588" lon="-150.218735"><ele>131.829</ele><time>2026-08-04T21:15:19Z</time></trkpt><trkpt lat="60.454561" lon="-150.218661"><ele>131.833</ele><time>2026-08-04T21:15:30Z</time></trkpt><trkpt lat="60.454562" lon="-150.218692"><ele>133.011</ele><time>2026-08-04T21:15:40Z</time></trkpt><trkpt lat="60.454542" lon="-150.218677"><ele>133.294</ele><time>2026-08-04T21:15:47Z</time></trkpt><trkpt lat="60.454537" lon="-150.218649"><ele>133.097</ele><time>2026-08-04T21:15:57Z</time></trkpt><trkpt lat="60.454539" lon="-150.218624"><ele>133.423</ele><time>2026-08-04T21:16:05Z</time></trkpt><trkpt lat="60.454545" lon="-150.218632"><ele>133.425</ele><time>2026-08-04T21:16:06Z</time></trkpt><trkpt lat="60.454548" lon="-150.218635"><ele>133.609</ele><time>2026-08-04T21:16:08Z</time></trkpt></trkseg></trk></gpx>