<?xml version="1.0" encoding="UTF-8"?><gpx creator="Wikiloc - http://www.wikiloc.com" version="1.1" xmlns="http://www.topografix.com/GPX/1/1" xmlns:xsi="http://www.w3.org/2001/XMLSchema-instance" xsi:schemaLocation="http://www.topografix.com/GPX/1/1 http://www.topografix.com/GPX/1/1/gpx.xsd"><wpt lat="60.947558" lon="-149.123347"><ele>120.4</ele><name><![CDATA[Foto]]></name><cmt><![CDATA[Foto]]></cmt><desc><![CDATA[]]></desc><type>36</type></wpt><trk><name><![CDATA[Virgin Falls]]></name><cmt><![CDATA[Alyeska]]></cmt><desc><![CDATA[Alyeska]]></desc><trkseg><trkpt lat="60.948433" lon="-149.125653"><ele>107.262</ele><time>2026-07-29T18:12:10Z</time></trkpt><trkpt lat="60.94839" lon="-149.125504"><ele>108.283</ele><time>2026-07-29T18:12:16Z</time></trkpt><trkpt lat="60.948384" lon="-149.125501"><ele>108.411</ele><time>2026-07-29T18:12:17Z</time></trkpt><trkpt lat="60.948359" lon="-149.125446"><ele>108.809</ele><time>2026-07-29T18:12:21Z</time></trkpt><trkpt lat="60.948353" lon="-149.125428"><ele>108.878</ele><time>2026-07-29T18:12:22Z</time></trkpt><trkpt lat="60.94835" lon="-149.125389"><ele>109.213</ele><time>2026-07-29T18:12:26Z</time></trkpt><trkpt lat="60.948351" lon="-149.125386"><ele>109.222</ele><time>2026-07-29T18:12:27Z</time></trkpt><trkpt lat="60.948352" lon="-149.125376"><ele>109.462</ele><time>2026-07-29T18:12:28Z</time></trkpt><trkpt lat="60.948352" lon="-149.125363"><ele>109.494</ele><time>2026-07-29T18:12:29Z</time></trkpt><trkpt lat="60.948352" lon="-149.12535"><ele>109.629</ele><time>2026-07-29T18:12:30Z</time></trkpt><trkpt lat="60.948346" lon="-149.125299"><ele>109.678</ele><time>2026-07-29T18:12:33Z</time></trkpt><trkpt lat="60.948329" lon="-149.12521"><ele>110.634</ele><time>2026-07-29T18:12:41Z</time></trkpt><trkpt lat="60.94833" lon="-149.125201"><ele>110.675</ele><time>2026-07-29T18:12:42Z</time></trkpt><trkpt lat="60.948322" lon="-149.125135"><ele>111.684</ele><time>2026-07-29T18:12:47Z</time></trkpt><trkpt lat="60.948317" lon="-149.125045"><ele>112.607</ele><time>2026-07-29T18:12:53Z</time></trkpt><trkpt lat="60.948318" lon="-149.125034"><ele>112.817</ele><time>2026-07-29T18:12:54Z</time></trkpt><trkpt lat="60.948334" lon="-149.125041"><ele>113.409</ele><time>2026-07-29T18:13:05Z</time></trkpt><trkpt lat="60.948317" lon="-149.124967"><ele>113.650</ele><time>2026-07-29T18:13:13Z</time></trkpt><trkpt lat="60.948313" lon="-149.124945"><ele>113.835</ele><time>2026-07-29T18:13:14Z</time></trkpt><trkpt lat="60.948259" lon="-149.124817"><ele>114.664</ele><time>2026-07-29T18:13:24Z</time></trkpt><trkpt lat="60.948255" lon="-149.124788"><ele>114.834</ele><time>2026-07-29T18:13:26Z</time></trkpt><trkpt lat="60.948236" lon="-149.124689"><ele>115.426</ele><time>2026-07-29T18:13:32Z</time></trkpt><trkpt lat="60.948233" lon="-149.124661"><ele>115.481</ele><time>2026-07-29T18:13:34Z</time></trkpt><trkpt lat="60.948225" lon="-149.124644"><ele>115.820</ele><time>2026-07-29T18:13:38Z</time></trkpt><trkpt lat="60.948218" lon="-149.12464"><ele>116.496</ele><time>2026-07-29T18:13:43Z</time></trkpt><trkpt lat="60.948255" lon="-149.12457"><ele>116.617</ele><time>2026-07-29T18:13:50Z</time></trkpt><trkpt lat="60.948268" lon="-149.124552"><ele>116.842</ele><time>2026-07-29T18:13:54Z</time></trkpt><trkpt lat="60.948254" lon="-149.124531"><ele>117.422</ele><time>2026-07-29T18:14:00Z</time></trkpt><trkpt lat="60.948214" lon="-149.124457"><ele>117.614</ele><time>2026-07-29T18:14:10Z</time></trkpt><trkpt lat="60.948151" lon="-149.124393"><ele>117.609</ele><time>2026-07-29T18:14:20Z</time></trkpt><trkpt lat="60.94811" lon="-149.124334"><ele>117.876</ele><time>2026-07-29T18:14:29Z</time></trkpt><trkpt lat="60.9481" lon="-149.124313"><ele>117.851</ele><time>2026-07-29T18:14:31Z</time></trkpt><trkpt lat="60.948087" lon="-149.124283"><ele>118.250</ele><time>2026-07-29T18:14:35Z</time></trkpt><trkpt lat="60.948087" lon="-149.124267"><ele>118.430</ele><time>2026-07-29T18:14:38Z</time></trkpt><trkpt lat="60.948061" lon="-149.124191"><ele>118.832</ele><time>2026-07-29T18:14:44Z</time></trkpt><trkpt lat="60.948059" lon="-149.124169"><ele>119.057</ele><time>2026-07-29T18:14:47Z</time></trkpt><trkpt lat="60.948061" lon="-149.124087"><ele>119.416</ele><time>2026-07-29T18:14:53Z</time></trkpt><trkpt lat="60.948062" lon="-149.124076"><ele>119.632</ele><time>2026-07-29T18:14:54Z</time></trkpt><trkpt lat="60.948062" lon="-149.124066"><ele>119.693</ele><time>2026-07-29T18:14:55Z</time></trkpt><trkpt lat="60.948062" lon="-149.124054"><ele>119.652</ele><time>2026-07-29T18:14:56Z</time></trkpt><trkpt lat="60.948062" lon="-149.124047"><ele>119.853</ele><time>2026-07-29T18:14:57Z</time></trkpt><trkpt lat="60.948061" lon="-149.124041"><ele>120.008</ele><time>2026-07-29T18:14:58Z</time></trkpt><trkpt lat="60.94804" lon="-149.123961"><ele>120.809</ele><time>2026-07-29T18:15:08Z</time></trkpt><trkpt lat="60.948036" lon="-149.123966"><ele>121.047</ele><time>2026-07-29T18:15:09Z</time></trkpt><trkpt lat="60.948044" lon="-149.123926"><ele>121.612</ele><time>2026-07-29T18:15:17Z</time></trkpt><trkpt lat="60.948049" lon="-149.123897"><ele>122.011</ele><time>2026-07-29T18:15:21Z</time></trkpt><trkpt lat="60.948046" lon="-149.123832"><ele>122.651</ele><time>2026-07-29T18:15:27Z</time></trkpt><trkpt lat="60.948032" lon="-149.12383"><ele>123.093</ele><time>2026-07-29T18:15:35Z</time></trkpt><trkpt lat="60.948009" lon="-149.1238"><ele>123.038</ele><time>2026-07-29T18:15:38Z</time></trkpt><trkpt lat="60.947954" lon="-149.123687"><ele>123.457</ele><time>2026-07-29T18:15:47Z</time></trkpt><trkpt lat="60.947933" lon="-149.123651"><ele>123.433</ele><time>2026-07-29T18:15:50Z</time></trkpt><trkpt lat="60.947865" lon="-149.123622"><ele>122.874</ele><time>2026-07-29T18:15:58Z</time></trkpt><trkpt lat="60.947791" lon="-149.123631"><ele>122.229</ele><time>2026-07-29T18:16:05Z</time></trkpt><trkpt lat="60.947755" lon="-149.123619"><ele>122.800</ele><time>2026-07-29T18:16:14Z</time></trkpt><trkpt lat="60.947752" lon="-149.123566"><ele>122.820</ele><time>2026-07-29T18:16:24Z</time></trkpt><trkpt lat="60.94775" lon="-149.123444"><ele>123.409</ele><time>2026-07-29T18:16:36Z</time></trkpt><trkpt lat="60.947728" lon="-149.123376"><ele>123.444</ele><time>2026-07-29T18:16:45Z</time></trkpt><trkpt lat="60.947675" lon="-149.123352"><ele>122.289</ele><time>2026-07-29T18:16:55Z</time></trkpt><trkpt lat="60.947663" lon="-149.123351"><ele>121.848</ele><time>2026-07-29T18:16:57Z</time></trkpt><trkpt lat="60.947651" lon="-149.123338"><ele>120.898</ele><time>2026-07-29T18:17:05Z</time></trkpt><trkpt lat="60.947647" lon="-149.123328"><ele>120.280</ele><time>2026-07-29T18:17:08Z</time></trkpt><trkpt lat="60.947646" lon="-149.123319"><ele>119.835</ele><time>2026-07-29T18:17:10Z</time></trkpt><trkpt lat="60.947642" lon="-149.123319"><ele>119.844</ele><time>2026-07-29T18:17:11Z</time></trkpt><trkpt lat="60.947626" lon="-149.123321"><ele>119.820</ele><time>2026-07-29T18:17:14Z</time></trkpt><trkpt lat="60.947622" lon="-149.123326"><ele>119.821</ele><time>2026-07-29T18:17:15Z</time></trkpt><trkpt lat="60.947608" lon="-149.123358"><ele>120.427</ele><time>2026-07-29T18:17:24Z</time></trkpt><trkpt lat="60.947606" lon="-149.123342"><ele>120.268</ele><time>2026-07-29T18:17:34Z</time></trkpt><trkpt lat="60.947589" lon="-149.12337"><ele>120.414</ele><time>2026-07-29T18:17:43Z</time></trkpt><trkpt lat="60.947577" lon="-149.123355"><ele>120.409</ele><time>2026-07-29T18:17:46Z</time></trkpt><trkpt lat="60.947558" lon="-149.123347"><ele>120.424</ele><time>2026-07-29T18:17:52Z</time></trkpt><trkpt lat="60.947556" lon="-149.123362"><ele>120.659</ele><time>2026-07-29T18:17:55Z</time></trkpt><trkpt lat="60.947603" lon="-149.123385"><ele>120.088</ele><time>2026-07-29T18:18:04Z</time></trkpt><trkpt lat="60.94763" lon="-149.123369"><ele>120.628</ele><time>2026-07-29T18:18:12Z</time></trkpt><trkpt lat="60.947625" lon="-149.12337"><ele>120.640</ele><time>2026-07-29T18:18:18Z</time></trkpt><trkpt lat="60.947645" lon="-149.123408"><ele>120.625</ele><time>2026-07-29T18:18:29Z</time></trkpt><trkpt lat="60.947705" lon="-149.123379"><ele>120.854</ele><time>2026-07-29T18:18:35Z</time></trkpt><trkpt lat="60.947718" lon="-149.123362"><ele>120.850</ele><time>2026-07-29T18:18:37Z</time></trkpt><trkpt lat="60.947722" lon="-149.123352"><ele>120.861</ele><time>2026-07-29T18:18:38Z</time></trkpt><trkpt lat="60.947724" lon="-149.123344"><ele>120.882</ele><time>2026-07-29T18:18:39Z</time></trkpt><trkpt lat="60.947703" lon="-149.123358"><ele>120.843</ele><time>2026-07-29T18:18:44Z</time></trkpt><trkpt lat="60.94769" lon="-149.123377"><ele>120.817</ele><time>2026-07-29T18:18:46Z</time></trkpt><trkpt lat="60.947677" lon="-149.123398"><ele>120.809</ele><time>2026-07-29T18:18:49Z</time></trkpt><trkpt lat="60.947676" lon="-149.123406"><ele>121.610</ele><time>2026-07-29T18:18:57Z</time></trkpt><trkpt lat="60.947683" lon="-149.123435"><ele>121.635</ele><time>2026-07-29T18:19:00Z</time></trkpt><trkpt lat="60.947684" lon="-149.123456"><ele>122.084</ele><time>2026-07-29T18:19:02Z</time></trkpt><trkpt lat="60.947687" lon="-149.123468"><ele>122.664</ele><time>2026-07-29T18:19:04Z</time></trkpt><trkpt lat="60.947688" lon="-149.123473"><ele>123.076</ele><time>2026-07-29T18:19:05Z</time></trkpt><trkpt lat="60.947688" lon="-149.123499"><ele>124.051</ele><time>2026-07-29T18:19:10Z</time></trkpt><trkpt lat="60.947686" lon="-149.123482"><ele>124.460</ele><time>2026-07-29T18:19:13Z</time></trkpt><trkpt lat="60.947691" lon="-149.123437"><ele>124.676</ele><time>2026-07-29T18:19:18Z</time></trkpt><trkpt lat="60.947693" lon="-149.123436"><ele>124.887</ele><time>2026-07-29T18:19:23Z</time></trkpt><trkpt lat="60.947681" lon="-149.123499"><ele>124.644</ele><time>2026-07-29T18:19:32Z</time></trkpt><trkpt lat="60.94768" lon="-149.123509"><ele>124.605</ele><time>2026-07-29T18:19:36Z</time></trkpt><trkpt lat="60.947697" lon="-149.123515"><ele>124.815</ele><time>2026-07-29T18:19:43Z</time></trkpt><trkpt lat="60.9477" lon="-149.123521"><ele>124.809</ele><time>2026-07-29T18:19:45Z</time></trkpt><trkpt lat="60.947714" lon="-149.123521"><ele>125.066</ele><time>2026-07-29T18:19:47Z</time></trkpt><trkpt lat="60.947724" lon="-149.123438"><ele>125.621</ele><time>2026-07-29T18:19:53Z</time></trkpt><trkpt lat="60.947725" lon="-149.123411"><ele>126.270</ele><time>2026-07-29T18:19:54Z</time></trkpt><trkpt lat="60.94773" lon="-149.123366"><ele>127.850</ele><time>2026-07-29T18:19:56Z</time></trkpt><trkpt lat="60.94775" lon="-149.123313"><ele>128.432</ele><time>2026-07-29T18:20:01Z</time></trkpt><trkpt lat="60.94774" lon="-149.1233"><ele>128.237</ele><time>2026-07-29T18:20:05Z</time></trkpt><trkpt lat="60.947738" lon="-149.123255"><ele>129.286</ele><time>2026-07-29T18:20:08Z</time></trkpt><trkpt lat="60.947744" lon="-149.123232"><ele>129.632</ele><time>2026-07-29T18:20:09Z</time></trkpt><trkpt lat="60.947753" lon="-149.123193"><ele>130.253</ele><time>2026-07-29T18:20:11Z</time></trkpt><trkpt lat="60.947747" lon="-149.123161"><ele>130.279</ele><time>2026-07-29T18:20:18Z</time></trkpt><trkpt lat="60.947721" lon="-149.123244"><ele>129.805</ele><time>2026-07-29T18:20:23Z</time></trkpt><trkpt lat="60.947721" lon="-149.123314"><ele>128.825</ele><time>2026-07-29T18:20:26Z</time></trkpt><trkpt lat="60.947722" lon="-149.123334"><ele>128.409</ele><time>2026-07-29T18:20:27Z</time></trkpt><trkpt lat="60.947725" lon="-149.123362"><ele>127.879</ele><time>2026-07-29T18:20:29Z</time></trkpt><trkpt lat="60.947747" lon="-149.123438"><ele>127.274</ele><time>2026-07-29T18:20:36Z</time></trkpt><trkpt lat="60.947749" lon="-149.123442"><ele>126.813</ele><time>2026-07-29T18:20:37Z</time></trkpt><trkpt lat="60.947744" lon="-149.123436"><ele>125.413</ele><time>2026-07-29T18:20:39Z</time></trkpt><trkpt lat="60.947736" lon="-149.123408"><ele>124.685</ele><time>2026-07-29T18:20:44Z</time></trkpt><trkpt lat="60.947717" lon="-149.123395"><ele>124.490</ele><time>2026-07-29T18:20:55Z</time></trkpt><trkpt lat="60.947719" lon="-149.123511"><ele>124.659</ele><time>2026-07-29T18:21:02Z</time></trkpt><trkpt lat="60.947717" lon="-149.123528"><ele>124.635</ele><time>2026-07-29T18:21:03Z</time></trkpt><trkpt lat="60.947731" lon="-149.123637"><ele>124.466</ele><time>2026-07-29T18:21:12Z</time></trkpt><trkpt lat="60.947749" lon="-149.123704"><ele>124.426</ele><time>2026-07-29T18:21:19Z</time></trkpt><trkpt lat="60.94776" lon="-149.123718"><ele>123.847</ele><time>2026-07-29T18:21:22Z</time></trkpt><trkpt lat="60.947821" lon="-149.123775"><ele>123.411</ele><time>2026-07-29T18:21:32Z</time></trkpt><trkpt lat="60.947855" lon="-149.123725"><ele>123.609</ele><time>2026-07-29T18:21:38Z</time></trkpt><trkpt lat="60.9479" lon="-149.123688"><ele>124.884</ele><time>2026-07-29T18:21:49Z</time></trkpt><trkpt lat="60.947931" lon="-149.123783"><ele>124.419</ele><time>2026-07-29T18:21:58Z</time></trkpt><trkpt lat="60.947967" lon="-149.123805"><ele>124.248</ele><time>2026-07-29T18:22:07Z</time></trkpt><trkpt lat="60.948003" lon="-149.123876"><ele>123.618</ele><time>2026-07-29T18:22:15Z</time></trkpt><trkpt lat="60.948006" lon="-149.123888"><ele>123.030</ele><time>2026-07-29T18:22:17Z</time></trkpt><trkpt lat="60.948005" lon="-149.123972"><ele>122.275</ele><time>2026-07-29T18:22:24Z</time></trkpt><trkpt lat="60.948009" lon="-149.124002"><ele>122.024</ele><time>2026-07-29T18:22:26Z</time></trkpt><trkpt lat="60.948026" lon="-149.124125"><ele>121.020</ele><time>2026-07-29T18:22:33Z</time></trkpt><trkpt lat="60.948026" lon="-149.124142"><ele>120.691</ele><time>2026-07-29T18:22:35Z</time></trkpt><trkpt lat="60.948019" lon="-149.124154"><ele>120.012</ele><time>2026-07-29T18:22:39Z</time></trkpt><trkpt lat="60.948017" lon="-149.124144"><ele>120.032</ele><time>2026-07-29T18:22:42Z</time></trkpt><trkpt lat="60.948021" lon="-149.12415"><ele>119.805</ele><time>2026-07-29T18:22:45Z</time></trkpt><trkpt lat="60.948045" lon="-149.124261"><ele>118.809</ele><time>2026-07-29T18:22:51Z</time></trkpt><trkpt lat="60.948057" lon="-149.124325"><ele>118.613</ele><time>2026-07-29T18:22:54Z</time></trkpt><trkpt lat="60.948082" lon="-149.124413"><ele>118.428</ele><time>2026-07-29T18:22:59Z</time></trkpt><trkpt lat="60.948111" lon="-149.124476"><ele>118.247</ele><time>2026-07-29T18:23:04Z</time></trkpt><trkpt lat="60.94817" lon="-149.124533"><ele>118.047</ele><time>2026-07-29T18:23:12Z</time></trkpt><trkpt lat="60.948187" lon="-149.124573"><ele>117.889</ele><time>2026-07-29T18:23:18Z</time></trkpt><trkpt lat="60.948184" lon="-149.124575"><ele>117.834</ele><time>2026-07-29T18:23:20Z</time></trkpt><trkpt lat="60.948187" lon="-149.124628"><ele>117.413</ele><time>2026-07-29T18:23:30Z</time></trkpt><trkpt lat="60.948168" lon="-149.124675"><ele>117.269</ele><time>2026-07-29T18:23:36Z</time></trkpt><trkpt lat="60.94816" lon="-149.124668"><ele>116.820</ele><time>2026-07-29T18:23:41Z</time></trkpt><trkpt lat="60.948159" lon="-149.124624"><ele>116.424</ele><time>2026-07-29T18:23:45Z</time></trkpt><trkpt lat="60.948152" lon="-149.124673"><ele>115.804</ele><time>2026-07-29T18:23:50Z</time></trkpt><trkpt lat="60.948153" lon="-149.124721"><ele>115.414</ele><time>2026-07-29T18:23:52Z</time></trkpt><trkpt lat="60.948177" lon="-149.124827"><ele>114.609</ele><time>2026-07-29T18:23:57Z</time></trkpt><trkpt lat="60.948194" lon="-149.124876"><ele>114.264</ele><time>2026-07-29T18:24:00Z</time></trkpt><trkpt lat="60.948238" lon="-149.124937"><ele>113.679</ele><time>2026-07-29T18:24:08Z</time></trkpt><trkpt lat="60.948239" lon="-149.124946"><ele>113.658</ele><time>2026-07-29T18:24:09Z</time></trkpt><trkpt lat="60.948248" lon="-149.124974"><ele>113.438</ele><time>2026-07-29T18:24:11Z</time></trkpt><trkpt lat="60.948268" lon="-149.125017"><ele>113.060</ele><time>2026-07-29T18:24:15Z</time></trkpt><trkpt lat="60.948277" lon="-149.125039"><ele>112.485</ele><time>2026-07-29T18:24:19Z</time></trkpt><trkpt lat="60.948287" lon="-149.125077"><ele>111.664</ele><time>2026-07-29T18:24:24Z</time></trkpt><trkpt lat="60.948289" lon="-149.125084"><ele>111.460</ele><time>2026-07-29T18:24:25Z</time></trkpt><trkpt lat="60.948332" lon="-149.125153"><ele>110.481</ele><time>2026-07-29T18:24:34Z</time></trkpt><trkpt lat="60.948332" lon="-149.125157"><ele>110.436</ele><time>2026-07-29T18:24:35Z</time></trkpt><trkpt lat="60.948331" lon="-149.125172"><ele>110.417</ele><time>2026-07-29T18:24:38Z</time></trkpt><trkpt lat="60.94833" lon="-149.1252"><ele>110.018</ele><time>2026-07-29T18:24:41Z</time></trkpt><trkpt lat="60.948362" lon="-149.125202"><ele>109.409</ele><time>2026-07-29T18:24:48Z</time></trkpt><trkpt lat="60.948368" lon="-149.125203"><ele>109.455</ele><time>2026-07-29T18:24:49Z</time></trkpt><trkpt lat="60.948363" lon="-149.125205"><ele>109.010</ele><time>2026-07-29T18:24:54Z</time></trkpt><trkpt lat="60.948354" lon="-149.125209"><ele>108.619</ele><time>2026-07-29T18:25:01Z</time></trkpt><trkpt lat="60.94833" lon="-149.125182"><ele>108.829</ele><time>2026-07-29T18:25:08Z</time></trkpt><trkpt lat="60.948334" lon="-149.125188"><ele>108.641</ele><time>2026-07-29T18:25:19Z</time></trkpt><trkpt lat="60.948331" lon="-149.125312"><ele>108.456</ele><time>2026-07-29T18:25:26Z</time></trkpt><trkpt lat="60.948332" lon="-149.125315"><ele>108.475</ele><time>2026-07-29T18:25:28Z</time></trkpt><trkpt lat="60.948342" lon="-149.12526"><ele>108.421</ele><time>2026-07-29T18:25:38Z</time></trkpt><trkpt lat="60.948347" lon="-149.125343"><ele>108.412</ele><time>2026-07-29T18:25:48Z</time></trkpt><trkpt lat="60.948353" lon="-149.125422"><ele>108.057</ele><time>2026-07-29T18:25:56Z</time></trkpt><trkpt lat="60.948371" lon="-149.1254"><ele>108.000</ele><time>2026-07-29T18:26:03Z</time></trkpt><trkpt lat="60.948389" lon="-149.125451"><ele>107.420</ele><time>2026-07-29T18:26:12Z</time></trkpt><trkpt lat="60.948388" lon="-149.125529"><ele>107.209</ele><time>2026-07-29T18:26:19Z</time></trkpt><trkpt lat="60.948387" lon="-149.125542"><ele>107.247</ele><time>2026-07-29T18:26:20Z</time></trkpt><trkpt lat="60.948376" lon="-149.125546"><ele>106.692</ele><time>2026-07-29T18:26:31Z</time></trkpt><trkpt lat="60.948404" lon="-149.125613"><ele>106.471</ele><time>2026-07-29T18:26:38Z</time></trkpt><trkpt lat="60.948404" lon="-149.125633"><ele>106.281</ele><time>2026-07-29T18:26:40Z</time></trkpt></trkseg></trk></gpx>