<?xml version="1.0" encoding="UTF-8"?><gpx creator="Wikiloc - http://www.wikiloc.com" version="1.1" xmlns="http://www.topografix.com/GPX/1/1" xmlns:xsi="http://www.w3.org/2001/XMLSchema-instance" xsi:schemaLocation="http://www.topografix.com/GPX/1/1 http://www.topografix.com/GPX/1/1/gpx.xsd"><trk><name><![CDATA[Waterton Lakes National Park: Townsite Campground - Cameron Falls - Townsite Campground]]></name><cmt><![CDATA[Ruta circular des de Waterton passant per:
- Cameron Falls (2.6 km)]]></cmt><desc><![CDATA[Ruta circular des de Waterton passant per:
- Cameron Falls (2.6 km)]]></desc><trkseg><trkpt lat="49.047802" lon="-113.908337"><ele>1283.892</ele><time>2026-06-03T20:37:51Z</time></trkpt><trkpt lat="49.047772" lon="-113.90831"><ele>1283.273</ele><time>2026-06-03T20:37:57Z</time></trkpt><trkpt lat="49.047739" lon="-113.908267"><ele>1283.420</ele><time>2026-06-03T20:38:00Z</time></trkpt><trkpt lat="49.047698" lon="-113.908206"><ele>1283.609</ele><time>2026-06-03T20:38:04Z</time></trkpt><trkpt lat="49.047617" lon="-113.908124"><ele>1283.471</ele><time>2026-06-03T20:38:11Z</time></trkpt><trkpt lat="49.047563" lon="-113.908003"><ele>1282.635</ele><time>2026-06-03T20:38:19Z</time></trkpt><trkpt lat="49.047496" lon="-113.907896"><ele>1282.846</ele><time>2026-06-03T20:38:27Z</time></trkpt><trkpt lat="49.047518" lon="-113.907809"><ele>1283.025</ele><time>2026-06-03T20:38:33Z</time></trkpt><trkpt lat="49.047592" lon="-113.907725"><ele>1282.860</ele><time>2026-06-03T20:38:40Z</time></trkpt><trkpt lat="49.047637" lon="-113.907685"><ele>1282.696</ele><time>2026-06-03T20:38:45Z</time></trkpt><trkpt lat="49.047696" lon="-113.907641"><ele>1282.637</ele><time>2026-06-03T20:38:50Z</time></trkpt><trkpt lat="49.047803" lon="-113.90751"><ele>1282.678</ele><time>2026-06-03T20:39:01Z</time></trkpt><trkpt lat="49.047884" lon="-113.90743"><ele>1282.648</ele><time>2026-06-03T20:39:09Z</time></trkpt><trkpt lat="49.047943" lon="-113.907372"><ele>1282.463</ele><time>2026-06-03T20:39:14Z</time></trkpt><trkpt lat="49.047987" lon="-113.907327"><ele>1282.444</ele><time>2026-06-03T20:39:19Z</time></trkpt><trkpt lat="49.048025" lon="-113.907306"><ele>1282.818</ele><time>2026-06-03T20:39:23Z</time></trkpt><trkpt lat="49.048082" lon="-113.907266"><ele>1283.009</ele><time>2026-06-03T20:39:28Z</time></trkpt><trkpt lat="49.048207" lon="-113.907159"><ele>1283.478</ele><time>2026-06-03T20:39:37Z</time></trkpt><trkpt lat="49.048282" lon="-113.90707"><ele>1283.422</ele><time>2026-06-03T20:39:44Z</time></trkpt><trkpt lat="49.048352" lon="-113.906994"><ele>1283.033</ele><time>2026-06-03T20:39:51Z</time></trkpt><trkpt lat="49.048476" lon="-113.906873"><ele>1283.032</ele><time>2026-06-03T20:40:02Z</time></trkpt><trkpt lat="49.048569" lon="-113.906769"><ele>1282.847</ele><time>2026-06-03T20:40:10Z</time></trkpt><trkpt lat="49.048662" lon="-113.906691"><ele>1283.013</ele><time>2026-06-03T20:40:19Z</time></trkpt><trkpt lat="49.048756" lon="-113.906645"><ele>1283.234</ele><time>2026-06-03T20:40:27Z</time></trkpt><trkpt lat="49.048879" lon="-113.906569"><ele>1283.225</ele><time>2026-06-03T20:40:37Z</time></trkpt><trkpt lat="49.048993" lon="-113.90655"><ele>1283.295</ele><time>2026-06-03T20:40:46Z</time></trkpt><trkpt lat="49.049087" lon="-113.906519"><ele>1283.216</ele><time>2026-06-03T20:40:54Z</time></trkpt><trkpt lat="49.049151" lon="-113.906492"><ele>1283.076</ele><time>2026-06-03T20:40:59Z</time></trkpt><trkpt lat="49.049202" lon="-113.906463"><ele>1282.613</ele><time>2026-06-03T20:41:03Z</time></trkpt><trkpt lat="49.049329" lon="-113.906418"><ele>1282.809</ele><time>2026-06-03T20:41:14Z</time></trkpt><trkpt lat="49.049352" lon="-113.906398"><ele>1282.813</ele><time>2026-06-03T20:41:17Z</time></trkpt><trkpt lat="49.049439" lon="-113.906371"><ele>1283.097</ele><time>2026-06-03T20:41:25Z</time></trkpt><trkpt lat="49.049551" lon="-113.906321"><ele>1282.878</ele><time>2026-06-03T20:41:34Z</time></trkpt><trkpt lat="49.049656" lon="-113.906249"><ele>1282.857</ele><time>2026-06-03T20:41:44Z</time></trkpt><trkpt lat="49.049688" lon="-113.906246"><ele>1282.812</ele><time>2026-06-03T20:41:50Z</time></trkpt><trkpt lat="49.049806" lon="-113.906251"><ele>1282.678</ele><time>2026-06-03T20:41:59Z</time></trkpt><trkpt lat="49.049907" lon="-113.90623"><ele>1282.419</ele><time>2026-06-03T20:42:07Z</time></trkpt><trkpt lat="49.05001" lon="-113.906207"><ele>1282.440</ele><time>2026-06-03T20:42:14Z</time></trkpt><trkpt lat="49.050109" lon="-113.906201"><ele>1282.660</ele><time>2026-06-03T20:42:22Z</time></trkpt><trkpt lat="49.050207" lon="-113.906195"><ele>1282.263</ele><time>2026-06-03T20:42:32Z</time></trkpt><trkpt lat="49.050326" lon="-113.906192"><ele>1282.244</ele><time>2026-06-03T20:42:40Z</time></trkpt><trkpt lat="49.05044" lon="-113.906183"><ele>1282.418</ele><time>2026-06-03T20:42:49Z</time></trkpt><trkpt lat="49.050544" lon="-113.90616"><ele>1282.409</ele><time>2026-06-03T20:42:57Z</time></trkpt><trkpt lat="49.050659" lon="-113.906159"><ele>1282.478</ele><time>2026-06-03T20:43:06Z</time></trkpt><trkpt lat="49.050757" lon="-113.906146"><ele>1283.092</ele><time>2026-06-03T20:43:14Z</time></trkpt><trkpt lat="49.050834" lon="-113.906138"><ele>1283.663</ele><time>2026-06-03T20:43:21Z</time></trkpt><trkpt lat="49.050906" lon="-113.906141"><ele>1283.432</ele><time>2026-06-03T20:43:26Z</time></trkpt><trkpt lat="49.050967" lon="-113.906127"><ele>1283.087</ele><time>2026-06-03T20:43:30Z</time></trkpt><trkpt lat="49.051049" lon="-113.906127"><ele>1282.633</ele><time>2026-06-03T20:43:37Z</time></trkpt><trkpt lat="49.051177" lon="-113.906115"><ele>1282.814</ele><time>2026-06-03T20:43:47Z</time></trkpt><trkpt lat="49.051298" lon="-113.906125"><ele>1282.815</ele><time>2026-06-03T20:43:56Z</time></trkpt><trkpt lat="49.051422" lon="-113.906106"><ele>1283.055</ele><time>2026-06-03T20:44:06Z</time></trkpt><trkpt lat="49.051553" lon="-113.906093"><ele>1283.253</ele><time>2026-06-03T20:44:17Z</time></trkpt><trkpt lat="49.051637" lon="-113.90609"><ele>1283.204</ele><time>2026-06-03T20:44:25Z</time></trkpt><trkpt lat="49.051666" lon="-113.906081"><ele>1283.414</ele><time>2026-06-03T20:44:27Z</time></trkpt><trkpt lat="49.051726" lon="-113.906064"><ele>1283.409</ele><time>2026-06-03T20:44:32Z</time></trkpt><trkpt lat="49.051787" lon="-113.906065"><ele>1283.457</ele><time>2026-06-03T20:44:37Z</time></trkpt><trkpt lat="49.051826" lon="-113.906062"><ele>1283.671</ele><time>2026-06-03T20:44:40Z</time></trkpt><trkpt lat="49.051959" lon="-113.906042"><ele>1283.692</ele><time>2026-06-03T20:44:50Z</time></trkpt><trkpt lat="49.051968" lon="-113.906043"><ele>1283.631</ele><time>2026-06-03T20:44:51Z</time></trkpt><trkpt lat="49.052069" lon="-113.906041"><ele>1283.676</ele><time>2026-06-03T20:44:58Z</time></trkpt><trkpt lat="49.052171" lon="-113.906028"><ele>1283.462</ele><time>2026-06-03T20:45:07Z</time></trkpt><trkpt lat="49.052287" lon="-113.906013"><ele>1283.413</ele><time>2026-06-03T20:45:16Z</time></trkpt><trkpt lat="49.052384" lon="-113.906014"><ele>1283.224</ele><time>2026-06-03T20:45:24Z</time></trkpt><trkpt lat="49.052514" lon="-113.906001"><ele>1283.044</ele><time>2026-06-03T20:45:33Z</time></trkpt><trkpt lat="49.052649" lon="-113.905991"><ele>1283.022</ele><time>2026-06-03T20:45:43Z</time></trkpt><trkpt lat="49.052803" lon="-113.905979"><ele>1282.862</ele><time>2026-06-03T20:45:55Z</time></trkpt><trkpt lat="49.052902" lon="-113.905959"><ele>1282.808</ele><time>2026-06-03T20:46:04Z</time></trkpt><trkpt lat="49.053" lon="-113.905943"><ele>1283.009</ele><time>2026-06-03T20:46:13Z</time></trkpt><trkpt lat="49.053011" lon="-113.905906"><ele>1283.094</ele><time>2026-06-03T20:46:17Z</time></trkpt><trkpt lat="49.053011" lon="-113.905843"><ele>1283.218</ele><time>2026-06-03T20:46:20Z</time></trkpt><trkpt lat="49.053063" lon="-113.9057"><ele>1282.839</ele><time>2026-06-03T20:46:30Z</time></trkpt><trkpt lat="49.053144" lon="-113.90569"><ele>1283.068</ele><time>2026-06-03T20:46:38Z</time></trkpt><trkpt lat="49.053186" lon="-113.905678"><ele>1283.013</ele><time>2026-06-03T20:46:44Z</time></trkpt><trkpt lat="49.053255" lon="-113.905687"><ele>1283.039</ele><time>2026-06-03T20:46:52Z</time></trkpt><trkpt lat="49.053268" lon="-113.90569"><ele>1283.090</ele><time>2026-06-03T20:46:53Z</time></trkpt><trkpt lat="49.053302" lon="-113.905697"><ele>1283.051</ele><time>2026-06-03T20:46:56Z</time></trkpt><trkpt lat="49.053347" lon="-113.905699"><ele>1283.031</ele><time>2026-06-03T20:47:00Z</time></trkpt><trkpt lat="49.053429" lon="-113.905694"><ele>1282.817</ele><time>2026-06-03T20:47:08Z</time></trkpt><trkpt lat="49.053471" lon="-113.905701"><ele>1282.887</ele><time>2026-06-03T20:47:12Z</time></trkpt><trkpt lat="49.053538" lon="-113.905707"><ele>1282.815</ele><time>2026-06-03T20:47:18Z</time></trkpt><trkpt lat="49.053584" lon="-113.905715"><ele>1282.609</ele><time>2026-06-03T20:47:23Z</time></trkpt><trkpt lat="49.053616" lon="-113.905723"><ele>1282.673</ele><time>2026-06-03T20:47:27Z</time></trkpt><trkpt lat="49.053655" lon="-113.905765"><ele>1282.827</ele><time>2026-06-03T20:47:35Z</time></trkpt><trkpt lat="49.053652" lon="-113.905774"><ele>1282.838</ele><time>2026-06-03T20:47:37Z</time></trkpt><trkpt lat="49.053638" lon="-113.90579"><ele>1283.057</ele><time>2026-06-03T20:47:44Z</time></trkpt><trkpt lat="49.05364" lon="-113.90579"><ele>1282.842</ele><time>2026-06-03T20:47:56Z</time></trkpt><trkpt lat="49.05364" lon="-113.90579"><ele>1282.878</ele><time>2026-06-03T20:47:59Z</time></trkpt><trkpt lat="49.053634" lon="-113.905778"><ele>1283.029</ele><time>2026-06-03T20:48:07Z</time></trkpt><trkpt lat="49.053619" lon="-113.905791"><ele>1282.810</ele><time>2026-06-03T20:48:15Z</time></trkpt><trkpt lat="49.053621" lon="-113.905792"><ele>1282.850</ele><time>2026-06-03T20:48:27Z</time></trkpt><trkpt lat="49.053634" lon="-113.905791"><ele>1282.899</ele><time>2026-06-03T20:48:31Z</time></trkpt><trkpt lat="49.053643" lon="-113.905775"><ele>1282.607</ele><time>2026-06-03T20:48:41Z</time></trkpt><trkpt lat="49.053638" lon="-113.905784"><ele>1282.827</ele><time>2026-06-03T20:48:47Z</time></trkpt><trkpt lat="49.053642" lon="-113.905776"><ele>1282.609</ele><time>2026-06-03T20:48:51Z</time></trkpt><trkpt lat="49.053642" lon="-113.905776"><ele>1282.661</ele><time>2026-06-03T20:48:52Z</time></trkpt><trkpt lat="49.053642" lon="-113.905776"><ele>1282.655</ele><time>2026-06-03T20:49:00Z</time></trkpt><trkpt lat="49.053642" lon="-113.905776"><ele>1282.696</ele><time>2026-06-03T20:49:09Z</time></trkpt><trkpt lat="49.053642" lon="-113.905776"><ele>1282.625</ele><time>2026-06-03T20:49:10Z</time></trkpt><trkpt lat="49.053642" lon="-113.905776"><ele>1282.690</ele><time>2026-06-03T20:49:11Z</time></trkpt><trkpt lat="49.053636" lon="-113.905818"><ele>1282.616</ele><time>2026-06-03T20:49:21Z</time></trkpt><trkpt lat="49.053635" lon="-113.905835"><ele>1282.627</ele><time>2026-06-03T20:49:29Z</time></trkpt><trkpt lat="49.053636" lon="-113.905828"><ele>1282.618</ele><time>2026-06-03T20:49:31Z</time></trkpt><trkpt lat="49.053644" lon="-113.9058"><ele>1282.438</ele><time>2026-06-03T20:49:35Z</time></trkpt><trkpt lat="49.053645" lon="-113.905797"><ele>1282.479</ele><time>2026-06-03T20:49:37Z</time></trkpt><trkpt lat="49.053643" lon="-113.905804"><ele>1282.405</ele><time>2026-06-03T20:49:45Z</time></trkpt><trkpt lat="49.053638" lon="-113.9058"><ele>1282.425</ele><time>2026-06-03T20:49:49Z</time></trkpt><trkpt lat="49.053645" lon="-113.905794"><ele>1282.409</ele><time>2026-06-03T20:49:57Z</time></trkpt><trkpt lat="49.053662" lon="-113.905759"><ele>1282.499</ele><time>2026-06-03T20:50:01Z</time></trkpt><trkpt lat="49.053696" lon="-113.905754"><ele>1282.293</ele><time>2026-06-03T20:50:06Z</time></trkpt><trkpt lat="49.05369" lon="-113.905751"><ele>1282.234</ele><time>2026-06-03T20:50:15Z</time></trkpt><trkpt lat="49.053785" lon="-113.905771"><ele>1282.483</ele><time>2026-06-03T20:50:23Z</time></trkpt><trkpt lat="49.053867" lon="-113.905826"><ele>1282.418</ele><time>2026-06-03T20:50:31Z</time></trkpt><trkpt lat="49.053871" lon="-113.905842"><ele>1282.494</ele><time>2026-06-03T20:50:32Z</time></trkpt><trkpt lat="49.053872" lon="-113.905883"><ele>1282.495</ele><time>2026-06-03T20:50:39Z</time></trkpt><trkpt lat="49.053887" lon="-113.905858"><ele>1282.446</ele><time>2026-06-03T20:50:45Z</time></trkpt><trkpt lat="49.053897" lon="-113.905843"><ele>1282.466</ele><time>2026-06-03T20:50:50Z</time></trkpt><trkpt lat="49.053876" lon="-113.905899"><ele>1282.247</ele><time>2026-06-03T20:50:55Z</time></trkpt><trkpt lat="49.053807" lon="-113.90593"><ele>1282.029</ele><time>2026-06-03T20:51:02Z</time></trkpt><trkpt lat="49.053665" lon="-113.905901"><ele>1282.421</ele><time>2026-06-03T20:51:14Z</time></trkpt><trkpt lat="49.053566" lon="-113.90589"><ele>1282.209</ele><time>2026-06-03T20:51:23Z</time></trkpt><trkpt lat="49.053496" lon="-113.905831"><ele>1282.296</ele><time>2026-06-03T20:51:32Z</time></trkpt><trkpt lat="49.053506" lon="-113.905801"><ele>1282.220</ele><time>2026-06-03T20:51:38Z</time></trkpt><trkpt lat="49.053519" lon="-113.905788"><ele>1282.231</ele><time>2026-06-03T20:51:52Z</time></trkpt><trkpt lat="49.053519" lon="-113.905791"><ele>1282.280</ele><time>2026-06-03T20:52:00Z</time></trkpt><trkpt lat="49.053525" lon="-113.905799"><ele>1282.225</ele><time>2026-06-03T20:52:08Z</time></trkpt><trkpt lat="49.053525" lon="-113.905786"><ele>1282.211</ele><time>2026-06-03T20:52:11Z</time></trkpt><trkpt lat="49.05351" lon="-113.905879"><ele>1282.042</ele><time>2026-06-03T20:52:17Z</time></trkpt><trkpt lat="49.053505" lon="-113.905891"><ele>1282.033</ele><time>2026-06-03T20:52:18Z</time></trkpt><trkpt lat="49.053433" lon="-113.905916"><ele>1281.873</ele><time>2026-06-03T20:52:25Z</time></trkpt><trkpt lat="49.053317" lon="-113.905956"><ele>1282.074</ele><time>2026-06-03T20:52:37Z</time></trkpt><trkpt lat="49.053254" lon="-113.906048"><ele>1282.056</ele><time>2026-06-03T20:52:44Z</time></trkpt><trkpt lat="49.053216" lon="-113.906182"><ele>1282.221</ele><time>2026-06-03T20:52:52Z</time></trkpt><trkpt lat="49.053232" lon="-113.906306"><ele>1282.209</ele><time>2026-06-03T20:53:01Z</time></trkpt><trkpt lat="49.053299" lon="-113.906442"><ele>1282.419</ele><time>2026-06-03T20:53:10Z</time></trkpt><trkpt lat="49.053358" lon="-113.906575"><ele>1282.033</ele><time>2026-06-03T20:53:18Z</time></trkpt><trkpt lat="49.053437" lon="-113.906712"><ele>1282.224</ele><time>2026-06-03T20:53:28Z</time></trkpt><trkpt lat="49.053488" lon="-113.906825"><ele>1282.213</ele><time>2026-06-03T20:53:36Z</time></trkpt><trkpt lat="49.053546" lon="-113.906932"><ele>1282.028</ele><time>2026-06-03T20:53:43Z</time></trkpt><trkpt lat="49.05356" lon="-113.906967"><ele>1282.044</ele><time>2026-06-03T20:53:46Z</time></trkpt><trkpt lat="49.053591" lon="-113.907009"><ele>1282.295</ele><time>2026-06-03T20:53:50Z</time></trkpt><trkpt lat="49.0536" lon="-113.907014"><ele>1282.266</ele><time>2026-06-03T20:53:51Z</time></trkpt><trkpt lat="49.053672" lon="-113.907076"><ele>1282.456</ele><time>2026-06-03T20:53:59Z</time></trkpt><trkpt lat="49.053779" lon="-113.907167"><ele>1282.288</ele><time>2026-06-03T20:54:09Z</time></trkpt><trkpt lat="49.053911" lon="-113.907282"><ele>1282.224</ele><time>2026-06-03T20:54:21Z</time></trkpt><trkpt lat="49.053981" lon="-113.907378"><ele>1282.226</ele><time>2026-06-03T20:54:29Z</time></trkpt><trkpt lat="49.054056" lon="-113.907448"><ele>1282.009</ele><time>2026-06-03T20:54:36Z</time></trkpt><trkpt lat="49.054076" lon="-113.907536"><ele>1282.090</ele><time>2026-06-03T20:54:42Z</time></trkpt><trkpt lat="49.054068" lon="-113.907559"><ele>1282.014</ele><time>2026-06-03T20:54:44Z</time></trkpt><trkpt lat="49.054052" lon="-113.907612"><ele>1282.065</ele><time>2026-06-03T20:54:48Z</time></trkpt><trkpt lat="49.054057" lon="-113.907627"><ele>1282.244</ele><time>2026-06-03T20:54:49Z</time></trkpt><trkpt lat="49.054062" lon="-113.907646"><ele>1282.289</ele><time>2026-06-03T20:54:50Z</time></trkpt><trkpt lat="49.054094" lon="-113.907663"><ele>1282.245</ele><time>2026-06-03T20:54:53Z</time></trkpt><trkpt lat="49.054114" lon="-113.907666"><ele>1282.076</ele><time>2026-06-03T20:54:55Z</time></trkpt><trkpt lat="49.054193" lon="-113.907687"><ele>1281.867</ele><time>2026-06-03T20:55:03Z</time></trkpt><trkpt lat="49.054305" lon="-113.90771"><ele>1281.657</ele><time>2026-06-03T20:55:13Z</time></trkpt><trkpt lat="49.054379" lon="-113.907727"><ele>1281.457</ele><time>2026-06-03T20:55:21Z</time></trkpt><trkpt lat="49.05443" lon="-113.907748"><ele>1281.600</ele><time>2026-06-03T20:55:26Z</time></trkpt><trkpt lat="49.054443" lon="-113.907753"><ele>1281.620</ele><time>2026-06-03T20:55:27Z</time></trkpt><trkpt lat="49.054445" lon="-113.907773"><ele>1281.609</ele><time>2026-06-03T20:55:30Z</time></trkpt><trkpt lat="49.054422" lon="-113.907805"><ele>1281.627</ele><time>2026-06-03T20:55:33Z</time></trkpt><trkpt lat="49.054369" lon="-113.907907"><ele>1281.821</ele><time>2026-06-03T20:55:41Z</time></trkpt><trkpt lat="49.054291" lon="-113.907913"><ele>1281.612</ele><time>2026-06-03T20:55:48Z</time></trkpt><trkpt lat="49.05419" lon="-113.907925"><ele>1281.841</ele><time>2026-06-03T20:55:57Z</time></trkpt><trkpt lat="49.05409" lon="-113.907968"><ele>1281.656</ele><time>2026-06-03T20:56:06Z</time></trkpt><trkpt lat="49.054023" lon="-113.908072"><ele>1281.822</ele><time>2026-06-03T20:56:15Z</time></trkpt><trkpt lat="49.05396" lon="-113.908221"><ele>1282.043</ele><time>2026-06-03T20:56:25Z</time></trkpt><trkpt lat="49.05394" lon="-113.90837"><ele>1282.684</ele><time>2026-06-03T20:56:33Z</time></trkpt><trkpt lat="49.053941" lon="-113.908385"><ele>1282.614</ele><time>2026-06-03T20:56:34Z</time></trkpt><trkpt lat="49.053977" lon="-113.908558"><ele>1282.497</ele><time>2026-06-03T20:56:43Z</time></trkpt><trkpt lat="49.05401" lon="-113.908634"><ele>1282.623</ele><time>2026-06-03T20:56:48Z</time></trkpt><trkpt lat="49.054043" lon="-113.908689"><ele>1282.625</ele><time>2026-06-03T20:56:52Z</time></trkpt><trkpt lat="49.054146" lon="-113.908877"><ele>1282.809</ele><time>2026-06-03T20:57:05Z</time></trkpt><trkpt lat="49.054167" lon="-113.90892"><ele>1283.071</ele><time>2026-06-03T20:57:08Z</time></trkpt><trkpt lat="49.054207" lon="-113.909039"><ele>1283.275</ele><time>2026-06-03T20:57:15Z</time></trkpt><trkpt lat="49.054277" lon="-113.909165"><ele>1283.686</ele><time>2026-06-03T20:57:25Z</time></trkpt><trkpt lat="49.054346" lon="-113.909258"><ele>1283.645</ele><time>2026-06-03T20:57:33Z</time></trkpt><trkpt lat="49.054436" lon="-113.90934"><ele>1283.610</ele><time>2026-06-03T20:57:42Z</time></trkpt><trkpt lat="49.054527" lon="-113.909431"><ele>1283.626</ele><time>2026-06-03T20:57:51Z</time></trkpt><trkpt lat="49.054635" lon="-113.909527"><ele>1283.697</ele><time>2026-06-03T20:58:01Z</time></trkpt><trkpt lat="49.054698" lon="-113.909593"><ele>1283.688</ele><time>2026-06-03T20:58:08Z</time></trkpt><trkpt lat="49.05475" lon="-113.909638"><ele>1283.668</ele><time>2026-06-03T20:58:14Z</time></trkpt><trkpt lat="49.054795" lon="-113.909698"><ele>1283.664</ele><time>2026-06-03T20:58:22Z</time></trkpt><trkpt lat="49.054812" lon="-113.909723"><ele>1283.806</ele><time>2026-06-03T20:58:28Z</time></trkpt><trkpt lat="49.054901" lon="-113.90983"><ele>1283.816</ele><time>2026-06-03T20:58:36Z</time></trkpt><trkpt lat="49.054949" lon="-113.909885"><ele>1284.009</ele><time>2026-06-03T20:58:41Z</time></trkpt><trkpt lat="49.055012" lon="-113.909951"><ele>1283.858</ele><time>2026-06-03T20:58:47Z</time></trkpt><trkpt lat="49.055121" lon="-113.910041"><ele>1283.822</ele><time>2026-06-03T20:58:55Z</time></trkpt><trkpt lat="49.05522" lon="-113.910125"><ele>1284.063</ele><time>2026-06-03T20:59:03Z</time></trkpt><trkpt lat="49.055309" lon="-113.910209"><ele>1284.262</ele><time>2026-06-03T20:59:12Z</time></trkpt><trkpt lat="49.055369" lon="-113.910283"><ele>1284.457</ele><time>2026-06-03T20:59:20Z</time></trkpt><trkpt lat="49.055381" lon="-113.910289"><ele>1284.453</ele><time>2026-06-03T20:59:21Z</time></trkpt><trkpt lat="49.055498" lon="-113.910385"><ele>1284.414</ele><time>2026-06-03T20:59:30Z</time></trkpt><trkpt lat="49.055575" lon="-113.910447"><ele>1284.485</ele><time>2026-06-03T20:59:38Z</time></trkpt><trkpt lat="49.055691" lon="-113.910487"><ele>1284.275</ele><time>2026-06-03T20:59:47Z</time></trkpt><trkpt lat="49.05577" lon="-113.910568"><ele>1284.267</ele><time>2026-06-03T20:59:55Z</time></trkpt><trkpt lat="49.05583" lon="-113.910678"><ele>1284.481</ele><time>2026-06-03T21:00:03Z</time></trkpt><trkpt lat="49.055873" lon="-113.910807"><ele>1284.419</ele><time>2026-06-03T21:00:12Z</time></trkpt><trkpt lat="49.055868" lon="-113.910819"><ele>1284.409</ele><time>2026-06-03T21:00:13Z</time></trkpt><trkpt lat="49.055827" lon="-113.91086"><ele>1284.698</ele><time>2026-06-03T21:00:18Z</time></trkpt><trkpt lat="49.05581" lon="-113.910875"><ele>1284.442</ele><time>2026-06-03T21:00:20Z</time></trkpt><trkpt lat="49.055785" lon="-113.910884"><ele>1284.623</ele><time>2026-06-03T21:00:26Z</time></trkpt><trkpt lat="49.055786" lon="-113.910884"><ele>1284.682</ele><time>2026-06-03T21:00:27Z</time></trkpt><trkpt lat="49.055802" lon="-113.910878"><ele>1284.697</ele><time>2026-06-03T21:00:31Z</time></trkpt><trkpt lat="49.055825" lon="-113.910865"><ele>1284.633</ele><time>2026-06-03T21:00:35Z</time></trkpt><trkpt lat="49.055828" lon="-113.910865"><ele>1284.644</ele><time>2026-06-03T21:00:39Z</time></trkpt><trkpt lat="49.05585" lon="-113.910896"><ele>1285.085</ele><time>2026-06-03T21:00:43Z</time></trkpt><trkpt lat="49.055944" lon="-113.910989"><ele>1285.045</ele><time>2026-06-03T21:00:52Z</time></trkpt><trkpt lat="49.055987" lon="-113.911062"><ele>1284.616</ele><time>2026-06-03T21:01:00Z</time></trkpt><trkpt lat="49.056041" lon="-113.911108"><ele>1284.876</ele><time>2026-06-03T21:01:10Z</time></trkpt><trkpt lat="49.056072" lon="-113.911097"><ele>1285.013</ele><time>2026-06-03T21:01:18Z</time></trkpt><trkpt lat="49.056064" lon="-113.911097"><ele>1285.009</ele><time>2026-06-03T21:01:19Z</time></trkpt><trkpt lat="49.055989" lon="-113.911127"><ele>1285.063</ele><time>2026-06-03T21:01:25Z</time></trkpt><trkpt lat="49.056005" lon="-113.91119"><ele>1285.047</ele><time>2026-06-03T21:01:32Z</time></trkpt><trkpt lat="49.056092" lon="-113.911297"><ele>1285.238</ele><time>2026-06-03T21:01:40Z</time></trkpt><trkpt lat="49.056106" lon="-113.911376"><ele>1285.047</ele><time>2026-06-03T21:01:48Z</time></trkpt><trkpt lat="49.056139" lon="-113.911537"><ele>1285.452</ele><time>2026-06-03T21:01:57Z</time></trkpt><trkpt lat="49.056154" lon="-113.911596"><ele>1286.228</ele><time>2026-06-03T21:02:03Z</time></trkpt><trkpt lat="49.05615" lon="-113.911617"><ele>1287.219</ele><time>2026-06-03T21:02:06Z</time></trkpt><trkpt lat="49.056126" lon="-113.91166"><ele>1287.670</ele><time>2026-06-03T21:02:10Z</time></trkpt><trkpt lat="49.056087" lon="-113.911695"><ele>1287.830</ele><time>2026-06-03T21:02:14Z</time></trkpt><trkpt lat="49.056062" lon="-113.911741"><ele>1288.229</ele><time>2026-06-03T21:02:18Z</time></trkpt><trkpt lat="49.056032" lon="-113.911794"><ele>1288.800</ele><time>2026-06-03T21:02:22Z</time></trkpt><trkpt lat="49.056002" lon="-113.911847"><ele>1289.420</ele><time>2026-06-03T21:02:26Z</time></trkpt><trkpt lat="49.055977" lon="-113.911886"><ele>1289.609</ele><time>2026-06-03T21:02:29Z</time></trkpt><trkpt lat="49.055944" lon="-113.911985"><ele>1290.474</ele><time>2026-06-03T21:02:36Z</time></trkpt><trkpt lat="49.055939" lon="-113.911996"><ele>1290.618</ele><time>2026-06-03T21:02:37Z</time></trkpt><trkpt lat="49.055915" lon="-113.912093"><ele>1291.479</ele><time>2026-06-03T21:02:44Z</time></trkpt><trkpt lat="49.055914" lon="-113.912107"><ele>1291.468</ele><time>2026-06-03T21:02:45Z</time></trkpt><trkpt lat="49.055915" lon="-113.91213"><ele>1291.633</ele><time>2026-06-03T21:02:47Z</time></trkpt><trkpt lat="49.055917" lon="-113.912174"><ele>1292.489</ele><time>2026-06-03T21:02:51Z</time></trkpt><trkpt lat="49.055901" lon="-113.912205"><ele>1292.850</ele><time>2026-06-03T21:02:54Z</time></trkpt><trkpt lat="49.055864" lon="-113.912292"><ele>1293.671</ele><time>2026-06-03T21:03:00Z</time></trkpt><trkpt lat="49.055859" lon="-113.9123"><ele>1293.641</ele><time>2026-06-03T21:03:01Z</time></trkpt><trkpt lat="49.055847" lon="-113.912323"><ele>1294.686</ele><time>2026-06-03T21:03:08Z</time></trkpt><trkpt lat="49.055801" lon="-113.912412"><ele>1295.260</ele><time>2026-06-03T21:03:16Z</time></trkpt><trkpt lat="49.055735" lon="-113.912506"><ele>1295.226</ele><time>2026-06-03T21:03:23Z</time></trkpt><trkpt lat="49.055715" lon="-113.912527"><ele>1295.209</ele><time>2026-06-03T21:03:25Z</time></trkpt><trkpt lat="49.055683" lon="-113.912585"><ele>1295.610</ele><time>2026-06-03T21:03:30Z</time></trkpt><trkpt lat="49.05566" lon="-113.912606"><ele>1296.014</ele><time>2026-06-03T21:03:33Z</time></trkpt><trkpt lat="49.055603" lon="-113.912646"><ele>1295.825</ele><time>2026-06-03T21:03:38Z</time></trkpt><trkpt lat="49.055593" lon="-113.912655"><ele>1296.014</ele><time>2026-06-03T21:03:39Z</time></trkpt><trkpt lat="49.055558" lon="-113.912688"><ele>1296.219</ele><time>2026-06-03T21:03:43Z</time></trkpt><trkpt lat="49.055507" lon="-113.912761"><ele>1296.425</ele><time>2026-06-03T21:03:49Z</time></trkpt><trkpt lat="49.055485" lon="-113.912801"><ele>1296.666</ele><time>2026-06-03T21:03:52Z</time></trkpt><trkpt lat="49.055434" lon="-113.912864"><ele>1297.077</ele><time>2026-06-03T21:03:58Z</time></trkpt><trkpt lat="49.055409" lon="-113.912911"><ele>1297.677</ele><time>2026-06-03T21:04:02Z</time></trkpt><trkpt lat="49.055397" lon="-113.912931"><ele>1298.084</ele><time>2026-06-03T21:04:04Z</time></trkpt><trkpt lat="49.055388" lon="-113.912942"><ele>1298.207</ele><time>2026-06-03T21:04:05Z</time></trkpt><trkpt lat="49.055376" lon="-113.912955"><ele>1298.617</ele><time>2026-06-03T21:04:07Z</time></trkpt><trkpt lat="49.055372" lon="-113.912964"><ele>1298.609</ele><time>2026-06-03T21:04:08Z</time></trkpt><trkpt lat="49.055358" lon="-113.912984"><ele>1299.220</ele><time>2026-06-03T21:04:11Z</time></trkpt><trkpt lat="49.055336" lon="-113.913001"><ele>1299.894</ele><time>2026-06-03T21:04:14Z</time></trkpt><trkpt lat="49.055289" lon="-113.91304"><ele>1300.615</ele><time>2026-06-03T21:04:21Z</time></trkpt><trkpt lat="49.05528" lon="-113.913053"><ele>1301.024</ele><time>2026-06-03T21:04:23Z</time></trkpt><trkpt lat="49.055258" lon="-113.913078"><ele>1301.269</ele><time>2026-06-03T21:04:26Z</time></trkpt><trkpt lat="49.055254" lon="-113.913088"><ele>1301.445</ele><time>2026-06-03T21:04:27Z</time></trkpt><trkpt lat="49.055248" lon="-113.913101"><ele>1301.456</ele><time>2026-06-03T21:04:28Z</time></trkpt><trkpt lat="49.055236" lon="-113.913122"><ele>1301.857</ele><time>2026-06-03T21:04:30Z</time></trkpt><trkpt lat="49.055218" lon="-113.913148"><ele>1302.217</ele><time>2026-06-03T21:04:32Z</time></trkpt><trkpt lat="49.05518" lon="-113.913173"><ele>1303.269</ele><time>2026-06-03T21:04:37Z</time></trkpt><trkpt lat="49.055117" lon="-113.913217"><ele>1303.804</ele><time>2026-06-03T21:04:45Z</time></trkpt><trkpt lat="49.055096" lon="-113.913246"><ele>1304.224</ele><time>2026-06-03T21:04:50Z</time></trkpt><trkpt lat="49.055097" lon="-113.913252"><ele>1304.209</ele><time>2026-06-03T21:04:52Z</time></trkpt><trkpt lat="49.055055" lon="-113.91328"><ele>1304.438</ele><time>2026-06-03T21:04:59Z</time></trkpt><trkpt lat="49.054996" lon="-113.913354"><ele>1305.232</ele><time>2026-06-03T21:05:07Z</time></trkpt><trkpt lat="49.054992" lon="-113.913361"><ele>1305.453</ele><time>2026-06-03T21:05:08Z</time></trkpt><trkpt lat="49.054928" lon="-113.913426"><ele>1306.462</ele><time>2026-06-03T21:05:16Z</time></trkpt><trkpt lat="49.054906" lon="-113.913431"><ele>1306.657</ele><time>2026-06-03T21:05:18Z</time></trkpt><trkpt lat="49.054815" lon="-113.91346"><ele>1306.463</ele><time>2026-06-03T21:05:27Z</time></trkpt><trkpt lat="49.054735" lon="-113.913463"><ele>1305.284</ele><time>2026-06-03T21:05:34Z</time></trkpt><trkpt lat="49.054626" lon="-113.913432"><ele>1304.465</ele><time>2026-06-03T21:05:42Z</time></trkpt><trkpt lat="49.054571" lon="-113.913429"><ele>1304.295</ele><time>2026-06-03T21:05:47Z</time></trkpt><trkpt lat="49.054556" lon="-113.913433"><ele>1304.263</ele><time>2026-06-03T21:05:48Z</time></trkpt><trkpt lat="49.054468" lon="-113.913445"><ele>1304.444</ele><time>2026-06-03T21:05:55Z</time></trkpt><trkpt lat="49.054444" lon="-113.913451"><ele>1304.818</ele><time>2026-06-03T21:05:57Z</time></trkpt><trkpt lat="49.054379" lon="-113.913489"><ele>1305.209</ele><time>2026-06-03T21:06:03Z</time></trkpt><trkpt lat="49.054363" lon="-113.913509"><ele>1305.698</ele><time>2026-06-03T21:06:06Z</time></trkpt><trkpt lat="49.054335" lon="-113.913527"><ele>1305.882</ele><time>2026-06-03T21:06:11Z</time></trkpt><trkpt lat="49.05432" lon="-113.913537"><ele>1306.283</ele><time>2026-06-03T21:06:13Z</time></trkpt><trkpt lat="49.054297" lon="-113.91355"><ele>1306.432</ele><time>2026-06-03T21:06:15Z</time></trkpt><trkpt lat="49.054219" lon="-113.91359"><ele>1306.677</ele><time>2026-06-03T21:06:22Z</time></trkpt><trkpt lat="49.054143" lon="-113.913643"><ele>1306.813</ele><time>2026-06-03T21:06:29Z</time></trkpt><trkpt lat="49.054123" lon="-113.91365"><ele>1306.834</ele><time>2026-06-03T21:06:31Z</time></trkpt><trkpt lat="49.054023" lon="-113.91368"><ele>1306.665</ele><time>2026-06-03T21:06:39Z</time></trkpt><trkpt lat="49.053967" lon="-113.913702"><ele>1305.875</ele><time>2026-06-03T21:06:44Z</time></trkpt><trkpt lat="49.053941" lon="-113.91371"><ele>1305.258</ele><time>2026-06-03T21:06:47Z</time></trkpt><trkpt lat="49.053844" lon="-113.913751"><ele>1304.452</ele><time>2026-06-03T21:06:55Z</time></trkpt><trkpt lat="49.053824" lon="-113.913758"><ele>1304.217</ele><time>2026-06-03T21:06:57Z</time></trkpt><trkpt lat="49.053774" lon="-113.913767"><ele>1304.009</ele><time>2026-06-03T21:07:01Z</time></trkpt><trkpt lat="49.053681" lon="-113.913807"><ele>1304.027</ele><time>2026-06-03T21:07:10Z</time></trkpt><trkpt lat="49.053617" lon="-113.913819"><ele>1304.691</ele><time>2026-06-03T21:07:16Z</time></trkpt><trkpt lat="49.053592" lon="-113.913817"><ele>1304.642</ele><time>2026-06-03T21:07:18Z</time></trkpt><trkpt lat="49.053503" lon="-113.913828"><ele>1305.081</ele><time>2026-06-03T21:07:25Z</time></trkpt><trkpt lat="49.05348" lon="-113.913841"><ele>1305.436</ele><time>2026-06-03T21:07:28Z</time></trkpt><trkpt lat="49.053451" lon="-113.913848"><ele>1305.862</ele><time>2026-06-03T21:07:31Z</time></trkpt><trkpt lat="49.053442" lon="-113.913849"><ele>1305.893</ele><time>2026-06-03T21:07:32Z</time></trkpt><trkpt lat="49.053393" lon="-113.913833"><ele>1306.074</ele><time>2026-06-03T21:07:37Z</time></trkpt><trkpt lat="49.053365" lon="-113.913834"><ele>1305.824</ele><time>2026-06-03T21:07:39Z</time></trkpt><trkpt lat="49.053305" lon="-113.913833"><ele>1306.431</ele><time>2026-06-03T21:07:44Z</time></trkpt><trkpt lat="49.053273" lon="-113.913841"><ele>1306.661</ele><time>2026-06-03T21:07:47Z</time></trkpt><trkpt lat="49.05319" lon="-113.913865"><ele>1307.407</ele><time>2026-06-03T21:07:55Z</time></trkpt><trkpt lat="49.053181" lon="-113.913866"><ele>1307.609</ele><time>2026-06-03T21:07:56Z</time></trkpt><trkpt lat="49.053082" lon="-113.913856"><ele>1308.445</ele><time>2026-06-03T21:08:05Z</time></trkpt><trkpt lat="49.053041" lon="-113.913871"><ele>1308.449</ele><time>2026-06-03T21:08:10Z</time></trkpt><trkpt lat="49.053028" lon="-113.913878"><ele>1308.450</ele><time>2026-06-03T21:08:11Z</time></trkpt><trkpt lat="49.053003" lon="-113.913889"><ele>1308.499</ele><time>2026-06-03T21:08:13Z</time></trkpt><trkpt lat="49.052916" lon="-113.913899"><ele>1308.264</ele><time>2026-06-03T21:08:21Z</time></trkpt><trkpt lat="49.052857" lon="-113.913978"><ele>1308.610</ele><time>2026-06-03T21:08:27Z</time></trkpt><trkpt lat="49.052848" lon="-113.913988"><ele>1308.461</ele><time>2026-06-03T21:08:28Z</time></trkpt><trkpt lat="49.052796" lon="-113.914048"><ele>1308.472</ele><time>2026-06-03T21:08:34Z</time></trkpt><trkpt lat="49.052778" lon="-113.914071"><ele>1308.662</ele><time>2026-06-03T21:08:36Z</time></trkpt><trkpt lat="49.052721" lon="-113.914158"><ele>1308.626</ele><time>2026-06-03T21:08:43Z</time></trkpt><trkpt lat="49.052657" lon="-113.914243"><ele>1309.047</ele><time>2026-06-03T21:08:51Z</time></trkpt><trkpt lat="49.052615" lon="-113.91437"><ele>1309.611</ele><time>2026-06-03T21:08:59Z</time></trkpt><trkpt lat="49.052611" lon="-113.914386"><ele>1309.609</ele><time>2026-06-03T21:09:00Z</time></trkpt><trkpt lat="49.052571" lon="-113.914493"><ele>1309.834</ele><time>2026-06-03T21:09:07Z</time></trkpt><trkpt lat="49.052542" lon="-113.914655"><ele>1309.878</ele><time>2026-06-03T21:09:16Z</time></trkpt><trkpt lat="49.052518" lon="-113.914801"><ele>1310.629</ele><time>2026-06-03T21:09:25Z</time></trkpt><trkpt lat="49.052515" lon="-113.914812"><ele>1310.658</ele><time>2026-06-03T21:09:26Z</time></trkpt><trkpt lat="49.052498" lon="-113.914874"><ele>1311.083</ele><time>2026-06-03T21:09:32Z</time></trkpt><trkpt lat="49.052473" lon="-113.914924"><ele>1311.829</ele><time>2026-06-03T21:09:37Z</time></trkpt><trkpt lat="49.052459" lon="-113.914948"><ele>1312.030</ele><time>2026-06-03T21:09:39Z</time></trkpt><trkpt lat="49.052407" lon="-113.915005"><ele>1312.891</ele><time>2026-06-03T21:09:46Z</time></trkpt><trkpt lat="49.05239" lon="-113.915026"><ele>1312.841</ele><time>2026-06-03T21:09:48Z</time></trkpt><trkpt lat="49.052347" lon="-113.915095"><ele>1313.872</ele><time>2026-06-03T21:09:54Z</time></trkpt><trkpt lat="49.052326" lon="-113.915113"><ele>1313.813</ele><time>2026-06-03T21:09:56Z</time></trkpt><trkpt lat="49.052317" lon="-113.915124"><ele>1313.814</ele><time>2026-06-03T21:09:57Z</time></trkpt><trkpt lat="49.052236" lon="-113.915195"><ele>1313.809</ele><time>2026-06-03T21:10:06Z</time></trkpt><trkpt lat="49.052176" lon="-113.91529"><ele>1313.699</ele><time>2026-06-03T21:10:13Z</time></trkpt><trkpt lat="49.052132" lon="-113.915399"><ele>1313.463</ele><time>2026-06-03T21:10:21Z</time></trkpt><trkpt lat="49.052115" lon="-113.915425"><ele>1313.464</ele><time>2026-06-03T21:10:24Z</time></trkpt><trkpt lat="49.052109" lon="-113.915438"><ele>1313.493</ele><time>2026-06-03T21:10:25Z</time></trkpt><trkpt lat="49.052069" lon="-113.915487"><ele>1313.038</ele><time>2026-06-03T21:10:31Z</time></trkpt><trkpt lat="49.052068" lon="-113.915491"><ele>1312.874</ele><time>2026-06-03T21:10:33Z</time></trkpt><trkpt lat="49.052042" lon="-113.915549"><ele>1312.495</ele><time>2026-06-03T21:10:37Z</time></trkpt><trkpt lat="49.052004" lon="-113.91563"><ele>1311.676</ele><time>2026-06-03T21:10:43Z</time></trkpt><trkpt lat="49.051998" lon="-113.915646"><ele>1311.436</ele><time>2026-06-03T21:10:44Z</time></trkpt><trkpt lat="49.051982" lon="-113.915716"><ele>1310.615</ele><time>2026-06-03T21:10:48Z</time></trkpt><trkpt lat="49.051945" lon="-113.915775"><ele>1309.665</ele><time>2026-06-03T21:10:52Z</time></trkpt><trkpt lat="49.051933" lon="-113.915782"><ele>1309.611</ele><time>2026-06-03T21:10:53Z</time></trkpt><trkpt lat="49.051878" lon="-113.915816"><ele>1308.809</ele><time>2026-06-03T21:10:59Z</time></trkpt><trkpt lat="49.051863" lon="-113.915827"><ele>1308.443</ele><time>2026-06-03T21:11:01Z</time></trkpt><trkpt lat="49.051808" lon="-113.915869"><ele>1307.477</ele><time>2026-06-03T21:11:07Z</time></trkpt><trkpt lat="49.051797" lon="-113.915883"><ele>1306.888</ele><time>2026-06-03T21:11:09Z</time></trkpt><trkpt lat="49.051782" lon="-113.915893"><ele>1306.257</ele><time>2026-06-03T21:11:11Z</time></trkpt><trkpt lat="49.051752" lon="-113.915881"><ele>1305.822</ele><time>2026-06-03T21:11:16Z</time></trkpt><trkpt lat="49.051741" lon="-113.91587"><ele>1305.848</ele><time>2026-06-03T21:11:17Z</time></trkpt><trkpt lat="49.051705" lon="-113.915846"><ele>1305.229</ele><time>2026-06-03T21:11:20Z</time></trkpt><trkpt lat="49.051687" lon="-113.915857"><ele>1305.010</ele><time>2026-06-03T21:11:22Z</time></trkpt><trkpt lat="49.051681" lon="-113.91589"><ele>1305.040</ele><time>2026-06-03T21:11:24Z</time></trkpt><trkpt lat="49.051693" lon="-113.91602"><ele>1306.287</ele><time>2026-06-03T21:11:32Z</time></trkpt><trkpt lat="49.051697" lon="-113.916037"><ele>1306.442</ele><time>2026-06-03T21:11:33Z</time></trkpt><trkpt lat="49.051703" lon="-113.916093"><ele>1306.826</ele><time>2026-06-03T21:11:36Z</time></trkpt><trkpt lat="49.051705" lon="-113.916128"><ele>1307.209</ele><time>2026-06-03T21:11:38Z</time></trkpt><trkpt lat="49.051708" lon="-113.916162"><ele>1307.820</ele><time>2026-06-03T21:11:40Z</time></trkpt><trkpt lat="49.051717" lon="-113.916219"><ele>1308.424</ele><time>2026-06-03T21:11:43Z</time></trkpt><trkpt lat="49.051719" lon="-113.916295"><ele>1309.485</ele><time>2026-06-03T21:11:48Z</time></trkpt><trkpt lat="49.051724" lon="-113.916325"><ele>1309.874</ele><time>2026-06-03T21:11:50Z</time></trkpt><trkpt lat="49.051729" lon="-113.916376"><ele>1310.429</ele><time>2026-06-03T21:11:53Z</time></trkpt><trkpt lat="49.051728" lon="-113.916398"><ele>1310.865</ele><time>2026-06-03T21:11:57Z</time></trkpt><trkpt lat="49.051728" lon="-113.916385"><ele>1310.866</ele><time>2026-06-03T21:12:02Z</time></trkpt><trkpt lat="49.051728" lon="-113.916385"><ele>1310.637</ele><time>2026-06-03T21:12:05Z</time></trkpt><trkpt lat="49.051726" lon="-113.91638"><ele>1310.687</ele><time>2026-06-03T21:12:07Z</time></trkpt><trkpt lat="49.051728" lon="-113.916354"><ele>1310.442</ele><time>2026-06-03T21:12:13Z</time></trkpt><trkpt lat="49.051729" lon="-113.916351"><ele>1310.422</ele><time>2026-06-03T21:12:19Z</time></trkpt><trkpt lat="49.051735" lon="-113.916345"><ele>1310.414</ele><time>2026-06-03T21:12:32Z</time></trkpt><trkpt lat="49.051787" lon="-113.916201"><ele>1311.209</ele><time>2026-06-03T21:12:41Z</time></trkpt><trkpt lat="49.051793" lon="-113.916214"><ele>1311.446</ele><time>2026-06-03T21:12:42Z</time></trkpt><trkpt lat="49.051798" lon="-113.916236"><ele>1311.650</ele><time>2026-06-03T21:12:43Z</time></trkpt><trkpt lat="49.051797" lon="-113.916293"><ele>1312.231</ele><time>2026-06-03T21:12:46Z</time></trkpt><trkpt lat="49.051801" lon="-113.916324"><ele>1312.660</ele><time>2026-06-03T21:12:48Z</time></trkpt><trkpt lat="49.051803" lon="-113.916352"><ele>1313.075</ele><time>2026-06-03T21:12:51Z</time></trkpt><trkpt lat="49.051804" lon="-113.916356"><ele>1313.081</ele><time>2026-06-03T21:12:52Z</time></trkpt><trkpt lat="49.051798" lon="-113.916385"><ele>1313.672</ele><time>2026-06-03T21:12:59Z</time></trkpt><trkpt lat="49.051795" lon="-113.916393"><ele>1313.663</ele><time>2026-06-03T21:13:00Z</time></trkpt><trkpt lat="49.051789" lon="-113.916424"><ele>1313.663</ele><time>2026-06-03T21:13:02Z</time></trkpt><trkpt lat="49.051802" lon="-113.916456"><ele>1314.423</ele><time>2026-06-03T21:13:05Z</time></trkpt><trkpt lat="49.051807" lon="-113.916451"><ele>1314.683</ele><time>2026-06-03T21:13:06Z</time></trkpt><trkpt lat="49.051816" lon="-113.916446"><ele>1314.811</ele><time>2026-06-03T21:13:07Z</time></trkpt><trkpt lat="49.051838" lon="-113.916428"><ele>1315.409</ele><time>2026-06-03T21:13:10Z</time></trkpt><trkpt lat="49.051857" lon="-113.916406"><ele>1316.054</ele><time>2026-06-03T21:13:12Z</time></trkpt><trkpt lat="49.051864" lon="-113.916396"><ele>1316.218</ele><time>2026-06-03T21:13:13Z</time></trkpt><trkpt lat="49.051877" lon="-113.916382"><ele>1316.429</ele><time>2026-06-03T21:13:15Z</time></trkpt><trkpt lat="49.051873" lon="-113.916368"><ele>1317.058</ele><time>2026-06-03T21:13:18Z</time></trkpt><trkpt lat="49.051874" lon="-113.916365"><ele>1317.273</ele><time>2026-06-03T21:13:20Z</time></trkpt><trkpt lat="49.05187" lon="-113.916375"><ele>1317.049</ele><time>2026-06-03T21:13:23Z</time></trkpt><trkpt lat="49.051874" lon="-113.916395"><ele>1317.020</ele><time>2026-06-03T21:13:25Z</time></trkpt><trkpt lat="49.051881" lon="-113.916442"><ele>1317.441</ele><time>2026-06-03T21:13:28Z</time></trkpt><trkpt lat="49.051891" lon="-113.916527"><ele>1318.231</ele><time>2026-06-03T21:13:33Z</time></trkpt><trkpt lat="49.051896" lon="-113.916602"><ele>1319.078</ele><time>2026-06-03T21:13:39Z</time></trkpt><trkpt lat="49.051895" lon="-113.916607"><ele>1319.233</ele><time>2026-06-03T21:13:40Z</time></trkpt><trkpt lat="49.051896" lon="-113.916628"><ele>1319.626</ele><time>2026-06-03T21:13:43Z</time></trkpt><trkpt lat="49.051896" lon="-113.916629"><ele>1319.809</ele><time>2026-06-03T21:13:45Z</time></trkpt><trkpt lat="49.051895" lon="-113.916628"><ele>1320.059</ele><time>2026-06-03T21:13:48Z</time></trkpt><trkpt lat="49.051884" lon="-113.916666"><ele>1320.243</ele><time>2026-06-03T21:13:51Z</time></trkpt><trkpt lat="49.051876" lon="-113.916703"><ele>1320.054</ele><time>2026-06-03T21:13:53Z</time></trkpt><trkpt lat="49.051854" lon="-113.916753"><ele>1320.043</ele><time>2026-06-03T21:14:01Z</time></trkpt><trkpt lat="49.051843" lon="-113.916778"><ele>1320.098</ele><time>2026-06-03T21:14:04Z</time></trkpt><trkpt lat="49.051841" lon="-113.916793"><ele>1320.064</ele><time>2026-06-03T21:14:07Z</time></trkpt><trkpt lat="49.051846" lon="-113.916786"><ele>1320.015</ele><time>2026-06-03T21:14:09Z</time></trkpt><trkpt lat="49.051851" lon="-113.916781"><ele>1320.066</ele><time>2026-06-03T21:14:10Z</time></trkpt><trkpt lat="49.051861" lon="-113.916767"><ele>1320.236</ele><time>2026-06-03T21:14:14Z</time></trkpt><trkpt lat="49.051875" lon="-113.916785"><ele>1319.887</ele><time>2026-06-03T21:14:21Z</time></trkpt><trkpt lat="49.051873" lon="-113.916771"><ele>1319.842</ele><time>2026-06-03T21:14:32Z</time></trkpt><trkpt lat="49.051872" lon="-113.916748"><ele>1320.226</ele><time>2026-06-03T21:14:39Z</time></trkpt><trkpt lat="49.051873" lon="-113.916749"><ele>1320.209</ele><time>2026-06-03T21:14:42Z</time></trkpt><trkpt lat="49.05187" lon="-113.916753"><ele>1320.490</ele><time>2026-06-03T21:14:43Z</time></trkpt><trkpt lat="49.05187" lon="-113.916752"><ele>1320.644</ele><time>2026-06-03T21:14:44Z</time></trkpt><trkpt lat="49.051872" lon="-113.916748"><ele>1320.645</ele><time>2026-06-03T21:14:45Z</time></trkpt><trkpt lat="49.051878" lon="-113.91674"><ele>1320.464</ele><time>2026-06-03T21:14:48Z</time></trkpt><trkpt lat="49.051868" lon="-113.916746"><ele>1320.249</ele><time>2026-06-03T21:14:59Z</time></trkpt><trkpt lat="49.051899" lon="-113.916707"><ele>1320.245</ele><time>2026-06-03T21:15:09Z</time></trkpt><trkpt lat="49.051901" lon="-113.916685"><ele>1320.296</ele><time>2026-06-03T21:15:20Z</time></trkpt><trkpt lat="49.051892" lon="-113.916673"><ele>1320.267</ele><time>2026-06-03T21:15:22Z</time></trkpt><trkpt lat="49.051887" lon="-113.916601"><ele>1319.617</ele><time>2026-06-03T21:15:29Z</time></trkpt><trkpt lat="49.051885" lon="-113.916578"><ele>1319.231</ele><time>2026-06-03T21:15:31Z</time></trkpt><trkpt lat="49.051871" lon="-113.916592"><ele>1318.861</ele><time>2026-06-03T21:15:39Z</time></trkpt><trkpt lat="49.051872" lon="-113.916553"><ele>1319.007</ele><time>2026-06-03T21:15:43Z</time></trkpt><trkpt lat="49.05188" lon="-113.916536"><ele>1319.009</ele><time>2026-06-03T21:15:47Z</time></trkpt><trkpt lat="49.051892" lon="-113.916444"><ele>1318.245</ele><time>2026-06-03T21:15:54Z</time></trkpt><trkpt lat="49.051891" lon="-113.916433"><ele>1318.069</ele><time>2026-06-03T21:15:55Z</time></trkpt><trkpt lat="49.051877" lon="-113.916392"><ele>1317.040</ele><time>2026-06-03T21:16:01Z</time></trkpt><trkpt lat="49.05187" lon="-113.916402"><ele>1316.899</ele><time>2026-06-03T21:16:02Z</time></trkpt><trkpt lat="49.051841" lon="-113.916442"><ele>1315.894</ele><time>2026-06-03T21:16:06Z</time></trkpt><trkpt lat="49.05181" lon="-113.916445"><ele>1315.070</ele><time>2026-06-03T21:16:10Z</time></trkpt><trkpt lat="49.051806" lon="-113.916433"><ele>1314.821</ele><time>2026-06-03T21:16:11Z</time></trkpt><trkpt lat="49.051797" lon="-113.916335"><ele>1313.622</ele><time>2026-06-03T21:16:17Z</time></trkpt><trkpt lat="49.051798" lon="-113.916284"><ele>1312.842</ele><time>2026-06-03T21:16:20Z</time></trkpt><trkpt lat="49.051799" lon="-113.916246"><ele>1312.472</ele><time>2026-06-03T21:16:22Z</time></trkpt><trkpt lat="49.051777" lon="-113.916195"><ele>1311.813</ele><time>2026-06-03T21:16:27Z</time></trkpt><trkpt lat="49.051765" lon="-113.916208"><ele>1311.614</ele><time>2026-06-03T21:16:28Z</time></trkpt><trkpt lat="49.051759" lon="-113.916226"><ele>1311.409</ele><time>2026-06-03T21:16:29Z</time></trkpt><trkpt lat="49.051732" lon="-113.91634"><ele>1310.669</ele><time>2026-06-03T21:16:35Z</time></trkpt><trkpt lat="49.051721" lon="-113.916326"><ele>1310.483</ele><time>2026-06-03T21:16:37Z</time></trkpt><trkpt lat="49.051716" lon="-113.916309"><ele>1310.254</ele><time>2026-06-03T21:16:38Z</time></trkpt><trkpt lat="49.051709" lon="-113.916276"><ele>1310.043</ele><time>2026-06-03T21:16:40Z</time></trkpt><trkpt lat="49.051698" lon="-113.916191"><ele>1309.238</ele><time>2026-06-03T21:16:44Z</time></trkpt><trkpt lat="49.051699" lon="-113.916127"><ele>1308.254</ele><time>2026-06-03T21:16:48Z</time></trkpt><trkpt lat="49.051699" lon="-113.916112"><ele>1308.085</ele><time>2026-06-03T21:16:49Z</time></trkpt><trkpt lat="49.051699" lon="-113.91603"><ele>1306.846</ele><time>2026-06-03T21:16:54Z</time></trkpt><trkpt lat="49.051691" lon="-113.915957"><ele>1305.886</ele><time>2026-06-03T21:16:58Z</time></trkpt><trkpt lat="49.051687" lon="-113.915813"><ele>1304.888</ele><time>2026-06-03T21:17:05Z</time></trkpt><trkpt lat="49.051688" lon="-113.915787"><ele>1304.624</ele><time>2026-06-03T21:17:06Z</time></trkpt><trkpt lat="49.051673" lon="-113.915767"><ele>1304.026</ele><time>2026-06-03T21:17:09Z</time></trkpt><trkpt lat="49.051664" lon="-113.915793"><ele>1303.809</ele><time>2026-06-03T21:17:11Z</time></trkpt><trkpt lat="49.051657" lon="-113.915812"><ele>1303.690</ele><time>2026-06-03T21:17:12Z</time></trkpt><trkpt lat="49.051638" lon="-113.915868"><ele>1302.694</ele><time>2026-06-03T21:17:15Z</time></trkpt><trkpt lat="49.051621" lon="-113.915927"><ele>1301.685</ele><time>2026-06-03T21:17:18Z</time></trkpt><trkpt lat="49.051611" lon="-113.915945"><ele>1301.234</ele><time>2026-06-03T21:17:19Z</time></trkpt><trkpt lat="49.051599" lon="-113.915945"><ele>1301.039</ele><time>2026-06-03T21:17:20Z</time></trkpt><trkpt lat="49.051595" lon="-113.915923"><ele>1300.615</ele><time>2026-06-03T21:17:22Z</time></trkpt><trkpt lat="49.05159" lon="-113.915876"><ele>1300.066</ele><time>2026-06-03T21:17:24Z</time></trkpt><trkpt lat="49.051579" lon="-113.91581"><ele>1299.447</ele><time>2026-06-03T21:17:27Z</time></trkpt><trkpt lat="49.05156" lon="-113.915733"><ele>1298.897</ele><time>2026-06-03T21:17:31Z</time></trkpt><trkpt lat="49.051541" lon="-113.915734"><ele>1298.637</ele><time>2026-06-03T21:17:33Z</time></trkpt><trkpt lat="49.051517" lon="-113.915777"><ele>1298.449</ele><time>2026-06-03T21:17:36Z</time></trkpt><trkpt lat="49.051511" lon="-113.915893"><ele>1298.213</ele><time>2026-06-03T21:17:42Z</time></trkpt><trkpt lat="49.05147" lon="-113.916021"><ele>1298.009</ele><time>2026-06-03T21:17:49Z</time></trkpt><trkpt lat="49.051374" lon="-113.916113"><ele>1298.495</ele><time>2026-06-03T21:17:58Z</time></trkpt><trkpt lat="49.051296" lon="-113.916197"><ele>1298.079</ele><time>2026-06-03T21:18:06Z</time></trkpt><trkpt lat="49.051292" lon="-113.916316"><ele>1297.820</ele><time>2026-06-03T21:18:13Z</time></trkpt><trkpt lat="49.051319" lon="-113.916376"><ele>1298.099</ele><time>2026-06-03T21:18:20Z</time></trkpt><trkpt lat="49.051306" lon="-113.916362"><ele>1297.864</ele><time>2026-06-03T21:18:29Z</time></trkpt><trkpt lat="49.051279" lon="-113.916332"><ele>1298.060</ele><time>2026-06-03T21:18:36Z</time></trkpt><trkpt lat="49.051279" lon="-113.916333"><ele>1298.281</ele><time>2026-06-03T21:18:41Z</time></trkpt><trkpt lat="49.05128" lon="-113.916335"><ele>1298.462</ele><time>2026-06-03T21:18:42Z</time></trkpt><trkpt lat="49.051282" lon="-113.916367"><ele>1298.292</ele><time>2026-06-03T21:18:49Z</time></trkpt><trkpt lat="49.051288" lon="-113.916372"><ele>1298.097</ele><time>2026-06-03T21:18:57Z</time></trkpt><trkpt lat="49.051287" lon="-113.916374"><ele>1298.623</ele><time>2026-06-03T21:19:08Z</time></trkpt><trkpt lat="49.051296" lon="-113.91637"><ele>1298.225</ele><time>2026-06-03T21:19:15Z</time></trkpt><trkpt lat="49.05129" lon="-113.916352"><ele>1298.409</ele><time>2026-06-03T21:19:17Z</time></trkpt><trkpt lat="49.051276" lon="-113.916327"><ele>1298.641</ele><time>2026-06-03T21:19:23Z</time></trkpt><trkpt lat="49.051278" lon="-113.916331"><ele>1298.425</ele><time>2026-06-03T21:19:26Z</time></trkpt><trkpt lat="49.051287" lon="-113.916331"><ele>1298.626</ele><time>2026-06-03T21:19:31Z</time></trkpt><trkpt lat="49.051291" lon="-113.916351"><ele>1298.435</ele><time>2026-06-03T21:19:36Z</time></trkpt><trkpt lat="49.051286" lon="-113.916362"><ele>1298.460</ele><time>2026-06-03T21:19:45Z</time></trkpt><trkpt lat="49.051294" lon="-113.916357"><ele>1298.086</ele><time>2026-06-03T21:19:54Z</time></trkpt><trkpt lat="49.051291" lon="-113.916343"><ele>1298.057</ele><time>2026-06-03T21:20:02Z</time></trkpt><trkpt lat="49.051273" lon="-113.916355"><ele>1298.048</ele><time>2026-06-03T21:20:04Z</time></trkpt><trkpt lat="49.05127" lon="-113.916375"><ele>1298.468</ele><time>2026-06-03T21:20:13Z</time></trkpt><trkpt lat="49.051288" lon="-113.916414"><ele>1298.676</ele><time>2026-06-03T21:20:18Z</time></trkpt><trkpt lat="49.05129" lon="-113.91641"><ele>1298.690</ele><time>2026-06-03T21:20:19Z</time></trkpt><trkpt lat="49.051309" lon="-113.916408"><ele>1298.019</ele><time>2026-06-03T21:20:29Z</time></trkpt><trkpt lat="49.051314" lon="-113.916392"><ele>1298.409</ele><time>2026-06-03T21:20:39Z</time></trkpt><trkpt lat="49.051325" lon="-113.916385"><ele>1298.429</ele><time>2026-06-03T21:20:43Z</time></trkpt><trkpt lat="49.051289" lon="-113.916377"><ele>1306.433</ele><time>2026-06-03T21:44:49Z</time></trkpt><trkpt lat="49.051287" lon="-113.916379"><ele>1306.454</ele><time>2026-06-03T21:44:50Z</time></trkpt><trkpt lat="49.051287" lon="-113.916395"><ele>1306.833</ele><time>2026-06-03T21:44:54Z</time></trkpt><trkpt lat="49.051289" lon="-113.916364"><ele>1306.628</ele><time>2026-06-03T21:45:04Z</time></trkpt><trkpt lat="49.051273" lon="-113.916332"><ele>1306.484</ele><time>2026-06-03T21:45:09Z</time></trkpt><trkpt lat="49.051273" lon="-113.916323"><ele>1306.655</ele><time>2026-06-03T21:45:12Z</time></trkpt><trkpt lat="49.051255" lon="-113.916232"><ele>1306.666</ele><time>2026-06-03T21:45:20Z</time></trkpt><trkpt lat="49.051217" lon="-113.916141"><ele>1306.676</ele><time>2026-06-03T21:45:28Z</time></trkpt><trkpt lat="49.051199" lon="-113.91613"><ele>1306.849</ele><time>2026-06-03T21:45:31Z</time></trkpt><trkpt lat="49.05118" lon="-113.916121"><ele>1306.602</ele><time>2026-06-03T21:45:34Z</time></trkpt><trkpt lat="49.051173" lon="-113.916122"><ele>1306.422</ele><time>2026-06-03T21:45:35Z</time></trkpt><trkpt lat="49.051161" lon="-113.916117"><ele>1306.209</ele><time>2026-06-03T21:45:38Z</time></trkpt><trkpt lat="49.051122" lon="-113.916126"><ele>1306.076</ele><time>2026-06-03T21:45:42Z</time></trkpt><trkpt lat="49.051114" lon="-113.91613"><ele>1306.270</ele><time>2026-06-03T21:45:43Z</time></trkpt><trkpt lat="49.051109" lon="-113.916144"><ele>1306.281</ele><time>2026-06-03T21:45:48Z</time></trkpt><trkpt lat="49.051092" lon="-113.916066"><ele>1305.870</ele><time>2026-06-03T21:45:56Z</time></trkpt><trkpt lat="49.0511" lon="-113.916011"><ele>1306.095</ele><time>2026-06-03T21:46:03Z</time></trkpt><trkpt lat="49.051107" lon="-113.91594"><ele>1305.871</ele><time>2026-06-03T21:46:10Z</time></trkpt><trkpt lat="49.051113" lon="-113.915859"><ele>1305.812</ele><time>2026-06-03T21:46:17Z</time></trkpt><trkpt lat="49.051114" lon="-113.91579"><ele>1306.053</ele><time>2026-06-03T21:46:25Z</time></trkpt><trkpt lat="49.051099" lon="-113.915757"><ele>1306.213</ele><time>2026-06-03T21:46:32Z</time></trkpt><trkpt lat="49.051109" lon="-113.915765"><ele>1306.054</ele><time>2026-06-03T21:46:41Z</time></trkpt><trkpt lat="49.051099" lon="-113.915739"><ele>1305.856</ele><time>2026-06-03T21:46:49Z</time></trkpt><trkpt lat="49.051109" lon="-113.915749"><ele>1305.611</ele><time>2026-06-03T21:46:56Z</time></trkpt><trkpt lat="49.051085" lon="-113.915704"><ele>1305.609</ele><time>2026-06-03T21:47:02Z</time></trkpt><trkpt lat="49.051062" lon="-113.915663"><ele>1305.477</ele><time>2026-06-03T21:47:08Z</time></trkpt><trkpt lat="49.051052" lon="-113.915636"><ele>1305.251</ele><time>2026-06-03T21:47:11Z</time></trkpt><trkpt lat="49.051033" lon="-113.91562"><ele>1305.092</ele><time>2026-06-03T21:47:18Z</time></trkpt><trkpt lat="49.051011" lon="-113.915593"><ele>1304.821</ele><time>2026-06-03T21:47:22Z</time></trkpt><trkpt lat="49.05101" lon="-113.915594"><ele>1304.816</ele><time>2026-06-03T21:47:24Z</time></trkpt><trkpt lat="49.050996" lon="-113.915559"><ele>1304.422</ele><time>2026-06-03T21:47:33Z</time></trkpt><trkpt lat="49.050992" lon="-113.915546"><ele>1304.443</ele><time>2026-06-03T21:47:34Z</time></trkpt><trkpt lat="49.050978" lon="-113.915484"><ele>1304.414</ele><time>2026-06-03T21:47:40Z</time></trkpt><trkpt lat="49.050939" lon="-113.915403"><ele>1304.294</ele><time>2026-06-03T21:47:48Z</time></trkpt><trkpt lat="49.050926" lon="-113.915401"><ele>1304.464</ele><time>2026-06-03T21:47:51Z</time></trkpt><trkpt lat="49.050923" lon="-113.915388"><ele>1304.406</ele><time>2026-06-03T21:47:53Z</time></trkpt><trkpt lat="49.05092" lon="-113.915374"><ele>1304.216</ele><time>2026-06-03T21:47:55Z</time></trkpt><trkpt lat="49.050914" lon="-113.915323"><ele>1304.209</ele><time>2026-06-03T21:48:02Z</time></trkpt><trkpt lat="49.050909" lon="-113.91532"><ele>1304.058</ele><time>2026-06-03T21:48:09Z</time></trkpt><trkpt lat="49.050878" lon="-113.91528"><ele>1303.872</ele><time>2026-06-03T21:48:16Z</time></trkpt><trkpt lat="49.050869" lon="-113.915302"><ele>1303.643</ele><time>2026-06-03T21:48:24Z</time></trkpt><trkpt lat="49.050869" lon="-113.915302"><ele>1303.652</ele><time>2026-06-03T21:48:27Z</time></trkpt><trkpt lat="49.050869" lon="-113.915302"><ele>1303.677</ele><time>2026-06-03T21:48:40Z</time></trkpt><trkpt lat="49.050869" lon="-113.915302"><ele>1303.443</ele><time>2026-06-03T21:48:49Z</time></trkpt><trkpt lat="49.050869" lon="-113.915302"><ele>1303.464</ele><time>2026-06-03T21:48:52Z</time></trkpt><trkpt lat="49.050872" lon="-113.915289"><ele>1303.675</ele><time>2026-06-03T21:48:56Z</time></trkpt><trkpt lat="49.050868" lon="-113.915269"><ele>1303.685</ele><time>2026-06-03T21:49:02Z</time></trkpt><trkpt lat="49.050856" lon="-113.915229"><ele>1303.455</ele><time>2026-06-03T21:49:07Z</time></trkpt><trkpt lat="49.050837" lon="-113.915194"><ele>1303.207</ele><time>2026-06-03T21:49:10Z</time></trkpt><trkpt lat="49.050795" lon="-113.915134"><ele>1303.017</ele><time>2026-06-03T21:49:19Z</time></trkpt><trkpt lat="49.050816" lon="-113.915142"><ele>1303.209</ele><time>2026-06-03T21:49:28Z</time></trkpt><trkpt lat="49.050768" lon="-113.915114"><ele>1303.257</ele><time>2026-06-03T21:49:35Z</time></trkpt><trkpt lat="49.050711" lon="-113.915096"><ele>1303.051</ele><time>2026-06-03T21:49:42Z</time></trkpt><trkpt lat="49.0507" lon="-113.915092"><ele>1302.662</ele><time>2026-06-03T21:49:50Z</time></trkpt><trkpt lat="49.050659" lon="-113.915095"><ele>1302.421</ele><time>2026-06-03T21:49:55Z</time></trkpt><trkpt lat="49.050645" lon="-113.915102"><ele>1302.246</ele><time>2026-06-03T21:49:57Z</time></trkpt><trkpt lat="49.050622" lon="-113.915106"><ele>1302.022</ele><time>2026-06-03T21:50:05Z</time></trkpt><trkpt lat="49.050634" lon="-113.915115"><ele>1301.653</ele><time>2026-06-03T21:50:15Z</time></trkpt><trkpt lat="49.050592" lon="-113.915099"><ele>1301.684</ele><time>2026-06-03T21:50:19Z</time></trkpt><trkpt lat="49.050589" lon="-113.915107"><ele>1301.694</ele><time>2026-06-03T21:50:23Z</time></trkpt><trkpt lat="49.050595" lon="-113.915095"><ele>1301.499</ele><time>2026-06-03T21:50:29Z</time></trkpt><trkpt lat="49.050574" lon="-113.915084"><ele>1301.207</ele><time>2026-06-03T21:50:33Z</time></trkpt><trkpt lat="49.050533" lon="-113.915081"><ele>1301.027</ele><time>2026-06-03T21:50:38Z</time></trkpt><trkpt lat="49.050518" lon="-113.915074"><ele>1301.009</ele><time>2026-06-03T21:50:42Z</time></trkpt><trkpt lat="49.050517" lon="-113.915074"><ele>1300.821</ele><time>2026-06-03T21:50:54Z</time></trkpt><trkpt lat="49.050522" lon="-113.915071"><ele>1300.685</ele><time>2026-06-03T21:51:02Z</time></trkpt><trkpt lat="49.050513" lon="-113.915064"><ele>1300.636</ele><time>2026-06-03T21:51:04Z</time></trkpt><trkpt lat="49.05046" lon="-113.915039"><ele>1300.295</ele><time>2026-06-03T21:51:10Z</time></trkpt><trkpt lat="49.050412" lon="-113.915007"><ele>1300.080</ele><time>2026-06-03T21:51:15Z</time></trkpt><trkpt lat="49.050351" lon="-113.914961"><ele>1299.426</ele><time>2026-06-03T21:51:24Z</time></trkpt><trkpt lat="49.050324" lon="-113.914934"><ele>1299.267</ele><time>2026-06-03T21:51:29Z</time></trkpt><trkpt lat="49.050273" lon="-113.914881"><ele>1299.058</ele><time>2026-06-03T21:51:36Z</time></trkpt><trkpt lat="49.050221" lon="-113.914844"><ele>1299.058</ele><time>2026-06-03T21:51:45Z</time></trkpt><trkpt lat="49.050199" lon="-113.914838"><ele>1298.642</ele><time>2026-06-03T21:51:53Z</time></trkpt><trkpt lat="49.050209" lon="-113.914791"><ele>1298.422</ele><time>2026-06-03T21:52:00Z</time></trkpt><trkpt lat="49.050226" lon="-113.914763"><ele>1298.814</ele><time>2026-06-03T21:52:08Z</time></trkpt><trkpt lat="49.050226" lon="-113.914763"><ele>1298.609</ele><time>2026-06-03T21:52:25Z</time></trkpt><trkpt lat="49.050226" lon="-113.914763"><ele>1298.436</ele><time>2026-06-03T21:52:31Z</time></trkpt><trkpt lat="49.050226" lon="-113.914763"><ele>1298.460</ele><time>2026-06-03T21:52:33Z</time></trkpt><trkpt lat="49.050226" lon="-113.914763"><ele>1298.491</ele><time>2026-06-03T21:52:34Z</time></trkpt><trkpt lat="49.050226" lon="-113.914763"><ele>1298.490</ele><time>2026-06-03T21:52:36Z</time></trkpt><trkpt lat="49.050208" lon="-113.914772"><ele>1298.465</ele><time>2026-06-03T21:52:43Z</time></trkpt><trkpt lat="49.050234" lon="-113.914788"><ele>1298.491</ele><time>2026-06-03T21:52:50Z</time></trkpt><trkpt lat="49.050241" lon="-113.914799"><ele>1298.412</ele><time>2026-06-03T21:52:57Z</time></trkpt><trkpt lat="49.050233" lon="-113.914778"><ele>1298.243</ele><time>2026-06-03T21:53:02Z</time></trkpt><trkpt lat="49.050227" lon="-113.914768"><ele>1298.243</ele><time>2026-06-03T21:53:04Z</time></trkpt><trkpt lat="49.050235" lon="-113.914765"><ele>1298.272</ele><time>2026-06-03T21:53:11Z</time></trkpt><trkpt lat="49.050239" lon="-113.914744"><ele>1298.413</ele><time>2026-06-03T21:53:18Z</time></trkpt><trkpt lat="49.050234" lon="-113.91476"><ele>1298.214</ele><time>2026-06-03T21:53:24Z</time></trkpt><trkpt lat="49.050239" lon="-113.91476"><ele>1297.809</ele><time>2026-06-03T21:53:34Z</time></trkpt><trkpt lat="49.050227" lon="-113.914714"><ele>1298.099</ele><time>2026-06-03T21:53:41Z</time></trkpt><trkpt lat="49.050196" lon="-113.914629"><ele>1298.023</ele><time>2026-06-03T21:53:50Z</time></trkpt><trkpt lat="49.050128" lon="-113.914525"><ele>1298.084</ele><time>2026-06-03T21:53:59Z</time></trkpt><trkpt lat="49.050049" lon="-113.914446"><ele>1297.653</ele><time>2026-06-03T21:54:07Z</time></trkpt><trkpt lat="49.049984" lon="-113.914383"><ele>1297.668</ele><time>2026-06-03T21:54:16Z</time></trkpt><trkpt lat="49.049912" lon="-113.914354"><ele>1297.274</ele><time>2026-06-03T21:54:23Z</time></trkpt><trkpt lat="49.0499" lon="-113.914348"><ele>1297.035</ele><time>2026-06-03T21:54:24Z</time></trkpt><trkpt lat="49.049807" lon="-113.914306"><ele>1297.016</ele><time>2026-06-03T21:54:33Z</time></trkpt><trkpt lat="49.049677" lon="-113.914236"><ele>1296.486</ele><time>2026-06-03T21:54:46Z</time></trkpt><trkpt lat="49.049593" lon="-113.914167"><ele>1296.248</ele><time>2026-06-03T21:54:55Z</time></trkpt><trkpt lat="49.049562" lon="-113.914152"><ele>1296.061</ele><time>2026-06-03T21:54:58Z</time></trkpt><trkpt lat="49.049507" lon="-113.91411"><ele>1295.817</ele><time>2026-06-03T21:55:04Z</time></trkpt><trkpt lat="49.049412" lon="-113.914032"><ele>1295.609</ele><time>2026-06-03T21:55:14Z</time></trkpt><trkpt lat="49.04933" lon="-113.913974"><ele>1295.426</ele><time>2026-06-03T21:55:23Z</time></trkpt><trkpt lat="49.049217" lon="-113.913932"><ele>1295.260</ele><time>2026-06-03T21:55:34Z</time></trkpt><trkpt lat="49.049198" lon="-113.913935"><ele>1295.061</ele><time>2026-06-03T21:55:36Z</time></trkpt><trkpt lat="49.049145" lon="-113.913991"><ele>1295.080</ele><time>2026-06-03T21:55:42Z</time></trkpt><trkpt lat="49.049086" lon="-113.914023"><ele>1294.875</ele><time>2026-06-03T21:55:49Z</time></trkpt><trkpt lat="49.049009" lon="-113.914041"><ele>1294.691</ele><time>2026-06-03T21:55:56Z</time></trkpt><trkpt lat="49.048935" lon="-113.914008"><ele>1294.642</ele><time>2026-06-03T21:56:05Z</time></trkpt><trkpt lat="49.048909" lon="-113.913902"><ele>1294.843</ele><time>2026-06-03T21:56:14Z</time></trkpt><trkpt lat="49.048923" lon="-113.913851"><ele>1294.663</ele><time>2026-06-03T21:56:20Z</time></trkpt><trkpt lat="49.048932" lon="-113.913811"><ele>1295.031</ele><time>2026-06-03T21:56:25Z</time></trkpt><trkpt lat="49.048936" lon="-113.91378"><ele>1295.261</ele><time>2026-06-03T21:56:30Z</time></trkpt><trkpt lat="49.048962" lon="-113.913716"><ele>1295.407</ele><time>2026-06-03T21:56:36Z</time></trkpt><trkpt lat="49.049007" lon="-113.913556"><ele>1295.809</ele><time>2026-06-03T21:56:47Z</time></trkpt><trkpt lat="49.049051" lon="-113.913456"><ele>1295.875</ele><time>2026-06-03T21:56:56Z</time></trkpt><trkpt lat="49.049052" lon="-113.913453"><ele>1295.889</ele><time>2026-06-03T21:56:57Z</time></trkpt><trkpt lat="49.049069" lon="-113.913399"><ele>1296.050</ele><time>2026-06-03T21:57:04Z</time></trkpt><trkpt lat="49.049073" lon="-113.913384"><ele>1296.259</ele><time>2026-06-03T21:57:05Z</time></trkpt><trkpt lat="49.049131" lon="-113.913237"><ele>1295.844</ele><time>2026-06-03T21:57:15Z</time></trkpt><trkpt lat="49.049201" lon="-113.913062"><ele>1296.210</ele><time>2026-06-03T21:57:27Z</time></trkpt><trkpt lat="49.049205" lon="-113.913046"><ele>1295.631</ele><time>2026-06-03T21:57:33Z</time></trkpt><trkpt lat="49.049185" lon="-113.913061"><ele>1295.422</ele><time>2026-06-03T21:57:45Z</time></trkpt><trkpt lat="49.049183" lon="-113.913064"><ele>1295.632</ele><time>2026-06-03T21:57:53Z</time></trkpt><trkpt lat="49.049182" lon="-113.913064"><ele>1295.628</ele><time>2026-06-03T21:57:54Z</time></trkpt><trkpt lat="49.049198" lon="-113.913054"><ele>1295.489</ele><time>2026-06-03T21:58:05Z</time></trkpt><trkpt lat="49.049179" lon="-113.913063"><ele>1295.417</ele><time>2026-06-03T21:58:16Z</time></trkpt><trkpt lat="49.049179" lon="-113.913062"><ele>1295.209</ele><time>2026-06-03T21:58:25Z</time></trkpt><trkpt lat="49.04918" lon="-113.913061"><ele>1295.294</ele><time>2026-06-03T21:58:26Z</time></trkpt><trkpt lat="49.04918" lon="-113.913061"><ele>1295.288</ele><time>2026-06-03T21:58:27Z</time></trkpt><trkpt lat="49.049206" lon="-113.913002"><ele>1295.499</ele><time>2026-06-03T21:58:33Z</time></trkpt><trkpt lat="49.049227" lon="-113.912921"><ele>1295.288</ele><time>2026-06-03T21:58:38Z</time></trkpt><trkpt lat="49.049237" lon="-113.912887"><ele>1295.053</ele><time>2026-06-03T21:58:40Z</time></trkpt><trkpt lat="49.049281" lon="-113.91273"><ele>1295.239</ele><time>2026-06-03T21:58:49Z</time></trkpt><trkpt lat="49.049282" lon="-113.912558"><ele>1294.810</ele><time>2026-06-03T21:58:58Z</time></trkpt><trkpt lat="49.049247" lon="-113.912404"><ele>1294.451</ele><time>2026-06-03T21:59:06Z</time></trkpt><trkpt lat="49.049215" lon="-113.912342"><ele>1294.041</ele><time>2026-06-03T21:59:10Z</time></trkpt><trkpt lat="49.049192" lon="-113.912305"><ele>1293.866</ele><time>2026-06-03T21:59:13Z</time></trkpt><trkpt lat="49.049123" lon="-113.912235"><ele>1292.829</ele><time>2026-06-03T21:59:19Z</time></trkpt><trkpt lat="49.049091" lon="-113.912226"><ele>1292.621</ele><time>2026-06-03T21:59:21Z</time></trkpt><trkpt lat="49.04899" lon="-113.912197"><ele>1292.209</ele><time>2026-06-03T21:59:28Z</time></trkpt><trkpt lat="49.0489" lon="-113.912198"><ele>1291.818</ele><time>2026-06-03T21:59:35Z</time></trkpt><trkpt lat="49.048864" lon="-113.912201"><ele>1291.642</ele><time>2026-06-03T21:59:38Z</time></trkpt><trkpt lat="49.048729" lon="-113.912216"><ele>1291.673</ele><time>2026-06-03T21:59:49Z</time></trkpt><trkpt lat="49.048645" lon="-113.912169"><ele>1291.052</ele><time>2026-06-03T21:59:57Z</time></trkpt><trkpt lat="49.048609" lon="-113.912046"><ele>1290.877</ele><time>2026-06-03T22:00:04Z</time></trkpt><trkpt lat="49.048607" lon="-113.912032"><ele>1290.613</ele><time>2026-06-03T22:00:05Z</time></trkpt><trkpt lat="49.048589" lon="-113.9119"><ele>1291.074</ele><time>2026-06-03T22:00:12Z</time></trkpt><trkpt lat="49.04857" lon="-113.911744"><ele>1290.645</ele><time>2026-06-03T22:00:20Z</time></trkpt><trkpt lat="49.048558" lon="-113.911688"><ele>1290.615</ele><time>2026-06-03T22:00:23Z</time></trkpt><trkpt lat="49.048543" lon="-113.911595"><ele>1290.616</ele><time>2026-06-03T22:00:28Z</time></trkpt><trkpt lat="49.048539" lon="-113.91158"><ele>1290.676</ele><time>2026-06-03T22:00:29Z</time></trkpt><trkpt lat="49.048514" lon="-113.911424"><ele>1290.213</ele><time>2026-06-03T22:00:39Z</time></trkpt><trkpt lat="49.048484" lon="-113.911314"><ele>1289.609</ele><time>2026-06-03T22:00:45Z</time></trkpt><trkpt lat="49.048479" lon="-113.911282"><ele>1289.623</ele><time>2026-06-03T22:00:47Z</time></trkpt><trkpt lat="49.04846" lon="-113.911125"><ele>1289.637</ele><time>2026-06-03T22:00:56Z</time></trkpt><trkpt lat="49.048429" lon="-113.910962"><ele>1289.668</ele><time>2026-06-03T22:01:05Z</time></trkpt><trkpt lat="49.048405" lon="-113.910835"><ele>1289.837</ele><time>2026-06-03T22:01:12Z</time></trkpt><trkpt lat="49.048375" lon="-113.910664"><ele>1289.642</ele><time>2026-06-03T22:01:21Z</time></trkpt><trkpt lat="49.048327" lon="-113.910513"><ele>1289.868</ele><time>2026-06-03T22:01:30Z</time></trkpt><trkpt lat="49.048307" lon="-113.910337"><ele>1289.859</ele><time>2026-06-03T22:01:39Z</time></trkpt><trkpt lat="49.048261" lon="-113.910109"><ele>1289.030</ele><time>2026-06-03T22:01:50Z</time></trkpt><trkpt lat="49.048174" lon="-113.910067"><ele>1288.840</ele><time>2026-06-03T22:01:57Z</time></trkpt><trkpt lat="49.048111" lon="-113.910055"><ele>1288.633</ele><time>2026-06-03T22:02:02Z</time></trkpt><trkpt lat="49.048036" lon="-113.910032"><ele>1288.423</ele><time>2026-06-03T22:02:08Z</time></trkpt><trkpt lat="49.047958" lon="-113.909931"><ele>1288.615</ele><time>2026-06-03T22:02:17Z</time></trkpt><trkpt lat="49.047911" lon="-113.909831"><ele>1288.209</ele><time>2026-06-03T22:02:24Z</time></trkpt><trkpt lat="49.047851" lon="-113.909742"><ele>1288.215</ele><time>2026-06-03T22:02:31Z</time></trkpt><trkpt lat="49.047831" lon="-113.909758"><ele>1288.289</ele><time>2026-06-03T22:02:33Z</time></trkpt><trkpt lat="49.047795" lon="-113.909875"><ele>1288.230</ele><time>2026-06-03T22:02:40Z</time></trkpt><trkpt lat="49.047778" lon="-113.909914"><ele>1288.279</ele><time>2026-06-03T22:02:47Z</time></trkpt><trkpt lat="49.04781" lon="-113.909834"><ele>1288.034</ele><time>2026-06-03T22:02:55Z</time></trkpt><trkpt lat="49.047816" lon="-113.909736"><ele>1288.060</ele><time>2026-06-03T22:03:01Z</time></trkpt><trkpt lat="49.047802" lon="-113.909706"><ele>1288.031</ele><time>2026-06-03T22:03:03Z</time></trkpt><trkpt lat="49.04776" lon="-113.909543"><ele>1287.832</ele><time>2026-06-03T22:03:13Z</time></trkpt><trkpt lat="49.047773" lon="-113.909478"><ele>1287.682</ele><time>2026-06-03T22:03:20Z</time></trkpt><trkpt lat="49.047756" lon="-113.909474"><ele>1287.696</ele><time>2026-06-03T22:03:22Z</time></trkpt><trkpt lat="49.047735" lon="-113.909433"><ele>1287.831</ele><time>2026-06-03T22:03:25Z</time></trkpt><trkpt lat="49.047705" lon="-113.909296"><ele>1287.424</ele><time>2026-06-03T22:03:32Z</time></trkpt><trkpt lat="49.047705" lon="-113.909253"><ele>1287.409</ele><time>2026-06-03T22:03:34Z</time></trkpt><trkpt lat="49.047735" lon="-113.909053"><ele>1287.091</ele><time>2026-06-03T22:03:45Z</time></trkpt><trkpt lat="49.047789" lon="-113.908885"><ele>1287.035</ele><time>2026-06-03T22:03:55Z</time></trkpt><trkpt lat="49.047822" lon="-113.908725"><ele>1286.826</ele><time>2026-06-03T22:04:05Z</time></trkpt><trkpt lat="49.04782" lon="-113.908698"><ele>1286.895</ele><time>2026-06-03T22:04:07Z</time></trkpt></trkseg></trk></gpx>