<?xml version="1.0" encoding="UTF-8"?><gpx creator="Wikiloc - http://www.wikiloc.com" version="1.1" xmlns="http://www.topografix.com/GPX/1/1" xmlns:xsi="http://www.w3.org/2001/XMLSchema-instance" xsi:schemaLocation="http://www.topografix.com/GPX/1/1 http://www.topografix.com/GPX/1/1/gpx.xsd"><trk><name><![CDATA[Waterton Lakes National Park: Red Rock Canyon]]></name><cmt><![CDATA[Waterton]]></cmt><desc><![CDATA[Waterton]]></desc><trkseg><trkpt lat="49.130894" lon="-114.026069"><ele>1498.696</ele><time>2026-06-04T22:10:48Z</time></trkpt><trkpt lat="49.130933" lon="-114.025992"><ele>1499.231</ele><time>2026-06-04T22:10:53Z</time></trkpt><trkpt lat="49.130928" lon="-114.025978"><ele>1499.024</ele><time>2026-06-04T22:10:55Z</time></trkpt><trkpt lat="49.130935" lon="-114.02598"><ele>1499.009</ele><time>2026-06-04T22:10:56Z</time></trkpt><trkpt lat="49.130945" lon="-114.02599"><ele>1499.091</ele><time>2026-06-04T22:10:59Z</time></trkpt><trkpt lat="49.131002" lon="-114.026017"><ele>1499.285</ele><time>2026-06-04T22:11:05Z</time></trkpt><trkpt lat="49.131012" lon="-114.026014"><ele>1499.276</ele><time>2026-06-04T22:11:06Z</time></trkpt><trkpt lat="49.131045" lon="-114.026007"><ele>1499.436</ele><time>2026-06-04T22:11:12Z</time></trkpt><trkpt lat="49.131041" lon="-114.026002"><ele>1499.695</ele><time>2026-06-04T22:11:14Z</time></trkpt><trkpt lat="49.131071" lon="-114.026021"><ele>1499.261</ele><time>2026-06-04T22:11:20Z</time></trkpt><trkpt lat="49.131107" lon="-114.026041"><ele>1499.461</ele><time>2026-06-04T22:11:29Z</time></trkpt><trkpt lat="49.131109" lon="-114.02604"><ele>1499.439</ele><time>2026-06-04T22:11:33Z</time></trkpt><trkpt lat="49.131125" lon="-114.026051"><ele>1499.628</ele><time>2026-06-04T22:11:36Z</time></trkpt><trkpt lat="49.131143" lon="-114.026073"><ele>1500.019</ele><time>2026-06-04T22:11:43Z</time></trkpt><trkpt lat="49.13114" lon="-114.026076"><ele>1500.009</ele><time>2026-06-04T22:11:44Z</time></trkpt><trkpt lat="49.131138" lon="-114.026079"><ele>1500.219</ele><time>2026-06-04T22:11:55Z</time></trkpt><trkpt lat="49.131138" lon="-114.026079"><ele>1500.009</ele><time>2026-06-04T22:11:58Z</time></trkpt><trkpt lat="49.131138" lon="-114.026079"><ele>1500.033</ele><time>2026-06-04T22:11:59Z</time></trkpt><trkpt lat="49.131138" lon="-114.026079"><ele>1500.017</ele><time>2026-06-04T22:12:00Z</time></trkpt><trkpt lat="49.131138" lon="-114.026079"><ele>1500.028</ele><time>2026-06-04T22:12:01Z</time></trkpt><trkpt lat="49.131138" lon="-114.026079"><ele>1499.878</ele><time>2026-06-04T22:12:03Z</time></trkpt><trkpt lat="49.13118" lon="-114.026122"><ele>1499.837</ele><time>2026-06-04T22:12:11Z</time></trkpt><trkpt lat="49.131215" lon="-114.026178"><ele>1500.223</ele><time>2026-06-04T22:12:18Z</time></trkpt><trkpt lat="49.13124" lon="-114.026238"><ele>1500.283</ele><time>2026-06-04T22:12:26Z</time></trkpt><trkpt lat="49.131264" lon="-114.026298"><ele>1499.421</ele><time>2026-06-04T22:12:33Z</time></trkpt><trkpt lat="49.131301" lon="-114.026351"><ele>1498.870</ele><time>2026-06-04T22:12:42Z</time></trkpt><trkpt lat="49.13135" lon="-114.026323"><ele>1499.464</ele><time>2026-06-04T22:12:50Z</time></trkpt><trkpt lat="49.131381" lon="-114.026306"><ele>1499.406</ele><time>2026-06-04T22:12:57Z</time></trkpt><trkpt lat="49.131433" lon="-114.026282"><ele>1500.016</ele><time>2026-06-04T22:13:04Z</time></trkpt><trkpt lat="49.131469" lon="-114.026259"><ele>1500.609</ele><time>2026-06-04T22:13:10Z</time></trkpt><trkpt lat="49.131475" lon="-114.026256"><ele>1500.858</ele><time>2026-06-04T22:13:11Z</time></trkpt><trkpt lat="49.131511" lon="-114.026232"><ele>1501.232</ele><time>2026-06-04T22:13:17Z</time></trkpt><trkpt lat="49.131523" lon="-114.026225"><ele>1501.453</ele><time>2026-06-04T22:13:20Z</time></trkpt><trkpt lat="49.131544" lon="-114.026214"><ele>1501.643</ele><time>2026-06-04T22:13:23Z</time></trkpt><trkpt lat="49.13156" lon="-114.026209"><ele>1501.652</ele><time>2026-06-04T22:13:25Z</time></trkpt><trkpt lat="49.131568" lon="-114.026205"><ele>1501.888</ele><time>2026-06-04T22:13:26Z</time></trkpt><trkpt lat="49.131592" lon="-114.026192"><ele>1501.828</ele><time>2026-06-04T22:13:29Z</time></trkpt><trkpt lat="49.131632" lon="-114.02617"><ele>1502.016</ele><time>2026-06-04T22:13:34Z</time></trkpt><trkpt lat="49.131628" lon="-114.02617"><ele>1502.045</ele><time>2026-06-04T22:13:35Z</time></trkpt><trkpt lat="49.131659" lon="-114.026149"><ele>1502.036</ele><time>2026-06-04T22:13:41Z</time></trkpt><trkpt lat="49.131712" lon="-114.026119"><ele>1502.017</ele><time>2026-06-04T22:13:50Z</time></trkpt><trkpt lat="49.131722" lon="-114.026124"><ele>1502.018</ele><time>2026-06-04T22:13:59Z</time></trkpt><trkpt lat="49.131723" lon="-114.026132"><ele>1502.209</ele><time>2026-06-04T22:14:01Z</time></trkpt><trkpt lat="49.131727" lon="-114.026137"><ele>1502.265</ele><time>2026-06-04T22:14:07Z</time></trkpt><trkpt lat="49.131728" lon="-114.026136"><ele>1502.259</ele><time>2026-06-04T22:14:08Z</time></trkpt><trkpt lat="49.131727" lon="-114.026136"><ele>1502.260</ele><time>2026-06-04T22:14:09Z</time></trkpt><trkpt lat="49.131728" lon="-114.026134"><ele>1502.020</ele><time>2026-06-04T22:14:12Z</time></trkpt><trkpt lat="49.131728" lon="-114.026134"><ele>1501.839</ele><time>2026-06-04T22:14:15Z</time></trkpt><trkpt lat="49.131728" lon="-114.026134"><ele>1501.865</ele><time>2026-06-04T22:14:16Z</time></trkpt><trkpt lat="49.131731" lon="-114.026105"><ele>1501.815</ele><time>2026-06-04T22:14:22Z</time></trkpt><trkpt lat="49.131736" lon="-114.026098"><ele>1501.843</ele><time>2026-06-04T22:14:23Z</time></trkpt><trkpt lat="49.131788" lon="-114.026058"><ele>1502.462</ele><time>2026-06-04T22:14:32Z</time></trkpt><trkpt lat="49.131841" lon="-114.026034"><ele>1502.878</ele><time>2026-06-04T22:14:39Z</time></trkpt><trkpt lat="49.131855" lon="-114.026031"><ele>1503.233</ele><time>2026-06-04T22:14:41Z</time></trkpt><trkpt lat="49.131901" lon="-114.026017"><ele>1504.026</ele><time>2026-06-04T22:14:46Z</time></trkpt><trkpt lat="49.131916" lon="-114.026009"><ele>1504.209</ele><time>2026-06-04T22:14:48Z</time></trkpt><trkpt lat="49.131929" lon="-114.026001"><ele>1504.679</ele><time>2026-06-04T22:14:51Z</time></trkpt><trkpt lat="49.131921" lon="-114.025999"><ele>1504.853</ele><time>2026-06-04T22:14:55Z</time></trkpt><trkpt lat="49.131918" lon="-114.026"><ele>1504.854</ele><time>2026-06-04T22:15:08Z</time></trkpt><trkpt lat="49.131924" lon="-114.025996"><ele>1504.844</ele><time>2026-06-04T22:15:10Z</time></trkpt><trkpt lat="49.13193" lon="-114.02599"><ele>1504.833</ele><time>2026-06-04T22:15:11Z</time></trkpt><trkpt lat="49.131937" lon="-114.025987"><ele>1505.039</ele><time>2026-06-04T22:15:12Z</time></trkpt><trkpt lat="49.131998" lon="-114.025956"><ele>1506.269</ele><time>2026-06-04T22:15:19Z</time></trkpt><trkpt lat="49.132006" lon="-114.025952"><ele>1506.477</ele><time>2026-06-04T22:15:20Z</time></trkpt><trkpt lat="49.13205" lon="-114.025923"><ele>1507.286</ele><time>2026-06-04T22:15:25Z</time></trkpt><trkpt lat="49.132069" lon="-114.025917"><ele>1507.886</ele><time>2026-06-04T22:15:28Z</time></trkpt><trkpt lat="49.132077" lon="-114.025916"><ele>1507.860</ele><time>2026-06-04T22:15:29Z</time></trkpt><trkpt lat="49.132102" lon="-114.025904"><ele>1508.226</ele><time>2026-06-04T22:15:32Z</time></trkpt><trkpt lat="49.132116" lon="-114.025899"><ele>1508.409</ele><time>2026-06-04T22:15:34Z</time></trkpt><trkpt lat="49.132147" lon="-114.025894"><ele>1509.030</ele><time>2026-06-04T22:15:38Z</time></trkpt><trkpt lat="49.132154" lon="-114.02589"><ele>1509.224</ele><time>2026-06-04T22:15:39Z</time></trkpt><trkpt lat="49.132161" lon="-114.025888"><ele>1509.245</ele><time>2026-06-04T22:15:40Z</time></trkpt><trkpt lat="49.132174" lon="-114.025883"><ele>1509.665</ele><time>2026-06-04T22:15:42Z</time></trkpt><trkpt lat="49.132225" lon="-114.025876"><ele>1510.464</ele><time>2026-06-04T22:15:48Z</time></trkpt><trkpt lat="49.132231" lon="-114.025873"><ele>1510.440</ele><time>2026-06-04T22:15:49Z</time></trkpt><trkpt lat="49.132282" lon="-114.025852"><ele>1510.080</ele><time>2026-06-04T22:15:55Z</time></trkpt><trkpt lat="49.132322" lon="-114.025844"><ele>1509.688</ele><time>2026-06-04T22:15:59Z</time></trkpt><trkpt lat="49.132338" lon="-114.025835"><ele>1509.487</ele><time>2026-06-04T22:16:06Z</time></trkpt><trkpt lat="49.132378" lon="-114.025816"><ele>1509.414</ele><time>2026-06-04T22:16:12Z</time></trkpt><trkpt lat="49.132471" lon="-114.025816"><ele>1510.254</ele><time>2026-06-04T22:16:21Z</time></trkpt><trkpt lat="49.132487" lon="-114.025825"><ele>1510.209</ele><time>2026-06-04T22:16:23Z</time></trkpt><trkpt lat="49.132528" lon="-114.025843"><ele>1510.609</ele><time>2026-06-04T22:16:28Z</time></trkpt><trkpt lat="49.132544" lon="-114.025849"><ele>1511.073</ele><time>2026-06-04T22:16:30Z</time></trkpt><trkpt lat="49.132581" lon="-114.025859"><ele>1511.647</ele><time>2026-06-04T22:16:34Z</time></trkpt><trkpt lat="49.132622" lon="-114.025872"><ele>1512.828</ele><time>2026-06-04T22:16:38Z</time></trkpt><trkpt lat="49.132636" lon="-114.025872"><ele>1513.238</ele><time>2026-06-04T22:16:40Z</time></trkpt><trkpt lat="49.132691" lon="-114.025872"><ele>1513.877</ele><time>2026-06-04T22:16:46Z</time></trkpt><trkpt lat="49.132707" lon="-114.025871"><ele>1514.013</ele><time>2026-06-04T22:16:48Z</time></trkpt><trkpt lat="49.132722" lon="-114.025867"><ele>1514.223</ele><time>2026-06-04T22:16:50Z</time></trkpt><trkpt lat="49.132731" lon="-114.025865"><ele>1514.421</ele><time>2026-06-04T22:16:51Z</time></trkpt><trkpt lat="49.132772" lon="-114.025851"><ele>1515.690</ele><time>2026-06-04T22:16:56Z</time></trkpt><trkpt lat="49.132801" lon="-114.025833"><ele>1516.226</ele><time>2026-06-04T22:17:00Z</time></trkpt><trkpt lat="49.132838" lon="-114.025811"><ele>1516.847</ele><time>2026-06-04T22:17:04Z</time></trkpt><trkpt lat="49.132865" lon="-114.025796"><ele>1517.611</ele><time>2026-06-04T22:17:07Z</time></trkpt><trkpt lat="49.132878" lon="-114.025791"><ele>1517.809</ele><time>2026-06-04T22:17:08Z</time></trkpt><trkpt lat="49.132896" lon="-114.025788"><ele>1518.014</ele><time>2026-06-04T22:17:10Z</time></trkpt><trkpt lat="49.132948" lon="-114.02578"><ele>1518.418</ele><time>2026-06-04T22:17:21Z</time></trkpt><trkpt lat="49.132958" lon="-114.025784"><ele>1518.869</ele><time>2026-06-04T22:17:25Z</time></trkpt><trkpt lat="49.13298" lon="-114.02578"><ele>1518.829</ele><time>2026-06-04T22:17:29Z</time></trkpt><trkpt lat="49.132976" lon="-114.02578"><ele>1518.468</ele><time>2026-06-04T22:17:34Z</time></trkpt><trkpt lat="49.13298" lon="-114.025781"><ele>1518.854</ele><time>2026-06-04T22:17:37Z</time></trkpt><trkpt lat="49.133" lon="-114.025775"><ele>1519.284</ele><time>2026-06-04T22:17:43Z</time></trkpt><trkpt lat="49.133" lon="-114.025776"><ele>1519.032</ele><time>2026-06-04T22:17:44Z</time></trkpt><trkpt lat="49.133001" lon="-114.025771"><ele>1519.261</ele><time>2026-06-04T22:17:52Z</time></trkpt><trkpt lat="49.132998" lon="-114.025775"><ele>1519.245</ele><time>2026-06-04T22:18:02Z</time></trkpt><trkpt lat="49.133012" lon="-114.025769"><ele>1519.647</ele><time>2026-06-04T22:18:08Z</time></trkpt><trkpt lat="49.133005" lon="-114.025776"><ele>1520.011</ele><time>2026-06-04T22:18:12Z</time></trkpt><trkpt lat="49.13301" lon="-114.025769"><ele>1520.009</ele><time>2026-06-04T22:18:15Z</time></trkpt><trkpt lat="49.133018" lon="-114.025764"><ele>1519.666</ele><time>2026-06-04T22:18:17Z</time></trkpt><trkpt lat="49.133022" lon="-114.025763"><ele>1519.630</ele><time>2026-06-04T22:18:18Z</time></trkpt><trkpt lat="49.133029" lon="-114.02576"><ele>1519.891</ele><time>2026-06-04T22:18:20Z</time></trkpt><trkpt lat="49.133044" lon="-114.025772"><ele>1520.451</ele><time>2026-06-04T22:18:24Z</time></trkpt><trkpt lat="49.133046" lon="-114.025768"><ele>1521.010</ele><time>2026-06-04T22:18:26Z</time></trkpt><trkpt lat="49.133051" lon="-114.025765"><ele>1521.686</ele><time>2026-06-04T22:18:33Z</time></trkpt><trkpt lat="49.133068" lon="-114.025769"><ele>1521.816</ele><time>2026-06-04T22:18:35Z</time></trkpt><trkpt lat="49.133081" lon="-114.025769"><ele>1522.274</ele><time>2026-06-04T22:18:37Z</time></trkpt><trkpt lat="49.133082" lon="-114.025773"><ele>1523.273</ele><time>2026-06-04T22:18:41Z</time></trkpt><trkpt lat="49.133081" lon="-114.025773"><ele>1523.478</ele><time>2026-06-04T22:18:42Z</time></trkpt><trkpt lat="49.133098" lon="-114.025765"><ele>1523.433</ele><time>2026-06-04T22:18:48Z</time></trkpt><trkpt lat="49.133117" lon="-114.025762"><ele>1523.626</ele><time>2026-06-04T22:18:50Z</time></trkpt><trkpt lat="49.133142" lon="-114.025766"><ele>1524.009</ele><time>2026-06-04T22:18:54Z</time></trkpt><trkpt lat="49.133171" lon="-114.025764"><ele>1524.269</ele><time>2026-06-04T22:18:58Z</time></trkpt><trkpt lat="49.133198" lon="-114.025768"><ele>1524.663</ele><time>2026-06-04T22:19:01Z</time></trkpt><trkpt lat="49.133224" lon="-114.025759"><ele>1525.214</ele><time>2026-06-04T22:19:04Z</time></trkpt><trkpt lat="49.133232" lon="-114.025757"><ele>1525.444</ele><time>2026-06-04T22:19:05Z</time></trkpt><trkpt lat="49.133238" lon="-114.025752"><ele>1525.683</ele><time>2026-06-04T22:19:06Z</time></trkpt><trkpt lat="49.133245" lon="-114.02575"><ele>1525.699</ele><time>2026-06-04T22:19:07Z</time></trkpt><trkpt lat="49.133283" lon="-114.025731"><ele>1526.699</ele><time>2026-06-04T22:19:14Z</time></trkpt><trkpt lat="49.133305" lon="-114.025721"><ele>1527.097</ele><time>2026-06-04T22:19:18Z</time></trkpt><trkpt lat="49.133329" lon="-114.025711"><ele>1527.216</ele><time>2026-06-04T22:19:21Z</time></trkpt><trkpt lat="49.133353" lon="-114.025739"><ele>1527.254</ele><time>2026-06-04T22:19:26Z</time></trkpt><trkpt lat="49.13336" lon="-114.025746"><ele>1526.656</ele><time>2026-06-04T22:19:28Z</time></trkpt><trkpt lat="49.133354" lon="-114.025737"><ele>1526.611</ele><time>2026-06-04T22:19:35Z</time></trkpt><trkpt lat="49.13337" lon="-114.025753"><ele>1526.609</ele><time>2026-06-04T22:19:39Z</time></trkpt><trkpt lat="49.133386" lon="-114.025757"><ele>1526.427</ele><time>2026-06-04T22:19:41Z</time></trkpt><trkpt lat="49.13339" lon="-114.025761"><ele>1526.261</ele><time>2026-06-04T22:19:42Z</time></trkpt><trkpt lat="49.133436" lon="-114.025805"><ele>1526.252</ele><time>2026-06-04T22:19:49Z</time></trkpt><trkpt lat="49.133446" lon="-114.025811"><ele>1526.262</ele><time>2026-06-04T22:19:51Z</time></trkpt><trkpt lat="49.133464" lon="-114.025807"><ele>1526.251</ele><time>2026-06-04T22:19:55Z</time></trkpt><trkpt lat="49.133463" lon="-114.025803"><ele>1526.217</ele><time>2026-06-04T22:19:57Z</time></trkpt><trkpt lat="49.133447" lon="-114.025801"><ele>1526.477</ele><time>2026-06-04T22:20:07Z</time></trkpt><trkpt lat="49.133465" lon="-114.02582"><ele>1526.255</ele><time>2026-06-04T22:20:15Z</time></trkpt><trkpt lat="49.133465" lon="-114.025816"><ele>1526.444</ele><time>2026-06-04T22:20:21Z</time></trkpt><trkpt lat="49.133465" lon="-114.025816"><ele>1526.641</ele><time>2026-06-04T22:20:24Z</time></trkpt><trkpt lat="49.133465" lon="-114.025816"><ele>1526.681</ele><time>2026-06-04T22:20:25Z</time></trkpt><trkpt lat="49.133465" lon="-114.025816"><ele>1526.609</ele><time>2026-06-04T22:20:26Z</time></trkpt><trkpt lat="49.133473" lon="-114.025805"><ele>1526.209</ele><time>2026-06-04T22:20:35Z</time></trkpt><trkpt lat="49.133468" lon="-114.02579"><ele>1526.056</ele><time>2026-06-04T22:20:46Z</time></trkpt><trkpt lat="49.133466" lon="-114.025801"><ele>1525.670</ele><time>2026-06-04T22:20:50Z</time></trkpt><trkpt lat="49.133466" lon="-114.0258"><ele>1525.611</ele><time>2026-06-04T22:20:51Z</time></trkpt><trkpt lat="49.133467" lon="-114.025815"><ele>1525.811</ele><time>2026-06-04T22:20:56Z</time></trkpt><trkpt lat="49.133511" lon="-114.025864"><ele>1525.630</ele><time>2026-06-04T22:21:04Z</time></trkpt><trkpt lat="49.133496" lon="-114.025855"><ele>1525.876</ele><time>2026-06-04T22:21:09Z</time></trkpt><trkpt lat="49.133525" lon="-114.025871"><ele>1525.686</ele><time>2026-06-04T22:21:15Z</time></trkpt><trkpt lat="49.133525" lon="-114.025871"><ele>1526.284</ele><time>2026-06-04T22:21:25Z</time></trkpt><trkpt lat="49.133519" lon="-114.025911"><ele>1526.493</ele><time>2026-06-04T22:21:32Z</time></trkpt><trkpt lat="49.133508" lon="-114.025939"><ele>1526.832</ele><time>2026-06-04T22:21:35Z</time></trkpt><trkpt lat="49.133494" lon="-114.026046"><ele>1527.492</ele><time>2026-06-04T22:21:44Z</time></trkpt><trkpt lat="49.133488" lon="-114.02608"><ele>1527.811</ele><time>2026-06-04T22:21:47Z</time></trkpt><trkpt lat="49.133456" lon="-114.026116"><ele>1527.409</ele><time>2026-06-04T22:21:53Z</time></trkpt><trkpt lat="49.133434" lon="-114.026134"><ele>1526.865</ele><time>2026-06-04T22:21:58Z</time></trkpt><trkpt lat="49.133416" lon="-114.026128"><ele>1526.649</ele><time>2026-06-04T22:22:00Z</time></trkpt><trkpt lat="49.13338" lon="-114.026121"><ele>1525.650</ele><time>2026-06-04T22:22:05Z</time></trkpt><trkpt lat="49.133365" lon="-114.02612"><ele>1525.450</ele><time>2026-06-04T22:22:07Z</time></trkpt><trkpt lat="49.133342" lon="-114.026127"><ele>1524.649</ele><time>2026-06-04T22:22:11Z</time></trkpt><trkpt lat="49.133341" lon="-114.026123"><ele>1524.435</ele><time>2026-06-04T22:22:16Z</time></trkpt><trkpt lat="49.133343" lon="-114.026116"><ele>1524.415</ele><time>2026-06-04T22:22:17Z</time></trkpt><trkpt lat="49.133336" lon="-114.02611"><ele>1523.853</ele><time>2026-06-04T22:22:25Z</time></trkpt><trkpt lat="49.133327" lon="-114.026115"><ele>1523.662</ele><time>2026-06-04T22:22:27Z</time></trkpt><trkpt lat="49.133295" lon="-114.026127"><ele>1522.448</ele><time>2026-06-04T22:22:32Z</time></trkpt><trkpt lat="49.133268" lon="-114.026123"><ele>1521.861</ele><time>2026-06-04T22:22:36Z</time></trkpt><trkpt lat="49.133263" lon="-114.026106"><ele>1521.417</ele><time>2026-06-04T22:22:38Z</time></trkpt><trkpt lat="49.133271" lon="-114.026089"><ele>1520.609</ele><time>2026-06-04T22:22:43Z</time></trkpt><trkpt lat="49.133284" lon="-114.026068"><ele>1521.636</ele><time>2026-06-04T22:22:52Z</time></trkpt><trkpt lat="49.13325" lon="-114.026112"><ele>1521.430</ele><time>2026-06-04T22:22:59Z</time></trkpt><trkpt lat="49.133214" lon="-114.026139"><ele>1521.031</ele><time>2026-06-04T22:23:08Z</time></trkpt><trkpt lat="49.133214" lon="-114.026142"><ele>1521.041</ele><time>2026-06-04T22:23:16Z</time></trkpt><trkpt lat="49.133207" lon="-114.02614"><ele>1520.420</ele><time>2026-06-04T22:23:25Z</time></trkpt><trkpt lat="49.133207" lon="-114.02614"><ele>1520.426</ele><time>2026-06-04T22:23:27Z</time></trkpt><trkpt lat="49.133207" lon="-114.02614"><ele>1520.636</ele><time>2026-06-04T22:23:38Z</time></trkpt><trkpt lat="49.133174" lon="-114.026141"><ele>1520.224</ele><time>2026-06-04T22:23:45Z</time></trkpt><trkpt lat="49.133143" lon="-114.026149"><ele>1520.623</ele><time>2026-06-04T22:23:53Z</time></trkpt><trkpt lat="49.133104" lon="-114.026176"><ele>1520.437</ele><time>2026-06-04T22:24:03Z</time></trkpt><trkpt lat="49.133069" lon="-114.026185"><ele>1521.249</ele><time>2026-06-04T22:24:11Z</time></trkpt><trkpt lat="49.133062" lon="-114.026185"><ele>1521.213</ele><time>2026-06-04T22:24:12Z</time></trkpt><trkpt lat="49.133038" lon="-114.026184"><ele>1521.409</ele><time>2026-06-04T22:24:21Z</time></trkpt><trkpt lat="49.133035" lon="-114.026185"><ele>1521.445</ele><time>2026-06-04T22:24:22Z</time></trkpt><trkpt lat="49.132977" lon="-114.026172"><ele>1520.839</ele><time>2026-06-04T22:24:30Z</time></trkpt><trkpt lat="49.132972" lon="-114.026162"><ele>1520.470</ele><time>2026-06-04T22:24:33Z</time></trkpt><trkpt lat="49.132969" lon="-114.026164"><ele>1519.890</ele><time>2026-06-04T22:24:38Z</time></trkpt><trkpt lat="49.132973" lon="-114.026173"><ele>1519.859</ele><time>2026-06-04T22:24:43Z</time></trkpt><trkpt lat="49.132973" lon="-114.026173"><ele>1519.825</ele><time>2026-06-04T22:24:44Z</time></trkpt><trkpt lat="49.13296" lon="-114.026182"><ele>1519.275</ele><time>2026-06-04T22:24:48Z</time></trkpt><trkpt lat="49.132921" lon="-114.026172"><ele>1519.213</ele><time>2026-06-04T22:24:56Z</time></trkpt><trkpt lat="49.132867" lon="-114.026194"><ele>1518.462</ele><time>2026-06-04T22:25:04Z</time></trkpt><trkpt lat="49.132855" lon="-114.026195"><ele>1518.227</ele><time>2026-06-04T22:25:06Z</time></trkpt><trkpt lat="49.132828" lon="-114.0262"><ele>1517.668</ele><time>2026-06-04T22:25:13Z</time></trkpt><trkpt lat="49.132793" lon="-114.026189"><ele>1517.614</ele><time>2026-06-04T22:25:21Z</time></trkpt><trkpt lat="49.132795" lon="-114.026194"><ele>1517.809</ele><time>2026-06-04T22:25:27Z</time></trkpt><trkpt lat="49.132792" lon="-114.026189"><ele>1517.814</ele><time>2026-06-04T22:25:30Z</time></trkpt><trkpt lat="49.132771" lon="-114.026191"><ele>1517.688</ele><time>2026-06-04T22:25:33Z</time></trkpt><trkpt lat="49.132746" lon="-114.026209"><ele>1517.259</ele><time>2026-06-04T22:25:40Z</time></trkpt><trkpt lat="49.132737" lon="-114.026213"><ele>1517.099</ele><time>2026-06-04T22:25:42Z</time></trkpt><trkpt lat="49.132703" lon="-114.026215"><ele>1516.618</ele><time>2026-06-04T22:25:47Z</time></trkpt><trkpt lat="49.132665" lon="-114.026195"><ele>1516.294</ele><time>2026-06-04T22:25:52Z</time></trkpt><trkpt lat="49.132659" lon="-114.026192"><ele>1516.034</ele><time>2026-06-04T22:25:53Z</time></trkpt><trkpt lat="49.132607" lon="-114.02618"><ele>1515.022</ele><time>2026-06-04T22:26:01Z</time></trkpt><trkpt lat="49.132565" lon="-114.026199"><ele>1514.841</ele><time>2026-06-04T22:26:08Z</time></trkpt><trkpt lat="49.132545" lon="-114.026187"><ele>1514.461</ele><time>2026-06-04T22:26:14Z</time></trkpt><trkpt lat="49.132538" lon="-114.026188"><ele>1514.421</ele><time>2026-06-04T22:26:16Z</time></trkpt><trkpt lat="49.132544" lon="-114.026199"><ele>1514.013</ele><time>2026-06-04T22:26:20Z</time></trkpt><trkpt lat="49.132514" lon="-114.026201"><ele>1514.209</ele><time>2026-06-04T22:26:26Z</time></trkpt><trkpt lat="49.132496" lon="-114.026192"><ele>1514.248</ele><time>2026-06-04T22:26:33Z</time></trkpt><trkpt lat="49.132501" lon="-114.026202"><ele>1514.462</ele><time>2026-06-04T22:26:35Z</time></trkpt><trkpt lat="49.132503" lon="-114.026209"><ele>1514.413</ele><time>2026-06-04T22:26:36Z</time></trkpt><trkpt lat="49.132504" lon="-114.026213"><ele>1514.483</ele><time>2026-06-04T22:26:37Z</time></trkpt><trkpt lat="49.132498" lon="-114.026215"><ele>1514.462</ele><time>2026-06-04T22:26:40Z</time></trkpt><trkpt lat="49.132495" lon="-114.026216"><ele>1514.678</ele><time>2026-06-04T22:26:44Z</time></trkpt><trkpt lat="49.132494" lon="-114.026218"><ele>1514.698</ele><time>2026-06-04T22:26:47Z</time></trkpt><trkpt lat="49.132487" lon="-114.026207"><ele>1514.636</ele><time>2026-06-04T22:26:56Z</time></trkpt><trkpt lat="49.132486" lon="-114.026206"><ele>1514.445</ele><time>2026-06-04T22:26:57Z</time></trkpt><trkpt lat="49.132487" lon="-114.026207"><ele>1513.812</ele><time>2026-06-04T22:27:03Z</time></trkpt><trkpt lat="49.132487" lon="-114.026207"><ele>1514.232</ele><time>2026-06-04T22:27:11Z</time></trkpt><trkpt lat="49.132494" lon="-114.0262"><ele>1515.005</ele><time>2026-06-04T22:27:20Z</time></trkpt><trkpt lat="49.132494" lon="-114.026191"><ele>1515.009</ele><time>2026-06-04T22:27:21Z</time></trkpt><trkpt lat="49.132477" lon="-114.026168"><ele>1514.673</ele><time>2026-06-04T22:27:29Z</time></trkpt><trkpt lat="49.132481" lon="-114.026196"><ele>1515.017</ele><time>2026-06-04T22:27:36Z</time></trkpt><trkpt lat="49.132487" lon="-114.026207"><ele>1514.878</ele><time>2026-06-04T22:27:39Z</time></trkpt><trkpt lat="49.132465" lon="-114.026197"><ele>1514.838</ele><time>2026-06-04T22:27:46Z</time></trkpt><trkpt lat="49.132466" lon="-114.026181"><ele>1514.887</ele><time>2026-06-04T22:27:56Z</time></trkpt><trkpt lat="49.132427" lon="-114.026163"><ele>1514.663</ele><time>2026-06-04T22:28:03Z</time></trkpt><trkpt lat="49.132361" lon="-114.026144"><ele>1513.813</ele><time>2026-06-04T22:28:10Z</time></trkpt><trkpt lat="49.132322" lon="-114.026129"><ele>1513.431</ele><time>2026-06-04T22:28:15Z</time></trkpt><trkpt lat="49.132304" lon="-114.026126"><ele>1513.050</ele><time>2026-06-04T22:28:17Z</time></trkpt><trkpt lat="49.132271" lon="-114.026129"><ele>1512.248</ele><time>2026-06-04T22:28:20Z</time></trkpt><trkpt lat="49.132254" lon="-114.026143"><ele>1511.861</ele><time>2026-06-04T22:28:22Z</time></trkpt><trkpt lat="49.132213" lon="-114.026174"><ele>1511.217</ele><time>2026-06-04T22:28:27Z</time></trkpt><trkpt lat="49.132184" lon="-114.026182"><ele>1510.809</ele><time>2026-06-04T22:28:33Z</time></trkpt><trkpt lat="49.132175" lon="-114.02619"><ele>1510.886</ele><time>2026-06-04T22:28:34Z</time></trkpt><trkpt lat="49.13208" lon="-114.026246"><ele>1509.820</ele><time>2026-06-04T22:28:44Z</time></trkpt><trkpt lat="49.13207" lon="-114.026248"><ele>1509.611</ele><time>2026-06-04T22:28:45Z</time></trkpt><trkpt lat="49.132011" lon="-114.026268"><ele>1509.251</ele><time>2026-06-04T22:28:52Z</time></trkpt><trkpt lat="49.131939" lon="-114.026297"><ele>1508.870</ele><time>2026-06-04T22:29:01Z</time></trkpt><trkpt lat="49.131933" lon="-114.026297"><ele>1508.646</ele><time>2026-06-04T22:29:02Z</time></trkpt><trkpt lat="49.131888" lon="-114.026315"><ele>1508.496</ele><time>2026-06-04T22:29:08Z</time></trkpt><trkpt lat="49.131866" lon="-114.026319"><ele>1508.054</ele><time>2026-06-04T22:29:11Z</time></trkpt><trkpt lat="49.131848" lon="-114.026319"><ele>1507.613</ele><time>2026-06-04T22:29:14Z</time></trkpt><trkpt lat="49.13184" lon="-114.026322"><ele>1507.657</ele><time>2026-06-04T22:29:15Z</time></trkpt><trkpt lat="49.131788" lon="-114.026366"><ele>1507.400</ele><time>2026-06-04T22:29:24Z</time></trkpt><trkpt lat="49.131758" lon="-114.0264"><ele>1508.020</ele><time>2026-06-04T22:29:31Z</time></trkpt><trkpt lat="49.131738" lon="-114.026404"><ele>1507.809</ele><time>2026-06-04T22:29:37Z</time></trkpt><trkpt lat="49.131706" lon="-114.02642"><ele>1507.247</ele><time>2026-06-04T22:29:44Z</time></trkpt><trkpt lat="49.131689" lon="-114.026421"><ele>1506.671</ele><time>2026-06-04T22:29:51Z</time></trkpt><trkpt lat="49.131609" lon="-114.026458"><ele>1505.442</ele><time>2026-06-04T22:29:57Z</time></trkpt><trkpt lat="49.1316" lon="-114.026461"><ele>1505.452</ele><time>2026-06-04T22:29:58Z</time></trkpt><trkpt lat="49.131567" lon="-114.02648"><ele>1504.681</ele><time>2026-06-04T22:30:02Z</time></trkpt><trkpt lat="49.131542" lon="-114.0265"><ele>1504.487</ele><time>2026-06-04T22:30:04Z</time></trkpt><trkpt lat="49.131497" lon="-114.026526"><ele>1503.847</ele><time>2026-06-04T22:30:07Z</time></trkpt><trkpt lat="49.131432" lon="-114.026562"><ele>1503.445</ele><time>2026-06-04T22:30:14Z</time></trkpt><trkpt lat="49.131373" lon="-114.026619"><ele>1502.654</ele><time>2026-06-04T22:30:22Z</time></trkpt><trkpt lat="49.131337" lon="-114.026644"><ele>1502.251</ele><time>2026-06-04T22:30:27Z</time></trkpt><trkpt lat="49.131305" lon="-114.026672"><ele>1501.601</ele><time>2026-06-04T22:30:32Z</time></trkpt><trkpt lat="49.131276" lon="-114.026694"><ele>1501.211</ele><time>2026-06-04T22:30:36Z</time></trkpt><trkpt lat="49.131203" lon="-114.026747"><ele>1501.209</ele><time>2026-06-04T22:30:43Z</time></trkpt><trkpt lat="49.131126" lon="-114.026822"><ele>1500.467</ele><time>2026-06-04T22:30:50Z</time></trkpt><trkpt lat="49.131106" lon="-114.026844"><ele>1500.291</ele><time>2026-06-04T22:30:52Z</time></trkpt><trkpt lat="49.131066" lon="-114.026893"><ele>1499.642</ele><time>2026-06-04T22:30:58Z</time></trkpt><trkpt lat="49.131042" lon="-114.026922"><ele>1499.262</ele><time>2026-06-04T22:31:01Z</time></trkpt><trkpt lat="49.130995" lon="-114.026971"><ele>1499.041</ele><time>2026-06-04T22:31:06Z</time></trkpt><trkpt lat="49.13097" lon="-114.027021"><ele>1499.057</ele><time>2026-06-04T22:31:13Z</time></trkpt><trkpt lat="49.130969" lon="-114.027021"><ele>1499.277</ele><time>2026-06-04T22:31:19Z</time></trkpt><trkpt lat="49.130969" lon="-114.027021"><ele>1499.025</ele><time>2026-06-04T22:31:26Z</time></trkpt><trkpt lat="49.130969" lon="-114.027021"><ele>1499.034</ele><time>2026-06-04T22:31:38Z</time></trkpt><trkpt lat="49.130973" lon="-114.027084"><ele>1499.669</ele><time>2026-06-04T22:31:48Z</time></trkpt><trkpt lat="49.130954" lon="-114.027133"><ele>1500.204</ele><time>2026-06-04T22:31:51Z</time></trkpt><trkpt lat="49.130913" lon="-114.027146"><ele>1500.424</ele><time>2026-06-04T22:31:55Z</time></trkpt><trkpt lat="49.130871" lon="-114.027123"><ele>1500.209</ele><time>2026-06-04T22:31:58Z</time></trkpt><trkpt lat="49.130846" lon="-114.027082"><ele>1500.068</ele><time>2026-06-04T22:32:02Z</time></trkpt><trkpt lat="49.130836" lon="-114.027053"><ele>1499.842</ele><time>2026-06-04T22:32:06Z</time></trkpt><trkpt lat="49.130828" lon="-114.027003"><ele>1500.023</ele><time>2026-06-04T22:32:12Z</time></trkpt><trkpt lat="49.130813" lon="-114.026957"><ele>1500.093</ele><time>2026-06-04T22:32:20Z</time></trkpt><trkpt lat="49.130813" lon="-114.026943"><ele>1500.012</ele><time>2026-06-04T22:32:28Z</time></trkpt><trkpt lat="49.130814" lon="-114.026946"><ele>1499.838</ele><time>2026-06-04T22:32:36Z</time></trkpt><trkpt lat="49.130813" lon="-114.026943"><ele>1499.828</ele><time>2026-06-04T22:32:38Z</time></trkpt><trkpt lat="49.130812" lon="-114.026943"><ele>1499.866</ele><time>2026-06-04T22:32:40Z</time></trkpt><trkpt lat="49.130803" lon="-114.026925"><ele>1499.685</ele><time>2026-06-04T22:32:42Z</time></trkpt><trkpt lat="49.130788" lon="-114.02689"><ele>1499.857</ele><time>2026-06-04T22:32:45Z</time></trkpt><trkpt lat="49.130779" lon="-114.026831"><ele>1499.800</ele><time>2026-06-04T22:32:52Z</time></trkpt><trkpt lat="49.130769" lon="-114.026718"><ele>1500.620</ele><time>2026-06-04T22:33:00Z</time></trkpt><trkpt lat="49.130753" lon="-114.026693"><ele>1501.009</ele><time>2026-06-04T22:33:03Z</time></trkpt><trkpt lat="49.13071" lon="-114.026688"><ele>1500.617</ele><time>2026-06-04T22:33:09Z</time></trkpt><trkpt lat="49.130709" lon="-114.026685"><ele>1501.041</ele><time>2026-06-04T22:33:11Z</time></trkpt><trkpt lat="49.130695" lon="-114.026651"><ele>1500.892</ele><time>2026-06-04T22:33:15Z</time></trkpt><trkpt lat="49.13069" lon="-114.026613"><ele>1501.072</ele><time>2026-06-04T22:33:22Z</time></trkpt><trkpt lat="49.130672" lon="-114.026515"><ele>1501.051</ele><time>2026-06-04T22:33:30Z</time></trkpt><trkpt lat="49.130669" lon="-114.026443"><ele>1501.057</ele><time>2026-06-04T22:33:37Z</time></trkpt><trkpt lat="49.130658" lon="-114.026434"><ele>1501.027</ele><time>2026-06-04T22:33:42Z</time></trkpt><trkpt lat="49.13066" lon="-114.026403"><ele>1500.865</ele><time>2026-06-04T22:33:48Z</time></trkpt><trkpt lat="49.130665" lon="-114.026397"><ele>1499.454</ele><time>2026-06-04T22:33:55Z</time></trkpt><trkpt lat="49.13068" lon="-114.026379"><ele>1500.282</ele><time>2026-06-04T22:34:00Z</time></trkpt><trkpt lat="49.13072" lon="-114.026332"><ele>1500.843</ele><time>2026-06-04T22:34:06Z</time></trkpt><trkpt lat="49.130748" lon="-114.026316"><ele>1501.217</ele><time>2026-06-04T22:34:11Z</time></trkpt><trkpt lat="49.130761" lon="-114.026343"><ele>1501.609</ele><time>2026-06-04T22:34:13Z</time></trkpt><trkpt lat="49.130761" lon="-114.026306"><ele>1501.670</ele><time>2026-06-04T22:34:17Z</time></trkpt><trkpt lat="49.130759" lon="-114.026283"><ele>1501.884</ele><time>2026-06-04T22:34:22Z</time></trkpt><trkpt lat="49.130762" lon="-114.026275"><ele>1502.075</ele><time>2026-06-04T22:34:27Z</time></trkpt><trkpt lat="49.130768" lon="-114.026271"><ele>1501.885</ele><time>2026-06-04T22:34:30Z</time></trkpt><trkpt lat="49.130782" lon="-114.026255"><ele>1502.494</ele><time>2026-06-04T22:34:34Z</time></trkpt><trkpt lat="49.130788" lon="-114.026224"><ele>1502.680</ele><time>2026-06-04T22:34:38Z</time></trkpt><trkpt lat="49.130836" lon="-114.026157"><ele>1502.860</ele><time>2026-06-04T22:34:47Z</time></trkpt><trkpt lat="49.130863" lon="-114.026094"><ele>1502.848</ele><time>2026-06-04T22:34:54Z</time></trkpt><trkpt lat="49.130867" lon="-114.026085"><ele>1502.897</ele><time>2026-06-04T22:35:02Z</time></trkpt><trkpt lat="49.130884" lon="-114.02605"><ele>1502.849</ele><time>2026-06-04T22:35:09Z</time></trkpt><trkpt lat="49.130897" lon="-114.025986"><ele>1503.202</ele><time>2026-06-04T22:35:15Z</time></trkpt><trkpt lat="49.130895" lon="-114.025937"><ele>1503.222</ele><time>2026-06-04T22:35:22Z</time></trkpt><trkpt lat="49.130901" lon="-114.02594"><ele>1503.409</ele><time>2026-06-04T22:35:24Z</time></trkpt><trkpt lat="49.130902" lon="-114.025931"><ele>1503.286</ele><time>2026-06-04T22:35:31Z</time></trkpt><trkpt lat="49.130902" lon="-114.025939"><ele>1503.270</ele><time>2026-06-04T22:35:34Z</time></trkpt><trkpt lat="49.130908" lon="-114.025917"><ele>1503.031</ele><time>2026-06-04T22:35:38Z</time></trkpt><trkpt lat="49.130908" lon="-114.025893"><ele>1502.861</ele><time>2026-06-04T22:35:40Z</time></trkpt><trkpt lat="49.130884" lon="-114.025836"><ele>1503.040</ele><time>2026-06-04T22:35:49Z</time></trkpt></trkseg></trk></gpx>