<?xml version="1.0" encoding="UTF-8"?><gpx creator="Wikiloc - http://www.wikiloc.com" version="1.1" xmlns="http://www.topografix.com/GPX/1/1" xmlns:xsi="http://www.w3.org/2001/XMLSchema-instance" xsi:schemaLocation="http://www.topografix.com/GPX/1/1 http://www.topografix.com/GPX/1/1/gpx.xsd"><trk><name><![CDATA[Wrangell-St. Elias National Park: West Glacier Trail]]></name><cmt><![CDATA[McCarthy]]></cmt><desc><![CDATA[McCarthy]]></desc><trkseg><trkpt lat="61.436604" lon="-142.964613"><ele>421.499</ele><time>2026-07-25T23:45:19Z</time></trkpt><trkpt lat="61.436594" lon="-142.964632"><ele>421.207</ele><time>2026-07-25T23:45:25Z</time></trkpt><trkpt lat="61.436597" lon="-142.96472"><ele>421.227</ele><time>2026-07-25T23:45:34Z</time></trkpt><trkpt lat="61.436595" lon="-142.964839"><ele>421.209</ele><time>2026-07-25T23:45:42Z</time></trkpt><trkpt lat="61.436598" lon="-142.964828"><ele>421.491</ele><time>2026-07-25T23:45:45Z</time></trkpt><trkpt lat="61.436611" lon="-142.964895"><ele>422.826</ele><time>2026-07-25T23:46:04Z</time></trkpt><trkpt lat="61.436614" lon="-142.964901"><ele>422.875</ele><time>2026-07-25T23:46:05Z</time></trkpt><trkpt lat="61.436638" lon="-142.964926"><ele>422.849</ele><time>2026-07-25T23:46:10Z</time></trkpt><trkpt lat="61.436653" lon="-142.964957"><ele>423.280</ele><time>2026-07-25T23:46:15Z</time></trkpt><trkpt lat="61.436669" lon="-142.964989"><ele>423.465</ele><time>2026-07-25T23:46:20Z</time></trkpt><trkpt lat="61.436677" lon="-142.965007"><ele>423.481</ele><time>2026-07-25T23:46:22Z</time></trkpt><trkpt lat="61.436727" lon="-142.965078"><ele>423.835</ele><time>2026-07-25T23:46:32Z</time></trkpt><trkpt lat="61.43675" lon="-142.96508"><ele>423.857</ele><time>2026-07-25T23:46:35Z</time></trkpt><trkpt lat="61.436792" lon="-142.965094"><ele>424.086</ele><time>2026-07-25T23:46:41Z</time></trkpt><trkpt lat="61.436818" lon="-142.96513"><ele>424.260</ele><time>2026-07-25T23:46:47Z</time></trkpt><trkpt lat="61.436837" lon="-142.965154"><ele>424.626</ele><time>2026-07-25T23:46:52Z</time></trkpt><trkpt lat="61.43684" lon="-142.965159"><ele>424.609</ele><time>2026-07-25T23:46:53Z</time></trkpt><trkpt lat="61.436867" lon="-142.965196"><ele>424.850</ele><time>2026-07-25T23:46:58Z</time></trkpt><trkpt lat="61.436884" lon="-142.965209"><ele>424.895</ele><time>2026-07-25T23:47:00Z</time></trkpt><trkpt lat="61.436908" lon="-142.965218"><ele>425.064</ele><time>2026-07-25T23:47:04Z</time></trkpt><trkpt lat="61.436953" lon="-142.965256"><ele>425.818</ele><time>2026-07-25T23:47:16Z</time></trkpt><trkpt lat="61.436964" lon="-142.965269"><ele>425.819</ele><time>2026-07-25T23:47:19Z</time></trkpt><trkpt lat="61.436999" lon="-142.96531"><ele>426.034</ele><time>2026-07-25T23:47:25Z</time></trkpt><trkpt lat="61.437025" lon="-142.965343"><ele>426.430</ele><time>2026-07-25T23:47:32Z</time></trkpt><trkpt lat="61.437046" lon="-142.965351"><ele>426.454</ele><time>2026-07-25T23:47:35Z</time></trkpt><trkpt lat="61.437066" lon="-142.965352"><ele>426.456</ele><time>2026-07-25T23:47:38Z</time></trkpt><trkpt lat="61.437093" lon="-142.96538"><ele>426.678</ele><time>2026-07-25T23:47:47Z</time></trkpt><trkpt lat="61.437141" lon="-142.96537"><ele>426.833</ele><time>2026-07-25T23:47:56Z</time></trkpt><trkpt lat="61.437144" lon="-142.965371"><ele>427.026</ele><time>2026-07-25T23:47:57Z</time></trkpt><trkpt lat="61.437162" lon="-142.965387"><ele>427.009</ele><time>2026-07-25T23:48:04Z</time></trkpt><trkpt lat="61.437177" lon="-142.965421"><ele>427.219</ele><time>2026-07-25T23:48:09Z</time></trkpt><trkpt lat="61.437236" lon="-142.96545"><ele>427.824</ele><time>2026-07-25T23:48:17Z</time></trkpt><trkpt lat="61.43725" lon="-142.965471"><ele>428.023</ele><time>2026-07-25T23:48:21Z</time></trkpt><trkpt lat="61.437268" lon="-142.965509"><ele>428.297</ele><time>2026-07-25T23:48:27Z</time></trkpt><trkpt lat="61.437299" lon="-142.965579"><ele>428.458</ele><time>2026-07-25T23:48:35Z</time></trkpt><trkpt lat="61.43734" lon="-142.96562"><ele>429.083</ele><time>2026-07-25T23:48:42Z</time></trkpt><trkpt lat="61.437356" lon="-142.965643"><ele>429.089</ele><time>2026-07-25T23:48:45Z</time></trkpt><trkpt lat="61.437371" lon="-142.965662"><ele>429.223</ele><time>2026-07-25T23:48:50Z</time></trkpt><trkpt lat="61.437374" lon="-142.965667"><ele>429.235</ele><time>2026-07-25T23:48:54Z</time></trkpt><trkpt lat="61.437439" lon="-142.965719"><ele>429.693</ele><time>2026-07-25T23:49:03Z</time></trkpt><trkpt lat="61.437509" lon="-142.965736"><ele>429.865</ele><time>2026-07-25T23:49:11Z</time></trkpt><trkpt lat="61.437541" lon="-142.965753"><ele>430.021</ele><time>2026-07-25T23:49:15Z</time></trkpt><trkpt lat="61.437584" lon="-142.96576"><ele>430.409</ele><time>2026-07-25T23:49:21Z</time></trkpt><trkpt lat="61.437602" lon="-142.965768"><ele>430.671</ele><time>2026-07-25T23:49:24Z</time></trkpt><trkpt lat="61.437612" lon="-142.965803"><ele>430.876</ele><time>2026-07-25T23:49:29Z</time></trkpt><trkpt lat="61.43762" lon="-142.965812"><ele>430.845</ele><time>2026-07-25T23:49:31Z</time></trkpt><trkpt lat="61.437638" lon="-142.965821"><ele>431.049</ele><time>2026-07-25T23:49:35Z</time></trkpt><trkpt lat="61.437672" lon="-142.965856"><ele>431.290</ele><time>2026-07-25T23:49:41Z</time></trkpt><trkpt lat="61.437679" lon="-142.965865"><ele>431.275</ele><time>2026-07-25T23:49:43Z</time></trkpt><trkpt lat="61.437688" lon="-142.965873"><ele>431.451</ele><time>2026-07-25T23:49:47Z</time></trkpt><trkpt lat="61.437694" lon="-142.965865"><ele>431.425</ele><time>2026-07-25T23:49:49Z</time></trkpt><trkpt lat="61.437693" lon="-142.965862"><ele>431.457</ele><time>2026-07-25T23:49:50Z</time></trkpt><trkpt lat="61.437652" lon="-142.965836"><ele>431.416</ele><time>2026-07-25T23:50:02Z</time></trkpt><trkpt lat="61.437695" lon="-142.965857"><ele>431.476</ele><time>2026-07-25T23:50:13Z</time></trkpt><trkpt lat="61.43771" lon="-142.965921"><ele>431.613</ele><time>2026-07-25T23:50:24Z</time></trkpt><trkpt lat="61.437712" lon="-142.965926"><ele>431.609</ele><time>2026-07-25T23:50:25Z</time></trkpt><trkpt lat="61.437707" lon="-142.965946"><ele>431.683</ele><time>2026-07-25T23:50:33Z</time></trkpt><trkpt lat="61.437708" lon="-142.965947"><ele>431.698</ele><time>2026-07-25T23:50:34Z</time></trkpt><trkpt lat="61.437708" lon="-142.965947"><ele>431.637</ele><time>2026-07-25T23:50:35Z</time></trkpt><trkpt lat="61.437734" lon="-142.965944"><ele>431.891</ele><time>2026-07-25T23:50:43Z</time></trkpt><trkpt lat="61.437741" lon="-142.965956"><ele>432.082</ele><time>2026-07-25T23:50:47Z</time></trkpt><trkpt lat="61.437739" lon="-142.965962"><ele>432.047</ele><time>2026-07-25T23:50:48Z</time></trkpt><trkpt lat="61.437749" lon="-142.966011"><ele>432.623</ele><time>2026-07-25T23:50:57Z</time></trkpt><trkpt lat="61.437763" lon="-142.96603"><ele>433.047</ele><time>2026-07-25T23:51:00Z</time></trkpt><trkpt lat="61.437768" lon="-142.966032"><ele>433.289</ele><time>2026-07-25T23:51:03Z</time></trkpt><trkpt lat="61.437776" lon="-142.966037"><ele>433.265</ele><time>2026-07-25T23:51:05Z</time></trkpt><trkpt lat="61.437842" lon="-142.966061"><ele>433.668</ele><time>2026-07-25T23:51:14Z</time></trkpt><trkpt lat="61.43785" lon="-142.966053"><ele>433.614</ele><time>2026-07-25T23:51:17Z</time></trkpt><trkpt lat="61.437868" lon="-142.966034"><ele>433.809</ele><time>2026-07-25T23:51:23Z</time></trkpt><trkpt lat="61.437885" lon="-142.966015"><ele>433.668</ele><time>2026-07-25T23:51:29Z</time></trkpt><trkpt lat="61.437903" lon="-142.965992"><ele>433.633</ele><time>2026-07-25T23:51:33Z</time></trkpt><trkpt lat="61.437914" lon="-142.965985"><ele>433.672</ele><time>2026-07-25T23:51:39Z</time></trkpt><trkpt lat="61.437922" lon="-142.96598"><ele>433.866</ele><time>2026-07-25T23:51:41Z</time></trkpt><trkpt lat="61.437924" lon="-142.965982"><ele>433.827</ele><time>2026-07-25T23:51:42Z</time></trkpt><trkpt lat="61.437977" lon="-142.965956"><ele>434.072</ele><time>2026-07-25T23:51:51Z</time></trkpt><trkpt lat="61.438005" lon="-142.96591"><ele>434.068</ele><time>2026-07-25T23:52:01Z</time></trkpt><trkpt lat="61.437998" lon="-142.965917"><ele>434.072</ele><time>2026-07-25T23:52:08Z</time></trkpt><trkpt lat="61.438033" lon="-142.965906"><ele>433.814</ele><time>2026-07-25T23:52:16Z</time></trkpt><trkpt lat="61.438061" lon="-142.965909"><ele>434.038</ele><time>2026-07-25T23:52:24Z</time></trkpt><trkpt lat="61.438133" lon="-142.965842"><ele>433.870</ele><time>2026-07-25T23:52:34Z</time></trkpt><trkpt lat="61.438167" lon="-142.965769"><ele>433.217</ele><time>2026-07-25T23:52:42Z</time></trkpt><trkpt lat="61.438196" lon="-142.965776"><ele>433.009</ele><time>2026-07-25T23:52:52Z</time></trkpt><trkpt lat="61.438261" lon="-142.96577"><ele>432.895</ele><time>2026-07-25T23:53:02Z</time></trkpt><trkpt lat="61.438265" lon="-142.965773"><ele>433.090</ele><time>2026-07-25T23:53:12Z</time></trkpt><trkpt lat="61.438307" lon="-142.965744"><ele>433.079</ele><time>2026-07-25T23:53:19Z</time></trkpt><trkpt lat="61.438335" lon="-142.965713"><ele>433.093</ele><time>2026-07-25T23:53:22Z</time></trkpt><trkpt lat="61.438354" lon="-142.965737"><ele>433.044</ele><time>2026-07-25T23:53:30Z</time></trkpt><trkpt lat="61.43837" lon="-142.965708"><ele>433.029</ele><time>2026-07-25T23:53:38Z</time></trkpt><trkpt lat="61.438375" lon="-142.965716"><ele>433.015</ele><time>2026-07-25T23:53:46Z</time></trkpt><trkpt lat="61.438372" lon="-142.965708"><ele>432.899</ele><time>2026-07-25T23:53:51Z</time></trkpt><trkpt lat="61.438363" lon="-142.96569"><ele>432.851</ele><time>2026-07-25T23:53:56Z</time></trkpt><trkpt lat="61.438379" lon="-142.965682"><ele>432.822</ele><time>2026-07-25T23:54:04Z</time></trkpt><trkpt lat="61.438381" lon="-142.965683"><ele>432.662</ele><time>2026-07-25T23:54:05Z</time></trkpt><trkpt lat="61.43838" lon="-142.965702"><ele>432.808</ele><time>2026-07-25T23:54:07Z</time></trkpt><trkpt lat="61.43838" lon="-142.96573"><ele>432.809</ele><time>2026-07-25T23:54:18Z</time></trkpt><trkpt lat="61.438379" lon="-142.965712"><ele>432.644</ele><time>2026-07-25T23:54:28Z</time></trkpt><trkpt lat="61.438368" lon="-142.965736"><ele>432.869</ele><time>2026-07-25T23:54:36Z</time></trkpt><trkpt lat="61.438374" lon="-142.965761"><ele>432.698</ele><time>2026-07-25T23:54:47Z</time></trkpt><trkpt lat="61.438347" lon="-142.965704"><ele>432.492</ele><time>2026-07-25T23:54:57Z</time></trkpt><trkpt lat="61.438369" lon="-142.965724"><ele>432.613</ele><time>2026-07-25T23:55:06Z</time></trkpt><trkpt lat="61.438395" lon="-142.965724"><ele>432.688</ele><time>2026-07-25T23:55:15Z</time></trkpt><trkpt lat="61.438397" lon="-142.965719"><ele>432.644</ele><time>2026-07-25T23:55:25Z</time></trkpt><trkpt lat="61.438389" lon="-142.965714"><ele>432.678</ele><time>2026-07-25T23:55:28Z</time></trkpt><trkpt lat="61.438394" lon="-142.965695"><ele>432.680</ele><time>2026-07-25T23:55:39Z</time></trkpt><trkpt lat="61.438381" lon="-142.965649"><ele>432.463</ele><time>2026-07-25T23:55:45Z</time></trkpt><trkpt lat="61.43837" lon="-142.965621"><ele>432.444</ele><time>2026-07-25T23:55:51Z</time></trkpt><trkpt lat="61.438374" lon="-142.965614"><ele>432.418</ele><time>2026-07-25T23:55:53Z</time></trkpt><trkpt lat="61.43839" lon="-142.96562"><ele>432.409</ele><time>2026-07-25T23:55:58Z</time></trkpt><trkpt lat="61.438435" lon="-142.965644"><ele>432.668</ele><time>2026-07-25T23:56:08Z</time></trkpt><trkpt lat="61.438424" lon="-142.965689"><ele>432.633</ele><time>2026-07-25T23:56:18Z</time></trkpt><trkpt lat="61.438433" lon="-142.96574"><ele>432.632</ele><time>2026-07-25T23:56:25Z</time></trkpt><trkpt lat="61.438417" lon="-142.965788"><ele>432.846</ele><time>2026-07-25T23:56:33Z</time></trkpt><trkpt lat="61.438442" lon="-142.965788"><ele>432.637</ele><time>2026-07-25T23:56:39Z</time></trkpt><trkpt lat="61.438464" lon="-142.965791"><ele>433.032</ele><time>2026-07-25T23:56:47Z</time></trkpt><trkpt lat="61.438468" lon="-142.96579"><ele>433.018</ele><time>2026-07-25T23:56:50Z</time></trkpt><trkpt lat="61.438473" lon="-142.965777"><ele>433.062</ele><time>2026-07-25T23:56:53Z</time></trkpt><trkpt lat="61.438474" lon="-142.96579"><ele>433.074</ele><time>2026-07-25T23:56:57Z</time></trkpt><trkpt lat="61.438512" lon="-142.965834"><ele>433.052</ele><time>2026-07-25T23:57:06Z</time></trkpt><trkpt lat="61.438526" lon="-142.965805"><ele>432.853</ele><time>2026-07-25T23:57:13Z</time></trkpt><trkpt lat="61.438553" lon="-142.965829"><ele>432.808</ele><time>2026-07-25T23:57:20Z</time></trkpt><trkpt lat="61.438551" lon="-142.965824"><ele>432.809</ele><time>2026-07-25T23:57:29Z</time></trkpt><trkpt lat="61.438579" lon="-142.965787"><ele>432.647</ele><time>2026-07-25T23:57:39Z</time></trkpt><trkpt lat="61.438623" lon="-142.965709"><ele>432.422</ele><time>2026-07-25T23:57:48Z</time></trkpt><trkpt lat="61.438668" lon="-142.965661"><ele>432.091</ele><time>2026-07-25T23:57:56Z</time></trkpt><trkpt lat="61.438715" lon="-142.965649"><ele>432.285</ele><time>2026-07-25T23:58:06Z</time></trkpt><trkpt lat="61.438763" lon="-142.965654"><ele>432.246</ele><time>2026-07-25T23:58:19Z</time></trkpt><trkpt lat="61.438777" lon="-142.965671"><ele>432.081</ele><time>2026-07-25T23:58:23Z</time></trkpt><trkpt lat="61.438779" lon="-142.965673"><ele>432.057</ele><time>2026-07-25T23:58:27Z</time></trkpt><trkpt lat="61.438786" lon="-142.965663"><ele>432.071</ele><time>2026-07-25T23:58:29Z</time></trkpt><trkpt lat="61.438803" lon="-142.965591"><ele>431.623</ele><time>2026-07-25T23:58:37Z</time></trkpt><trkpt lat="61.438799" lon="-142.965555"><ele>432.071</ele><time>2026-07-25T23:58:46Z</time></trkpt><trkpt lat="61.438853" lon="-142.965547"><ele>431.641</ele><time>2026-07-25T23:58:55Z</time></trkpt><trkpt lat="61.438857" lon="-142.965547"><ele>431.415</ele><time>2026-07-25T23:58:56Z</time></trkpt><trkpt lat="61.43885" lon="-142.965568"><ele>431.609</ele><time>2026-07-25T23:59:05Z</time></trkpt><trkpt lat="61.438863" lon="-142.965515"><ele>431.459</ele><time>2026-07-25T23:59:15Z</time></trkpt><trkpt lat="61.438871" lon="-142.965494"><ele>431.464</ele><time>2026-07-25T23:59:22Z</time></trkpt><trkpt lat="61.438891" lon="-142.965456"><ele>430.863</ele><time>2026-07-25T23:59:29Z</time></trkpt><trkpt lat="61.438888" lon="-142.965446"><ele>430.897</ele><time>2026-07-25T23:59:31Z</time></trkpt><trkpt lat="61.438899" lon="-142.965365"><ele>430.648</ele><time>2026-07-25T23:59:40Z</time></trkpt><trkpt lat="61.43892" lon="-142.965287"><ele>430.273</ele><time>2026-07-25T23:59:48Z</time></trkpt><trkpt lat="61.438921" lon="-142.965298"><ele>430.059</ele><time>2026-07-25T23:59:58Z</time></trkpt><trkpt lat="61.438933" lon="-142.965258"><ele>430.093</ele><time>2026-07-26T00:00:05Z</time></trkpt><trkpt lat="61.438943" lon="-142.96523"><ele>429.815</ele><time>2026-07-26T00:00:15Z</time></trkpt><trkpt lat="61.438975" lon="-142.965143"><ele>429.686</ele><time>2026-07-26T00:00:23Z</time></trkpt><trkpt lat="61.438988" lon="-142.965167"><ele>429.460</ele><time>2026-07-26T00:00:30Z</time></trkpt><trkpt lat="61.43902" lon="-142.965158"><ele>429.426</ele><time>2026-07-26T00:00:37Z</time></trkpt><trkpt lat="61.439053" lon="-142.965129"><ele>429.609</ele><time>2026-07-26T00:00:46Z</time></trkpt><trkpt lat="61.439099" lon="-142.965049"><ele>429.210</ele><time>2026-07-26T00:00:56Z</time></trkpt><trkpt lat="61.439139" lon="-142.965013"><ele>429.295</ele><time>2026-07-26T00:01:06Z</time></trkpt><trkpt lat="61.439149" lon="-142.965023"><ele>429.214</ele><time>2026-07-26T00:01:12Z</time></trkpt><trkpt lat="61.439164" lon="-142.964996"><ele>428.838</ele><time>2026-07-26T00:01:16Z</time></trkpt><trkpt lat="61.439188" lon="-142.964942"><ele>428.629</ele><time>2026-07-26T00:01:19Z</time></trkpt><trkpt lat="61.439216" lon="-142.964871"><ele>428.624</ele><time>2026-07-26T00:01:26Z</time></trkpt><trkpt lat="61.439196" lon="-142.964794"><ele>428.440</ele><time>2026-07-26T00:01:35Z</time></trkpt><trkpt lat="61.439198" lon="-142.96474"><ele>428.494</ele><time>2026-07-26T00:01:46Z</time></trkpt><trkpt lat="61.439198" lon="-142.964662"><ele>428.026</ele><time>2026-07-26T00:01:57Z</time></trkpt><trkpt lat="61.439205" lon="-142.964623"><ele>428.019</ele><time>2026-07-26T00:02:02Z</time></trkpt><trkpt lat="61.439228" lon="-142.964591"><ele>428.409</ele><time>2026-07-26T00:02:08Z</time></trkpt><trkpt lat="61.439248" lon="-142.964532"><ele>428.419</ele><time>2026-07-26T00:02:17Z</time></trkpt><trkpt lat="61.439266" lon="-142.964498"><ele>428.609</ele><time>2026-07-26T00:02:23Z</time></trkpt><trkpt lat="61.43927" lon="-142.964382"><ele>428.483</ele><time>2026-07-26T00:02:30Z</time></trkpt><trkpt lat="61.439286" lon="-142.964337"><ele>428.478</ele><time>2026-07-26T00:02:37Z</time></trkpt><trkpt lat="61.439294" lon="-142.964314"><ele>428.297</ele><time>2026-07-26T00:02:40Z</time></trkpt><trkpt lat="61.439304" lon="-142.964309"><ele>427.621</ele><time>2026-07-26T00:02:47Z</time></trkpt><trkpt lat="61.439312" lon="-142.964313"><ele>427.682</ele><time>2026-07-26T00:02:49Z</time></trkpt><trkpt lat="61.439327" lon="-142.964267"><ele>427.647</ele><time>2026-07-26T00:02:55Z</time></trkpt><trkpt lat="61.439326" lon="-142.964109"><ele>427.223</ele><time>2026-07-26T00:03:03Z</time></trkpt><trkpt lat="61.43936" lon="-142.964074"><ele>428.067</ele><time>2026-07-26T00:03:13Z</time></trkpt><trkpt lat="61.439391" lon="-142.964061"><ele>428.219</ele><time>2026-07-26T00:03:22Z</time></trkpt><trkpt lat="61.439404" lon="-142.964023"><ele>428.274</ele><time>2026-07-26T00:03:27Z</time></trkpt><trkpt lat="61.439406" lon="-142.963995"><ele>428.256</ele><time>2026-07-26T00:03:30Z</time></trkpt><trkpt lat="61.439406" lon="-142.963997"><ele>428.221</ele><time>2026-07-26T00:03:31Z</time></trkpt><trkpt lat="61.439412" lon="-142.963981"><ele>428.409</ele><time>2026-07-26T00:03:33Z</time></trkpt><trkpt lat="61.439412" lon="-142.963963"><ele>428.689</ele><time>2026-07-26T00:03:36Z</time></trkpt><trkpt lat="61.439421" lon="-142.963937"><ele>428.824</ele><time>2026-07-26T00:03:39Z</time></trkpt><trkpt lat="61.439438" lon="-142.963927"><ele>428.853</ele><time>2026-07-26T00:03:47Z</time></trkpt><trkpt lat="61.43945" lon="-142.963886"><ele>429.477</ele><time>2026-07-26T00:03:54Z</time></trkpt><trkpt lat="61.439473" lon="-142.963866"><ele>429.058</ele><time>2026-07-26T00:03:59Z</time></trkpt><trkpt lat="61.439485" lon="-142.963839"><ele>429.263</ele><time>2026-07-26T00:04:02Z</time></trkpt><trkpt lat="61.439507" lon="-142.96379"><ele>429.499</ele><time>2026-07-26T00:04:05Z</time></trkpt><trkpt lat="61.43952" lon="-142.96376"><ele>429.663</ele><time>2026-07-26T00:04:07Z</time></trkpt><trkpt lat="61.439524" lon="-142.963686"><ele>430.055</ele><time>2026-07-26T00:04:11Z</time></trkpt><trkpt lat="61.43951" lon="-142.963672"><ele>429.853</ele><time>2026-07-26T00:04:15Z</time></trkpt><trkpt lat="61.4395" lon="-142.963676"><ele>429.804</ele><time>2026-07-26T00:04:18Z</time></trkpt><trkpt lat="61.439496" lon="-142.963659"><ele>429.814</ele><time>2026-07-26T00:04:20Z</time></trkpt><trkpt lat="61.439497" lon="-142.963645"><ele>429.409</ele><time>2026-07-26T00:04:28Z</time></trkpt><trkpt lat="61.439494" lon="-142.963648"><ele>429.467</ele><time>2026-07-26T00:04:29Z</time></trkpt><trkpt lat="61.439493" lon="-142.963638"><ele>429.282</ele><time>2026-07-26T00:04:36Z</time></trkpt><trkpt lat="61.439507" lon="-142.963648"><ele>429.241</ele><time>2026-07-26T00:04:41Z</time></trkpt><trkpt lat="61.439534" lon="-142.963654"><ele>429.285</ele><time>2026-07-26T00:04:47Z</time></trkpt><trkpt lat="61.439529" lon="-142.963626"><ele>429.246</ele><time>2026-07-26T00:04:51Z</time></trkpt><trkpt lat="61.439516" lon="-142.963617"><ele>429.261</ele><time>2026-07-26T00:04:57Z</time></trkpt><trkpt lat="61.439514" lon="-142.963599"><ele>429.657</ele><time>2026-07-26T00:04:59Z</time></trkpt><trkpt lat="61.439518" lon="-142.963573"><ele>430.011</ele><time>2026-07-26T00:05:01Z</time></trkpt><trkpt lat="61.439557" lon="-142.963468"><ele>429.293</ele><time>2026-07-26T00:05:09Z</time></trkpt><trkpt lat="61.439588" lon="-142.963393"><ele>428.642</ele><time>2026-07-26T00:05:14Z</time></trkpt><trkpt lat="61.439591" lon="-142.963367"><ele>428.622</ele><time>2026-07-26T00:05:16Z</time></trkpt><trkpt lat="61.439566" lon="-142.96327"><ele>428.614</ele><time>2026-07-26T00:05:22Z</time></trkpt><trkpt lat="61.439547" lon="-142.963193"><ele>427.409</ele><time>2026-07-26T00:05:27Z</time></trkpt><trkpt lat="61.439553" lon="-142.963155"><ele>426.666</ele><time>2026-07-26T00:05:30Z</time></trkpt><trkpt lat="61.439595" lon="-142.962973"><ele>426.671</ele><time>2026-07-26T00:05:38Z</time></trkpt><trkpt lat="61.439616" lon="-142.962927"><ele>426.410</ele><time>2026-07-26T00:05:41Z</time></trkpt><trkpt lat="61.439652" lon="-142.962837"><ele>425.434</ele><time>2026-07-26T00:05:45Z</time></trkpt><trkpt lat="61.43972" lon="-142.962758"><ele>425.665</ele><time>2026-07-26T00:05:52Z</time></trkpt><trkpt lat="61.439785" lon="-142.962676"><ele>425.830</ele><time>2026-07-26T00:05:58Z</time></trkpt><trkpt lat="61.439809" lon="-142.962657"><ele>426.076</ele><time>2026-07-26T00:06:00Z</time></trkpt><trkpt lat="61.43985" lon="-142.962627"><ele>426.050</ele><time>2026-07-26T00:06:03Z</time></trkpt><trkpt lat="61.439935" lon="-142.962617"><ele>426.042</ele><time>2026-07-26T00:06:11Z</time></trkpt><trkpt lat="61.440033" lon="-142.96259"><ele>426.084</ele><time>2026-07-26T00:06:19Z</time></trkpt><trkpt lat="61.440124" lon="-142.96255"><ele>426.407</ele><time>2026-07-26T00:06:27Z</time></trkpt><trkpt lat="61.440212" lon="-142.962535"><ele>426.217</ele><time>2026-07-26T00:06:34Z</time></trkpt><trkpt lat="61.44025" lon="-142.962521"><ele>426.409</ele><time>2026-07-26T00:06:37Z</time></trkpt><trkpt lat="61.440342" lon="-142.962471"><ele>426.640</ele><time>2026-07-26T00:06:45Z</time></trkpt><trkpt lat="61.440429" lon="-142.96242"><ele>426.865</ele><time>2026-07-26T00:06:53Z</time></trkpt><trkpt lat="61.440539" lon="-142.962361"><ele>427.054</ele><time>2026-07-26T00:07:02Z</time></trkpt><trkpt lat="61.44063" lon="-142.962284"><ele>427.088</ele><time>2026-07-26T00:07:10Z</time></trkpt><trkpt lat="61.440653" lon="-142.962259"><ele>427.039</ele><time>2026-07-26T00:07:12Z</time></trkpt><trkpt lat="61.440762" lon="-142.962172"><ele>427.464</ele><time>2026-07-26T00:07:22Z</time></trkpt><trkpt lat="61.440825" lon="-142.962101"><ele>427.230</ele><time>2026-07-26T00:07:29Z</time></trkpt><trkpt lat="61.44092" lon="-142.962018"><ele>427.424</ele><time>2026-07-26T00:07:38Z</time></trkpt><trkpt lat="61.441012" lon="-142.961943"><ele>427.416</ele><time>2026-07-26T00:07:45Z</time></trkpt><trkpt lat="61.441021" lon="-142.961934"><ele>427.411</ele><time>2026-07-26T00:07:46Z</time></trkpt><trkpt lat="61.441075" lon="-142.961891"><ele>427.421</ele><time>2026-07-26T00:07:51Z</time></trkpt><trkpt lat="61.4411" lon="-142.961869"><ele>427.603</ele><time>2026-07-26T00:07:53Z</time></trkpt><trkpt lat="61.44118" lon="-142.961794"><ele>427.809</ele><time>2026-07-26T00:08:01Z</time></trkpt><trkpt lat="61.441258" lon="-142.961682"><ele>427.233</ele><time>2026-07-26T00:08:09Z</time></trkpt><trkpt lat="61.441343" lon="-142.961623"><ele>427.438</ele><time>2026-07-26T00:08:16Z</time></trkpt><trkpt lat="61.441449" lon="-142.961599"><ele>427.837</ele><time>2026-07-26T00:08:24Z</time></trkpt><trkpt lat="61.441534" lon="-142.961564"><ele>428.081</ele><time>2026-07-26T00:08:32Z</time></trkpt><trkpt lat="61.441607" lon="-142.961481"><ele>427.822</ele><time>2026-07-26T00:08:38Z</time></trkpt><trkpt lat="61.441641" lon="-142.961442"><ele>427.847</ele><time>2026-07-26T00:08:41Z</time></trkpt><trkpt lat="61.441719" lon="-142.961393"><ele>427.833</ele><time>2026-07-26T00:08:48Z</time></trkpt><trkpt lat="61.441752" lon="-142.961387"><ele>427.897</ele><time>2026-07-26T00:08:51Z</time></trkpt><trkpt lat="61.441812" lon="-142.961363"><ele>428.069</ele><time>2026-07-26T00:08:56Z</time></trkpt><trkpt lat="61.44188" lon="-142.96133"><ele>428.448</ele><time>2026-07-26T00:09:02Z</time></trkpt><trkpt lat="61.441968" lon="-142.961244"><ele>428.461</ele><time>2026-07-26T00:09:10Z</time></trkpt><trkpt lat="61.442036" lon="-142.961096"><ele>428.217</ele><time>2026-07-26T00:09:19Z</time></trkpt><trkpt lat="61.442115" lon="-142.960966"><ele>428.209</ele><time>2026-07-26T00:09:28Z</time></trkpt><trkpt lat="61.442211" lon="-142.96085"><ele>428.476</ele><time>2026-07-26T00:09:38Z</time></trkpt><trkpt lat="61.442324" lon="-142.9608"><ele>428.841</ele><time>2026-07-26T00:09:48Z</time></trkpt><trkpt lat="61.442455" lon="-142.960794"><ele>429.080</ele><time>2026-07-26T00:09:58Z</time></trkpt><trkpt lat="61.442567" lon="-142.960786"><ele>429.064</ele><time>2026-07-26T00:10:08Z</time></trkpt><trkpt lat="61.442663" lon="-142.960757"><ele>429.495</ele><time>2026-07-26T00:10:17Z</time></trkpt><trkpt lat="61.442759" lon="-142.960698"><ele>429.410</ele><time>2026-07-26T00:10:26Z</time></trkpt><trkpt lat="61.442854" lon="-142.960624"><ele>429.676</ele><time>2026-07-26T00:10:35Z</time></trkpt><trkpt lat="61.442921" lon="-142.960565"><ele>429.660</ele><time>2026-07-26T00:10:42Z</time></trkpt><trkpt lat="61.442963" lon="-142.960537"><ele>429.452</ele><time>2026-07-26T00:10:46Z</time></trkpt><trkpt lat="61.443031" lon="-142.9605"><ele>430.293</ele><time>2026-07-26T00:10:54Z</time></trkpt><trkpt lat="61.443077" lon="-142.960504"><ele>430.065</ele><time>2026-07-26T00:11:00Z</time></trkpt><trkpt lat="61.443099" lon="-142.960508"><ele>430.221</ele><time>2026-07-26T00:11:02Z</time></trkpt><trkpt lat="61.443124" lon="-142.960511"><ele>430.409</ele><time>2026-07-26T00:11:04Z</time></trkpt><trkpt lat="61.443208" lon="-142.960511"><ele>430.431</ele><time>2026-07-26T00:11:12Z</time></trkpt><trkpt lat="61.443313" lon="-142.960482"><ele>430.286</ele><time>2026-07-26T00:11:20Z</time></trkpt><trkpt lat="61.443405" lon="-142.960397"><ele>430.235</ele><time>2026-07-26T00:11:28Z</time></trkpt><trkpt lat="61.443465" lon="-142.960361"><ele>430.219</ele><time>2026-07-26T00:11:34Z</time></trkpt><trkpt lat="61.443486" lon="-142.96035"><ele>430.230</ele><time>2026-07-26T00:11:36Z</time></trkpt><trkpt lat="61.443498" lon="-142.96035"><ele>430.225</ele><time>2026-07-26T00:11:37Z</time></trkpt><trkpt lat="61.443509" lon="-142.960342"><ele>430.221</ele><time>2026-07-26T00:11:38Z</time></trkpt><trkpt lat="61.44359" lon="-142.960279"><ele>430.255</ele><time>2026-07-26T00:11:46Z</time></trkpt><trkpt lat="61.443661" lon="-142.960228"><ele>430.287</ele><time>2026-07-26T00:11:53Z</time></trkpt><trkpt lat="61.443739" lon="-142.960103"><ele>430.288</ele><time>2026-07-26T00:12:01Z</time></trkpt><trkpt lat="61.443797" lon="-142.960012"><ele>430.424</ele><time>2026-07-26T00:12:09Z</time></trkpt><trkpt lat="61.443885" lon="-142.959851"><ele>430.426</ele><time>2026-07-26T00:12:19Z</time></trkpt><trkpt lat="61.443932" lon="-142.959781"><ele>430.609</ele><time>2026-07-26T00:12:24Z</time></trkpt><trkpt lat="61.443969" lon="-142.959729"><ele>430.630</ele><time>2026-07-26T00:12:28Z</time></trkpt><trkpt lat="61.444021" lon="-142.959684"><ele>431.055</ele><time>2026-07-26T00:12:34Z</time></trkpt><trkpt lat="61.444052" lon="-142.959638"><ele>431.064</ele><time>2026-07-26T00:12:38Z</time></trkpt><trkpt lat="61.444146" lon="-142.959535"><ele>431.038</ele><time>2026-07-26T00:12:47Z</time></trkpt><trkpt lat="61.444157" lon="-142.959524"><ele>431.079</ele><time>2026-07-26T00:12:48Z</time></trkpt><trkpt lat="61.444218" lon="-142.959466"><ele>431.224</ele><time>2026-07-26T00:12:54Z</time></trkpt><trkpt lat="61.444229" lon="-142.959456"><ele>431.260</ele><time>2026-07-26T00:12:55Z</time></trkpt><trkpt lat="61.44432" lon="-142.959359"><ele>431.454</ele><time>2026-07-26T00:13:05Z</time></trkpt><trkpt lat="61.444357" lon="-142.95931"><ele>431.466</ele><time>2026-07-26T00:13:09Z</time></trkpt><trkpt lat="61.444411" lon="-142.959234"><ele>431.813</ele><time>2026-07-26T00:13:16Z</time></trkpt><trkpt lat="61.444418" lon="-142.95926"><ele>431.843</ele><time>2026-07-26T00:13:26Z</time></trkpt><trkpt lat="61.444429" lon="-142.95932"><ele>431.607</ele><time>2026-07-26T00:13:39Z</time></trkpt><trkpt lat="61.444441" lon="-142.959294"><ele>431.809</ele><time>2026-07-26T00:13:50Z</time></trkpt><trkpt lat="61.444451" lon="-142.959284"><ele>431.823</ele><time>2026-07-26T00:13:51Z</time></trkpt><trkpt lat="61.44448" lon="-142.959232"><ele>432.068</ele><time>2026-07-26T00:13:54Z</time></trkpt><trkpt lat="61.444513" lon="-142.959178"><ele>432.087</ele><time>2026-07-26T00:13:59Z</time></trkpt><trkpt lat="61.444605" lon="-142.959116"><ele>432.441</ele><time>2026-07-26T00:14:08Z</time></trkpt><trkpt lat="61.44462" lon="-142.959107"><ele>432.612</ele><time>2026-07-26T00:14:11Z</time></trkpt><trkpt lat="61.44463" lon="-142.959105"><ele>432.817</ele><time>2026-07-26T00:14:16Z</time></trkpt><trkpt lat="61.444639" lon="-142.959101"><ele>433.033</ele><time>2026-07-26T00:14:26Z</time></trkpt><trkpt lat="61.444731" lon="-142.959057"><ele>433.617</ele><time>2026-07-26T00:14:35Z</time></trkpt><trkpt lat="61.444749" lon="-142.959049"><ele>433.659</ele><time>2026-07-26T00:14:37Z</time></trkpt><trkpt lat="61.444787" lon="-142.959029"><ele>434.074</ele><time>2026-07-26T00:14:42Z</time></trkpt><trkpt lat="61.444821" lon="-142.958988"><ele>434.656</ele><time>2026-07-26T00:14:46Z</time></trkpt><trkpt lat="61.444838" lon="-142.95897"><ele>434.621</ele><time>2026-07-26T00:14:48Z</time></trkpt><trkpt lat="61.44489" lon="-142.958895"><ele>435.409</ele><time>2026-07-26T00:14:53Z</time></trkpt><trkpt lat="61.444918" lon="-142.958819"><ele>435.899</ele><time>2026-07-26T00:14:57Z</time></trkpt><trkpt lat="61.444943" lon="-142.958749"><ele>436.034</ele><time>2026-07-26T00:15:01Z</time></trkpt><trkpt lat="61.444991" lon="-142.958605"><ele>436.623</ele><time>2026-07-26T00:15:09Z</time></trkpt><trkpt lat="61.444996" lon="-142.958589"><ele>436.817</ele><time>2026-07-26T00:15:10Z</time></trkpt><trkpt lat="61.44503" lon="-142.958489"><ele>437.298</ele><time>2026-07-26T00:15:16Z</time></trkpt><trkpt lat="61.445036" lon="-142.958469"><ele>437.283</ele><time>2026-07-26T00:15:17Z</time></trkpt><trkpt lat="61.445064" lon="-142.958403"><ele>437.869</ele><time>2026-07-26T00:15:21Z</time></trkpt><trkpt lat="61.445115" lon="-142.958311"><ele>438.013</ele><time>2026-07-26T00:15:27Z</time></trkpt><trkpt lat="61.445162" lon="-142.958185"><ele>438.245</ele><time>2026-07-26T00:15:34Z</time></trkpt><trkpt lat="61.445193" lon="-142.958101"><ele>438.077</ele><time>2026-07-26T00:15:38Z</time></trkpt><trkpt lat="61.445215" lon="-142.957977"><ele>438.861</ele><time>2026-07-26T00:15:45Z</time></trkpt><trkpt lat="61.445221" lon="-142.957951"><ele>438.827</ele><time>2026-07-26T00:15:46Z</time></trkpt><trkpt lat="61.445277" lon="-142.957806"><ele>439.209</ele><time>2026-07-26T00:15:53Z</time></trkpt><trkpt lat="61.445329" lon="-142.957625"><ele>439.269</ele><time>2026-07-26T00:16:01Z</time></trkpt><trkpt lat="61.445376" lon="-142.957449"><ele>439.044</ele><time>2026-07-26T00:16:09Z</time></trkpt><trkpt lat="61.445424" lon="-142.957239"><ele>438.863</ele><time>2026-07-26T00:16:18Z</time></trkpt><trkpt lat="61.445437" lon="-142.957199"><ele>438.867</ele><time>2026-07-26T00:16:20Z</time></trkpt><trkpt lat="61.445485" lon="-142.95706"><ele>438.678</ele><time>2026-07-26T00:16:27Z</time></trkpt><trkpt lat="61.445492" lon="-142.957043"><ele>438.693</ele><time>2026-07-26T00:16:28Z</time></trkpt><trkpt lat="61.445525" lon="-142.956984"><ele>438.689</ele><time>2026-07-26T00:16:32Z</time></trkpt><trkpt lat="61.445553" lon="-142.956918"><ele>438.863</ele><time>2026-07-26T00:16:36Z</time></trkpt><trkpt lat="61.445611" lon="-142.956774"><ele>438.855</ele><time>2026-07-26T00:16:44Z</time></trkpt><trkpt lat="61.445673" lon="-142.956638"><ele>438.252</ele><time>2026-07-26T00:16:52Z</time></trkpt><trkpt lat="61.445725" lon="-142.956491"><ele>437.853</ele><time>2026-07-26T00:17:00Z</time></trkpt><trkpt lat="61.445746" lon="-142.95644"><ele>437.408</ele><time>2026-07-26T00:17:03Z</time></trkpt><trkpt lat="61.445794" lon="-142.956293"><ele>437.209</ele><time>2026-07-26T00:17:10Z</time></trkpt><trkpt lat="61.445833" lon="-142.95619"><ele>437.027</ele><time>2026-07-26T00:17:16Z</time></trkpt><trkpt lat="61.445899" lon="-142.956034"><ele>437.052</ele><time>2026-07-26T00:17:24Z</time></trkpt><trkpt lat="61.445961" lon="-142.955886"><ele>437.211</ele><time>2026-07-26T00:17:32Z</time></trkpt><trkpt lat="61.445978" lon="-142.955825"><ele>437.255</ele><time>2026-07-26T00:17:35Z</time></trkpt><trkpt lat="61.44603" lon="-142.955704"><ele>437.226</ele><time>2026-07-26T00:17:42Z</time></trkpt><trkpt lat="61.446073" lon="-142.955638"><ele>437.441</ele><time>2026-07-26T00:17:47Z</time></trkpt><trkpt lat="61.446081" lon="-142.955626"><ele>437.487</ele><time>2026-07-26T00:17:48Z</time></trkpt><trkpt lat="61.446098" lon="-142.9556"><ele>437.641</ele><time>2026-07-26T00:17:50Z</time></trkpt><trkpt lat="61.446175" lon="-142.95545"><ele>437.853</ele><time>2026-07-26T00:18:00Z</time></trkpt><trkpt lat="61.446262" lon="-142.955266"><ele>438.224</ele><time>2026-07-26T00:18:11Z</time></trkpt><trkpt lat="61.446306" lon="-142.955129"><ele>438.204</ele><time>2026-07-26T00:18:19Z</time></trkpt><trkpt lat="61.446329" lon="-142.954997"><ele>438.814</ele><time>2026-07-26T00:18:25Z</time></trkpt><trkpt lat="61.446338" lon="-142.954954"><ele>439.009</ele><time>2026-07-26T00:18:27Z</time></trkpt><trkpt lat="61.446369" lon="-142.954802"><ele>439.214</ele><time>2026-07-26T00:18:34Z</time></trkpt><trkpt lat="61.446413" lon="-142.954652"><ele>439.699</ele><time>2026-07-26T00:18:42Z</time></trkpt><trkpt lat="61.446437" lon="-142.954567"><ele>439.878</ele><time>2026-07-26T00:18:46Z</time></trkpt><trkpt lat="61.446466" lon="-142.954463"><ele>439.872</ele><time>2026-07-26T00:18:51Z</time></trkpt><trkpt lat="61.446522" lon="-142.954236"><ele>440.253</ele><time>2026-07-26T00:19:02Z</time></trkpt><trkpt lat="61.446542" lon="-142.954096"><ele>440.458</ele><time>2026-07-26T00:19:09Z</time></trkpt><trkpt lat="61.446576" lon="-142.954006"><ele>440.214</ele><time>2026-07-26T00:19:14Z</time></trkpt><trkpt lat="61.44662" lon="-142.95395"><ele>440.648</ele><time>2026-07-26T00:19:19Z</time></trkpt><trkpt lat="61.446648" lon="-142.953905"><ele>441.050</ele><time>2026-07-26T00:19:22Z</time></trkpt><trkpt lat="61.446688" lon="-142.953847"><ele>441.063</ele><time>2026-07-26T00:19:27Z</time></trkpt><trkpt lat="61.446739" lon="-142.953714"><ele>440.444</ele><time>2026-07-26T00:19:35Z</time></trkpt><trkpt lat="61.446754" lon="-142.953669"><ele>440.418</ele><time>2026-07-26T00:19:42Z</time></trkpt><trkpt lat="61.446756" lon="-142.953669"><ele>440.209</ele><time>2026-07-26T00:19:53Z</time></trkpt><trkpt lat="61.446762" lon="-142.953675"><ele>440.218</ele><time>2026-07-26T00:20:03Z</time></trkpt><trkpt lat="61.446769" lon="-142.953645"><ele>440.683</ele><time>2026-07-26T00:20:14Z</time></trkpt><trkpt lat="61.446745" lon="-142.953657"><ele>440.482</ele><time>2026-07-26T00:20:23Z</time></trkpt><trkpt lat="61.446755" lon="-142.953655"><ele>440.426</ele><time>2026-07-26T00:20:26Z</time></trkpt><trkpt lat="61.446753" lon="-142.953604"><ele>439.857</ele><time>2026-07-26T00:20:30Z</time></trkpt><trkpt lat="61.446737" lon="-142.953518"><ele>438.432</ele><time>2026-07-26T00:20:33Z</time></trkpt><trkpt lat="61.44672" lon="-142.953486"><ele>437.458</ele><time>2026-07-26T00:20:35Z</time></trkpt><trkpt lat="61.446712" lon="-142.953471"><ele>437.042</ele><time>2026-07-26T00:20:36Z</time></trkpt><trkpt lat="61.446708" lon="-142.953417"><ele>436.254</ele><time>2026-07-26T00:20:40Z</time></trkpt><trkpt lat="61.446719" lon="-142.953352"><ele>435.628</ele><time>2026-07-26T00:20:43Z</time></trkpt><trkpt lat="61.446716" lon="-142.953276"><ele>435.289</ele><time>2026-07-26T00:20:46Z</time></trkpt><trkpt lat="61.446719" lon="-142.953217"><ele>435.017</ele><time>2026-07-26T00:20:49Z</time></trkpt><trkpt lat="61.44677" lon="-142.953102"><ele>434.209</ele><time>2026-07-26T00:20:56Z</time></trkpt><trkpt lat="61.446797" lon="-142.953007"><ele>434.274</ele><time>2026-07-26T00:21:01Z</time></trkpt><trkpt lat="61.446804" lon="-142.952968"><ele>434.059</ele><time>2026-07-26T00:21:03Z</time></trkpt><trkpt lat="61.44686" lon="-142.952807"><ele>434.878</ele><time>2026-07-26T00:21:12Z</time></trkpt><trkpt lat="61.446919" lon="-142.952714"><ele>435.242</ele><time>2026-07-26T00:21:19Z</time></trkpt><trkpt lat="61.447" lon="-142.952585"><ele>435.463</ele><time>2026-07-26T00:21:28Z</time></trkpt><trkpt lat="61.447051" lon="-142.952442"><ele>435.648</ele><time>2026-07-26T00:21:37Z</time></trkpt><trkpt lat="61.447076" lon="-142.952403"><ele>435.824</ele><time>2026-07-26T00:21:40Z</time></trkpt><trkpt lat="61.447126" lon="-142.952323"><ele>435.828</ele><time>2026-07-26T00:21:45Z</time></trkpt><trkpt lat="61.447134" lon="-142.95231"><ele>435.810</ele><time>2026-07-26T00:21:46Z</time></trkpt><trkpt lat="61.447171" lon="-142.952246"><ele>435.833</ele><time>2026-07-26T00:21:51Z</time></trkpt><trkpt lat="61.44722" lon="-142.952187"><ele>435.823</ele><time>2026-07-26T00:21:57Z</time></trkpt><trkpt lat="61.447307" lon="-142.952061"><ele>436.015</ele><time>2026-07-26T00:22:07Z</time></trkpt><trkpt lat="61.447343" lon="-142.952012"><ele>436.009</ele><time>2026-07-26T00:22:11Z</time></trkpt><trkpt lat="61.447351" lon="-142.951974"><ele>436.085</ele><time>2026-07-26T00:22:13Z</time></trkpt><trkpt lat="61.447383" lon="-142.951887"><ele>436.070</ele><time>2026-07-26T00:22:19Z</time></trkpt><trkpt lat="61.447384" lon="-142.951872"><ele>436.019</ele><time>2026-07-26T00:22:20Z</time></trkpt><trkpt lat="61.447386" lon="-142.951821"><ele>435.873</ele><time>2026-07-26T00:22:23Z</time></trkpt><trkpt lat="61.447399" lon="-142.951741"><ele>436.044</ele><time>2026-07-26T00:22:27Z</time></trkpt><trkpt lat="61.447423" lon="-142.951647"><ele>436.099</ele><time>2026-07-26T00:22:34Z</time></trkpt><trkpt lat="61.447468" lon="-142.951525"><ele>436.015</ele><time>2026-07-26T00:22:42Z</time></trkpt><trkpt lat="61.447487" lon="-142.951498"><ele>436.099</ele><time>2026-07-26T00:22:45Z</time></trkpt><trkpt lat="61.447496" lon="-142.951489"><ele>436.051</ele><time>2026-07-26T00:22:47Z</time></trkpt><trkpt lat="61.447506" lon="-142.951471"><ele>436.295</ele><time>2026-07-26T00:22:49Z</time></trkpt><trkpt lat="61.447535" lon="-142.951435"><ele>436.249</ele><time>2026-07-26T00:22:53Z</time></trkpt><trkpt lat="61.447581" lon="-142.951347"><ele>436.223</ele><time>2026-07-26T00:23:01Z</time></trkpt><trkpt lat="61.447622" lon="-142.951281"><ele>436.009</ele><time>2026-07-26T00:23:07Z</time></trkpt><trkpt lat="61.447655" lon="-142.951175"><ele>436.411</ele><time>2026-07-26T00:23:13Z</time></trkpt><trkpt lat="61.447696" lon="-142.951106"><ele>436.466</ele><time>2026-07-26T00:23:18Z</time></trkpt><trkpt lat="61.447704" lon="-142.951097"><ele>436.655</ele><time>2026-07-26T00:23:19Z</time></trkpt><trkpt lat="61.447762" lon="-142.951089"><ele>436.859</ele><time>2026-07-26T00:23:26Z</time></trkpt><trkpt lat="61.447837" lon="-142.95109"><ele>437.040</ele><time>2026-07-26T00:23:34Z</time></trkpt><trkpt lat="61.447928" lon="-142.951083"><ele>437.075</ele><time>2026-07-26T00:23:43Z</time></trkpt><trkpt lat="61.447945" lon="-142.951068"><ele>437.051</ele><time>2026-07-26T00:23:45Z</time></trkpt><trkpt lat="61.448057" lon="-142.951009"><ele>436.885</ele><time>2026-07-26T00:23:55Z</time></trkpt><trkpt lat="61.448137" lon="-142.951"><ele>436.267</ele><time>2026-07-26T00:24:02Z</time></trkpt><trkpt lat="61.448158" lon="-142.950995"><ele>436.277</ele><time>2026-07-26T00:24:04Z</time></trkpt><trkpt lat="61.448184" lon="-142.950991"><ele>436.261</ele><time>2026-07-26T00:24:06Z</time></trkpt><trkpt lat="61.448237" lon="-142.950968"><ele>436.027</ele><time>2026-07-26T00:24:11Z</time></trkpt><trkpt lat="61.448312" lon="-142.950913"><ele>435.809</ele><time>2026-07-26T00:24:18Z</time></trkpt><trkpt lat="61.448314" lon="-142.95089"><ele>435.899</ele><time>2026-07-26T00:24:19Z</time></trkpt><trkpt lat="61.448312" lon="-142.950872"><ele>436.024</ele><time>2026-07-26T00:24:20Z</time></trkpt><trkpt lat="61.448307" lon="-142.950788"><ele>437.233</ele><time>2026-07-26T00:24:25Z</time></trkpt><trkpt lat="61.448308" lon="-142.950769"><ele>437.487</ele><time>2026-07-26T00:24:26Z</time></trkpt><trkpt lat="61.448323" lon="-142.950721"><ele>438.488</ele><time>2026-07-26T00:24:31Z</time></trkpt><trkpt lat="61.448327" lon="-142.950702"><ele>438.473</ele><time>2026-07-26T00:24:33Z</time></trkpt><trkpt lat="61.44833" lon="-142.950708"><ele>438.649</ele><time>2026-07-26T00:24:35Z</time></trkpt><trkpt lat="61.448335" lon="-142.950703"><ele>438.673</ele><time>2026-07-26T00:24:37Z</time></trkpt><trkpt lat="61.44834" lon="-142.950711"><ele>438.675</ele><time>2026-07-26T00:24:38Z</time></trkpt><trkpt lat="61.448348" lon="-142.950716"><ele>438.647</ele><time>2026-07-26T00:24:39Z</time></trkpt><trkpt lat="61.448354" lon="-142.950688"><ele>439.029</ele><time>2026-07-26T00:24:43Z</time></trkpt><trkpt lat="61.448355" lon="-142.950689"><ele>439.221</ele><time>2026-07-26T00:24:44Z</time></trkpt><trkpt lat="61.448382" lon="-142.95065"><ele>439.209</ele><time>2026-07-26T00:24:49Z</time></trkpt><trkpt lat="61.448397" lon="-142.950624"><ele>439.096</ele><time>2026-07-26T00:24:54Z</time></trkpt><trkpt lat="61.448423" lon="-142.950599"><ele>439.031</ele><time>2026-07-26T00:24:58Z</time></trkpt><trkpt lat="61.448429" lon="-142.950581"><ele>439.090</ele><time>2026-07-26T00:24:59Z</time></trkpt><trkpt lat="61.448454" lon="-142.950529"><ele>438.894</ele><time>2026-07-26T00:25:04Z</time></trkpt><trkpt lat="61.448465" lon="-142.950507"><ele>439.295</ele><time>2026-07-26T00:25:06Z</time></trkpt><trkpt lat="61.448482" lon="-142.950496"><ele>439.650</ele><time>2026-07-26T00:25:08Z</time></trkpt><trkpt lat="61.448498" lon="-142.95052"><ele>440.866</ele><time>2026-07-26T00:25:12Z</time></trkpt><trkpt lat="61.448503" lon="-142.950532"><ele>441.210</ele><time>2026-07-26T00:25:13Z</time></trkpt><trkpt lat="61.448524" lon="-142.950539"><ele>442.042</ele><time>2026-07-26T00:25:16Z</time></trkpt><trkpt lat="61.448542" lon="-142.950498"><ele>442.263</ele><time>2026-07-26T00:25:19Z</time></trkpt><trkpt lat="61.448547" lon="-142.950472"><ele>442.644</ele><time>2026-07-26T00:25:22Z</time></trkpt><trkpt lat="61.448545" lon="-142.950468"><ele>442.818</ele><time>2026-07-26T00:25:24Z</time></trkpt><trkpt lat="61.448545" lon="-142.950482"><ele>443.009</ele><time>2026-07-26T00:25:25Z</time></trkpt><trkpt lat="61.448548" lon="-142.950478"><ele>443.068</ele><time>2026-07-26T00:25:29Z</time></trkpt><trkpt lat="61.448548" lon="-142.950485"><ele>443.283</ele><time>2026-07-26T00:25:34Z</time></trkpt><trkpt lat="61.448549" lon="-142.950501"><ele>443.082</ele><time>2026-07-26T00:25:44Z</time></trkpt><trkpt lat="61.448554" lon="-142.950457"><ele>443.096</ele><time>2026-07-26T00:25:50Z</time></trkpt><trkpt lat="61.448553" lon="-142.950446"><ele>442.857</ele><time>2026-07-26T00:25:59Z</time></trkpt><trkpt lat="61.448553" lon="-142.950446"><ele>442.862</ele><time>2026-07-26T00:26:01Z</time></trkpt><trkpt lat="61.448553" lon="-142.950446"><ele>442.888</ele><time>2026-07-26T00:26:02Z</time></trkpt><trkpt lat="61.448553" lon="-142.950446"><ele>442.672</ele><time>2026-07-26T00:26:06Z</time></trkpt><trkpt lat="61.448558" lon="-142.950444"><ele>442.694</ele><time>2026-07-26T00:26:08Z</time></trkpt><trkpt lat="61.448569" lon="-142.950439"><ele>442.698</ele><time>2026-07-26T00:26:10Z</time></trkpt><trkpt lat="61.448574" lon="-142.95044"><ele>442.615</ele><time>2026-07-26T00:26:11Z</time></trkpt><trkpt lat="61.448601" lon="-142.950421"><ele>443.026</ele><time>2026-07-26T00:26:16Z</time></trkpt><trkpt lat="61.448609" lon="-142.950409"><ele>443.209</ele><time>2026-07-26T00:26:19Z</time></trkpt><trkpt lat="61.448599" lon="-142.950432"><ele>443.671</ele><time>2026-07-26T00:26:27Z</time></trkpt><trkpt lat="61.448612" lon="-142.950419"><ele>443.436</ele><time>2026-07-26T00:26:31Z</time></trkpt><trkpt lat="61.448625" lon="-142.950401"><ele>443.465</ele><time>2026-07-26T00:26:33Z</time></trkpt><trkpt lat="61.448616" lon="-142.950388"><ele>443.489</ele><time>2026-07-26T00:26:38Z</time></trkpt><trkpt lat="61.448621" lon="-142.950364"><ele>443.470</ele><time>2026-07-26T00:26:45Z</time></trkpt><trkpt lat="61.448639" lon="-142.950382"><ele>443.665</ele><time>2026-07-26T00:26:54Z</time></trkpt><trkpt lat="61.44868" lon="-142.950378"><ele>443.891</ele><time>2026-07-26T00:27:00Z</time></trkpt><trkpt lat="61.448757" lon="-142.950377"><ele>443.825</ele><time>2026-07-26T00:27:09Z</time></trkpt><trkpt lat="61.448762" lon="-142.95037"><ele>444.067</ele><time>2026-07-26T00:27:11Z</time></trkpt><trkpt lat="61.448758" lon="-142.950367"><ele>444.268</ele><time>2026-07-26T00:27:15Z</time></trkpt><trkpt lat="61.448752" lon="-142.950364"><ele>444.442</ele><time>2026-07-26T00:27:21Z</time></trkpt><trkpt lat="61.448751" lon="-142.950341"><ele>444.226</ele><time>2026-07-26T00:27:31Z</time></trkpt><trkpt lat="61.448752" lon="-142.950344"><ele>444.209</ele><time>2026-07-26T00:27:37Z</time></trkpt><trkpt lat="61.448694" lon="-142.950348"><ele>443.678</ele><time>2026-07-26T00:27:44Z</time></trkpt><trkpt lat="61.448704" lon="-142.950346"><ele>444.053</ele><time>2026-07-26T00:27:51Z</time></trkpt><trkpt lat="61.448687" lon="-142.950356"><ele>443.832</ele><time>2026-07-26T00:27:57Z</time></trkpt><trkpt lat="61.44868" lon="-142.950365"><ele>443.856</ele><time>2026-07-26T00:27:59Z</time></trkpt><trkpt lat="61.44869" lon="-142.950368"><ele>443.887</ele><time>2026-07-26T00:28:04Z</time></trkpt><trkpt lat="61.448699" lon="-142.950374"><ele>443.882</ele><time>2026-07-26T00:28:06Z</time></trkpt><trkpt lat="61.4487" lon="-142.950367"><ele>443.888</ele><time>2026-07-26T00:28:07Z</time></trkpt><trkpt lat="61.448702" lon="-142.950361"><ele>443.462</ele><time>2026-07-26T00:28:18Z</time></trkpt><trkpt lat="61.448702" lon="-142.950361"><ele>443.894</ele><time>2026-07-26T00:28:27Z</time></trkpt><trkpt lat="61.448702" lon="-142.950361"><ele>443.887</ele><time>2026-07-26T00:28:28Z</time></trkpt><trkpt lat="61.448696" lon="-142.950374"><ele>443.642</ele><time>2026-07-26T00:28:36Z</time></trkpt><trkpt lat="61.448703" lon="-142.950413"><ele>443.826</ele><time>2026-07-26T00:28:47Z</time></trkpt><trkpt lat="61.4487" lon="-142.950374"><ele>443.809</ele><time>2026-07-26T00:28:53Z</time></trkpt><trkpt lat="61.448702" lon="-142.950361"><ele>444.290</ele><time>2026-07-26T00:29:00Z</time></trkpt><trkpt lat="61.448696" lon="-142.950351"><ele>444.035</ele><time>2026-07-26T00:29:06Z</time></trkpt><trkpt lat="61.44868" lon="-142.950351"><ele>444.224</ele><time>2026-07-26T00:29:09Z</time></trkpt><trkpt lat="61.448664" lon="-142.950346"><ele>444.238</ele><time>2026-07-26T00:29:12Z</time></trkpt><trkpt lat="61.448664" lon="-142.950353"><ele>444.039</ele><time>2026-07-26T00:29:16Z</time></trkpt><trkpt lat="61.448671" lon="-142.950355"><ele>443.684</ele><time>2026-07-26T00:29:19Z</time></trkpt><trkpt lat="61.448664" lon="-142.950373"><ele>443.820</ele><time>2026-07-26T00:29:28Z</time></trkpt><trkpt lat="61.448661" lon="-142.950376"><ele>443.884</ele><time>2026-07-26T00:29:32Z</time></trkpt><trkpt lat="61.448664" lon="-142.950373"><ele>443.856</ele><time>2026-07-26T00:29:33Z</time></trkpt><trkpt lat="61.448666" lon="-142.950372"><ele>443.882</ele><time>2026-07-26T00:29:34Z</time></trkpt><trkpt lat="61.448673" lon="-142.950368"><ele>443.843</ele><time>2026-07-26T00:29:37Z</time></trkpt><trkpt lat="61.448576" lon="-142.950324"><ele>446.617</ele><time>2026-07-26T01:04:30Z</time></trkpt><trkpt lat="61.448598" lon="-142.950463"><ele>446.409</ele><time>2026-07-26T01:04:38Z</time></trkpt><trkpt lat="61.448554" lon="-142.950464"><ele>446.220</ele><time>2026-07-26T01:04:43Z</time></trkpt><trkpt lat="61.44855" lon="-142.95048"><ele>446.465</ele><time>2026-07-26T01:04:51Z</time></trkpt><trkpt lat="61.448528" lon="-142.950519"><ele>445.884</ele><time>2026-07-26T01:04:54Z</time></trkpt><trkpt lat="61.44851" lon="-142.950527"><ele>445.438</ele><time>2026-07-26T01:04:57Z</time></trkpt><trkpt lat="61.448508" lon="-142.95053"><ele>445.689</ele><time>2026-07-26T01:04:58Z</time></trkpt><trkpt lat="61.448496" lon="-142.95049"><ele>445.284</ele><time>2026-07-26T01:05:04Z</time></trkpt><trkpt lat="61.448488" lon="-142.950476"><ele>444.870</ele><time>2026-07-26T01:05:06Z</time></trkpt><trkpt lat="61.448463" lon="-142.950485"><ele>443.674</ele><time>2026-07-26T01:05:10Z</time></trkpt><trkpt lat="61.448461" lon="-142.950487"><ele>443.696</ele><time>2026-07-26T01:05:11Z</time></trkpt><trkpt lat="61.448432" lon="-142.950533"><ele>442.637</ele><time>2026-07-26T01:05:17Z</time></trkpt><trkpt lat="61.448421" lon="-142.950531"><ele>442.449</ele><time>2026-07-26T01:05:19Z</time></trkpt><trkpt lat="61.448373" lon="-142.950568"><ele>442.213</ele><time>2026-07-26T01:05:27Z</time></trkpt><trkpt lat="61.44835" lon="-142.95058"><ele>442.609</ele><time>2026-07-26T01:05:33Z</time></trkpt><trkpt lat="61.448345" lon="-142.950641"><ele>443.035</ele><time>2026-07-26T01:05:39Z</time></trkpt><trkpt lat="61.448338" lon="-142.950722"><ele>443.080</ele><time>2026-07-26T01:05:45Z</time></trkpt><trkpt lat="61.448332" lon="-142.95071"><ele>443.079</ele><time>2026-07-26T01:05:46Z</time></trkpt><trkpt lat="61.448317" lon="-142.950732"><ele>442.643</ele><time>2026-07-26T01:05:49Z</time></trkpt><trkpt lat="61.448304" lon="-142.950794"><ele>442.054</ele><time>2026-07-26T01:05:54Z</time></trkpt><trkpt lat="61.448299" lon="-142.950828"><ele>441.659</ele><time>2026-07-26T01:05:56Z</time></trkpt><trkpt lat="61.448307" lon="-142.950861"><ele>441.275</ele><time>2026-07-26T01:05:59Z</time></trkpt><trkpt lat="61.448298" lon="-142.950921"><ele>440.689</ele><time>2026-07-26T01:06:02Z</time></trkpt><trkpt lat="61.448257" lon="-142.950942"><ele>439.841</ele><time>2026-07-26T01:06:05Z</time></trkpt><trkpt lat="61.448184" lon="-142.950975"><ele>440.012</ele><time>2026-07-26T01:06:13Z</time></trkpt><trkpt lat="61.448094" lon="-142.950985"><ele>440.432</ele><time>2026-07-26T01:06:22Z</time></trkpt><trkpt lat="61.447982" lon="-142.951028"><ele>441.205</ele><time>2026-07-26T01:06:32Z</time></trkpt><trkpt lat="61.447978" lon="-142.951046"><ele>441.209</ele><time>2026-07-26T01:06:33Z</time></trkpt><trkpt lat="61.447972" lon="-142.951054"><ele>441.213</ele><time>2026-07-26T01:06:35Z</time></trkpt><trkpt lat="61.447962" lon="-142.951054"><ele>441.288</ele><time>2026-07-26T01:06:36Z</time></trkpt><trkpt lat="61.44792" lon="-142.951079"><ele>441.257</ele><time>2026-07-26T01:06:40Z</time></trkpt><trkpt lat="61.447878" lon="-142.951092"><ele>441.241</ele><time>2026-07-26T01:06:44Z</time></trkpt><trkpt lat="61.447868" lon="-142.951084"><ele>441.222</ele><time>2026-07-26T01:06:45Z</time></trkpt><trkpt lat="61.447807" lon="-142.951078"><ele>441.417</ele><time>2026-07-26T01:06:50Z</time></trkpt><trkpt lat="61.447771" lon="-142.951081"><ele>441.413</ele><time>2026-07-26T01:06:53Z</time></trkpt><trkpt lat="61.447686" lon="-142.951101"><ele>441.477</ele><time>2026-07-26T01:07:00Z</time></trkpt><trkpt lat="61.447676" lon="-142.95111"><ele>441.479</ele><time>2026-07-26T01:07:01Z</time></trkpt><trkpt lat="61.447627" lon="-142.951223"><ele>441.289</ele><time>2026-07-26T01:07:08Z</time></trkpt><trkpt lat="61.447583" lon="-142.951334"><ele>441.006</ele><time>2026-07-26T01:07:14Z</time></trkpt><trkpt lat="61.447576" lon="-142.95135"><ele>441.026</ele><time>2026-07-26T01:07:15Z</time></trkpt><trkpt lat="61.447543" lon="-142.951404"><ele>441.209</ele><time>2026-07-26T01:07:20Z</time></trkpt><trkpt lat="61.44748" lon="-142.951508"><ele>441.230</ele><time>2026-07-26T01:07:29Z</time></trkpt><trkpt lat="61.447469" lon="-142.951531"><ele>441.275</ele><time>2026-07-26T01:07:31Z</time></trkpt><trkpt lat="61.447439" lon="-142.951583"><ele>441.014</ele><time>2026-07-26T01:07:35Z</time></trkpt><trkpt lat="61.447427" lon="-142.951605"><ele>441.298</ele><time>2026-07-26T01:07:37Z</time></trkpt><trkpt lat="61.44741" lon="-142.95169"><ele>441.219</ele><time>2026-07-26T01:07:42Z</time></trkpt><trkpt lat="61.447391" lon="-142.95178"><ele>441.094</ele><time>2026-07-26T01:07:48Z</time></trkpt><trkpt lat="61.447377" lon="-142.951893"><ele>441.280</ele><time>2026-07-26T01:07:55Z</time></trkpt><trkpt lat="61.447348" lon="-142.951969"><ele>441.694</ele><time>2026-07-26T01:08:01Z</time></trkpt><trkpt lat="61.44732" lon="-142.952042"><ele>441.446</ele><time>2026-07-26T01:08:06Z</time></trkpt><trkpt lat="61.447273" lon="-142.952119"><ele>441.259</ele><time>2026-07-26T01:08:14Z</time></trkpt><trkpt lat="61.44726" lon="-142.952139"><ele>441.203</ele><time>2026-07-26T01:08:22Z</time></trkpt><trkpt lat="61.447222" lon="-142.952175"><ele>441.423</ele><time>2026-07-26T01:08:28Z</time></trkpt><trkpt lat="61.447175" lon="-142.95224"><ele>441.209</ele><time>2026-07-26T01:08:34Z</time></trkpt><trkpt lat="61.447166" lon="-142.952256"><ele>441.077</ele><time>2026-07-26T01:08:35Z</time></trkpt><trkpt lat="61.447085" lon="-142.952391"><ele>441.422</ele><time>2026-07-26T01:08:44Z</time></trkpt><trkpt lat="61.44703" lon="-142.952502"><ele>441.231</ele><time>2026-07-26T01:08:51Z</time></trkpt><trkpt lat="61.446954" lon="-142.952647"><ele>441.085</ele><time>2026-07-26T01:08:59Z</time></trkpt><trkpt lat="61.446898" lon="-142.952748"><ele>440.886</ele><time>2026-07-26T01:09:07Z</time></trkpt><trkpt lat="61.446827" lon="-142.952903"><ele>440.441</ele><time>2026-07-26T01:09:16Z</time></trkpt><trkpt lat="61.446792" lon="-142.953053"><ele>440.037</ele><time>2026-07-26T01:09:23Z</time></trkpt><trkpt lat="61.446749" lon="-142.953132"><ele>440.261</ele><time>2026-07-26T01:09:30Z</time></trkpt><trkpt lat="61.446716" lon="-142.953286"><ele>440.853</ele><time>2026-07-26T01:09:37Z</time></trkpt><trkpt lat="61.446716" lon="-142.953386"><ele>441.465</ele><time>2026-07-26T01:09:42Z</time></trkpt><trkpt lat="61.446716" lon="-142.95342"><ele>441.668</ele><time>2026-07-26T01:09:44Z</time></trkpt><trkpt lat="61.446721" lon="-142.953481"><ele>442.214</ele><time>2026-07-26T01:09:48Z</time></trkpt><trkpt lat="61.446727" lon="-142.953496"><ele>442.409</ele><time>2026-07-26T01:09:49Z</time></trkpt><trkpt lat="61.446738" lon="-142.95351"><ele>442.658</ele><time>2026-07-26T01:09:51Z</time></trkpt><trkpt lat="61.44675" lon="-142.953545"><ele>443.473</ele><time>2026-07-26T01:09:55Z</time></trkpt><trkpt lat="61.446755" lon="-142.953595"><ele>444.222</ele><time>2026-07-26T01:09:58Z</time></trkpt><trkpt lat="61.446758" lon="-142.953616"><ele>444.666</ele><time>2026-07-26T01:10:00Z</time></trkpt><trkpt lat="61.446761" lon="-142.953645"><ele>445.217</ele><time>2026-07-26T01:10:03Z</time></trkpt><trkpt lat="61.446763" lon="-142.953657"><ele>445.812</ele><time>2026-07-26T01:10:05Z</time></trkpt><trkpt lat="61.446747" lon="-142.953695"><ele>446.468</ele><time>2026-07-26T01:10:09Z</time></trkpt><trkpt lat="61.446738" lon="-142.953712"><ele>446.652</ele><time>2026-07-26T01:10:10Z</time></trkpt><trkpt lat="61.446697" lon="-142.953826"><ele>446.854</ele><time>2026-07-26T01:10:16Z</time></trkpt><trkpt lat="61.446677" lon="-142.953865"><ele>447.246</ele><time>2026-07-26T01:10:19Z</time></trkpt><trkpt lat="61.446636" lon="-142.953913"><ele>447.288</ele><time>2026-07-26T01:10:24Z</time></trkpt><trkpt lat="61.446606" lon="-142.953945"><ele>447.016</ele><time>2026-07-26T01:10:27Z</time></trkpt><trkpt lat="61.446535" lon="-142.954119"><ele>446.609</ele><time>2026-07-26T01:10:36Z</time></trkpt><trkpt lat="61.4465" lon="-142.954286"><ele>446.476</ele><time>2026-07-26T01:10:44Z</time></trkpt><trkpt lat="61.44646" lon="-142.954434"><ele>446.291</ele><time>2026-07-26T01:10:52Z</time></trkpt><trkpt lat="61.446437" lon="-142.954536"><ele>446.020</ele><time>2026-07-26T01:10:59Z</time></trkpt><trkpt lat="61.446409" lon="-142.954631"><ele>446.054</ele><time>2026-07-26T01:11:05Z</time></trkpt><trkpt lat="61.446397" lon="-142.954689"><ele>445.815</ele><time>2026-07-26T01:11:10Z</time></trkpt><trkpt lat="61.446393" lon="-142.954704"><ele>445.890</ele><time>2026-07-26T01:11:11Z</time></trkpt><trkpt lat="61.446358" lon="-142.954822"><ele>445.656</ele><time>2026-07-26T01:11:18Z</time></trkpt><trkpt lat="61.446351" lon="-142.954845"><ele>445.670</ele><time>2026-07-26T01:11:19Z</time></trkpt><trkpt lat="61.446315" lon="-142.955016"><ele>445.482</ele><time>2026-07-26T01:11:27Z</time></trkpt><trkpt lat="61.446285" lon="-142.955178"><ele>445.026</ele><time>2026-07-26T01:11:35Z</time></trkpt><trkpt lat="61.446222" lon="-142.955338"><ele>444.847</ele><time>2026-07-26T01:11:44Z</time></trkpt><trkpt lat="61.446202" lon="-142.955389"><ele>444.811</ele><time>2026-07-26T01:11:47Z</time></trkpt><trkpt lat="61.446153" lon="-142.955475"><ele>444.809</ele><time>2026-07-26T01:11:53Z</time></trkpt><trkpt lat="61.44608" lon="-142.955597"><ele>444.824</ele><time>2026-07-26T01:12:01Z</time></trkpt><trkpt lat="61.446" lon="-142.955733"><ele>444.689</ele><time>2026-07-26T01:12:10Z</time></trkpt><trkpt lat="61.445956" lon="-142.955848"><ele>444.658</ele><time>2026-07-26T01:12:17Z</time></trkpt><trkpt lat="61.445883" lon="-142.956051"><ele>444.612</ele><time>2026-07-26T01:12:28Z</time></trkpt><trkpt lat="61.445822" lon="-142.956205"><ele>444.833</ele><time>2026-07-26T01:12:36Z</time></trkpt><trkpt lat="61.445757" lon="-142.956342"><ele>444.848</ele><time>2026-07-26T01:12:44Z</time></trkpt><trkpt lat="61.445712" lon="-142.956475"><ele>445.264</ele><time>2026-07-26T01:12:52Z</time></trkpt><trkpt lat="61.445682" lon="-142.956554"><ele>445.898</ele><time>2026-07-26T01:12:57Z</time></trkpt><trkpt lat="61.445676" lon="-142.956566"><ele>445.850</ele><time>2026-07-26T01:12:58Z</time></trkpt><trkpt lat="61.445672" lon="-142.956583"><ele>445.881</ele><time>2026-07-26T01:12:59Z</time></trkpt><trkpt lat="61.445668" lon="-142.956606"><ele>445.861</ele><time>2026-07-26T01:13:00Z</time></trkpt><trkpt lat="61.445652" lon="-142.956679"><ele>446.217</ele><time>2026-07-26T01:13:04Z</time></trkpt><trkpt lat="61.445617" lon="-142.956733"><ele>446.609</ele><time>2026-07-26T01:13:08Z</time></trkpt><trkpt lat="61.445594" lon="-142.956803"><ele>446.890</ele><time>2026-07-26T01:13:12Z</time></trkpt><trkpt lat="61.445574" lon="-142.956867"><ele>446.855</ele><time>2026-07-26T01:13:15Z</time></trkpt><trkpt lat="61.445567" lon="-142.956885"><ele>447.064</ele><time>2026-07-26T01:13:16Z</time></trkpt><trkpt lat="61.445555" lon="-142.956917"><ele>447.268</ele><time>2026-07-26T01:13:18Z</time></trkpt><trkpt lat="61.445541" lon="-142.956943"><ele>447.229</ele><time>2026-07-26T01:13:20Z</time></trkpt><trkpt lat="61.445509" lon="-142.957006"><ele>447.044</ele><time>2026-07-26T01:13:24Z</time></trkpt><trkpt lat="61.445445" lon="-142.957134"><ele>447.090</ele><time>2026-07-26T01:13:31Z</time></trkpt><trkpt lat="61.445438" lon="-142.95715"><ele>447.054</ele><time>2026-07-26T01:13:32Z</time></trkpt><trkpt lat="61.445407" lon="-142.95724"><ele>447.056</ele><time>2026-07-26T01:13:38Z</time></trkpt><trkpt lat="61.445352" lon="-142.957461"><ele>447.482</ele><time>2026-07-26T01:13:48Z</time></trkpt><trkpt lat="61.445312" lon="-142.957607"><ele>447.643</ele><time>2026-07-26T01:13:55Z</time></trkpt><trkpt lat="61.445284" lon="-142.957701"><ele>447.617</ele><time>2026-07-26T01:13:59Z</time></trkpt><trkpt lat="61.445261" lon="-142.957792"><ele>447.609</ele><time>2026-07-26T01:14:03Z</time></trkpt><trkpt lat="61.4452" lon="-142.958022"><ele>447.030</ele><time>2026-07-26T01:14:13Z</time></trkpt><trkpt lat="61.445156" lon="-142.958164"><ele>446.665</ele><time>2026-07-26T01:14:20Z</time></trkpt><trkpt lat="61.445142" lon="-142.958197"><ele>446.664</ele><time>2026-07-26T01:14:22Z</time></trkpt><trkpt lat="61.445085" lon="-142.958332"><ele>446.428</ele><time>2026-07-26T01:14:29Z</time></trkpt><trkpt lat="61.445023" lon="-142.958487"><ele>446.089</ele><time>2026-07-26T01:14:37Z</time></trkpt><trkpt lat="61.444997" lon="-142.958563"><ele>445.664</ele><time>2026-07-26T01:14:41Z</time></trkpt><trkpt lat="61.444966" lon="-142.958645"><ele>445.070</ele><time>2026-07-26T01:14:46Z</time></trkpt><trkpt lat="61.444917" lon="-142.958752"><ele>444.654</ele><time>2026-07-26T01:14:52Z</time></trkpt><trkpt lat="61.444904" lon="-142.958793"><ele>444.466</ele><time>2026-07-26T01:14:54Z</time></trkpt><trkpt lat="61.44483" lon="-142.958927"><ele>443.468</ele><time>2026-07-26T01:15:03Z</time></trkpt><trkpt lat="61.444731" lon="-142.959008"><ele>442.442</ele><time>2026-07-26T01:15:12Z</time></trkpt><trkpt lat="61.444644" lon="-142.959074"><ele>441.626</ele><time>2026-07-26T01:15:21Z</time></trkpt><trkpt lat="61.444599" lon="-142.959102"><ele>441.409</ele><time>2026-07-26T01:15:25Z</time></trkpt><trkpt lat="61.444571" lon="-142.959107"><ele>441.248</ele><time>2026-07-26T01:15:27Z</time></trkpt><trkpt lat="61.444449" lon="-142.959173"><ele>440.613</ele><time>2026-07-26T01:15:37Z</time></trkpt><trkpt lat="61.444357" lon="-142.959295"><ele>440.232</ele><time>2026-07-26T01:15:46Z</time></trkpt><trkpt lat="61.444283" lon="-142.959401"><ele>439.896</ele><time>2026-07-26T01:15:54Z</time></trkpt><trkpt lat="61.444204" lon="-142.959491"><ele>439.477</ele><time>2026-07-26T01:16:02Z</time></trkpt><trkpt lat="61.444145" lon="-142.959554"><ele>439.262</ele><time>2026-07-26T01:16:09Z</time></trkpt><trkpt lat="61.444134" lon="-142.959561"><ele>439.298</ele><time>2026-07-26T01:16:10Z</time></trkpt><trkpt lat="61.444077" lon="-142.959624"><ele>439.092</ele><time>2026-07-26T01:16:15Z</time></trkpt><trkpt lat="61.443999" lon="-142.959729"><ele>438.664</ele><time>2026-07-26T01:16:23Z</time></trkpt><trkpt lat="61.443923" lon="-142.959813"><ele>438.411</ele><time>2026-07-26T01:16:31Z</time></trkpt><trkpt lat="61.443876" lon="-142.959887"><ele>438.421</ele><time>2026-07-26T01:16:36Z</time></trkpt><trkpt lat="61.443865" lon="-142.959905"><ele>438.403</ele><time>2026-07-26T01:16:37Z</time></trkpt><trkpt lat="61.443808" lon="-142.959997"><ele>438.209</ele><time>2026-07-26T01:16:43Z</time></trkpt><trkpt lat="61.443784" lon="-142.960028"><ele>438.053</ele><time>2026-07-26T01:16:46Z</time></trkpt><trkpt lat="61.443701" lon="-142.960159"><ele>438.228</ele><time>2026-07-26T01:16:55Z</time></trkpt><trkpt lat="61.443638" lon="-142.960231"><ele>438.087</ele><time>2026-07-26T01:17:03Z</time></trkpt><trkpt lat="61.443563" lon="-142.960277"><ele>438.051</ele><time>2026-07-26T01:17:10Z</time></trkpt><trkpt lat="61.443465" lon="-142.96034"><ele>437.812</ele><time>2026-07-26T01:17:18Z</time></trkpt><trkpt lat="61.44336" lon="-142.960414"><ele>437.697</ele><time>2026-07-26T01:17:27Z</time></trkpt><trkpt lat="61.443273" lon="-142.960452"><ele>437.473</ele><time>2026-07-26T01:17:35Z</time></trkpt><trkpt lat="61.443189" lon="-142.960494"><ele>437.447</ele><time>2026-07-26T01:17:43Z</time></trkpt><trkpt lat="61.443119" lon="-142.960504"><ele>437.469</ele><time>2026-07-26T01:17:51Z</time></trkpt><trkpt lat="61.443055" lon="-142.96048"><ele>437.049</ele><time>2026-07-26T01:17:56Z</time></trkpt><trkpt lat="61.44302" lon="-142.960475"><ele>437.002</ele><time>2026-07-26T01:17:59Z</time></trkpt><trkpt lat="61.442917" lon="-142.960532"><ele>436.422</ele><time>2026-07-26T01:18:07Z</time></trkpt><trkpt lat="61.442849" lon="-142.960599"><ele>436.409</ele><time>2026-07-26T01:18:14Z</time></trkpt><trkpt lat="61.442758" lon="-142.96068"><ele>436.246</ele><time>2026-07-26T01:18:23Z</time></trkpt><trkpt lat="61.442687" lon="-142.960725"><ele>436.091</ele><time>2026-07-26T01:18:30Z</time></trkpt><trkpt lat="61.442637" lon="-142.960747"><ele>436.040</ele><time>2026-07-26T01:18:34Z</time></trkpt><trkpt lat="61.442549" lon="-142.960765"><ele>435.894</ele><time>2026-07-26T01:18:43Z</time></trkpt><trkpt lat="61.442444" lon="-142.960781"><ele>435.215</ele><time>2026-07-26T01:18:52Z</time></trkpt><trkpt lat="61.442386" lon="-142.960795"><ele>435.050</ele><time>2026-07-26T01:18:57Z</time></trkpt><trkpt lat="61.442325" lon="-142.960786"><ele>434.846</ele><time>2026-07-26T01:19:02Z</time></trkpt><trkpt lat="61.442229" lon="-142.960804"><ele>434.610</ele><time>2026-07-26T01:19:11Z</time></trkpt><trkpt lat="61.442147" lon="-142.9609"><ele>434.422</ele><time>2026-07-26T01:19:20Z</time></trkpt><trkpt lat="61.442109" lon="-142.960963"><ele>434.054</ele><time>2026-07-26T01:19:25Z</time></trkpt><trkpt lat="61.442092" lon="-142.960984"><ele>433.856</ele><time>2026-07-26T01:19:29Z</time></trkpt><trkpt lat="61.442041" lon="-142.96104"><ele>433.811</ele><time>2026-07-26T01:19:37Z</time></trkpt><trkpt lat="61.441995" lon="-142.961167"><ele>433.609</ele><time>2026-07-26T01:19:44Z</time></trkpt><trkpt lat="61.441933" lon="-142.961263"><ele>433.687</ele><time>2026-07-26T01:19:51Z</time></trkpt><trkpt lat="61.441849" lon="-142.961333"><ele>433.662</ele><time>2026-07-26T01:20:01Z</time></trkpt><trkpt lat="61.44176" lon="-142.961354"><ele>433.251</ele><time>2026-07-26T01:20:10Z</time></trkpt><trkpt lat="61.441701" lon="-142.961384"><ele>433.075</ele><time>2026-07-26T01:20:16Z</time></trkpt><trkpt lat="61.441669" lon="-142.961402"><ele>433.016</ele><time>2026-07-26T01:20:19Z</time></trkpt><trkpt lat="61.44158" lon="-142.961473"><ele>432.831</ele><time>2026-07-26T01:20:28Z</time></trkpt><trkpt lat="61.441505" lon="-142.961547"><ele>432.827</ele><time>2026-07-26T01:20:36Z</time></trkpt><trkpt lat="61.441431" lon="-142.961596"><ele>432.841</ele><time>2026-07-26T01:20:43Z</time></trkpt><trkpt lat="61.44141" lon="-142.961606"><ele>432.623</ele><time>2026-07-26T01:20:45Z</time></trkpt><trkpt lat="61.441392" lon="-142.961611"><ele>432.683</ele><time>2026-07-26T01:20:47Z</time></trkpt><trkpt lat="61.441342" lon="-142.96163"><ele>432.425</ele><time>2026-07-26T01:20:51Z</time></trkpt><trkpt lat="61.441243" lon="-142.961718"><ele>432.017</ele><time>2026-07-26T01:21:01Z</time></trkpt><trkpt lat="61.441223" lon="-142.961746"><ele>432.209</ele><time>2026-07-26T01:21:04Z</time></trkpt><trkpt lat="61.441186" lon="-142.961786"><ele>432.210</ele><time>2026-07-26T01:21:08Z</time></trkpt><trkpt lat="61.441074" lon="-142.961886"><ele>432.285</ele><time>2026-07-26T01:21:19Z</time></trkpt><trkpt lat="61.441012" lon="-142.961934"><ele>432.064</ele><time>2026-07-26T01:21:25Z</time></trkpt><trkpt lat="61.440996" lon="-142.96195"><ele>431.878</ele><time>2026-07-26T01:21:27Z</time></trkpt><trkpt lat="61.440926" lon="-142.962007"><ele>431.829</ele><time>2026-07-26T01:21:34Z</time></trkpt><trkpt lat="61.440843" lon="-142.962063"><ele>431.834</ele><time>2026-07-26T01:21:43Z</time></trkpt><trkpt lat="61.440766" lon="-142.962141"><ele>431.640</ele><time>2026-07-26T01:21:50Z</time></trkpt><trkpt lat="61.440735" lon="-142.962164"><ele>431.664</ele><time>2026-07-26T01:21:53Z</time></trkpt><trkpt lat="61.440684" lon="-142.962203"><ele>431.666</ele><time>2026-07-26T01:21:58Z</time></trkpt><trkpt lat="61.440592" lon="-142.962295"><ele>431.411</ele><time>2026-07-26T01:22:07Z</time></trkpt><trkpt lat="61.440495" lon="-142.962386"><ele>431.421</ele><time>2026-07-26T01:22:17Z</time></trkpt><trkpt lat="61.440427" lon="-142.962433"><ele>431.203</ele><time>2026-07-26T01:22:24Z</time></trkpt><trkpt lat="61.440337" lon="-142.962461"><ele>431.009</ele><time>2026-07-26T01:22:32Z</time></trkpt><trkpt lat="61.440327" lon="-142.962464"><ele>431.063</ele><time>2026-07-26T01:22:33Z</time></trkpt><trkpt lat="61.440315" lon="-142.962468"><ele>430.838</ele><time>2026-07-26T01:22:34Z</time></trkpt><trkpt lat="61.440238" lon="-142.962498"><ele>430.677</ele><time>2026-07-26T01:22:41Z</time></trkpt><trkpt lat="61.440142" lon="-142.962542"><ele>430.421</ele><time>2026-07-26T01:22:51Z</time></trkpt><trkpt lat="61.440058" lon="-142.962566"><ele>430.062</ele><time>2026-07-26T01:22:59Z</time></trkpt><trkpt lat="61.439972" lon="-142.962591"><ele>430.057</ele><time>2026-07-26T01:23:06Z</time></trkpt><trkpt lat="61.439963" lon="-142.962595"><ele>430.053</ele><time>2026-07-26T01:23:07Z</time></trkpt><trkpt lat="61.439953" lon="-142.962596"><ele>429.897</ele><time>2026-07-26T01:23:08Z</time></trkpt><trkpt lat="61.439899" lon="-142.96261"><ele>429.899</ele><time>2026-07-26T01:23:14Z</time></trkpt><trkpt lat="61.439879" lon="-142.962616"><ele>429.673</ele><time>2026-07-26T01:23:16Z</time></trkpt><trkpt lat="61.439778" lon="-142.962675"><ele>429.485</ele><time>2026-07-26T01:23:26Z</time></trkpt><trkpt lat="61.439711" lon="-142.962785"><ele>429.213</ele><time>2026-07-26T01:23:34Z</time></trkpt><trkpt lat="61.439689" lon="-142.962788"><ele>429.209</ele><time>2026-07-26T01:23:36Z</time></trkpt><trkpt lat="61.43964" lon="-142.962815"><ele>429.099</ele><time>2026-07-26T01:23:41Z</time></trkpt><trkpt lat="61.439627" lon="-142.962852"><ele>428.844</ele><time>2026-07-26T01:23:43Z</time></trkpt><trkpt lat="61.439615" lon="-142.962915"><ele>428.623</ele><time>2026-07-26T01:23:47Z</time></trkpt><trkpt lat="61.439603" lon="-142.962953"><ele>429.077</ele><time>2026-07-26T01:23:54Z</time></trkpt><trkpt lat="61.439568" lon="-142.963034"><ele>429.848</ele><time>2026-07-26T01:24:00Z</time></trkpt><trkpt lat="61.439564" lon="-142.963051"><ele>429.653</ele><time>2026-07-26T01:24:01Z</time></trkpt><trkpt lat="61.439544" lon="-142.963146"><ele>429.699</ele><time>2026-07-26T01:24:08Z</time></trkpt><trkpt lat="61.439539" lon="-142.963243"><ele>429.683</ele><time>2026-07-26T01:24:13Z</time></trkpt><trkpt lat="61.439552" lon="-142.963317"><ele>430.865</ele><time>2026-07-26T01:24:20Z</time></trkpt><trkpt lat="61.439578" lon="-142.963418"><ele>431.495</ele><time>2026-07-26T01:24:28Z</time></trkpt><trkpt lat="61.439579" lon="-142.963437"><ele>431.449</ele><time>2026-07-26T01:24:29Z</time></trkpt><trkpt lat="61.439561" lon="-142.963481"><ele>431.423</ele><time>2026-07-26T01:24:33Z</time></trkpt><trkpt lat="61.439544" lon="-142.963505"><ele>431.609</ele><time>2026-07-26T01:24:35Z</time></trkpt><trkpt lat="61.439518" lon="-142.96358"><ele>431.841</ele><time>2026-07-26T01:24:40Z</time></trkpt><trkpt lat="61.439514" lon="-142.963625"><ele>432.276</ele><time>2026-07-26T01:24:43Z</time></trkpt><trkpt lat="61.439508" lon="-142.963695"><ele>432.425</ele><time>2026-07-26T01:24:48Z</time></trkpt><trkpt lat="61.439511" lon="-142.963739"><ele>432.499</ele><time>2026-07-26T01:24:53Z</time></trkpt><trkpt lat="61.4395" lon="-142.963757"><ele>432.470</ele><time>2026-07-26T01:24:56Z</time></trkpt><trkpt lat="61.439466" lon="-142.963833"><ele>431.885</ele><time>2026-07-26T01:25:01Z</time></trkpt><trkpt lat="61.439429" lon="-142.96388"><ele>431.281</ele><time>2026-07-26T01:25:07Z</time></trkpt><trkpt lat="61.439406" lon="-142.963958"><ele>431.025</ele><time>2026-07-26T01:25:12Z</time></trkpt><trkpt lat="61.439391" lon="-142.963986"><ele>430.697</ele><time>2026-07-26T01:25:14Z</time></trkpt><trkpt lat="61.439377" lon="-142.964009"><ele>430.292</ele><time>2026-07-26T01:25:16Z</time></trkpt><trkpt lat="61.439342" lon="-142.964062"><ele>430.273</ele><time>2026-07-26T01:25:21Z</time></trkpt><trkpt lat="61.439309" lon="-142.964231"><ele>429.620</ele><time>2026-07-26T01:25:28Z</time></trkpt><trkpt lat="61.439309" lon="-142.96425"><ele>429.609</ele><time>2026-07-26T01:25:29Z</time></trkpt><trkpt lat="61.439291" lon="-142.964296"><ele>429.881</ele><time>2026-07-26T01:25:36Z</time></trkpt><trkpt lat="61.43925" lon="-142.964369"><ele>430.486</ele><time>2026-07-26T01:25:43Z</time></trkpt><trkpt lat="61.439251" lon="-142.96444"><ele>430.675</ele><time>2026-07-26T01:25:47Z</time></trkpt><trkpt lat="61.439245" lon="-142.964487"><ele>430.899</ele><time>2026-07-26T01:25:49Z</time></trkpt><trkpt lat="61.439202" lon="-142.964597"><ele>430.410</ele><time>2026-07-26T01:25:56Z</time></trkpt><trkpt lat="61.439175" lon="-142.964707"><ele>430.235</ele><time>2026-07-26T01:26:03Z</time></trkpt><trkpt lat="61.439171" lon="-142.964732"><ele>430.221</ele><time>2026-07-26T01:26:04Z</time></trkpt><trkpt lat="61.439176" lon="-142.964848"><ele>430.465</ele><time>2026-07-26T01:26:10Z</time></trkpt><trkpt lat="61.439164" lon="-142.964942"><ele>431.087</ele><time>2026-07-26T01:26:17Z</time></trkpt><trkpt lat="61.439095" lon="-142.964984"><ele>431.639</ele><time>2026-07-26T01:26:26Z</time></trkpt><trkpt lat="61.439068" lon="-142.96504"><ele>431.401</ele><time>2026-07-26T01:26:31Z</time></trkpt><trkpt lat="61.439061" lon="-142.965067"><ele>431.421</ele><time>2026-07-26T01:26:34Z</time></trkpt><trkpt lat="61.439032" lon="-142.965091"><ele>431.809</ele><time>2026-07-26T01:26:39Z</time></trkpt><trkpt lat="61.439016" lon="-142.965104"><ele>432.045</ele><time>2026-07-26T01:26:42Z</time></trkpt><trkpt lat="61.438982" lon="-142.96513"><ele>432.090</ele><time>2026-07-26T01:26:48Z</time></trkpt><trkpt lat="61.438946" lon="-142.965221"><ele>432.059</ele><time>2026-07-26T01:26:55Z</time></trkpt><trkpt lat="61.438907" lon="-142.965258"><ele>432.253</ele><time>2026-07-26T01:27:01Z</time></trkpt><trkpt lat="61.438855" lon="-142.965343"><ele>432.874</ele><time>2026-07-26T01:27:09Z</time></trkpt><trkpt lat="61.438853" lon="-142.965355"><ele>432.839</ele><time>2026-07-26T01:27:10Z</time></trkpt><trkpt lat="61.438835" lon="-142.965485"><ele>433.475</ele><time>2026-07-26T01:27:19Z</time></trkpt><trkpt lat="61.438814" lon="-142.965512"><ele>433.869</ele><time>2026-07-26T01:27:24Z</time></trkpt><trkpt lat="61.438809" lon="-142.965516"><ele>434.031</ele><time>2026-07-26T01:27:25Z</time></trkpt><trkpt lat="61.438792" lon="-142.965536"><ele>434.043</ele><time>2026-07-26T01:27:27Z</time></trkpt><trkpt lat="61.438761" lon="-142.965567"><ele>434.264</ele><time>2026-07-26T01:27:31Z</time></trkpt><trkpt lat="61.438727" lon="-142.965617"><ele>434.410</ele><time>2026-07-26T01:27:37Z</time></trkpt><trkpt lat="61.438633" lon="-142.965659"><ele>434.609</ele><time>2026-07-26T01:27:47Z</time></trkpt><trkpt lat="61.43859" lon="-142.965708"><ele>434.866</ele><time>2026-07-26T01:27:52Z</time></trkpt><trkpt lat="61.438577" lon="-142.965731"><ele>435.011</ele><time>2026-07-26T01:27:55Z</time></trkpt><trkpt lat="61.43854" lon="-142.965763"><ele>435.270</ele><time>2026-07-26T01:28:01Z</time></trkpt><trkpt lat="61.438509" lon="-142.965766"><ele>435.254</ele><time>2026-07-26T01:28:04Z</time></trkpt><trkpt lat="61.438448" lon="-142.965727"><ele>435.215</ele><time>2026-07-26T01:28:12Z</time></trkpt><trkpt lat="61.438399" lon="-142.965685"><ele>435.040</ele><time>2026-07-26T01:28:18Z</time></trkpt><trkpt lat="61.438388" lon="-142.965681"><ele>435.056</ele><time>2026-07-26T01:28:19Z</time></trkpt><trkpt lat="61.438306" lon="-142.965695"><ele>435.050</ele><time>2026-07-26T01:28:27Z</time></trkpt><trkpt lat="61.438243" lon="-142.965737"><ele>435.212</ele><time>2026-07-26T01:28:35Z</time></trkpt><trkpt lat="61.438184" lon="-142.965722"><ele>434.815</ele><time>2026-07-26T01:28:44Z</time></trkpt><trkpt lat="61.438148" lon="-142.965745"><ele>435.065</ele><time>2026-07-26T01:28:51Z</time></trkpt><trkpt lat="61.438114" lon="-142.965828"><ele>435.811</ele><time>2026-07-26T01:28:58Z</time></trkpt><trkpt lat="61.438092" lon="-142.965848"><ele>435.809</ele><time>2026-07-26T01:29:00Z</time></trkpt><trkpt lat="61.438001" lon="-142.965917"><ele>435.423</ele><time>2026-07-26T01:29:10Z</time></trkpt><trkpt lat="61.437938" lon="-142.96593"><ele>435.078</ele><time>2026-07-26T01:29:18Z</time></trkpt><trkpt lat="61.437926" lon="-142.965931"><ele>434.857</ele><time>2026-07-26T01:29:20Z</time></trkpt><trkpt lat="61.43787" lon="-142.965978"><ele>434.471</ele><time>2026-07-26T01:29:27Z</time></trkpt><trkpt lat="61.437821" lon="-142.966014"><ele>434.432</ele><time>2026-07-26T01:29:33Z</time></trkpt><trkpt lat="61.437754" lon="-142.965971"><ele>434.247</ele><time>2026-07-26T01:29:41Z</time></trkpt><trkpt lat="61.43774" lon="-142.965951"><ele>433.813</ele><time>2026-07-26T01:29:44Z</time></trkpt><trkpt lat="61.437708" lon="-142.965895"><ele>433.457</ele><time>2026-07-26T01:29:49Z</time></trkpt><trkpt lat="61.437658" lon="-142.965847"><ele>432.819</ele><time>2026-07-26T01:29:56Z</time></trkpt><trkpt lat="61.437649" lon="-142.965832"><ele>432.666</ele><time>2026-07-26T01:29:58Z</time></trkpt><trkpt lat="61.437583" lon="-142.96575"><ele>432.029</ele><time>2026-07-26T01:30:05Z</time></trkpt><trkpt lat="61.437536" lon="-142.965734"><ele>431.821</ele><time>2026-07-26T01:30:10Z</time></trkpt><trkpt lat="61.437504" lon="-142.96572"><ele>431.209</ele><time>2026-07-26T01:30:14Z</time></trkpt><trkpt lat="61.437438" lon="-142.965704"><ele>430.848</ele><time>2026-07-26T01:30:21Z</time></trkpt><trkpt lat="61.43739" lon="-142.965657"><ele>430.663</ele><time>2026-07-26T01:30:26Z</time></trkpt><trkpt lat="61.437376" lon="-142.965642"><ele>430.612</ele><time>2026-07-26T01:30:28Z</time></trkpt><trkpt lat="61.437359" lon="-142.965628"><ele>430.616</ele><time>2026-07-26T01:30:30Z</time></trkpt><trkpt lat="61.43733" lon="-142.965603"><ele>430.457</ele><time>2026-07-26T01:30:33Z</time></trkpt><trkpt lat="61.437302" lon="-142.965547"><ele>430.272</ele><time>2026-07-26T01:30:37Z</time></trkpt><trkpt lat="61.437283" lon="-142.965495"><ele>429.668</ele><time>2026-07-26T01:30:42Z</time></trkpt><trkpt lat="61.43727" lon="-142.965463"><ele>429.442</ele><time>2026-07-26T01:30:44Z</time></trkpt><trkpt lat="61.437234" lon="-142.96542"><ele>429.094</ele><time>2026-07-26T01:30:49Z</time></trkpt><trkpt lat="61.43722" lon="-142.965396"><ele>428.829</ele><time>2026-07-26T01:30:52Z</time></trkpt><trkpt lat="61.437215" lon="-142.965382"><ele>429.000</ele><time>2026-07-26T01:30:53Z</time></trkpt><trkpt lat="61.437174" lon="-142.965365"><ele>428.820</ele><time>2026-07-26T01:30:59Z</time></trkpt><trkpt lat="61.437135" lon="-142.965373"><ele>428.609</ele><time>2026-07-26T01:31:08Z</time></trkpt><trkpt lat="61.437142" lon="-142.965371"><ele>428.664</ele><time>2026-07-26T01:31:15Z</time></trkpt><trkpt lat="61.437146" lon="-142.965376"><ele>428.679</ele><time>2026-07-26T01:31:17Z</time></trkpt><trkpt lat="61.437133" lon="-142.965365"><ele>428.648</ele><time>2026-07-26T01:31:27Z</time></trkpt><trkpt lat="61.437076" lon="-142.96534"><ele>428.252</ele><time>2026-07-26T01:31:36Z</time></trkpt><trkpt lat="61.437029" lon="-142.965311"><ele>428.063</ele><time>2026-07-26T01:31:43Z</time></trkpt><trkpt lat="61.437022" lon="-142.965307"><ele>428.018</ele><time>2026-07-26T01:31:44Z</time></trkpt><trkpt lat="61.436991" lon="-142.965281"><ele>427.414</ele><time>2026-07-26T01:31:48Z</time></trkpt><trkpt lat="61.436983" lon="-142.965263"><ele>427.648</ele><time>2026-07-26T01:31:53Z</time></trkpt><trkpt lat="61.436932" lon="-142.965211"><ele>427.210</ele><time>2026-07-26T01:32:01Z</time></trkpt><trkpt lat="61.436883" lon="-142.96516"><ele>426.881</ele><time>2026-07-26T01:32:08Z</time></trkpt><trkpt lat="61.436832" lon="-142.965112"><ele>426.661</ele><time>2026-07-26T01:32:18Z</time></trkpt><trkpt lat="61.436819" lon="-142.9651"><ele>426.417</ele><time>2026-07-26T01:32:25Z</time></trkpt><trkpt lat="61.436809" lon="-142.965099"><ele>426.409</ele><time>2026-07-26T01:32:26Z</time></trkpt><trkpt lat="61.436792" lon="-142.965096"><ele>426.230</ele><time>2026-07-26T01:32:29Z</time></trkpt><trkpt lat="61.43677" lon="-142.965069"><ele>426.225</ele><time>2026-07-26T01:32:33Z</time></trkpt><trkpt lat="61.436706" lon="-142.965037"><ele>425.664</ele><time>2026-07-26T01:32:41Z</time></trkpt><trkpt lat="61.436665" lon="-142.964975"><ele>425.458</ele><time>2026-07-26T01:32:48Z</time></trkpt><trkpt lat="61.436659" lon="-142.964966"><ele>425.469</ele><time>2026-07-26T01:32:49Z</time></trkpt><trkpt lat="61.436641" lon="-142.964935"><ele>425.264</ele><time>2026-07-26T01:32:52Z</time></trkpt><trkpt lat="61.436629" lon="-142.964925"><ele>425.220</ele><time>2026-07-26T01:32:54Z</time></trkpt><trkpt lat="61.436619" lon="-142.964903"><ele>425.074</ele><time>2026-07-26T01:32:58Z</time></trkpt><trkpt lat="61.436613" lon="-142.964882"><ele>424.896</ele><time>2026-07-26T01:33:04Z</time></trkpt><trkpt lat="61.4366" lon="-142.964876"><ele>424.847</ele><time>2026-07-26T01:33:07Z</time></trkpt><trkpt lat="61.436594" lon="-142.964843"><ele>424.229</ele><time>2026-07-26T01:33:11Z</time></trkpt><trkpt lat="61.436602" lon="-142.964816"><ele>423.621</ele><time>2026-07-26T01:33:14Z</time></trkpt><trkpt lat="61.436653" lon="-142.964753"><ele>423.409</ele><time>2026-07-26T01:33:21Z</time></trkpt><trkpt lat="61.436651" lon="-142.964684"><ele>423.626</ele><time>2026-07-26T01:33:28Z</time></trkpt><trkpt lat="61.436651" lon="-142.964679"><ele>423.611</ele><time>2026-07-26T01:33:32Z</time></trkpt><trkpt lat="61.436648" lon="-142.964665"><ele>423.610</ele><time>2026-07-26T01:33:35Z</time></trkpt><trkpt lat="61.436646" lon="-142.964666"><ele>423.664</ele><time>2026-07-26T01:33:36Z</time></trkpt><trkpt lat="61.436643" lon="-142.964667"><ele>423.865</ele><time>2026-07-26T01:33:38Z</time></trkpt></trkseg></trk></gpx>