<?xml version="1.0" encoding="UTF-8"?><gpx creator="Wikiloc - http://www.wikiloc.com" version="1.1" xmlns="http://www.topografix.com/GPX/1/1" xmlns:xsi="http://www.w3.org/2001/XMLSchema-instance" xsi:schemaLocation="http://www.topografix.com/GPX/1/1 http://www.topografix.com/GPX/1/1/gpx.xsd"><trk><name><![CDATA[Yellowstone National Park: Mud Volcano]]></name><cmt><![CDATA[Lake]]></cmt><desc><![CDATA[Lake]]></desc><trkseg><trkpt lat="44.62472" lon="-110.433332"><ele>2367.897</ele><time>2026-05-19T17:03:21Z</time></trkpt><trkpt lat="44.624681" lon="-110.433434"><ele>2368.023</ele><time>2026-05-19T17:03:28Z</time></trkpt><trkpt lat="44.624647" lon="-110.433538"><ele>2367.825</ele><time>2026-05-19T17:03:36Z</time></trkpt><trkpt lat="44.624641" lon="-110.433565"><ele>2367.609</ele><time>2026-05-19T17:03:38Z</time></trkpt><trkpt lat="44.624644" lon="-110.433616"><ele>2368.091</ele><time>2026-05-19T17:03:43Z</time></trkpt><trkpt lat="44.624647" lon="-110.433626"><ele>2368.045</ele><time>2026-05-19T17:03:45Z</time></trkpt><trkpt lat="44.624651" lon="-110.433633"><ele>2368.264</ele><time>2026-05-19T17:03:48Z</time></trkpt><trkpt lat="44.624667" lon="-110.433654"><ele>2368.050</ele><time>2026-05-19T17:03:54Z</time></trkpt><trkpt lat="44.624669" lon="-110.433644"><ele>2368.261</ele><time>2026-05-19T17:04:00Z</time></trkpt><trkpt lat="44.624658" lon="-110.433636"><ele>2368.243</ele><time>2026-05-19T17:04:07Z</time></trkpt><trkpt lat="44.624654" lon="-110.433634"><ele>2368.072</ele><time>2026-05-19T17:04:08Z</time></trkpt><trkpt lat="44.624652" lon="-110.433631"><ele>2368.031</ele><time>2026-05-19T17:04:17Z</time></trkpt><trkpt lat="44.62465" lon="-110.433621"><ele>2368.461</ele><time>2026-05-19T17:04:33Z</time></trkpt><trkpt lat="44.624678" lon="-110.433659"><ele>2367.888</ele><time>2026-05-19T17:04:40Z</time></trkpt><trkpt lat="44.624788" lon="-110.433743"><ele>2367.624</ele><time>2026-05-19T17:04:52Z</time></trkpt><trkpt lat="44.624815" lon="-110.433753"><ele>2368.026</ele><time>2026-05-19T17:04:55Z</time></trkpt><trkpt lat="44.624884" lon="-110.433796"><ele>2368.209</ele><time>2026-05-19T17:05:02Z</time></trkpt><trkpt lat="44.624906" lon="-110.433913"><ele>2368.620</ele><time>2026-05-19T17:05:10Z</time></trkpt><trkpt lat="44.624912" lon="-110.433938"><ele>2368.884</ele><time>2026-05-19T17:05:12Z</time></trkpt><trkpt lat="44.624927" lon="-110.433997"><ele>2369.473</ele><time>2026-05-19T17:05:16Z</time></trkpt><trkpt lat="44.62494" lon="-110.434027"><ele>2369.649</ele><time>2026-05-19T17:05:18Z</time></trkpt><trkpt lat="44.624947" lon="-110.434044"><ele>2369.420</ele><time>2026-05-19T17:05:20Z</time></trkpt><trkpt lat="44.624983" lon="-110.434163"><ele>2369.872</ele><time>2026-05-19T17:05:29Z</time></trkpt><trkpt lat="44.624986" lon="-110.434177"><ele>2370.051</ele><time>2026-05-19T17:05:30Z</time></trkpt><trkpt lat="44.624996" lon="-110.434206"><ele>2370.430</ele><time>2026-05-19T17:05:32Z</time></trkpt><trkpt lat="44.625019" lon="-110.434249"><ele>2371.220</ele><time>2026-05-19T17:05:36Z</time></trkpt><trkpt lat="44.625062" lon="-110.434318"><ele>2371.656</ele><time>2026-05-19T17:05:41Z</time></trkpt><trkpt lat="44.625084" lon="-110.434383"><ele>2371.059</ele><time>2026-05-19T17:05:46Z</time></trkpt><trkpt lat="44.625085" lon="-110.434423"><ele>2371.214</ele><time>2026-05-19T17:05:49Z</time></trkpt><trkpt lat="44.625094" lon="-110.434493"><ele>2371.609</ele><time>2026-05-19T17:05:55Z</time></trkpt><trkpt lat="44.625103" lon="-110.434593"><ele>2372.227</ele><time>2026-05-19T17:06:04Z</time></trkpt><trkpt lat="44.625105" lon="-110.434616"><ele>2372.231</ele><time>2026-05-19T17:06:07Z</time></trkpt><trkpt lat="44.62512" lon="-110.43468"><ele>2372.810</ele><time>2026-05-19T17:06:14Z</time></trkpt><trkpt lat="44.625144" lon="-110.434713"><ele>2373.036</ele><time>2026-05-19T17:06:18Z</time></trkpt><trkpt lat="44.625172" lon="-110.434743"><ele>2373.437</ele><time>2026-05-19T17:06:24Z</time></trkpt><trkpt lat="44.625191" lon="-110.434751"><ele>2373.839</ele><time>2026-05-19T17:06:30Z</time></trkpt><trkpt lat="44.625207" lon="-110.43478"><ele>2374.468</ele><time>2026-05-19T17:06:35Z</time></trkpt><trkpt lat="44.625219" lon="-110.4348"><ele>2375.037</ele><time>2026-05-19T17:06:40Z</time></trkpt><trkpt lat="44.625215" lon="-110.434814"><ele>2374.897</ele><time>2026-05-19T17:06:47Z</time></trkpt><trkpt lat="44.625214" lon="-110.434815"><ele>2374.842</ele><time>2026-05-19T17:06:56Z</time></trkpt><trkpt lat="44.625214" lon="-110.434815"><ele>2375.022</ele><time>2026-05-19T17:07:06Z</time></trkpt><trkpt lat="44.625225" lon="-110.434817"><ele>2374.414</ele><time>2026-05-19T17:07:10Z</time></trkpt><trkpt lat="44.625224" lon="-110.434823"><ele>2374.409</ele><time>2026-05-19T17:07:17Z</time></trkpt><trkpt lat="44.625214" lon="-110.434815"><ele>2374.466</ele><time>2026-05-19T17:07:30Z</time></trkpt><trkpt lat="44.625214" lon="-110.434815"><ele>2374.630</ele><time>2026-05-19T17:07:33Z</time></trkpt><trkpt lat="44.625214" lon="-110.434815"><ele>2374.819</ele><time>2026-05-19T17:07:40Z</time></trkpt><trkpt lat="44.625224" lon="-110.434818"><ele>2375.025</ele><time>2026-05-19T17:07:46Z</time></trkpt><trkpt lat="44.625214" lon="-110.434815"><ele>2375.046</ele><time>2026-05-19T17:07:58Z</time></trkpt><trkpt lat="44.625222" lon="-110.434811"><ele>2375.018</ele><time>2026-05-19T17:08:10Z</time></trkpt><trkpt lat="44.62523" lon="-110.434823"><ele>2374.857</ele><time>2026-05-19T17:08:20Z</time></trkpt><trkpt lat="44.625226" lon="-110.434814"><ele>2375.076</ele><time>2026-05-19T17:08:30Z</time></trkpt><trkpt lat="44.625202" lon="-110.434768"><ele>2375.486</ele><time>2026-05-19T17:08:38Z</time></trkpt><trkpt lat="44.6252" lon="-110.434735"><ele>2374.414</ele><time>2026-05-19T17:08:43Z</time></trkpt><trkpt lat="44.625199" lon="-110.434742"><ele>2374.054</ele><time>2026-05-19T17:08:46Z</time></trkpt><trkpt lat="44.625151" lon="-110.434794"><ele>2374.009</ele><time>2026-05-19T17:08:53Z</time></trkpt><trkpt lat="44.625063" lon="-110.434833"><ele>2373.809</ele><time>2026-05-19T17:09:02Z</time></trkpt><trkpt lat="44.624989" lon="-110.434756"><ele>2374.083</ele><time>2026-05-19T17:09:11Z</time></trkpt><trkpt lat="44.624921" lon="-110.434659"><ele>2373.817</ele><time>2026-05-19T17:09:20Z</time></trkpt><trkpt lat="44.624903" lon="-110.434633"><ele>2373.616</ele><time>2026-05-19T17:09:23Z</time></trkpt><trkpt lat="44.624871" lon="-110.43459"><ele>2373.662</ele><time>2026-05-19T17:09:29Z</time></trkpt><trkpt lat="44.624824" lon="-110.434531"><ele>2373.633</ele><time>2026-05-19T17:09:35Z</time></trkpt><trkpt lat="44.624737" lon="-110.434484"><ele>2374.295</ele><time>2026-05-19T17:09:43Z</time></trkpt><trkpt lat="44.624642" lon="-110.434508"><ele>2374.014</ele><time>2026-05-19T17:09:52Z</time></trkpt><trkpt lat="44.624594" lon="-110.434519"><ele>2373.833</ele><time>2026-05-19T17:09:59Z</time></trkpt><trkpt lat="44.624558" lon="-110.434534"><ele>2373.873</ele><time>2026-05-19T17:10:03Z</time></trkpt><trkpt lat="44.624546" lon="-110.434537"><ele>2373.891</ele><time>2026-05-19T17:10:04Z</time></trkpt><trkpt lat="44.624511" lon="-110.434537"><ele>2373.881</ele><time>2026-05-19T17:10:07Z</time></trkpt><trkpt lat="44.624447" lon="-110.434503"><ele>2373.419</ele><time>2026-05-19T17:10:14Z</time></trkpt><trkpt lat="44.624382" lon="-110.434493"><ele>2373.409</ele><time>2026-05-19T17:10:22Z</time></trkpt><trkpt lat="44.624381" lon="-110.434492"><ele>2373.441</ele><time>2026-05-19T17:10:31Z</time></trkpt><trkpt lat="44.624381" lon="-110.434492"><ele>2373.415</ele><time>2026-05-19T17:10:36Z</time></trkpt><trkpt lat="44.624381" lon="-110.43449"><ele>2373.484</ele><time>2026-05-19T17:10:41Z</time></trkpt><trkpt lat="44.624381" lon="-110.434492"><ele>2373.260</ele><time>2026-05-19T17:10:47Z</time></trkpt><trkpt lat="44.624366" lon="-110.4345"><ele>2373.241</ele><time>2026-05-19T17:10:59Z</time></trkpt><trkpt lat="44.624366" lon="-110.4345"><ele>2373.273</ele><time>2026-05-19T17:11:06Z</time></trkpt><trkpt lat="44.624366" lon="-110.4345"><ele>2373.272</ele><time>2026-05-19T17:11:15Z</time></trkpt><trkpt lat="44.624371" lon="-110.434504"><ele>2373.611</ele><time>2026-05-19T17:11:25Z</time></trkpt><trkpt lat="44.624368" lon="-110.434492"><ele>2373.061</ele><time>2026-05-19T17:11:29Z</time></trkpt><trkpt lat="44.624355" lon="-110.434478"><ele>2373.054</ele><time>2026-05-19T17:11:31Z</time></trkpt><trkpt lat="44.624332" lon="-110.434474"><ele>2373.056</ele><time>2026-05-19T17:11:36Z</time></trkpt><trkpt lat="44.624291" lon="-110.434484"><ele>2372.811</ele><time>2026-05-19T17:11:41Z</time></trkpt><trkpt lat="44.624267" lon="-110.434483"><ele>2372.809</ele><time>2026-05-19T17:11:44Z</time></trkpt><trkpt lat="44.624223" lon="-110.434491"><ele>2373.877</ele><time>2026-05-19T17:11:52Z</time></trkpt><trkpt lat="44.62423" lon="-110.434496"><ele>2374.021</ele><time>2026-05-19T17:11:55Z</time></trkpt><trkpt lat="44.624229" lon="-110.434491"><ele>2373.810</ele><time>2026-05-19T17:11:59Z</time></trkpt><trkpt lat="44.624226" lon="-110.434493"><ele>2373.816</ele><time>2026-05-19T17:12:01Z</time></trkpt><trkpt lat="44.624225" lon="-110.434493"><ele>2373.867</ele><time>2026-05-19T17:12:03Z</time></trkpt><trkpt lat="44.624229" lon="-110.434507"><ele>2374.099</ele><time>2026-05-19T17:12:13Z</time></trkpt><trkpt lat="44.624214" lon="-110.434506"><ele>2373.428</ele><time>2026-05-19T17:12:23Z</time></trkpt><trkpt lat="44.624203" lon="-110.434493"><ele>2373.477</ele><time>2026-05-19T17:12:33Z</time></trkpt><trkpt lat="44.624221" lon="-110.434493"><ele>2373.417</ele><time>2026-05-19T17:12:42Z</time></trkpt><trkpt lat="44.624218" lon="-110.43449"><ele>2373.253</ele><time>2026-05-19T17:12:49Z</time></trkpt><trkpt lat="44.624218" lon="-110.43449"><ele>2373.204</ele><time>2026-05-19T17:12:51Z</time></trkpt><trkpt lat="44.624218" lon="-110.43449"><ele>2373.014</ele><time>2026-05-19T17:12:52Z</time></trkpt><trkpt lat="44.624218" lon="-110.43449"><ele>2373.009</ele><time>2026-05-19T17:12:55Z</time></trkpt><trkpt lat="44.624158" lon="-110.434492"><ele>2373.047</ele><time>2026-05-19T17:13:05Z</time></trkpt><trkpt lat="44.624096" lon="-110.434503"><ele>2374.291</ele><time>2026-05-19T17:13:13Z</time></trkpt><trkpt lat="44.624086" lon="-110.434504"><ele>2374.220</ele><time>2026-05-19T17:13:14Z</time></trkpt><trkpt lat="44.624069" lon="-110.434515"><ele>2374.426</ele><time>2026-05-19T17:13:18Z</time></trkpt><trkpt lat="44.624071" lon="-110.434512"><ele>2374.487</ele><time>2026-05-19T17:13:20Z</time></trkpt><trkpt lat="44.624076" lon="-110.434495"><ele>2374.289</ele><time>2026-05-19T17:13:28Z</time></trkpt><trkpt lat="44.624059" lon="-110.434507"><ele>2374.018</ele><time>2026-05-19T17:13:32Z</time></trkpt><trkpt lat="44.624036" lon="-110.434531"><ele>2374.077</ele><time>2026-05-19T17:13:35Z</time></trkpt><trkpt lat="44.623983" lon="-110.434562"><ele>2373.857</ele><time>2026-05-19T17:13:42Z</time></trkpt><trkpt lat="44.623917" lon="-110.434619"><ele>2375.413</ele><time>2026-05-19T17:13:50Z</time></trkpt><trkpt lat="44.623911" lon="-110.434627"><ele>2375.243</ele><time>2026-05-19T17:13:51Z</time></trkpt><trkpt lat="44.623856" lon="-110.434704"><ele>2376.207</ele><time>2026-05-19T17:14:00Z</time></trkpt><trkpt lat="44.623852" lon="-110.434713"><ele>2376.409</ele><time>2026-05-19T17:14:01Z</time></trkpt><trkpt lat="44.623835" lon="-110.434759"><ele>2377.083</ele><time>2026-05-19T17:14:06Z</time></trkpt><trkpt lat="44.623823" lon="-110.434784"><ele>2377.247</ele><time>2026-05-19T17:14:08Z</time></trkpt><trkpt lat="44.623802" lon="-110.434825"><ele>2377.446</ele><time>2026-05-19T17:14:13Z</time></trkpt><trkpt lat="44.623797" lon="-110.434838"><ele>2377.612</ele><time>2026-05-19T17:14:15Z</time></trkpt><trkpt lat="44.623744" lon="-110.434921"><ele>2378.243</ele><time>2026-05-19T17:14:23Z</time></trkpt><trkpt lat="44.62374" lon="-110.434928"><ele>2378.485</ele><time>2026-05-19T17:14:24Z</time></trkpt><trkpt lat="44.623704" lon="-110.434964"><ele>2379.474</ele><time>2026-05-19T17:14:30Z</time></trkpt><trkpt lat="44.623699" lon="-110.434966"><ele>2379.633</ele><time>2026-05-19T17:14:31Z</time></trkpt><trkpt lat="44.623671" lon="-110.435001"><ele>2380.463</ele><time>2026-05-19T17:14:36Z</time></trkpt><trkpt lat="44.623665" lon="-110.435009"><ele>2380.691</ele><time>2026-05-19T17:14:37Z</time></trkpt><trkpt lat="44.623656" lon="-110.435015"><ele>2380.881</ele><time>2026-05-19T17:14:38Z</time></trkpt><trkpt lat="44.623606" lon="-110.435051"><ele>2381.619</ele><time>2026-05-19T17:14:44Z</time></trkpt><trkpt lat="44.623582" lon="-110.435061"><ele>2382.009</ele><time>2026-05-19T17:14:47Z</time></trkpt><trkpt lat="44.623539" lon="-110.435079"><ele>2382.411</ele><time>2026-05-19T17:14:54Z</time></trkpt><trkpt lat="44.623534" lon="-110.435087"><ele>2382.635</ele><time>2026-05-19T17:14:56Z</time></trkpt><trkpt lat="44.623492" lon="-110.435124"><ele>2383.244</ele><time>2026-05-19T17:15:03Z</time></trkpt><trkpt lat="44.623473" lon="-110.435146"><ele>2383.650</ele><time>2026-05-19T17:15:06Z</time></trkpt><trkpt lat="44.62344" lon="-110.435189"><ele>2384.451</ele><time>2026-05-19T17:15:11Z</time></trkpt><trkpt lat="44.623431" lon="-110.4352"><ele>2384.683</ele><time>2026-05-19T17:15:13Z</time></trkpt><trkpt lat="44.62341" lon="-110.435229"><ele>2385.842</ele><time>2026-05-19T17:15:19Z</time></trkpt><trkpt lat="44.623403" lon="-110.435239"><ele>2386.081</ele><time>2026-05-19T17:15:21Z</time></trkpt><trkpt lat="44.623378" lon="-110.435274"><ele>2386.891</ele><time>2026-05-19T17:15:26Z</time></trkpt><trkpt lat="44.623359" lon="-110.435298"><ele>2387.453</ele><time>2026-05-19T17:15:29Z</time></trkpt><trkpt lat="44.623349" lon="-110.435319"><ele>2388.004</ele><time>2026-05-19T17:15:32Z</time></trkpt><trkpt lat="44.623316" lon="-110.435333"><ele>2388.214</ele><time>2026-05-19T17:15:37Z</time></trkpt><trkpt lat="44.623314" lon="-110.435377"><ele>2388.809</ele><time>2026-05-19T17:15:43Z</time></trkpt><trkpt lat="44.623312" lon="-110.435388"><ele>2389.287</ele><time>2026-05-19T17:15:45Z</time></trkpt><trkpt lat="44.623317" lon="-110.435428"><ele>2390.081</ele><time>2026-05-19T17:15:50Z</time></trkpt><trkpt lat="44.62332" lon="-110.435454"><ele>2390.420</ele><time>2026-05-19T17:15:53Z</time></trkpt><trkpt lat="44.62332" lon="-110.435498"><ele>2391.266</ele><time>2026-05-19T17:15:59Z</time></trkpt><trkpt lat="44.623321" lon="-110.4355"><ele>2391.647</ele><time>2026-05-19T17:16:00Z</time></trkpt><trkpt lat="44.623319" lon="-110.435535"><ele>2392.829</ele><time>2026-05-19T17:16:04Z</time></trkpt><trkpt lat="44.623318" lon="-110.435566"><ele>2393.218</ele><time>2026-05-19T17:16:07Z</time></trkpt><trkpt lat="44.623281" lon="-110.435624"><ele>2393.427</ele><time>2026-05-19T17:16:16Z</time></trkpt><trkpt lat="44.623205" lon="-110.435646"><ele>2393.887</ele><time>2026-05-19T17:16:25Z</time></trkpt><trkpt lat="44.623202" lon="-110.435654"><ele>2394.027</ele><time>2026-05-19T17:16:26Z</time></trkpt><trkpt lat="44.623181" lon="-110.435641"><ele>2394.268</ele><time>2026-05-19T17:16:31Z</time></trkpt><trkpt lat="44.623166" lon="-110.435651"><ele>2394.414</ele><time>2026-05-19T17:16:39Z</time></trkpt><trkpt lat="44.623165" lon="-110.435647"><ele>2394.409</ele><time>2026-05-19T17:16:42Z</time></trkpt><trkpt lat="44.623164" lon="-110.435647"><ele>2394.654</ele><time>2026-05-19T17:16:43Z</time></trkpt><trkpt lat="44.623164" lon="-110.435647"><ele>2394.868</ele><time>2026-05-19T17:16:48Z</time></trkpt><trkpt lat="44.623164" lon="-110.435647"><ele>2394.897</ele><time>2026-05-19T17:16:50Z</time></trkpt><trkpt lat="44.623161" lon="-110.435654"><ele>2394.893</ele><time>2026-05-19T17:16:53Z</time></trkpt><trkpt lat="44.62316" lon="-110.435654"><ele>2394.864</ele><time>2026-05-19T17:16:54Z</time></trkpt><trkpt lat="44.623155" lon="-110.435648"><ele>2395.066</ele><time>2026-05-19T17:16:57Z</time></trkpt><trkpt lat="44.623093" lon="-110.435642"><ele>2395.655</ele><time>2026-05-19T17:17:05Z</time></trkpt><trkpt lat="44.623074" lon="-110.435652"><ele>2396.044</ele><time>2026-05-19T17:17:07Z</time></trkpt><trkpt lat="44.623037" lon="-110.435671"><ele>2396.464</ele><time>2026-05-19T17:17:12Z</time></trkpt><trkpt lat="44.623005" lon="-110.43569"><ele>2396.621</ele><time>2026-05-19T17:17:16Z</time></trkpt><trkpt lat="44.622995" lon="-110.435695"><ele>2396.641</ele><time>2026-05-19T17:17:17Z</time></trkpt><trkpt lat="44.622984" lon="-110.4357"><ele>2396.605</ele><time>2026-05-19T17:17:18Z</time></trkpt><trkpt lat="44.622966" lon="-110.435714"><ele>2396.609</ele><time>2026-05-19T17:17:20Z</time></trkpt><trkpt lat="44.622897" lon="-110.435797"><ele>2396.814</ele><time>2026-05-19T17:17:29Z</time></trkpt><trkpt lat="44.622893" lon="-110.435809"><ele>2397.018</ele><time>2026-05-19T17:17:30Z</time></trkpt><trkpt lat="44.622872" lon="-110.435901"><ele>2397.827</ele><time>2026-05-19T17:17:37Z</time></trkpt><trkpt lat="44.622854" lon="-110.435927"><ele>2398.083</ele><time>2026-05-19T17:17:39Z</time></trkpt><trkpt lat="44.622811" lon="-110.435965"><ele>2398.854</ele><time>2026-05-19T17:17:45Z</time></trkpt><trkpt lat="44.622766" lon="-110.435986"><ele>2399.256</ele><time>2026-05-19T17:17:50Z</time></trkpt><trkpt lat="44.622733" lon="-110.435997"><ele>2399.245</ele><time>2026-05-19T17:17:53Z</time></trkpt><trkpt lat="44.622646" lon="-110.436022"><ele>2399.654</ele><time>2026-05-19T17:18:02Z</time></trkpt><trkpt lat="44.622581" lon="-110.436005"><ele>2400.064</ele><time>2026-05-19T17:18:09Z</time></trkpt><trkpt lat="44.622572" lon="-110.436003"><ele>2400.246</ele><time>2026-05-19T17:18:10Z</time></trkpt><trkpt lat="44.622503" lon="-110.435989"><ele>2401.288</ele><time>2026-05-19T17:18:18Z</time></trkpt><trkpt lat="44.622495" lon="-110.435988"><ele>2401.416</ele><time>2026-05-19T17:18:19Z</time></trkpt><trkpt lat="44.622419" lon="-110.43598"><ele>2402.209</ele><time>2026-05-19T17:18:27Z</time></trkpt><trkpt lat="44.622408" lon="-110.435978"><ele>2402.486</ele><time>2026-05-19T17:18:28Z</time></trkpt><trkpt lat="44.622331" lon="-110.435964"><ele>2403.080</ele><time>2026-05-19T17:18:36Z</time></trkpt><trkpt lat="44.622313" lon="-110.435963"><ele>2403.099</ele><time>2026-05-19T17:18:38Z</time></trkpt><trkpt lat="44.622231" lon="-110.435944"><ele>2402.265</ele><time>2026-05-19T17:18:46Z</time></trkpt><trkpt lat="44.622148" lon="-110.435938"><ele>2401.256</ele><time>2026-05-19T17:18:54Z</time></trkpt><trkpt lat="44.622129" lon="-110.435943"><ele>2400.698</ele><time>2026-05-19T17:18:56Z</time></trkpt><trkpt lat="44.622032" lon="-110.435972"><ele>2400.477</ele><time>2026-05-19T17:19:04Z</time></trkpt><trkpt lat="44.621969" lon="-110.435971"><ele>2400.696</ele><time>2026-05-19T17:19:10Z</time></trkpt><trkpt lat="44.621885" lon="-110.435964"><ele>2401.246</ele><time>2026-05-19T17:19:19Z</time></trkpt><trkpt lat="44.621802" lon="-110.435929"><ele>2401.454</ele><time>2026-05-19T17:19:28Z</time></trkpt><trkpt lat="44.621732" lon="-110.435886"><ele>2401.256</ele><time>2026-05-19T17:19:35Z</time></trkpt><trkpt lat="44.621644" lon="-110.435871"><ele>2400.611</ele><time>2026-05-19T17:19:44Z</time></trkpt><trkpt lat="44.621577" lon="-110.435918"><ele>2400.009</ele><time>2026-05-19T17:19:51Z</time></trkpt><trkpt lat="44.621564" lon="-110.435921"><ele>2399.867</ele><time>2026-05-19T17:19:52Z</time></trkpt><trkpt lat="44.621475" lon="-110.435913"><ele>2399.441</ele><time>2026-05-19T17:20:00Z</time></trkpt><trkpt lat="44.621399" lon="-110.435878"><ele>2399.290</ele><time>2026-05-19T17:20:07Z</time></trkpt><trkpt lat="44.621347" lon="-110.435857"><ele>2399.016</ele><time>2026-05-19T17:20:12Z</time></trkpt><trkpt lat="44.621327" lon="-110.435843"><ele>2398.867</ele><time>2026-05-19T17:20:14Z</time></trkpt><trkpt lat="44.621219" lon="-110.435799"><ele>2399.029</ele><time>2026-05-19T17:20:23Z</time></trkpt><trkpt lat="44.621117" lon="-110.435808"><ele>2399.278</ele><time>2026-05-19T17:20:32Z</time></trkpt><trkpt lat="44.62101" lon="-110.435818"><ele>2399.687</ele><time>2026-05-19T17:20:42Z</time></trkpt><trkpt lat="44.620936" lon="-110.435786"><ele>2399.817</ele><time>2026-05-19T17:20:50Z</time></trkpt><trkpt lat="44.620884" lon="-110.43582"><ele>2399.616</ele><time>2026-05-19T17:20:56Z</time></trkpt><trkpt lat="44.620787" lon="-110.435913"><ele>2399.676</ele><time>2026-05-19T17:21:06Z</time></trkpt><trkpt lat="44.620742" lon="-110.435958"><ele>2400.013</ele><time>2026-05-19T17:21:13Z</time></trkpt><trkpt lat="44.620736" lon="-110.435964"><ele>2400.009</ele><time>2026-05-19T17:21:14Z</time></trkpt><trkpt lat="44.620734" lon="-110.435968"><ele>2400.013</ele><time>2026-05-19T17:21:20Z</time></trkpt><trkpt lat="44.620734" lon="-110.435969"><ele>2399.887</ele><time>2026-05-19T17:21:26Z</time></trkpt><trkpt lat="44.620734" lon="-110.435969"><ele>2400.296</ele><time>2026-05-19T17:21:30Z</time></trkpt><trkpt lat="44.620743" lon="-110.435966"><ele>2400.032</ele><time>2026-05-19T17:21:41Z</time></trkpt><trkpt lat="44.62074" lon="-110.435963"><ele>2399.823</ele><time>2026-05-19T17:21:45Z</time></trkpt><trkpt lat="44.620743" lon="-110.435969"><ele>2399.875</ele><time>2026-05-19T17:21:49Z</time></trkpt><trkpt lat="44.620751" lon="-110.435977"><ele>2399.654</ele><time>2026-05-19T17:21:58Z</time></trkpt><trkpt lat="44.620751" lon="-110.435977"><ele>2399.653</ele><time>2026-05-19T17:21:59Z</time></trkpt><trkpt lat="44.620751" lon="-110.435977"><ele>2399.843</ele><time>2026-05-19T17:22:00Z</time></trkpt><trkpt lat="44.620751" lon="-110.435977"><ele>2399.874</ele><time>2026-05-19T17:22:14Z</time></trkpt><trkpt lat="44.620751" lon="-110.435977"><ele>2400.056</ele><time>2026-05-19T17:22:19Z</time></trkpt><trkpt lat="44.620733" lon="-110.435985"><ele>2399.821</ele><time>2026-05-19T17:22:35Z</time></trkpt><trkpt lat="44.620728" lon="-110.435978"><ele>2400.009</ele><time>2026-05-19T17:22:42Z</time></trkpt><trkpt lat="44.620736" lon="-110.435965"><ele>2400.259</ele><time>2026-05-19T17:22:51Z</time></trkpt><trkpt lat="44.620736" lon="-110.435965"><ele>2400.023</ele><time>2026-05-19T17:22:54Z</time></trkpt><trkpt lat="44.620753" lon="-110.435961"><ele>2400.062</ele><time>2026-05-19T17:23:01Z</time></trkpt><trkpt lat="44.620759" lon="-110.435965"><ele>2400.228</ele><time>2026-05-19T17:23:07Z</time></trkpt><trkpt lat="44.620759" lon="-110.435965"><ele>2400.239</ele><time>2026-05-19T17:23:12Z</time></trkpt><trkpt lat="44.620759" lon="-110.435965"><ele>2399.471</ele><time>2026-05-19T17:23:26Z</time></trkpt><trkpt lat="44.620759" lon="-110.435965"><ele>2399.830</ele><time>2026-05-19T17:23:38Z</time></trkpt><trkpt lat="44.620755" lon="-110.435965"><ele>2400.099</ele><time>2026-05-19T17:23:51Z</time></trkpt><trkpt lat="44.620762" lon="-110.435956"><ele>2400.249</ele><time>2026-05-19T17:23:59Z</time></trkpt><trkpt lat="44.620765" lon="-110.435962"><ele>2400.257</ele><time>2026-05-19T17:24:01Z</time></trkpt><trkpt lat="44.620767" lon="-110.435971"><ele>2400.200</ele><time>2026-05-19T17:24:05Z</time></trkpt><trkpt lat="44.62077" lon="-110.435964"><ele>2400.220</ele><time>2026-05-19T17:24:07Z</time></trkpt><trkpt lat="44.620778" lon="-110.435956"><ele>2400.409</ele><time>2026-05-19T17:24:14Z</time></trkpt><trkpt lat="44.620779" lon="-110.435955"><ele>2400.417</ele><time>2026-05-19T17:24:17Z</time></trkpt><trkpt lat="44.62078" lon="-110.435955"><ele>2400.421</ele><time>2026-05-19T17:24:19Z</time></trkpt><trkpt lat="44.620807" lon="-110.435921"><ele>2400.230</ele><time>2026-05-19T17:24:27Z</time></trkpt><trkpt lat="44.620893" lon="-110.435842"><ele>2400.456</ele><time>2026-05-19T17:24:37Z</time></trkpt><trkpt lat="44.620922" lon="-110.435785"><ele>2400.297</ele><time>2026-05-19T17:24:44Z</time></trkpt><trkpt lat="44.620916" lon="-110.435775"><ele>2400.289</ele><time>2026-05-19T17:24:45Z</time></trkpt><trkpt lat="44.620852" lon="-110.435651"><ele>2400.288</ele><time>2026-05-19T17:24:55Z</time></trkpt><trkpt lat="44.620825" lon="-110.43556"><ele>2400.437</ele><time>2026-05-19T17:25:02Z</time></trkpt><trkpt lat="44.620837" lon="-110.435486"><ele>2400.297</ele><time>2026-05-19T17:25:09Z</time></trkpt><trkpt lat="44.620822" lon="-110.435462"><ele>2400.222</ele><time>2026-05-19T17:25:11Z</time></trkpt><trkpt lat="44.620776" lon="-110.435438"><ele>2400.262</ele><time>2026-05-19T17:25:15Z</time></trkpt><trkpt lat="44.62069" lon="-110.4354"><ele>2400.808</ele><time>2026-05-19T17:25:24Z</time></trkpt><trkpt lat="44.620637" lon="-110.435382"><ele>2401.009</ele><time>2026-05-19T17:25:29Z</time></trkpt><trkpt lat="44.620595" lon="-110.43536"><ele>2401.244</ele><time>2026-05-19T17:25:33Z</time></trkpt><trkpt lat="44.620585" lon="-110.435354"><ele>2401.298</ele><time>2026-05-19T17:25:34Z</time></trkpt><trkpt lat="44.620523" lon="-110.435319"><ele>2401.627</ele><time>2026-05-19T17:25:41Z</time></trkpt><trkpt lat="44.620515" lon="-110.435313"><ele>2401.633</ele><time>2026-05-19T17:25:42Z</time></trkpt><trkpt lat="44.620442" lon="-110.435267"><ele>2402.074</ele><time>2026-05-19T17:25:50Z</time></trkpt><trkpt lat="44.620433" lon="-110.435263"><ele>2402.296</ele><time>2026-05-19T17:25:51Z</time></trkpt><trkpt lat="44.620357" lon="-110.435216"><ele>2402.075</ele><time>2026-05-19T17:26:03Z</time></trkpt><trkpt lat="44.620358" lon="-110.435215"><ele>2402.054</ele><time>2026-05-19T17:26:06Z</time></trkpt><trkpt lat="44.620358" lon="-110.435213"><ele>2402.034</ele><time>2026-05-19T17:26:07Z</time></trkpt><trkpt lat="44.620357" lon="-110.435213"><ele>2402.087</ele><time>2026-05-19T17:26:14Z</time></trkpt><trkpt lat="44.620355" lon="-110.43521"><ele>2402.242</ele><time>2026-05-19T17:26:16Z</time></trkpt><trkpt lat="44.620302" lon="-110.435203"><ele>2402.426</ele><time>2026-05-19T17:26:23Z</time></trkpt><trkpt lat="44.620284" lon="-110.435205"><ele>2402.209</ele><time>2026-05-19T17:26:31Z</time></trkpt><trkpt lat="44.620299" lon="-110.435206"><ele>2402.220</ele><time>2026-05-19T17:26:42Z</time></trkpt><trkpt lat="44.620285" lon="-110.435186"><ele>2402.254</ele><time>2026-05-19T17:26:48Z</time></trkpt><trkpt lat="44.620315" lon="-110.4352"><ele>2401.853</ele><time>2026-05-19T17:26:54Z</time></trkpt><trkpt lat="44.620341" lon="-110.435219"><ele>2402.039</ele><time>2026-05-19T17:27:01Z</time></trkpt><trkpt lat="44.620378" lon="-110.435239"><ele>2402.680</ele><time>2026-05-19T17:27:05Z</time></trkpt><trkpt lat="44.620396" lon="-110.435258"><ele>2403.022</ele><time>2026-05-19T17:27:08Z</time></trkpt><trkpt lat="44.620453" lon="-110.435291"><ele>2402.271</ele><time>2026-05-19T17:27:17Z</time></trkpt><trkpt lat="44.62048" lon="-110.435301"><ele>2401.090</ele><time>2026-05-19T17:27:20Z</time></trkpt><trkpt lat="44.620527" lon="-110.435325"><ele>2401.670</ele><time>2026-05-19T17:27:26Z</time></trkpt><trkpt lat="44.620559" lon="-110.43534"><ele>2400.897</ele><time>2026-05-19T17:27:32Z</time></trkpt><trkpt lat="44.620627" lon="-110.435372"><ele>2401.023</ele><time>2026-05-19T17:27:42Z</time></trkpt><trkpt lat="44.620659" lon="-110.435386"><ele>2399.825</ele><time>2026-05-19T17:27:47Z</time></trkpt><trkpt lat="44.620693" lon="-110.435403"><ele>2399.809</ele><time>2026-05-19T17:27:51Z</time></trkpt><trkpt lat="44.620778" lon="-110.435439"><ele>2400.041</ele><time>2026-05-19T17:28:01Z</time></trkpt><trkpt lat="44.620821" lon="-110.435474"><ele>2398.885</ele><time>2026-05-19T17:28:07Z</time></trkpt><trkpt lat="44.620855" lon="-110.435472"><ele>2399.024</ele><time>2026-05-19T17:28:11Z</time></trkpt><trkpt lat="44.620862" lon="-110.435464"><ele>2399.260</ele><time>2026-05-19T17:28:12Z</time></trkpt><trkpt lat="44.620894" lon="-110.435404"><ele>2399.061</ele><time>2026-05-19T17:28:18Z</time></trkpt><trkpt lat="44.620913" lon="-110.435372"><ele>2399.493</ele><time>2026-05-19T17:28:21Z</time></trkpt><trkpt lat="44.620958" lon="-110.435289"><ele>2399.292</ele><time>2026-05-19T17:28:29Z</time></trkpt><trkpt lat="44.621003" lon="-110.435211"><ele>2399.491</ele><time>2026-05-19T17:28:36Z</time></trkpt><trkpt lat="44.621022" lon="-110.435185"><ele>2399.631</ele><time>2026-05-19T17:28:39Z</time></trkpt><trkpt lat="44.621027" lon="-110.435173"><ele>2399.867</ele><time>2026-05-19T17:28:40Z</time></trkpt><trkpt lat="44.621068" lon="-110.435073"><ele>2398.881</ele><time>2026-05-19T17:28:49Z</time></trkpt><trkpt lat="44.6211" lon="-110.434932"><ele>2398.019</ele><time>2026-05-19T17:28:59Z</time></trkpt><trkpt lat="44.621079" lon="-110.43478"><ele>2397.809</ele><time>2026-05-19T17:29:10Z</time></trkpt><trkpt lat="44.621077" lon="-110.434767"><ele>2397.868</ele><time>2026-05-19T17:29:11Z</time></trkpt><trkpt lat="44.621059" lon="-110.434668"><ele>2397.852</ele><time>2026-05-19T17:29:21Z</time></trkpt><trkpt lat="44.621054" lon="-110.43464"><ele>2397.821</ele><time>2026-05-19T17:29:27Z</time></trkpt><trkpt lat="44.621057" lon="-110.434655"><ele>2397.677</ele><time>2026-05-19T17:29:34Z</time></trkpt><trkpt lat="44.621054" lon="-110.434644"><ele>2398.098</ele><time>2026-05-19T17:29:42Z</time></trkpt><trkpt lat="44.621062" lon="-110.434676"><ele>2398.090</ele><time>2026-05-19T17:29:52Z</time></trkpt><trkpt lat="44.621062" lon="-110.434692"><ele>2397.869</ele><time>2026-05-19T17:30:00Z</time></trkpt><trkpt lat="44.621062" lon="-110.434692"><ele>2397.858</ele><time>2026-05-19T17:30:06Z</time></trkpt><trkpt lat="44.621062" lon="-110.434692"><ele>2397.898</ele><time>2026-05-19T17:30:09Z</time></trkpt><trkpt lat="44.621062" lon="-110.434692"><ele>2397.882</ele><time>2026-05-19T17:30:20Z</time></trkpt><trkpt lat="44.621062" lon="-110.434692"><ele>2397.843</ele><time>2026-05-19T17:30:21Z</time></trkpt><trkpt lat="44.621062" lon="-110.434692"><ele>2398.217</ele><time>2026-05-19T17:30:28Z</time></trkpt><trkpt lat="44.621062" lon="-110.434692"><ele>2398.009</ele><time>2026-05-19T17:30:30Z</time></trkpt><trkpt lat="44.621057" lon="-110.434663"><ele>2398.020</ele><time>2026-05-19T17:30:33Z</time></trkpt><trkpt lat="44.621053" lon="-110.434635"><ele>2397.874</ele><time>2026-05-19T17:30:40Z</time></trkpt><trkpt lat="44.621075" lon="-110.434544"><ele>2397.643</ele><time>2026-05-19T17:30:47Z</time></trkpt><trkpt lat="44.621076" lon="-110.434548"><ele>2397.859</ele><time>2026-05-19T17:30:55Z</time></trkpt><trkpt lat="44.621076" lon="-110.434548"><ele>2397.620</ele><time>2026-05-19T17:30:59Z</time></trkpt><trkpt lat="44.621076" lon="-110.434548"><ele>2397.812</ele><time>2026-05-19T17:31:05Z</time></trkpt><trkpt lat="44.621076" lon="-110.434548"><ele>2397.891</ele><time>2026-05-19T17:31:17Z</time></trkpt><trkpt lat="44.621077" lon="-110.434498"><ele>2397.670</ele><time>2026-05-19T17:31:27Z</time></trkpt><trkpt lat="44.621097" lon="-110.434436"><ele>2397.820</ele><time>2026-05-19T17:31:35Z</time></trkpt><trkpt lat="44.621142" lon="-110.434342"><ele>2398.059</ele><time>2026-05-19T17:31:44Z</time></trkpt><trkpt lat="44.621209" lon="-110.434258"><ele>2397.603</ele><time>2026-05-19T17:31:53Z</time></trkpt><trkpt lat="44.62126" lon="-110.434196"><ele>2396.823</ele><time>2026-05-19T17:32:00Z</time></trkpt><trkpt lat="44.621286" lon="-110.434164"><ele>2396.409</ele><time>2026-05-19T17:32:03Z</time></trkpt><trkpt lat="44.621325" lon="-110.434114"><ele>2395.867</ele><time>2026-05-19T17:32:09Z</time></trkpt><trkpt lat="44.621353" lon="-110.434083"><ele>2395.441</ele><time>2026-05-19T17:32:13Z</time></trkpt><trkpt lat="44.621409" lon="-110.434014"><ele>2395.040</ele><time>2026-05-19T17:32:22Z</time></trkpt><trkpt lat="44.621478" lon="-110.433978"><ele>2394.886</ele><time>2026-05-19T17:32:30Z</time></trkpt><trkpt lat="44.6215" lon="-110.433979"><ele>2394.677</ele><time>2026-05-19T17:32:32Z</time></trkpt><trkpt lat="44.621546" lon="-110.433974"><ele>2394.029</ele><time>2026-05-19T17:32:37Z</time></trkpt><trkpt lat="44.621619" lon="-110.433969"><ele>2393.618</ele><time>2026-05-19T17:32:45Z</time></trkpt><trkpt lat="44.621628" lon="-110.433966"><ele>2393.457</ele><time>2026-05-19T17:32:46Z</time></trkpt><trkpt lat="44.621652" lon="-110.433881"><ele>2392.627</ele><time>2026-05-19T17:32:53Z</time></trkpt><trkpt lat="44.621665" lon="-110.433862"><ele>2392.421</ele><time>2026-05-19T17:32:55Z</time></trkpt><trkpt lat="44.6217" lon="-110.433839"><ele>2391.641</ele><time>2026-05-19T17:33:00Z</time></trkpt><trkpt lat="44.621701" lon="-110.433849"><ele>2392.005</ele><time>2026-05-19T17:33:07Z</time></trkpt><trkpt lat="44.621701" lon="-110.433848"><ele>2392.209</ele><time>2026-05-19T17:33:25Z</time></trkpt><trkpt lat="44.621701" lon="-110.433848"><ele>2392.214</ele><time>2026-05-19T17:33:35Z</time></trkpt><trkpt lat="44.621701" lon="-110.433848"><ele>2392.288</ele><time>2026-05-19T17:33:37Z</time></trkpt><trkpt lat="44.621701" lon="-110.433848"><ele>2391.817</ele><time>2026-05-19T17:33:49Z</time></trkpt><trkpt lat="44.621707" lon="-110.433835"><ele>2391.833</ele><time>2026-05-19T17:33:51Z</time></trkpt><trkpt lat="44.621719" lon="-110.43382"><ele>2391.664</ele><time>2026-05-19T17:33:53Z</time></trkpt><trkpt lat="44.621757" lon="-110.433777"><ele>2391.416</ele><time>2026-05-19T17:33:59Z</time></trkpt><trkpt lat="44.621777" lon="-110.433762"><ele>2391.245</ele><time>2026-05-19T17:34:02Z</time></trkpt><trkpt lat="44.621823" lon="-110.433795"><ele>2390.814</ele><time>2026-05-19T17:34:09Z</time></trkpt><trkpt lat="44.621849" lon="-110.433795"><ele>2390.684</ele><time>2026-05-19T17:34:12Z</time></trkpt><trkpt lat="44.621889" lon="-110.433762"><ele>2390.614</ele><time>2026-05-19T17:34:16Z</time></trkpt><trkpt lat="44.621915" lon="-110.43374"><ele>2390.254</ele><time>2026-05-19T17:34:19Z</time></trkpt><trkpt lat="44.621972" lon="-110.433691"><ele>2389.809</ele><time>2026-05-19T17:34:26Z</time></trkpt><trkpt lat="44.621998" lon="-110.433666"><ele>2389.409</ele><time>2026-05-19T17:34:30Z</time></trkpt><trkpt lat="44.622002" lon="-110.433659"><ele>2389.273</ele><time>2026-05-19T17:34:31Z</time></trkpt><trkpt lat="44.622032" lon="-110.433618"><ele>2389.087</ele><time>2026-05-19T17:34:35Z</time></trkpt><trkpt lat="44.622088" lon="-110.433541"><ele>2388.286</ele><time>2026-05-19T17:34:42Z</time></trkpt><trkpt lat="44.622115" lon="-110.433509"><ele>2387.842</ele><time>2026-05-19T17:34:45Z</time></trkpt><trkpt lat="44.622157" lon="-110.433441"><ele>2387.263</ele><time>2026-05-19T17:34:51Z</time></trkpt><trkpt lat="44.622191" lon="-110.433376"><ele>2386.615</ele><time>2026-05-19T17:34:56Z</time></trkpt><trkpt lat="44.622223" lon="-110.433306"><ele>2386.254</ele><time>2026-05-19T17:35:01Z</time></trkpt><trkpt lat="44.622243" lon="-110.433273"><ele>2385.833</ele><time>2026-05-19T17:35:04Z</time></trkpt><trkpt lat="44.622296" lon="-110.433176"><ele>2385.283</ele><time>2026-05-19T17:35:11Z</time></trkpt><trkpt lat="44.622312" lon="-110.433151"><ele>2385.054</ele><time>2026-05-19T17:35:13Z</time></trkpt><trkpt lat="44.62236" lon="-110.433103"><ele>2384.656</ele><time>2026-05-19T17:35:18Z</time></trkpt><trkpt lat="44.622407" lon="-110.433034"><ele>2383.811</ele><time>2026-05-19T17:35:24Z</time></trkpt><trkpt lat="44.622433" lon="-110.433001"><ele>2383.609</ele><time>2026-05-19T17:35:27Z</time></trkpt><trkpt lat="44.62249" lon="-110.432949"><ele>2382.877</ele><time>2026-05-19T17:35:33Z</time></trkpt><trkpt lat="44.622525" lon="-110.432928"><ele>2382.271</ele><time>2026-05-19T17:35:37Z</time></trkpt><trkpt lat="44.622553" lon="-110.432904"><ele>2381.630</ele><time>2026-05-19T17:35:40Z</time></trkpt><trkpt lat="44.622604" lon="-110.432881"><ele>2380.656</ele><time>2026-05-19T17:35:45Z</time></trkpt><trkpt lat="44.622615" lon="-110.432877"><ele>2380.457</ele><time>2026-05-19T17:35:46Z</time></trkpt><trkpt lat="44.622692" lon="-110.432861"><ele>2379.229</ele><time>2026-05-19T17:35:53Z</time></trkpt><trkpt lat="44.622716" lon="-110.432869"><ele>2379.058</ele><time>2026-05-19T17:35:55Z</time></trkpt><trkpt lat="44.622773" lon="-110.432892"><ele>2378.287</ele><time>2026-05-19T17:36:00Z</time></trkpt><trkpt lat="44.622807" lon="-110.432902"><ele>2377.857</ele><time>2026-05-19T17:36:03Z</time></trkpt><trkpt lat="44.622859" lon="-110.432924"><ele>2377.258</ele><time>2026-05-19T17:36:08Z</time></trkpt><trkpt lat="44.622892" lon="-110.43294"><ele>2376.652</ele><time>2026-05-19T17:36:11Z</time></trkpt><trkpt lat="44.622941" lon="-110.432951"><ele>2376.017</ele><time>2026-05-19T17:36:17Z</time></trkpt><trkpt lat="44.622935" lon="-110.432943"><ele>2376.009</ele><time>2026-05-19T17:36:19Z</time></trkpt><trkpt lat="44.622934" lon="-110.432937"><ele>2375.827</ele><time>2026-05-19T17:36:22Z</time></trkpt><trkpt lat="44.622938" lon="-110.432931"><ele>2375.631</ele><time>2026-05-19T17:36:29Z</time></trkpt><trkpt lat="44.622938" lon="-110.432931"><ele>2375.860</ele><time>2026-05-19T17:36:36Z</time></trkpt><trkpt lat="44.622938" lon="-110.432931"><ele>2375.816</ele><time>2026-05-19T17:36:38Z</time></trkpt><trkpt lat="44.622938" lon="-110.432931"><ele>2375.887</ele><time>2026-05-19T17:36:45Z</time></trkpt><trkpt lat="44.622938" lon="-110.432931"><ele>2375.829</ele><time>2026-05-19T17:36:53Z</time></trkpt><trkpt lat="44.622938" lon="-110.432931"><ele>2375.878</ele><time>2026-05-19T17:37:02Z</time></trkpt><trkpt lat="44.622938" lon="-110.432931"><ele>2375.617</ele><time>2026-05-19T17:37:11Z</time></trkpt><trkpt lat="44.622938" lon="-110.432931"><ele>2375.477</ele><time>2026-05-19T17:37:21Z</time></trkpt><trkpt lat="44.622938" lon="-110.432931"><ele>2375.623</ele><time>2026-05-19T17:37:30Z</time></trkpt><trkpt lat="44.622938" lon="-110.432931"><ele>2375.683</ele><time>2026-05-19T17:37:36Z</time></trkpt><trkpt lat="44.622958" lon="-110.432944"><ele>2375.411</ele><time>2026-05-19T17:37:41Z</time></trkpt><trkpt lat="44.622969" lon="-110.432956"><ele>2375.409</ele><time>2026-05-19T17:37:42Z</time></trkpt><trkpt lat="44.622992" lon="-110.432973"><ele>2375.054</ele><time>2026-05-19T17:37:44Z</time></trkpt><trkpt lat="44.623059" lon="-110.433001"><ele>2374.248</ele><time>2026-05-19T17:37:49Z</time></trkpt><trkpt lat="44.62315" lon="-110.433032"><ele>2374.027</ele><time>2026-05-19T17:37:56Z</time></trkpt><trkpt lat="44.623204" lon="-110.433034"><ele>2373.813</ele><time>2026-05-19T17:38:00Z</time></trkpt><trkpt lat="44.623311" lon="-110.433029"><ele>2373.684</ele><time>2026-05-19T17:38:09Z</time></trkpt><trkpt lat="44.623375" lon="-110.43306"><ele>2373.496</ele><time>2026-05-19T17:38:15Z</time></trkpt><trkpt lat="44.623425" lon="-110.433082"><ele>2372.665</ele><time>2026-05-19T17:38:19Z</time></trkpt><trkpt lat="44.623503" lon="-110.433088"><ele>2371.664</ele><time>2026-05-19T17:38:25Z</time></trkpt><trkpt lat="44.62355" lon="-110.433051"><ele>2371.214</ele><time>2026-05-19T17:38:29Z</time></trkpt><trkpt lat="44.623588" lon="-110.433006"><ele>2370.468</ele><time>2026-05-19T17:38:33Z</time></trkpt><trkpt lat="44.62361" lon="-110.432962"><ele>2370.042</ele><time>2026-05-19T17:38:36Z</time></trkpt><trkpt lat="44.623678" lon="-110.432889"><ele>2369.426</ele><time>2026-05-19T17:38:43Z</time></trkpt><trkpt lat="44.6237" lon="-110.432883"><ele>2369.209</ele><time>2026-05-19T17:38:45Z</time></trkpt><trkpt lat="44.623771" lon="-110.432913"><ele>2368.618</ele><time>2026-05-19T17:38:51Z</time></trkpt><trkpt lat="44.623799" lon="-110.432921"><ele>2368.252</ele><time>2026-05-19T17:38:53Z</time></trkpt><trkpt lat="44.623878" lon="-110.432951"><ele>2367.271</ele><time>2026-05-19T17:39:00Z</time></trkpt><trkpt lat="44.623928" lon="-110.432967"><ele>2366.497</ele><time>2026-05-19T17:39:04Z</time></trkpt><trkpt lat="44.623947" lon="-110.432979"><ele>2366.238</ele><time>2026-05-19T17:39:06Z</time></trkpt><trkpt lat="44.623961" lon="-110.432986"><ele>2365.810</ele><time>2026-05-19T17:39:07Z</time></trkpt><trkpt lat="44.624005" lon="-110.432997"><ele>2365.039</ele><time>2026-05-19T17:39:10Z</time></trkpt><trkpt lat="44.624036" lon="-110.432996"><ele>2364.628</ele><time>2026-05-19T17:39:13Z</time></trkpt><trkpt lat="44.624093" lon="-110.433006"><ele>2365.068</ele><time>2026-05-19T17:39:18Z</time></trkpt><trkpt lat="44.624118" lon="-110.433014"><ele>2365.211</ele><time>2026-05-19T17:39:20Z</time></trkpt><trkpt lat="44.62413" lon="-110.433013"><ele>2365.221</ele><time>2026-05-19T17:39:21Z</time></trkpt><trkpt lat="44.624141" lon="-110.433016"><ele>2365.203</ele><time>2026-05-19T17:39:22Z</time></trkpt><trkpt lat="44.624238" lon="-110.433081"><ele>2366.009</ele><time>2026-05-19T17:39:32Z</time></trkpt><trkpt lat="44.624249" lon="-110.433087"><ele>2366.243</ele><time>2026-05-19T17:39:33Z</time></trkpt><trkpt lat="44.624307" lon="-110.433092"><ele>2366.227</ele><time>2026-05-19T17:39:38Z</time></trkpt><trkpt lat="44.624349" lon="-110.433099"><ele>2366.476</ele><time>2026-05-19T17:39:42Z</time></trkpt><trkpt lat="44.62438" lon="-110.433114"><ele>2366.642</ele><time>2026-05-19T17:39:45Z</time></trkpt><trkpt lat="44.624402" lon="-110.433111"><ele>2366.643</ele><time>2026-05-19T17:39:47Z</time></trkpt><trkpt lat="44.624488" lon="-110.433133"><ele>2366.645</ele><time>2026-05-19T17:39:56Z</time></trkpt><trkpt lat="44.624557" lon="-110.433179"><ele>2367.244</ele><time>2026-05-19T17:40:03Z</time></trkpt><trkpt lat="44.624658" lon="-110.433234"><ele>2367.663</ele><time>2026-05-19T17:40:12Z</time></trkpt><trkpt lat="44.624742" lon="-110.433234"><ele>2366.613</ele><time>2026-05-19T17:40:21Z</time></trkpt><trkpt lat="44.624746" lon="-110.433231"><ele>2366.227</ele><time>2026-05-19T17:40:26Z</time></trkpt><trkpt lat="44.624744" lon="-110.433228"><ele>2366.268</ele><time>2026-05-19T17:40:28Z</time></trkpt><trkpt lat="44.624745" lon="-110.433222"><ele>2365.814</ele><time>2026-05-19T17:40:35Z</time></trkpt><trkpt lat="44.624754" lon="-110.433225"><ele>2366.209</ele><time>2026-05-19T17:40:42Z</time></trkpt><trkpt lat="44.624755" lon="-110.433224"><ele>2366.264</ele><time>2026-05-19T17:40:43Z</time></trkpt></trkseg></trk></gpx>