<?xml version="1.0" encoding="UTF-8"?><gpx creator="Wikiloc - http://www.wikiloc.com" version="1.1" xmlns="http://www.topografix.com/GPX/1/1" xmlns:xsi="http://www.w3.org/2001/XMLSchema-instance" xsi:schemaLocation="http://www.topografix.com/GPX/1/1 http://www.topografix.com/GPX/1/1/gpx.xsd"><trk><name><![CDATA[Yellowstone National Park: West Thumb]]></name><cmt><![CDATA[West Thumb]]></cmt><desc><![CDATA[West Thumb]]></desc><trkseg><trkpt lat="44.415354" lon="-110.573995"><ele>2373.057</ele><time>2026-05-13T17:53:50Z</time></trkpt><trkpt lat="44.415366" lon="-110.573992"><ele>2373.200</ele><time>2026-05-13T17:53:51Z</time></trkpt><trkpt lat="44.415344" lon="-110.573913"><ele>2373.220</ele><time>2026-05-13T17:53:54Z</time></trkpt><trkpt lat="44.415333" lon="-110.573862"><ele>2373.009</ele><time>2026-05-13T17:53:57Z</time></trkpt><trkpt lat="44.41528" lon="-110.573799"><ele>2373.287</ele><time>2026-05-13T17:54:05Z</time></trkpt><trkpt lat="44.41528" lon="-110.573808"><ele>2373.061</ele><time>2026-05-13T17:54:14Z</time></trkpt><trkpt lat="44.415288" lon="-110.57379"><ele>2373.269</ele><time>2026-05-13T17:54:21Z</time></trkpt><trkpt lat="44.415304" lon="-110.573771"><ele>2373.256</ele><time>2026-05-13T17:54:24Z</time></trkpt><trkpt lat="44.415321" lon="-110.573727"><ele>2373.465</ele><time>2026-05-13T17:54:27Z</time></trkpt><trkpt lat="44.415339" lon="-110.573674"><ele>2373.645</ele><time>2026-05-13T17:54:33Z</time></trkpt><trkpt lat="44.415299" lon="-110.573616"><ele>2373.266</ele><time>2026-05-13T17:54:38Z</time></trkpt><trkpt lat="44.415279" lon="-110.573577"><ele>2373.426</ele><time>2026-05-13T17:54:43Z</time></trkpt><trkpt lat="44.415284" lon="-110.573567"><ele>2373.498</ele><time>2026-05-13T17:54:44Z</time></trkpt><trkpt lat="44.415307" lon="-110.57352"><ele>2374.038</ele><time>2026-05-13T17:54:51Z</time></trkpt><trkpt lat="44.415338" lon="-110.573461"><ele>2373.470</ele><time>2026-05-13T17:54:59Z</time></trkpt><trkpt lat="44.415381" lon="-110.573411"><ele>2373.617</ele><time>2026-05-13T17:55:06Z</time></trkpt><trkpt lat="44.415409" lon="-110.573373"><ele>2374.009</ele><time>2026-05-13T17:55:13Z</time></trkpt><trkpt lat="44.415413" lon="-110.573364"><ele>2374.235</ele><time>2026-05-13T17:55:14Z</time></trkpt><trkpt lat="44.415437" lon="-110.573311"><ele>2374.489</ele><time>2026-05-13T17:55:21Z</time></trkpt><trkpt lat="44.415475" lon="-110.573281"><ele>2374.467</ele><time>2026-05-13T17:55:28Z</time></trkpt><trkpt lat="44.41552" lon="-110.573219"><ele>2374.444</ele><time>2026-05-13T17:55:35Z</time></trkpt><trkpt lat="44.415553" lon="-110.573162"><ele>2374.683</ele><time>2026-05-13T17:55:41Z</time></trkpt><trkpt lat="44.415564" lon="-110.573139"><ele>2374.683</ele><time>2026-05-13T17:55:43Z</time></trkpt><trkpt lat="44.415571" lon="-110.573107"><ele>2374.664</ele><time>2026-05-13T17:55:47Z</time></trkpt><trkpt lat="44.415575" lon="-110.573103"><ele>2374.844</ele><time>2026-05-13T17:55:50Z</time></trkpt><trkpt lat="44.415625" lon="-110.573048"><ele>2374.876</ele><time>2026-05-13T17:55:58Z</time></trkpt><trkpt lat="44.415642" lon="-110.572986"><ele>2375.091</ele><time>2026-05-13T17:56:04Z</time></trkpt><trkpt lat="44.415663" lon="-110.572896"><ele>2374.881</ele><time>2026-05-13T17:56:12Z</time></trkpt><trkpt lat="44.415659" lon="-110.572877"><ele>2374.819</ele><time>2026-05-13T17:56:19Z</time></trkpt><trkpt lat="44.415692" lon="-110.572837"><ele>2375.009</ele><time>2026-05-13T17:56:25Z</time></trkpt><trkpt lat="44.415725" lon="-110.5728"><ele>2374.881</ele><time>2026-05-13T17:56:31Z</time></trkpt><trkpt lat="44.415758" lon="-110.572747"><ele>2374.495</ele><time>2026-05-13T17:56:40Z</time></trkpt><trkpt lat="44.415765" lon="-110.572729"><ele>2374.443</ele><time>2026-05-13T17:56:45Z</time></trkpt><trkpt lat="44.415768" lon="-110.572709"><ele>2374.670</ele><time>2026-05-13T17:56:51Z</time></trkpt><trkpt lat="44.415741" lon="-110.572765"><ele>2374.479</ele><time>2026-05-13T17:56:58Z</time></trkpt><trkpt lat="44.415752" lon="-110.572751"><ele>2374.429</ele><time>2026-05-13T17:57:03Z</time></trkpt><trkpt lat="44.415767" lon="-110.57273"><ele>2374.610</ele><time>2026-05-13T17:57:05Z</time></trkpt><trkpt lat="44.415823" lon="-110.57263"><ele>2374.270</ele><time>2026-05-13T17:57:14Z</time></trkpt><trkpt lat="44.415884" lon="-110.572548"><ele>2374.022</ele><time>2026-05-13T17:57:22Z</time></trkpt><trkpt lat="44.415927" lon="-110.572486"><ele>2373.689</ele><time>2026-05-13T17:57:29Z</time></trkpt><trkpt lat="44.415993" lon="-110.572429"><ele>2373.606</ele><time>2026-05-13T17:57:38Z</time></trkpt><trkpt lat="44.415992" lon="-110.572414"><ele>2373.626</ele><time>2026-05-13T17:57:39Z</time></trkpt><trkpt lat="44.415969" lon="-110.572361"><ele>2373.609</ele><time>2026-05-13T17:57:43Z</time></trkpt><trkpt lat="44.415924" lon="-110.572285"><ele>2373.630</ele><time>2026-05-13T17:57:51Z</time></trkpt><trkpt lat="44.415894" lon="-110.572211"><ele>2374.014</ele><time>2026-05-13T17:57:58Z</time></trkpt><trkpt lat="44.415887" lon="-110.572158"><ele>2373.072</ele><time>2026-05-13T17:58:05Z</time></trkpt><trkpt lat="44.415885" lon="-110.572159"><ele>2373.059</ele><time>2026-05-13T17:58:06Z</time></trkpt><trkpt lat="44.415865" lon="-110.572114"><ele>2373.658</ele><time>2026-05-13T17:58:13Z</time></trkpt><trkpt lat="44.415854" lon="-110.572015"><ele>2373.668</ele><time>2026-05-13T17:58:23Z</time></trkpt><trkpt lat="44.415873" lon="-110.571941"><ele>2373.499</ele><time>2026-05-13T17:58:30Z</time></trkpt><trkpt lat="44.415901" lon="-110.571889"><ele>2373.299</ele><time>2026-05-13T17:58:36Z</time></trkpt><trkpt lat="44.41591" lon="-110.571861"><ele>2373.221</ele><time>2026-05-13T17:58:38Z</time></trkpt><trkpt lat="44.415892" lon="-110.5718"><ele>2373.039</ele><time>2026-05-13T17:58:46Z</time></trkpt><trkpt lat="44.415873" lon="-110.571781"><ele>2372.601</ele><time>2026-05-13T17:58:54Z</time></trkpt><trkpt lat="44.415847" lon="-110.571742"><ele>2372.221</ele><time>2026-05-13T17:59:02Z</time></trkpt><trkpt lat="44.415815" lon="-110.571682"><ele>2373.009</ele><time>2026-05-13T17:59:10Z</time></trkpt><trkpt lat="44.415774" lon="-110.571603"><ele>2372.875</ele><time>2026-05-13T17:59:20Z</time></trkpt><trkpt lat="44.415751" lon="-110.571523"><ele>2373.059</ele><time>2026-05-13T17:59:28Z</time></trkpt><trkpt lat="44.41575" lon="-110.571486"><ele>2372.647</ele><time>2026-05-13T17:59:35Z</time></trkpt><trkpt lat="44.415751" lon="-110.57148"><ele>2372.414</ele><time>2026-05-13T17:59:38Z</time></trkpt><trkpt lat="44.415751" lon="-110.571465"><ele>2372.213</ele><time>2026-05-13T17:59:43Z</time></trkpt><trkpt lat="44.415742" lon="-110.571398"><ele>2372.433</ele><time>2026-05-13T17:59:50Z</time></trkpt><trkpt lat="44.415752" lon="-110.571402"><ele>2371.854</ele><time>2026-05-13T17:59:57Z</time></trkpt><trkpt lat="44.415752" lon="-110.571404"><ele>2371.874</ele><time>2026-05-13T17:59:58Z</time></trkpt><trkpt lat="44.415751" lon="-110.571382"><ele>2371.696</ele><time>2026-05-13T18:00:04Z</time></trkpt><trkpt lat="44.415753" lon="-110.571388"><ele>2371.813</ele><time>2026-05-13T18:00:12Z</time></trkpt><trkpt lat="44.415728" lon="-110.571307"><ele>2371.643</ele><time>2026-05-13T18:00:21Z</time></trkpt><trkpt lat="44.415727" lon="-110.571288"><ele>2371.607</ele><time>2026-05-13T18:00:27Z</time></trkpt><trkpt lat="44.415704" lon="-110.571259"><ele>2371.409</ele><time>2026-05-13T18:00:35Z</time></trkpt><trkpt lat="44.415676" lon="-110.571173"><ele>2371.083</ele><time>2026-05-13T18:00:46Z</time></trkpt><trkpt lat="44.41568" lon="-110.571107"><ele>2371.037</ele><time>2026-05-13T18:00:53Z</time></trkpt><trkpt lat="44.415702" lon="-110.57109"><ele>2370.865</ele><time>2026-05-13T18:00:59Z</time></trkpt><trkpt lat="44.415699" lon="-110.571092"><ele>2370.812</ele><time>2026-05-13T18:01:01Z</time></trkpt><trkpt lat="44.415706" lon="-110.571092"><ele>2370.811</ele><time>2026-05-13T18:01:11Z</time></trkpt><trkpt lat="44.415699" lon="-110.571087"><ele>2371.071</ele><time>2026-05-13T18:01:25Z</time></trkpt><trkpt lat="44.415685" lon="-110.57109"><ele>2370.622</ele><time>2026-05-13T18:01:34Z</time></trkpt><trkpt lat="44.415679" lon="-110.571084"><ele>2370.632</ele><time>2026-05-13T18:01:36Z</time></trkpt><trkpt lat="44.415649" lon="-110.571068"><ele>2370.884</ele><time>2026-05-13T18:01:42Z</time></trkpt><trkpt lat="44.415643" lon="-110.571007"><ele>2371.048</ele><time>2026-05-13T18:01:48Z</time></trkpt><trkpt lat="44.415666" lon="-110.570952"><ele>2370.461</ele><time>2026-05-13T18:01:55Z</time></trkpt><trkpt lat="44.415674" lon="-110.570916"><ele>2370.017</ele><time>2026-05-13T18:02:00Z</time></trkpt><trkpt lat="44.415675" lon="-110.570898"><ele>2369.809</ele><time>2026-05-13T18:02:03Z</time></trkpt><trkpt lat="44.415678" lon="-110.570859"><ele>2369.426</ele><time>2026-05-13T18:02:09Z</time></trkpt><trkpt lat="44.415658" lon="-110.570794"><ele>2368.830</ele><time>2026-05-13T18:02:16Z</time></trkpt><trkpt lat="44.415655" lon="-110.570784"><ele>2368.858</ele><time>2026-05-13T18:02:17Z</time></trkpt><trkpt lat="44.415645" lon="-110.570689"><ele>2368.235</ele><time>2026-05-13T18:02:27Z</time></trkpt><trkpt lat="44.415657" lon="-110.570636"><ele>2367.884</ele><time>2026-05-13T18:02:34Z</time></trkpt><trkpt lat="44.415662" lon="-110.57062"><ele>2367.614</ele><time>2026-05-13T18:02:36Z</time></trkpt><trkpt lat="44.415666" lon="-110.570608"><ele>2367.495</ele><time>2026-05-13T18:02:37Z</time></trkpt><trkpt lat="44.415672" lon="-110.570596"><ele>2367.495</ele><time>2026-05-13T18:02:38Z</time></trkpt><trkpt lat="44.415701" lon="-110.570547"><ele>2367.077</ele><time>2026-05-13T18:02:44Z</time></trkpt><trkpt lat="44.415725" lon="-110.570504"><ele>2366.628</ele><time>2026-05-13T18:02:48Z</time></trkpt><trkpt lat="44.415739" lon="-110.570475"><ele>2366.289</ele><time>2026-05-13T18:02:51Z</time></trkpt><trkpt lat="44.415777" lon="-110.570394"><ele>2367.017</ele><time>2026-05-13T18:03:00Z</time></trkpt><trkpt lat="44.415824" lon="-110.570328"><ele>2365.809</ele><time>2026-05-13T18:03:09Z</time></trkpt><trkpt lat="44.415846" lon="-110.570286"><ele>2365.684</ele><time>2026-05-13T18:03:13Z</time></trkpt><trkpt lat="44.415858" lon="-110.570251"><ele>2365.628</ele><time>2026-05-13T18:03:17Z</time></trkpt><trkpt lat="44.415894" lon="-110.57016"><ele>2365.276</ele><time>2026-05-13T18:03:26Z</time></trkpt><trkpt lat="44.41589" lon="-110.570065"><ele>2365.043</ele><time>2026-05-13T18:03:33Z</time></trkpt><trkpt lat="44.415881" lon="-110.570041"><ele>2364.842</ele><time>2026-05-13T18:03:39Z</time></trkpt><trkpt lat="44.415876" lon="-110.570028"><ele>2364.482</ele><time>2026-05-13T18:03:42Z</time></trkpt><trkpt lat="44.415872" lon="-110.569997"><ele>2364.263</ele><time>2026-05-13T18:03:46Z</time></trkpt><trkpt lat="44.41585" lon="-110.56993"><ele>2363.663</ele><time>2026-05-13T18:03:53Z</time></trkpt><trkpt lat="44.415847" lon="-110.569855"><ele>2363.695</ele><time>2026-05-13T18:04:00Z</time></trkpt><trkpt lat="44.415848" lon="-110.569842"><ele>2363.475</ele><time>2026-05-13T18:04:01Z</time></trkpt><trkpt lat="44.415856" lon="-110.569786"><ele>2362.828</ele><time>2026-05-13T18:04:06Z</time></trkpt><trkpt lat="44.415862" lon="-110.569749"><ele>2362.820</ele><time>2026-05-13T18:04:09Z</time></trkpt><trkpt lat="44.415876" lon="-110.569685"><ele>2362.209</ele><time>2026-05-13T18:04:15Z</time></trkpt><trkpt lat="44.415889" lon="-110.569667"><ele>2362.079</ele><time>2026-05-13T18:04:18Z</time></trkpt><trkpt lat="44.415905" lon="-110.569662"><ele>2361.663</ele><time>2026-05-13T18:04:26Z</time></trkpt><trkpt lat="44.41591" lon="-110.569659"><ele>2361.881</ele><time>2026-05-13T18:04:37Z</time></trkpt><trkpt lat="44.41593" lon="-110.569665"><ele>2362.028</ele><time>2026-05-13T18:04:44Z</time></trkpt><trkpt lat="44.415985" lon="-110.569668"><ele>2361.637</ele><time>2026-05-13T18:04:53Z</time></trkpt><trkpt lat="44.416011" lon="-110.569651"><ele>2361.237</ele><time>2026-05-13T18:05:00Z</time></trkpt><trkpt lat="44.416048" lon="-110.569638"><ele>2362.078</ele><time>2026-05-13T18:05:09Z</time></trkpt><trkpt lat="44.416104" lon="-110.569624"><ele>2361.698</ele><time>2026-05-13T18:05:17Z</time></trkpt><trkpt lat="44.416136" lon="-110.569616"><ele>2361.240</ele><time>2026-05-13T18:05:22Z</time></trkpt><trkpt lat="44.416144" lon="-110.569616"><ele>2361.295</ele><time>2026-05-13T18:05:23Z</time></trkpt><trkpt lat="44.416201" lon="-110.569612"><ele>2361.249</ele><time>2026-05-13T18:05:30Z</time></trkpt><trkpt lat="44.416241" lon="-110.569621"><ele>2360.823</ele><time>2026-05-13T18:05:38Z</time></trkpt><trkpt lat="44.416245" lon="-110.569618"><ele>2361.009</ele><time>2026-05-13T18:05:41Z</time></trkpt><trkpt lat="44.416244" lon="-110.569614"><ele>2361.281</ele><time>2026-05-13T18:05:45Z</time></trkpt><trkpt lat="44.416244" lon="-110.569614"><ele>2361.455</ele><time>2026-05-13T18:05:56Z</time></trkpt><trkpt lat="44.416244" lon="-110.569614"><ele>2361.283</ele><time>2026-05-13T18:06:06Z</time></trkpt><trkpt lat="44.416251" lon="-110.569613"><ele>2361.670</ele><time>2026-05-13T18:06:21Z</time></trkpt><trkpt lat="44.416274" lon="-110.569639"><ele>2361.699</ele><time>2026-05-13T18:06:27Z</time></trkpt><trkpt lat="44.416309" lon="-110.569642"><ele>2361.899</ele><time>2026-05-13T18:06:36Z</time></trkpt><trkpt lat="44.416359" lon="-110.569683"><ele>2361.230</ele><time>2026-05-13T18:06:44Z</time></trkpt><trkpt lat="44.416385" lon="-110.56971"><ele>2361.240</ele><time>2026-05-13T18:06:50Z</time></trkpt><trkpt lat="44.416381" lon="-110.569697"><ele>2361.232</ele><time>2026-05-13T18:06:56Z</time></trkpt><trkpt lat="44.416381" lon="-110.569697"><ele>2361.454</ele><time>2026-05-13T18:06:57Z</time></trkpt><trkpt lat="44.416375" lon="-110.569697"><ele>2361.456</ele><time>2026-05-13T18:07:05Z</time></trkpt><trkpt lat="44.416381" lon="-110.569697"><ele>2361.411</ele><time>2026-05-13T18:07:12Z</time></trkpt><trkpt lat="44.416374" lon="-110.5697"><ele>2361.609</ele><time>2026-05-13T18:07:14Z</time></trkpt><trkpt lat="44.416389" lon="-110.56971"><ele>2361.477</ele><time>2026-05-13T18:07:17Z</time></trkpt><trkpt lat="44.41639" lon="-110.569714"><ele>2361.491</ele><time>2026-05-13T18:07:18Z</time></trkpt><trkpt lat="44.416412" lon="-110.569735"><ele>2361.229</ele><time>2026-05-13T18:07:24Z</time></trkpt><trkpt lat="44.416452" lon="-110.569777"><ele>2360.856</ele><time>2026-05-13T18:07:31Z</time></trkpt><trkpt lat="44.416489" lon="-110.569816"><ele>2360.685</ele><time>2026-05-13T18:07:38Z</time></trkpt><trkpt lat="44.416495" lon="-110.569824"><ele>2361.095</ele><time>2026-05-13T18:07:46Z</time></trkpt><trkpt lat="44.416516" lon="-110.569833"><ele>2360.876</ele><time>2026-05-13T18:07:55Z</time></trkpt><trkpt lat="44.416531" lon="-110.569837"><ele>2361.016</ele><time>2026-05-13T18:07:57Z</time></trkpt><trkpt lat="44.416535" lon="-110.569833"><ele>2360.838</ele><time>2026-05-13T18:08:07Z</time></trkpt><trkpt lat="44.416564" lon="-110.569842"><ele>2360.643</ele><time>2026-05-13T18:08:12Z</time></trkpt><trkpt lat="44.416576" lon="-110.569852"><ele>2360.464</ele><time>2026-05-13T18:08:14Z</time></trkpt><trkpt lat="44.416581" lon="-110.569858"><ele>2360.410</ele><time>2026-05-13T18:08:15Z</time></trkpt><trkpt lat="44.416586" lon="-110.569862"><ele>2360.609</ele><time>2026-05-13T18:08:18Z</time></trkpt><trkpt lat="44.416585" lon="-110.569862"><ele>2360.646</ele><time>2026-05-13T18:08:21Z</time></trkpt><trkpt lat="44.416587" lon="-110.569861"><ele>2361.610</ele><time>2026-05-13T18:08:31Z</time></trkpt><trkpt lat="44.416614" lon="-110.569868"><ele>2361.058</ele><time>2026-05-13T18:08:38Z</time></trkpt><trkpt lat="44.416637" lon="-110.569888"><ele>2360.875</ele><time>2026-05-13T18:08:41Z</time></trkpt><trkpt lat="44.416645" lon="-110.569893"><ele>2361.224</ele><time>2026-05-13T18:08:45Z</time></trkpt><trkpt lat="44.416688" lon="-110.569937"><ele>2361.284</ele><time>2026-05-13T18:08:53Z</time></trkpt><trkpt lat="44.416728" lon="-110.569951"><ele>2361.265</ele><time>2026-05-13T18:09:00Z</time></trkpt><trkpt lat="44.416734" lon="-110.569929"><ele>2360.895</ele><time>2026-05-13T18:09:07Z</time></trkpt><trkpt lat="44.416732" lon="-110.569948"><ele>2361.697</ele><time>2026-05-13T18:09:15Z</time></trkpt><trkpt lat="44.416732" lon="-110.569945"><ele>2361.413</ele><time>2026-05-13T18:09:22Z</time></trkpt><trkpt lat="44.416733" lon="-110.569951"><ele>2361.043</ele><time>2026-05-13T18:09:39Z</time></trkpt><trkpt lat="44.416731" lon="-110.569951"><ele>2360.807</ele><time>2026-05-13T18:09:40Z</time></trkpt><trkpt lat="44.416733" lon="-110.569947"><ele>2360.209</ele><time>2026-05-13T18:09:43Z</time></trkpt><trkpt lat="44.416754" lon="-110.569945"><ele>2360.223</ele><time>2026-05-13T18:09:48Z</time></trkpt><trkpt lat="44.416762" lon="-110.569974"><ele>2360.047</ele><time>2026-05-13T18:09:51Z</time></trkpt><trkpt lat="44.416774" lon="-110.569995"><ele>2360.015</ele><time>2026-05-13T18:09:53Z</time></trkpt><trkpt lat="44.416791" lon="-110.57004"><ele>2360.622</ele><time>2026-05-13T18:09:59Z</time></trkpt><trkpt lat="44.41682" lon="-110.570074"><ele>2360.831</ele><time>2026-05-13T18:10:06Z</time></trkpt><trkpt lat="44.416842" lon="-110.570096"><ele>2361.051</ele><time>2026-05-13T18:10:15Z</time></trkpt><trkpt lat="44.416888" lon="-110.570146"><ele>2360.842</ele><time>2026-05-13T18:10:22Z</time></trkpt><trkpt lat="44.416945" lon="-110.570209"><ele>2361.022</ele><time>2026-05-13T18:10:31Z</time></trkpt><trkpt lat="44.41697" lon="-110.570226"><ele>2361.094</ele><time>2026-05-13T18:10:38Z</time></trkpt><trkpt lat="44.416971" lon="-110.57023"><ele>2360.823</ele><time>2026-05-13T18:10:44Z</time></trkpt><trkpt lat="44.41701" lon="-110.570264"><ele>2361.083</ele><time>2026-05-13T18:10:50Z</time></trkpt><trkpt lat="44.417017" lon="-110.570268"><ele>2361.011</ele><time>2026-05-13T18:10:51Z</time></trkpt><trkpt lat="44.417053" lon="-110.570295"><ele>2361.209</ele><time>2026-05-13T18:10:55Z</time></trkpt><trkpt lat="44.417056" lon="-110.570302"><ele>2361.034</ele><time>2026-05-13T18:10:59Z</time></trkpt><trkpt lat="44.417056" lon="-110.570302"><ele>2361.048</ele><time>2026-05-13T18:11:11Z</time></trkpt><trkpt lat="44.41706" lon="-110.570301"><ele>2361.016</ele><time>2026-05-13T18:11:14Z</time></trkpt><trkpt lat="44.417066" lon="-110.570306"><ele>2361.083</ele><time>2026-05-13T18:11:15Z</time></trkpt><trkpt lat="44.417089" lon="-110.570316"><ele>2361.482</ele><time>2026-05-13T18:11:21Z</time></trkpt><trkpt lat="44.417062" lon="-110.570313"><ele>2361.422</ele><time>2026-05-13T18:11:27Z</time></trkpt><trkpt lat="44.417056" lon="-110.570302"><ele>2361.473</ele><time>2026-05-13T18:11:33Z</time></trkpt><trkpt lat="44.417056" lon="-110.570302"><ele>2361.023</ele><time>2026-05-13T18:11:41Z</time></trkpt><trkpt lat="44.417092" lon="-110.570317"><ele>2361.035</ele><time>2026-05-13T18:11:49Z</time></trkpt><trkpt lat="44.417166" lon="-110.570367"><ele>2361.024</ele><time>2026-05-13T18:11:59Z</time></trkpt><trkpt lat="44.417224" lon="-110.570378"><ele>2362.004</ele><time>2026-05-13T18:12:08Z</time></trkpt><trkpt lat="44.417228" lon="-110.570367"><ele>2362.414</ele><time>2026-05-13T18:12:10Z</time></trkpt><trkpt lat="44.417227" lon="-110.570365"><ele>2362.409</ele><time>2026-05-13T18:12:14Z</time></trkpt><trkpt lat="44.417225" lon="-110.570388"><ele>2362.624</ele><time>2026-05-13T18:12:18Z</time></trkpt><trkpt lat="44.417224" lon="-110.570388"><ele>2362.498</ele><time>2026-05-13T18:12:19Z</time></trkpt><trkpt lat="44.417223" lon="-110.570387"><ele>2361.296</ele><time>2026-05-13T18:12:23Z</time></trkpt><trkpt lat="44.41723" lon="-110.570404"><ele>2361.263</ele><time>2026-05-13T18:12:29Z</time></trkpt><trkpt lat="44.417255" lon="-110.57043"><ele>2361.492</ele><time>2026-05-13T18:12:34Z</time></trkpt><trkpt lat="44.41727" lon="-110.570431"><ele>2361.692</ele><time>2026-05-13T18:12:44Z</time></trkpt><trkpt lat="44.417282" lon="-110.570444"><ele>2361.853</ele><time>2026-05-13T18:12:50Z</time></trkpt><trkpt lat="44.417286" lon="-110.570453"><ele>2362.263</ele><time>2026-05-13T18:13:00Z</time></trkpt><trkpt lat="44.417273" lon="-110.570444"><ele>2361.455</ele><time>2026-05-13T18:13:07Z</time></trkpt><trkpt lat="44.417272" lon="-110.57044"><ele>2361.297</ele><time>2026-05-13T18:13:09Z</time></trkpt><trkpt lat="44.417273" lon="-110.570438"><ele>2361.223</ele><time>2026-05-13T18:13:10Z</time></trkpt><trkpt lat="44.417268" lon="-110.570441"><ele>2362.225</ele><time>2026-05-13T18:13:20Z</time></trkpt><trkpt lat="44.417266" lon="-110.570434"><ele>2361.809</ele><time>2026-05-13T18:13:23Z</time></trkpt><trkpt lat="44.417271" lon="-110.57043"><ele>2362.061</ele><time>2026-05-13T18:13:33Z</time></trkpt><trkpt lat="44.417336" lon="-110.57049"><ele>2362.095</ele><time>2026-05-13T18:13:41Z</time></trkpt><trkpt lat="44.417354" lon="-110.570506"><ele>2361.813</ele><time>2026-05-13T18:13:43Z</time></trkpt><trkpt lat="44.41738" lon="-110.57053"><ele>2361.890</ele><time>2026-05-13T18:13:46Z</time></trkpt><trkpt lat="44.417432" lon="-110.570577"><ele>2362.099</ele><time>2026-05-13T18:13:52Z</time></trkpt><trkpt lat="44.417444" lon="-110.57059"><ele>2362.079</ele><time>2026-05-13T18:13:54Z</time></trkpt><trkpt lat="44.417532" lon="-110.570678"><ele>2362.020</ele><time>2026-05-13T18:14:07Z</time></trkpt><trkpt lat="44.417555" lon="-110.570682"><ele>2362.450</ele><time>2026-05-13T18:14:10Z</time></trkpt><trkpt lat="44.417568" lon="-110.570679"><ele>2362.222</ele><time>2026-05-13T18:14:14Z</time></trkpt><trkpt lat="44.417591" lon="-110.570715"><ele>2362.215</ele><time>2026-05-13T18:14:22Z</time></trkpt><trkpt lat="44.417666" lon="-110.570796"><ele>2362.265</ele><time>2026-05-13T18:14:32Z</time></trkpt><trkpt lat="44.417708" lon="-110.570831"><ele>2362.011</ele><time>2026-05-13T18:14:39Z</time></trkpt><trkpt lat="44.417746" lon="-110.570873"><ele>2362.009</ele><time>2026-05-13T18:14:45Z</time></trkpt><trkpt lat="44.417752" lon="-110.570875"><ele>2362.073</ele><time>2026-05-13T18:14:46Z</time></trkpt><trkpt lat="44.417776" lon="-110.570896"><ele>2362.077</ele><time>2026-05-13T18:14:49Z</time></trkpt><trkpt lat="44.417791" lon="-110.570907"><ele>2362.275</ele><time>2026-05-13T18:14:51Z</time></trkpt><trkpt lat="44.417838" lon="-110.570954"><ele>2362.092</ele><time>2026-05-13T18:14:59Z</time></trkpt><trkpt lat="44.417854" lon="-110.570968"><ele>2362.081</ele><time>2026-05-13T18:15:06Z</time></trkpt><trkpt lat="44.41788" lon="-110.571005"><ele>2362.071</ele><time>2026-05-13T18:15:13Z</time></trkpt><trkpt lat="44.417903" lon="-110.571055"><ele>2362.232</ele><time>2026-05-13T18:15:19Z</time></trkpt><trkpt lat="44.41796" lon="-110.571139"><ele>2363.092</ele><time>2026-05-13T18:15:29Z</time></trkpt><trkpt lat="44.417983" lon="-110.571162"><ele>2363.414</ele><time>2026-05-13T18:15:32Z</time></trkpt><trkpt lat="44.418022" lon="-110.571222"><ele>2363.651</ele><time>2026-05-13T18:15:38Z</time></trkpt><trkpt lat="44.418038" lon="-110.571261"><ele>2363.601</ele><time>2026-05-13T18:15:41Z</time></trkpt><trkpt lat="44.418052" lon="-110.571291"><ele>2364.011</ele><time>2026-05-13T18:15:44Z</time></trkpt><trkpt lat="44.418058" lon="-110.571303"><ele>2364.009</ele><time>2026-05-13T18:15:45Z</time></trkpt><trkpt lat="44.41807" lon="-110.571321"><ele>2364.067</ele><time>2026-05-13T18:15:47Z</time></trkpt><trkpt lat="44.41811" lon="-110.571387"><ele>2364.421</ele><time>2026-05-13T18:15:53Z</time></trkpt><trkpt lat="44.418122" lon="-110.571406"><ele>2364.499</ele><time>2026-05-13T18:15:55Z</time></trkpt><trkpt lat="44.418167" lon="-110.571477"><ele>2364.626</ele><time>2026-05-13T18:16:02Z</time></trkpt><trkpt lat="44.418229" lon="-110.571584"><ele>2365.215</ele><time>2026-05-13T18:16:13Z</time></trkpt><trkpt lat="44.418235" lon="-110.571595"><ele>2365.495</ele><time>2026-05-13T18:16:14Z</time></trkpt><trkpt lat="44.41827" lon="-110.571655"><ele>2365.426</ele><time>2026-05-13T18:16:20Z</time></trkpt><trkpt lat="44.418301" lon="-110.57168"><ele>2365.626</ele><time>2026-05-13T18:16:24Z</time></trkpt><trkpt lat="44.418332" lon="-110.571726"><ele>2365.658</ele><time>2026-05-13T18:16:32Z</time></trkpt><trkpt lat="44.418334" lon="-110.571727"><ele>2365.667</ele><time>2026-05-13T18:16:36Z</time></trkpt><trkpt lat="44.418343" lon="-110.571737"><ele>2366.481</ele><time>2026-05-13T18:16:41Z</time></trkpt><trkpt lat="44.418342" lon="-110.571755"><ele>2365.819</ele><time>2026-05-13T18:16:47Z</time></trkpt><trkpt lat="44.418344" lon="-110.571765"><ele>2366.009</ele><time>2026-05-13T18:16:48Z</time></trkpt><trkpt lat="44.418343" lon="-110.571851"><ele>2366.498</ele><time>2026-05-13T18:16:56Z</time></trkpt><trkpt lat="44.418333" lon="-110.571947"><ele>2366.642</ele><time>2026-05-13T18:17:04Z</time></trkpt><trkpt lat="44.418331" lon="-110.571958"><ele>2366.620</ele><time>2026-05-13T18:17:05Z</time></trkpt><trkpt lat="44.41831" lon="-110.572041"><ele>2367.457</ele><time>2026-05-13T18:17:14Z</time></trkpt><trkpt lat="44.418257" lon="-110.572089"><ele>2367.246</ele><time>2026-05-13T18:17:21Z</time></trkpt><trkpt lat="44.418222" lon="-110.572088"><ele>2367.636</ele><time>2026-05-13T18:17:26Z</time></trkpt><trkpt lat="44.41822" lon="-110.572093"><ele>2367.827</ele><time>2026-05-13T18:17:28Z</time></trkpt><trkpt lat="44.418217" lon="-110.572085"><ele>2368.087</ele><time>2026-05-13T18:17:34Z</time></trkpt><trkpt lat="44.418217" lon="-110.572085"><ele>2367.279</ele><time>2026-05-13T18:17:46Z</time></trkpt><trkpt lat="44.418208" lon="-110.572069"><ele>2367.689</ele><time>2026-05-13T18:17:52Z</time></trkpt><trkpt lat="44.418207" lon="-110.572069"><ele>2367.606</ele><time>2026-05-13T18:17:53Z</time></trkpt><trkpt lat="44.418207" lon="-110.572065"><ele>2367.626</ele><time>2026-05-13T18:17:54Z</time></trkpt><trkpt lat="44.41821" lon="-110.572071"><ele>2367.609</ele><time>2026-05-13T18:18:02Z</time></trkpt><trkpt lat="44.418208" lon="-110.572077"><ele>2367.840</ele><time>2026-05-13T18:18:04Z</time></trkpt><trkpt lat="44.418214" lon="-110.572139"><ele>2367.824</ele><time>2026-05-13T18:18:13Z</time></trkpt><trkpt lat="44.418211" lon="-110.572147"><ele>2367.892</ele><time>2026-05-13T18:18:15Z</time></trkpt><trkpt lat="44.418208" lon="-110.572147"><ele>2367.699</ele><time>2026-05-13T18:18:16Z</time></trkpt><trkpt lat="44.418195" lon="-110.572154"><ele>2367.418</ele><time>2026-05-13T18:18:21Z</time></trkpt><trkpt lat="44.418191" lon="-110.572156"><ele>2366.838</ele><time>2026-05-13T18:18:29Z</time></trkpt><trkpt lat="44.418202" lon="-110.57214"><ele>2367.229</ele><time>2026-05-13T18:18:40Z</time></trkpt><trkpt lat="44.418211" lon="-110.572137"><ele>2366.829</ele><time>2026-05-13T18:18:47Z</time></trkpt><trkpt lat="44.418205" lon="-110.57214"><ele>2366.621</ele><time>2026-05-13T18:18:50Z</time></trkpt><trkpt lat="44.418187" lon="-110.572076"><ele>2366.848</ele><time>2026-05-13T18:18:53Z</time></trkpt><trkpt lat="44.418188" lon="-110.57208"><ele>2366.661</ele><time>2026-05-13T18:19:00Z</time></trkpt><trkpt lat="44.418205" lon="-110.572066"><ele>2366.817</ele><time>2026-05-13T18:19:10Z</time></trkpt><trkpt lat="44.418205" lon="-110.572067"><ele>2366.409</ele><time>2026-05-13T18:19:14Z</time></trkpt><trkpt lat="44.418207" lon="-110.572061"><ele>2366.086</ele><time>2026-05-13T18:19:22Z</time></trkpt><trkpt lat="44.418207" lon="-110.572061"><ele>2366.470</ele><time>2026-05-13T18:19:30Z</time></trkpt><trkpt lat="44.418207" lon="-110.572061"><ele>2366.438</ele><time>2026-05-13T18:19:31Z</time></trkpt><trkpt lat="44.418202" lon="-110.572075"><ele>2366.245</ele><time>2026-05-13T18:19:33Z</time></trkpt><trkpt lat="44.418202" lon="-110.572079"><ele>2365.894</ele><time>2026-05-13T18:19:35Z</time></trkpt><trkpt lat="44.418202" lon="-110.572079"><ele>2365.894</ele><time>2026-05-13T18:19:37Z</time></trkpt><trkpt lat="44.418202" lon="-110.572097"><ele>2366.485</ele><time>2026-05-13T18:19:45Z</time></trkpt><trkpt lat="44.418185" lon="-110.572139"><ele>2367.075</ele><time>2026-05-13T18:19:52Z</time></trkpt><trkpt lat="44.418185" lon="-110.572235"><ele>2367.067</ele><time>2026-05-13T18:20:01Z</time></trkpt><trkpt lat="44.41819" lon="-110.57226"><ele>2367.825</ele><time>2026-05-13T18:20:04Z</time></trkpt><trkpt lat="44.418194" lon="-110.572278"><ele>2367.826</ele><time>2026-05-13T18:20:08Z</time></trkpt><trkpt lat="44.41823" lon="-110.572336"><ele>2367.608</ele><time>2026-05-13T18:20:17Z</time></trkpt><trkpt lat="44.418221" lon="-110.572331"><ele>2367.409</ele><time>2026-05-13T18:20:23Z</time></trkpt><trkpt lat="44.418222" lon="-110.572329"><ele>2367.634</ele><time>2026-05-13T18:20:24Z</time></trkpt><trkpt lat="44.418224" lon="-110.57234"><ele>2367.618</ele><time>2026-05-13T18:20:32Z</time></trkpt><trkpt lat="44.418224" lon="-110.57234"><ele>2368.016</ele><time>2026-05-13T18:20:38Z</time></trkpt><trkpt lat="44.418222" lon="-110.572345"><ele>2368.093</ele><time>2026-05-13T18:20:43Z</time></trkpt><trkpt lat="44.418176" lon="-110.572364"><ele>2367.252</ele><time>2026-05-13T18:20:48Z</time></trkpt><trkpt lat="44.418108" lon="-110.572408"><ele>2368.052</ele><time>2026-05-13T18:20:55Z</time></trkpt><trkpt lat="44.418103" lon="-110.572421"><ele>2368.093</ele><time>2026-05-13T18:20:56Z</time></trkpt><trkpt lat="44.418114" lon="-110.57245"><ele>2368.413</ele><time>2026-05-13T18:20:58Z</time></trkpt><trkpt lat="44.418125" lon="-110.572477"><ele>2368.645</ele><time>2026-05-13T18:21:00Z</time></trkpt><trkpt lat="44.418132" lon="-110.572516"><ele>2368.824</ele><time>2026-05-13T18:21:03Z</time></trkpt><trkpt lat="44.418143" lon="-110.572546"><ele>2369.604</ele><time>2026-05-13T18:21:08Z</time></trkpt><trkpt lat="44.418142" lon="-110.572545"><ele>2369.014</ele><time>2026-05-13T18:21:13Z</time></trkpt><trkpt lat="44.41814" lon="-110.572577"><ele>2368.009</ele><time>2026-05-13T18:21:17Z</time></trkpt><trkpt lat="44.418152" lon="-110.57259"><ele>2368.094</ele><time>2026-05-13T18:21:19Z</time></trkpt><trkpt lat="44.41816" lon="-110.572606"><ele>2368.878</ele><time>2026-05-13T18:21:24Z</time></trkpt><trkpt lat="44.418156" lon="-110.572566"><ele>2368.456</ele><time>2026-05-13T18:21:36Z</time></trkpt><trkpt lat="44.418158" lon="-110.572536"><ele>2368.443</ele><time>2026-05-13T18:21:42Z</time></trkpt><trkpt lat="44.418157" lon="-110.572532"><ele>2368.022</ele><time>2026-05-13T18:21:47Z</time></trkpt><trkpt lat="44.418157" lon="-110.572532"><ele>2368.252</ele><time>2026-05-13T18:21:49Z</time></trkpt><trkpt lat="44.418157" lon="-110.572532"><ele>2368.243</ele><time>2026-05-13T18:21:57Z</time></trkpt><trkpt lat="44.418157" lon="-110.572532"><ele>2368.413</ele><time>2026-05-13T18:22:13Z</time></trkpt><trkpt lat="44.41814" lon="-110.572521"><ele>2368.245</ele><time>2026-05-13T18:22:22Z</time></trkpt><trkpt lat="44.418141" lon="-110.57252"><ele>2368.084</ele><time>2026-05-13T18:22:25Z</time></trkpt><trkpt lat="44.418146" lon="-110.572526"><ele>2367.807</ele><time>2026-05-13T18:22:26Z</time></trkpt><trkpt lat="44.418157" lon="-110.572532"><ele>2367.617</ele><time>2026-05-13T18:22:29Z</time></trkpt><trkpt lat="44.418144" lon="-110.572511"><ele>2368.209</ele><time>2026-05-13T18:22:37Z</time></trkpt><trkpt lat="44.418143" lon="-110.572511"><ele>2368.830</ele><time>2026-05-13T18:22:44Z</time></trkpt><trkpt lat="44.418142" lon="-110.572513"><ele>2368.824</ele><time>2026-05-13T18:22:47Z</time></trkpt><trkpt lat="44.418142" lon="-110.572522"><ele>2368.832</ele><time>2026-05-13T18:22:48Z</time></trkpt><trkpt lat="44.418137" lon="-110.572558"><ele>2369.279</ele><time>2026-05-13T18:22:51Z</time></trkpt><trkpt lat="44.418141" lon="-110.572593"><ele>2369.088</ele><time>2026-05-13T18:22:56Z</time></trkpt><trkpt lat="44.418142" lon="-110.572588"><ele>2368.678</ele><time>2026-05-13T18:23:02Z</time></trkpt><trkpt lat="44.418142" lon="-110.572588"><ele>2368.439</ele><time>2026-05-13T18:23:04Z</time></trkpt><trkpt lat="44.418154" lon="-110.572592"><ele>2367.869</ele><time>2026-05-13T18:23:08Z</time></trkpt><trkpt lat="44.418161" lon="-110.5726"><ele>2367.871</ele><time>2026-05-13T18:23:16Z</time></trkpt><trkpt lat="44.418161" lon="-110.5726"><ele>2367.829</ele><time>2026-05-13T18:23:19Z</time></trkpt><trkpt lat="44.418161" lon="-110.5726"><ele>2367.800</ele><time>2026-05-13T18:23:24Z</time></trkpt><trkpt lat="44.418159" lon="-110.572594"><ele>2368.020</ele><time>2026-05-13T18:23:34Z</time></trkpt><trkpt lat="44.418139" lon="-110.572522"><ele>2368.009</ele><time>2026-05-13T18:23:39Z</time></trkpt><trkpt lat="44.418124" lon="-110.572459"><ele>2367.894</ele><time>2026-05-13T18:23:45Z</time></trkpt><trkpt lat="44.418106" lon="-110.572404"><ele>2367.668</ele><time>2026-05-13T18:23:55Z</time></trkpt><trkpt lat="44.418096" lon="-110.572391"><ele>2367.616</ele><time>2026-05-13T18:24:02Z</time></trkpt><trkpt lat="44.418042" lon="-110.572393"><ele>2367.693</ele><time>2026-05-13T18:24:09Z</time></trkpt><trkpt lat="44.418039" lon="-110.572394"><ele>2368.072</ele><time>2026-05-13T18:24:16Z</time></trkpt><trkpt lat="44.418063" lon="-110.57239"><ele>2367.862</ele><time>2026-05-13T18:24:20Z</time></trkpt><trkpt lat="44.418061" lon="-110.572389"><ele>2368.053</ele><time>2026-05-13T18:24:23Z</time></trkpt><trkpt lat="44.418013" lon="-110.572402"><ele>2368.023</ele><time>2026-05-13T18:24:29Z</time></trkpt><trkpt lat="44.417983" lon="-110.572402"><ele>2368.635</ele><time>2026-05-13T18:24:32Z</time></trkpt><trkpt lat="44.417973" lon="-110.572404"><ele>2368.882</ele><time>2026-05-13T18:24:33Z</time></trkpt><trkpt lat="44.417963" lon="-110.572405"><ele>2368.643</ele><time>2026-05-13T18:24:34Z</time></trkpt><trkpt lat="44.417936" lon="-110.572405"><ele>2367.817</ele><time>2026-05-13T18:24:37Z</time></trkpt><trkpt lat="44.417915" lon="-110.572402"><ele>2368.809</ele><time>2026-05-13T18:24:43Z</time></trkpt><trkpt lat="44.417853" lon="-110.572422"><ele>2369.870</ele><time>2026-05-13T18:24:49Z</time></trkpt><trkpt lat="44.417842" lon="-110.572424"><ele>2370.024</ele><time>2026-05-13T18:24:50Z</time></trkpt><trkpt lat="44.417797" lon="-110.572449"><ele>2369.252</ele><time>2026-05-13T18:24:56Z</time></trkpt><trkpt lat="44.417771" lon="-110.572475"><ele>2369.699</ele><time>2026-05-13T18:25:02Z</time></trkpt><trkpt lat="44.417702" lon="-110.572585"><ele>2369.618</ele><time>2026-05-13T18:25:11Z</time></trkpt><trkpt lat="44.417663" lon="-110.572642"><ele>2369.868</ele><time>2026-05-13T18:25:15Z</time></trkpt><trkpt lat="44.417635" lon="-110.572709"><ele>2370.819</ele><time>2026-05-13T18:25:20Z</time></trkpt><trkpt lat="44.417624" lon="-110.572734"><ele>2371.099</ele><time>2026-05-13T18:25:22Z</time></trkpt><trkpt lat="44.417593" lon="-110.572802"><ele>2371.491</ele><time>2026-05-13T18:25:28Z</time></trkpt><trkpt lat="44.417573" lon="-110.572827"><ele>2371.891</ele><time>2026-05-13T18:25:31Z</time></trkpt><trkpt lat="44.417561" lon="-110.572847"><ele>2372.081</ele><time>2026-05-13T18:25:33Z</time></trkpt><trkpt lat="44.417523" lon="-110.572911"><ele>2373.019</ele><time>2026-05-13T18:25:39Z</time></trkpt><trkpt lat="44.417508" lon="-110.572928"><ele>2373.209</ele><time>2026-05-13T18:25:41Z</time></trkpt><trkpt lat="44.417492" lon="-110.572949"><ele>2373.421</ele><time>2026-05-13T18:25:43Z</time></trkpt><trkpt lat="44.417485" lon="-110.572955"><ele>2373.655</ele><time>2026-05-13T18:25:44Z</time></trkpt><trkpt lat="44.41747" lon="-110.572971"><ele>2374.033</ele><time>2026-05-13T18:25:46Z</time></trkpt><trkpt lat="44.417462" lon="-110.572977"><ele>2374.060</ele><time>2026-05-13T18:25:47Z</time></trkpt><trkpt lat="44.417427" lon="-110.572977"><ele>2374.419</ele><time>2026-05-13T18:25:51Z</time></trkpt><trkpt lat="44.417378" lon="-110.572969"><ele>2374.449</ele><time>2026-05-13T18:25:58Z</time></trkpt><trkpt lat="44.417372" lon="-110.57298"><ele>2374.450</ele><time>2026-05-13T18:26:00Z</time></trkpt><trkpt lat="44.417304" lon="-110.573055"><ele>2375.030</ele><time>2026-05-13T18:26:09Z</time></trkpt><trkpt lat="44.417298" lon="-110.57306"><ele>2375.222</ele><time>2026-05-13T18:26:10Z</time></trkpt><trkpt lat="44.417266" lon="-110.573105"><ele>2374.692</ele><time>2026-05-13T18:26:15Z</time></trkpt><trkpt lat="44.417249" lon="-110.573131"><ele>2374.673</ele><time>2026-05-13T18:26:18Z</time></trkpt><trkpt lat="44.417184" lon="-110.573169"><ele>2374.820</ele><time>2026-05-13T18:26:25Z</time></trkpt><trkpt lat="44.41715" lon="-110.573178"><ele>2374.209</ele><time>2026-05-13T18:26:28Z</time></trkpt><trkpt lat="44.417141" lon="-110.573179"><ele>2374.261</ele><time>2026-05-13T18:26:29Z</time></trkpt><trkpt lat="44.417068" lon="-110.573176"><ele>2374.825</ele><time>2026-05-13T18:26:36Z</time></trkpt><trkpt lat="44.417048" lon="-110.573171"><ele>2375.253</ele><time>2026-05-13T18:26:39Z</time></trkpt><trkpt lat="44.417041" lon="-110.573167"><ele>2375.430</ele><time>2026-05-13T18:26:40Z</time></trkpt><trkpt lat="44.417024" lon="-110.573163"><ele>2375.479</ele><time>2026-05-13T18:26:42Z</time></trkpt><trkpt lat="44.416928" lon="-110.573141"><ele>2374.249</ele><time>2026-05-13T18:26:51Z</time></trkpt><trkpt lat="44.416906" lon="-110.573134"><ele>2373.820</ele><time>2026-05-13T18:26:53Z</time></trkpt><trkpt lat="44.416874" lon="-110.573127"><ele>2375.240</ele><time>2026-05-13T18:26:56Z</time></trkpt><trkpt lat="44.416809" lon="-110.573112"><ele>2375.012</ele><time>2026-05-13T18:27:02Z</time></trkpt><trkpt lat="44.416787" lon="-110.573104"><ele>2375.225</ele><time>2026-05-13T18:27:04Z</time></trkpt><trkpt lat="44.41675" lon="-110.573091"><ele>2375.626</ele><time>2026-05-13T18:27:07Z</time></trkpt><trkpt lat="44.416726" lon="-110.573085"><ele>2375.608</ele><time>2026-05-13T18:27:09Z</time></trkpt><trkpt lat="44.416689" lon="-110.573075"><ele>2375.609</ele><time>2026-05-13T18:27:12Z</time></trkpt><trkpt lat="44.416637" lon="-110.573048"><ele>2375.654</ele><time>2026-05-13T18:27:17Z</time></trkpt><trkpt lat="44.416518" lon="-110.572995"><ele>2375.498</ele><time>2026-05-13T18:27:28Z</time></trkpt><trkpt lat="44.41644" lon="-110.572943"><ele>2375.276</ele><time>2026-05-13T18:27:37Z</time></trkpt><trkpt lat="44.416368" lon="-110.572885"><ele>2375.613</ele><time>2026-05-13T18:27:44Z</time></trkpt><trkpt lat="44.416342" lon="-110.572847"><ele>2375.432</ele><time>2026-05-13T18:27:48Z</time></trkpt><trkpt lat="44.416322" lon="-110.572821"><ele>2375.442</ele><time>2026-05-13T18:27:51Z</time></trkpt><trkpt lat="44.416256" lon="-110.572776"><ele>2373.893</ele><time>2026-05-13T18:27:57Z</time></trkpt><trkpt lat="44.416247" lon="-110.572767"><ele>2374.043</ele><time>2026-05-13T18:27:58Z</time></trkpt><trkpt lat="44.416175" lon="-110.572677"><ele>2374.855</ele><time>2026-05-13T18:28:07Z</time></trkpt><trkpt lat="44.416157" lon="-110.572649"><ele>2374.866</ele><time>2026-05-13T18:28:10Z</time></trkpt><trkpt lat="44.416141" lon="-110.57263"><ele>2374.629</ele><time>2026-05-13T18:28:12Z</time></trkpt><trkpt lat="44.416093" lon="-110.572569"><ele>2374.421</ele><time>2026-05-13T18:28:19Z</time></trkpt><trkpt lat="44.416018" lon="-110.572451"><ele>2374.809</ele><time>2026-05-13T18:28:30Z</time></trkpt><trkpt lat="44.416007" lon="-110.572446"><ele>2375.058</ele><time>2026-05-13T18:28:31Z</time></trkpt><trkpt lat="44.415955" lon="-110.572439"><ele>2375.062</ele><time>2026-05-13T18:28:37Z</time></trkpt><trkpt lat="44.415938" lon="-110.572449"><ele>2375.250</ele><time>2026-05-13T18:28:42Z</time></trkpt><trkpt lat="44.415933" lon="-110.572455"><ele>2375.277</ele><time>2026-05-13T18:28:43Z</time></trkpt><trkpt lat="44.41588" lon="-110.572501"><ele>2374.896</ele><time>2026-05-13T18:28:49Z</time></trkpt><trkpt lat="44.415872" lon="-110.57254"><ele>2375.266</ele><time>2026-05-13T18:28:56Z</time></trkpt><trkpt lat="44.415872" lon="-110.572544"><ele>2374.837</ele><time>2026-05-13T18:29:03Z</time></trkpt><trkpt lat="44.415869" lon="-110.572567"><ele>2374.847</ele><time>2026-05-13T18:29:12Z</time></trkpt><trkpt lat="44.415829" lon="-110.572606"><ele>2375.019</ele><time>2026-05-13T18:29:18Z</time></trkpt><trkpt lat="44.415801" lon="-110.572656"><ele>2375.616</ele><time>2026-05-13T18:29:24Z</time></trkpt><trkpt lat="44.415803" lon="-110.572658"><ele>2375.676</ele><time>2026-05-13T18:29:25Z</time></trkpt><trkpt lat="44.415808" lon="-110.572659"><ele>2375.413</ele><time>2026-05-13T18:29:27Z</time></trkpt><trkpt lat="44.415808" lon="-110.572659"><ele>2375.409</ele><time>2026-05-13T18:29:29Z</time></trkpt><trkpt lat="44.415808" lon="-110.572659"><ele>2375.633</ele><time>2026-05-13T18:29:33Z</time></trkpt><trkpt lat="44.415816" lon="-110.572647"><ele>2375.677</ele><time>2026-05-13T18:29:46Z</time></trkpt><trkpt lat="44.415811" lon="-110.57265"><ele>2375.275</ele><time>2026-05-13T18:29:51Z</time></trkpt><trkpt lat="44.415808" lon="-110.572659"><ele>2375.272</ele><time>2026-05-13T18:29:56Z</time></trkpt><trkpt lat="44.415808" lon="-110.572659"><ele>2375.221</ele><time>2026-05-13T18:30:01Z</time></trkpt><trkpt lat="44.415806" lon="-110.57266"><ele>2375.251</ele><time>2026-05-13T18:30:07Z</time></trkpt><trkpt lat="44.415804" lon="-110.572666"><ele>2375.272</ele><time>2026-05-13T18:30:08Z</time></trkpt><trkpt lat="44.415799" lon="-110.572674"><ele>2375.272</ele><time>2026-05-13T18:30:09Z</time></trkpt><trkpt lat="44.415799" lon="-110.572674"><ele>2375.244</ele><time>2026-05-13T18:30:10Z</time></trkpt><trkpt lat="44.415793" lon="-110.572685"><ele>2375.077</ele><time>2026-05-13T18:30:13Z</time></trkpt><trkpt lat="44.415795" lon="-110.572683"><ele>2375.061</ele><time>2026-05-13T18:30:16Z</time></trkpt><trkpt lat="44.415799" lon="-110.572674"><ele>2375.427</ele><time>2026-05-13T18:30:24Z</time></trkpt><trkpt lat="44.415797" lon="-110.572674"><ele>2375.009</ele><time>2026-05-13T18:30:28Z</time></trkpt><trkpt lat="44.415796" lon="-110.572672"><ele>2375.469</ele><time>2026-05-13T18:30:35Z</time></trkpt><trkpt lat="44.415799" lon="-110.572674"><ele>2375.813</ele><time>2026-05-13T18:30:39Z</time></trkpt><trkpt lat="44.415799" lon="-110.572674"><ele>2375.671</ele><time>2026-05-13T18:30:41Z</time></trkpt><trkpt lat="44.415795" lon="-110.572677"><ele>2375.278</ele><time>2026-05-13T18:30:43Z</time></trkpt><trkpt lat="44.415746" lon="-110.572724"><ele>2375.267</ele><time>2026-05-13T18:30:50Z</time></trkpt><trkpt lat="44.415707" lon="-110.572775"><ele>2375.217</ele><time>2026-05-13T18:30:56Z</time></trkpt><trkpt lat="44.415698" lon="-110.572801"><ele>2375.418</ele><time>2026-05-13T18:30:59Z</time></trkpt><trkpt lat="44.415698" lon="-110.572808"><ele>2375.698</ele><time>2026-05-13T18:31:00Z</time></trkpt><trkpt lat="44.415691" lon="-110.572826"><ele>2375.820</ele><time>2026-05-13T18:31:03Z</time></trkpt><trkpt lat="44.41568" lon="-110.572848"><ele>2375.831</ele><time>2026-05-13T18:31:05Z</time></trkpt><trkpt lat="44.415676" lon="-110.572862"><ele>2375.661</ele><time>2026-05-13T18:31:11Z</time></trkpt><trkpt lat="44.415643" lon="-110.572894"><ele>2375.607</ele><time>2026-05-13T18:31:18Z</time></trkpt><trkpt lat="44.415638" lon="-110.5729"><ele>2375.609</ele><time>2026-05-13T18:31:19Z</time></trkpt><trkpt lat="44.415612" lon="-110.572983"><ele>2375.495</ele><time>2026-05-13T18:31:27Z</time></trkpt><trkpt lat="44.415579" lon="-110.573048"><ele>2375.619</ele><time>2026-05-13T18:31:34Z</time></trkpt><trkpt lat="44.415536" lon="-110.573131"><ele>2375.217</ele><time>2026-05-13T18:31:44Z</time></trkpt><trkpt lat="44.415509" lon="-110.573182"><ele>2375.614</ele><time>2026-05-13T18:31:51Z</time></trkpt><trkpt lat="44.415472" lon="-110.573238"><ele>2375.693</ele><time>2026-05-13T18:31:58Z</time></trkpt><trkpt lat="44.415431" lon="-110.573279"><ele>2375.463</ele><time>2026-05-13T18:32:05Z</time></trkpt><trkpt lat="44.415392" lon="-110.573356"><ele>2375.464</ele><time>2026-05-13T18:32:14Z</time></trkpt><trkpt lat="44.415356" lon="-110.573429"><ele>2375.454</ele><time>2026-05-13T18:32:22Z</time></trkpt><trkpt lat="44.415316" lon="-110.573476"><ele>2374.646</ele><time>2026-05-13T18:32:30Z</time></trkpt><trkpt lat="44.415298" lon="-110.573499"><ele>2374.661</ele><time>2026-05-13T18:32:33Z</time></trkpt><trkpt lat="44.415274" lon="-110.573548"><ele>2375.221</ele><time>2026-05-13T18:32:42Z</time></trkpt><trkpt lat="44.415257" lon="-110.573547"><ele>2374.813</ele><time>2026-05-13T18:32:52Z</time></trkpt><trkpt lat="44.415241" lon="-110.573584"><ele>2375.409</ele><time>2026-05-13T18:33:00Z</time></trkpt><trkpt lat="44.415253" lon="-110.573601"><ele>2375.428</ele><time>2026-05-13T18:33:06Z</time></trkpt><trkpt lat="44.415291" lon="-110.573667"><ele>2375.272</ele><time>2026-05-13T18:33:13Z</time></trkpt><trkpt lat="44.415312" lon="-110.573748"><ele>2375.420</ele><time>2026-05-13T18:33:19Z</time></trkpt><trkpt lat="44.415296" lon="-110.573826"><ele>2375.487</ele><time>2026-05-13T18:33:26Z</time></trkpt><trkpt lat="44.415298" lon="-110.573862"><ele>2375.436</ele><time>2026-05-13T18:33:31Z</time></trkpt><trkpt lat="44.415299" lon="-110.573847"><ele>2375.476</ele><time>2026-05-13T18:33:32Z</time></trkpt><trkpt lat="44.415325" lon="-110.573795"><ele>2375.287</ele><time>2026-05-13T18:33:38Z</time></trkpt><trkpt lat="44.41533" lon="-110.573795"><ele>2375.277</ele><time>2026-05-13T18:33:40Z</time></trkpt><trkpt lat="44.415376" lon="-110.573837"><ele>2375.439</ele><time>2026-05-13T18:33:48Z</time></trkpt><trkpt lat="44.415456" lon="-110.57391"><ele>2375.278</ele><time>2026-05-13T18:33:56Z</time></trkpt><trkpt lat="44.415511" lon="-110.573957"><ele>2375.433</ele><time>2026-05-13T18:34:03Z</time></trkpt><trkpt lat="44.415543" lon="-110.573932"><ele>2375.426</ele><time>2026-05-13T18:34:10Z</time></trkpt><trkpt lat="44.415574" lon="-110.573936"><ele>2375.409</ele><time>2026-05-13T18:34:15Z</time></trkpt><trkpt lat="44.415587" lon="-110.573973"><ele>2375.279</ele><time>2026-05-13T18:34:21Z</time></trkpt><trkpt lat="44.415588" lon="-110.573976"><ele>2375.483</ele><time>2026-05-13T18:34:28Z</time></trkpt><trkpt lat="44.41559" lon="-110.57398"><ele>2375.071</ele><time>2026-05-13T18:34:31Z</time></trkpt><trkpt lat="44.415595" lon="-110.57399"><ele>2375.048</ele><time>2026-05-13T18:34:32Z</time></trkpt><trkpt lat="44.415635" lon="-110.574053"><ele>2375.217</ele><time>2026-05-13T18:34:38Z</time></trkpt><trkpt lat="44.415663" lon="-110.574123"><ele>2375.217</ele><time>2026-05-13T18:34:44Z</time></trkpt><trkpt lat="44.415686" lon="-110.574216"><ele>2375.098</ele><time>2026-05-13T18:34:51Z</time></trkpt><trkpt lat="44.415686" lon="-110.574211"><ele>2375.228</ele><time>2026-05-13T18:34:59Z</time></trkpt><trkpt lat="44.415686" lon="-110.574211"><ele>2375.040</ele><time>2026-05-13T18:35:07Z</time></trkpt><trkpt lat="44.415686" lon="-110.574211"><ele>2375.061</ele><time>2026-05-13T18:35:08Z</time></trkpt><trkpt lat="44.415686" lon="-110.574211"><ele>2375.021</ele><time>2026-05-13T18:35:17Z</time></trkpt><trkpt lat="44.415699" lon="-110.574269"><ele>2375.213</ele><time>2026-05-13T18:35:27Z</time></trkpt><trkpt lat="44.415699" lon="-110.574278"><ele>2375.409</ele><time>2026-05-13T18:35:28Z</time></trkpt><trkpt lat="44.415696" lon="-110.574288"><ele>2375.418</ele><time>2026-05-13T18:35:32Z</time></trkpt><trkpt lat="44.41571" lon="-110.574302"><ele>2375.482</ele><time>2026-05-13T18:35:40Z</time></trkpt><trkpt lat="44.41576" lon="-110.574365"><ele>2375.620</ele><time>2026-05-13T18:35:45Z</time></trkpt><trkpt lat="44.415772" lon="-110.574363"><ele>2375.657</ele><time>2026-05-13T18:35:49Z</time></trkpt><trkpt lat="44.415761" lon="-110.574369"><ele>2375.666</ele><time>2026-05-13T18:35:50Z</time></trkpt><trkpt lat="44.41576" lon="-110.574406"><ele>2375.846</ele><time>2026-05-13T18:35:55Z</time></trkpt><trkpt lat="44.415735" lon="-110.574413"><ele>2375.457</ele><time>2026-05-13T18:36:02Z</time></trkpt><trkpt lat="44.415708" lon="-110.574419"><ele>2376.057</ele><time>2026-05-13T18:36:05Z</time></trkpt><trkpt lat="44.415681" lon="-110.574429"><ele>2376.079</ele><time>2026-05-13T18:36:08Z</time></trkpt><trkpt lat="44.415669" lon="-110.574438"><ele>2376.074</ele><time>2026-05-13T18:36:10Z</time></trkpt><trkpt lat="44.415665" lon="-110.574414"><ele>2376.256</ele><time>2026-05-13T18:36:13Z</time></trkpt><trkpt lat="44.415658" lon="-110.574402"><ele>2376.021</ele><time>2026-05-13T18:36:14Z</time></trkpt><trkpt lat="44.415594" lon="-110.574386"><ele>2376.409</ele><time>2026-05-13T18:36:20Z</time></trkpt><trkpt lat="44.415541" lon="-110.574361"><ele>2376.259</ele><time>2026-05-13T18:36:27Z</time></trkpt><trkpt lat="44.41545" lon="-110.574289"><ele>2376.083</ele><time>2026-05-13T18:36:36Z</time></trkpt><trkpt lat="44.415367" lon="-110.574246"><ele>2375.821</ele><time>2026-05-13T18:36:43Z</time></trkpt><trkpt lat="44.41531" lon="-110.574218"><ele>2375.498</ele><time>2026-05-13T18:36:51Z</time></trkpt><trkpt lat="44.415313" lon="-110.57423"><ele>2375.427</ele><time>2026-05-13T18:37:00Z</time></trkpt><trkpt lat="44.415312" lon="-110.574231"><ele>2375.417</ele><time>2026-05-13T18:37:10Z</time></trkpt><trkpt lat="44.415312" lon="-110.574231"><ele>2375.468</ele><time>2026-05-13T18:37:11Z</time></trkpt><trkpt lat="44.415317" lon="-110.574233"><ele>2375.628</ele><time>2026-05-13T18:37:13Z</time></trkpt><trkpt lat="44.415311" lon="-110.574228"><ele>2376.020</ele><time>2026-05-13T18:37:21Z</time></trkpt><trkpt lat="44.415309" lon="-110.574223"><ele>2376.039</ele><time>2026-05-13T18:37:23Z</time></trkpt><trkpt lat="44.415305" lon="-110.574222"><ele>2376.201</ele><time>2026-05-13T18:37:26Z</time></trkpt></trkseg></trk></gpx>