<?xml version="1.0" encoding="UTF-8"?><gpx creator="Wikiloc - http://www.wikiloc.com" version="1.1" xmlns="http://www.topografix.com/GPX/1/1" xmlns:xsi="http://www.w3.org/2001/XMLSchema-instance" xsi:schemaLocation="http://www.topografix.com/GPX/1/1 http://www.topografix.com/GPX/1/1/gpx.xsd"><trk><name><![CDATA[Yellowstone National Park: Trout Lake]]></name><cmt><![CDATA[Soda Butte (historical)]]></cmt><desc><![CDATA[Soda Butte (historical)]]></desc><trkseg><trkpt lat="44.899212" lon="-110.123106"><ele>2059.061</ele><time>2026-05-20T21:25:52Z</time></trkpt><trkpt lat="44.899211" lon="-110.123116"><ele>2059.021</ele><time>2026-05-20T21:25:53Z</time></trkpt><trkpt lat="44.899182" lon="-110.123166"><ele>2059.013</ele><time>2026-05-20T21:25:59Z</time></trkpt><trkpt lat="44.899163" lon="-110.123205"><ele>2059.609</ele><time>2026-05-20T21:26:03Z</time></trkpt><trkpt lat="44.899152" lon="-110.123257"><ele>2059.488</ele><time>2026-05-20T21:26:07Z</time></trkpt><trkpt lat="44.899111" lon="-110.123309"><ele>2057.832</ele><time>2026-05-20T21:26:14Z</time></trkpt><trkpt lat="44.899068" lon="-110.123422"><ele>2057.021</ele><time>2026-05-20T21:26:22Z</time></trkpt><trkpt lat="44.899045" lon="-110.123515"><ele>2057.428</ele><time>2026-05-20T21:26:30Z</time></trkpt><trkpt lat="44.899044" lon="-110.123526"><ele>2057.484</ele><time>2026-05-20T21:26:33Z</time></trkpt><trkpt lat="44.899039" lon="-110.123534"><ele>2057.457</ele><time>2026-05-20T21:26:38Z</time></trkpt><trkpt lat="44.899036" lon="-110.123525"><ele>2057.891</ele><time>2026-05-20T21:26:45Z</time></trkpt><trkpt lat="44.899035" lon="-110.123567"><ele>2058.021</ele><time>2026-05-20T21:26:52Z</time></trkpt><trkpt lat="44.899039" lon="-110.123628"><ele>2058.064</ele><time>2026-05-20T21:26:57Z</time></trkpt><trkpt lat="44.899038" lon="-110.123685"><ele>2058.489</ele><time>2026-05-20T21:27:02Z</time></trkpt><trkpt lat="44.899039" lon="-110.123733"><ele>2059.006</ele><time>2026-05-20T21:27:06Z</time></trkpt><trkpt lat="44.899037" lon="-110.123754"><ele>2059.426</ele><time>2026-05-20T21:27:08Z</time></trkpt><trkpt lat="44.899051" lon="-110.123784"><ele>2060.009</ele><time>2026-05-20T21:27:12Z</time></trkpt><trkpt lat="44.899062" lon="-110.123805"><ele>2060.450</ele><time>2026-05-20T21:27:15Z</time></trkpt><trkpt lat="44.899069" lon="-110.123817"><ele>2060.814</ele><time>2026-05-20T21:27:17Z</time></trkpt><trkpt lat="44.899067" lon="-110.123837"><ele>2061.263</ele><time>2026-05-20T21:27:19Z</time></trkpt><trkpt lat="44.899078" lon="-110.123849"><ele>2061.630</ele><time>2026-05-20T21:27:22Z</time></trkpt><trkpt lat="44.89911" lon="-110.123858"><ele>2062.216</ele><time>2026-05-20T21:27:27Z</time></trkpt><trkpt lat="44.89912" lon="-110.123859"><ele>2062.439</ele><time>2026-05-20T21:27:29Z</time></trkpt><trkpt lat="44.899144" lon="-110.123851"><ele>2063.413</ele><time>2026-05-20T21:27:33Z</time></trkpt><trkpt lat="44.899166" lon="-110.123851"><ele>2063.883</ele><time>2026-05-20T21:27:37Z</time></trkpt><trkpt lat="44.899185" lon="-110.123865"><ele>2064.446</ele><time>2026-05-20T21:27:41Z</time></trkpt><trkpt lat="44.899194" lon="-110.123883"><ele>2065.023</ele><time>2026-05-20T21:27:44Z</time></trkpt><trkpt lat="44.899207" lon="-110.123896"><ele>2065.683</ele><time>2026-05-20T21:27:48Z</time></trkpt><trkpt lat="44.899222" lon="-110.123921"><ele>2066.011</ele><time>2026-05-20T21:27:52Z</time></trkpt><trkpt lat="44.899253" lon="-110.123966"><ele>2066.609</ele><time>2026-05-20T21:27:57Z</time></trkpt><trkpt lat="44.89927" lon="-110.124003"><ele>2066.814</ele><time>2026-05-20T21:28:01Z</time></trkpt><trkpt lat="44.899284" lon="-110.124051"><ele>2067.648</ele><time>2026-05-20T21:28:08Z</time></trkpt><trkpt lat="44.89932" lon="-110.124139"><ele>2068.687</ele><time>2026-05-20T21:28:17Z</time></trkpt><trkpt lat="44.899324" lon="-110.124151"><ele>2068.834</ele><time>2026-05-20T21:28:18Z</time></trkpt><trkpt lat="44.899355" lon="-110.124222"><ele>2069.220</ele><time>2026-05-20T21:28:25Z</time></trkpt><trkpt lat="44.899365" lon="-110.124246"><ele>2069.893</ele><time>2026-05-20T21:28:29Z</time></trkpt><trkpt lat="44.899369" lon="-110.124284"><ele>2070.417</ele><time>2026-05-20T21:28:33Z</time></trkpt><trkpt lat="44.899386" lon="-110.124332"><ele>2071.047</ele><time>2026-05-20T21:28:38Z</time></trkpt><trkpt lat="44.899402" lon="-110.124346"><ele>2071.640</ele><time>2026-05-20T21:28:41Z</time></trkpt><trkpt lat="44.899407" lon="-110.124374"><ele>2072.019</ele><time>2026-05-20T21:28:45Z</time></trkpt><trkpt lat="44.899411" lon="-110.124398"><ele>2072.009</ele><time>2026-05-20T21:28:47Z</time></trkpt><trkpt lat="44.899457" lon="-110.124462"><ele>2073.019</ele><time>2026-05-20T21:28:56Z</time></trkpt><trkpt lat="44.899458" lon="-110.12447"><ele>2073.009</ele><time>2026-05-20T21:28:57Z</time></trkpt><trkpt lat="44.899487" lon="-110.124559"><ele>2073.463</ele><time>2026-05-20T21:29:03Z</time></trkpt><trkpt lat="44.899525" lon="-110.124639"><ele>2073.817</ele><time>2026-05-20T21:29:10Z</time></trkpt><trkpt lat="44.899531" lon="-110.124659"><ele>2074.276</ele><time>2026-05-20T21:29:12Z</time></trkpt><trkpt lat="44.899534" lon="-110.124697"><ele>2075.263</ele><time>2026-05-20T21:29:19Z</time></trkpt><trkpt lat="44.899535" lon="-110.124706"><ele>2075.489</ele><time>2026-05-20T21:29:20Z</time></trkpt><trkpt lat="44.899551" lon="-110.124732"><ele>2076.492</ele><time>2026-05-20T21:29:26Z</time></trkpt><trkpt lat="44.899546" lon="-110.124728"><ele>2076.456</ele><time>2026-05-20T21:29:28Z</time></trkpt><trkpt lat="44.899546" lon="-110.124726"><ele>2076.436</ele><time>2026-05-20T21:29:29Z</time></trkpt><trkpt lat="44.899551" lon="-110.124747"><ele>2077.089</ele><time>2026-05-20T21:29:38Z</time></trkpt><trkpt lat="44.899542" lon="-110.124727"><ele>2077.013</ele><time>2026-05-20T21:29:44Z</time></trkpt><trkpt lat="44.899538" lon="-110.124729"><ele>2077.043</ele><time>2026-05-20T21:29:46Z</time></trkpt><trkpt lat="44.899531" lon="-110.124756"><ele>2076.607</ele><time>2026-05-20T21:29:53Z</time></trkpt><trkpt lat="44.899525" lon="-110.124749"><ele>2077.009</ele><time>2026-05-20T21:30:01Z</time></trkpt><trkpt lat="44.899535" lon="-110.124747"><ele>2076.483</ele><time>2026-05-20T21:30:12Z</time></trkpt><trkpt lat="44.899519" lon="-110.124753"><ele>2077.227</ele><time>2026-05-20T21:30:20Z</time></trkpt><trkpt lat="44.899522" lon="-110.124745"><ele>2077.226</ele><time>2026-05-20T21:30:21Z</time></trkpt><trkpt lat="44.899525" lon="-110.12475"><ele>2077.053</ele><time>2026-05-20T21:30:25Z</time></trkpt><trkpt lat="44.89953" lon="-110.124771"><ele>2076.869</ele><time>2026-05-20T21:30:31Z</time></trkpt><trkpt lat="44.899522" lon="-110.124792"><ele>2076.822</ele><time>2026-05-20T21:30:42Z</time></trkpt><trkpt lat="44.899524" lon="-110.124774"><ele>2077.016</ele><time>2026-05-20T21:30:47Z</time></trkpt><trkpt lat="44.89953" lon="-110.124779"><ele>2076.866</ele><time>2026-05-20T21:30:50Z</time></trkpt><trkpt lat="44.899531" lon="-110.124756"><ele>2076.449</ele><time>2026-05-20T21:30:57Z</time></trkpt><trkpt lat="44.899515" lon="-110.124767"><ele>2076.474</ele><time>2026-05-20T21:31:06Z</time></trkpt><trkpt lat="44.899522" lon="-110.124744"><ele>2076.256</ele><time>2026-05-20T21:31:13Z</time></trkpt><trkpt lat="44.899538" lon="-110.124782"><ele>2076.821</ele><time>2026-05-20T21:31:21Z</time></trkpt><trkpt lat="44.899523" lon="-110.124773"><ele>2076.809</ele><time>2026-05-20T21:31:27Z</time></trkpt><trkpt lat="44.899525" lon="-110.124762"><ele>2077.219</ele><time>2026-05-20T21:31:31Z</time></trkpt><trkpt lat="44.899516" lon="-110.124786"><ele>2077.213</ele><time>2026-05-20T21:31:39Z</time></trkpt><trkpt lat="44.899487" lon="-110.124851"><ele>2078.232</ele><time>2026-05-20T21:31:47Z</time></trkpt><trkpt lat="44.89948" lon="-110.124868"><ele>2078.419</ele><time>2026-05-20T21:31:48Z</time></trkpt><trkpt lat="44.899486" lon="-110.124923"><ele>2079.085</ele><time>2026-05-20T21:31:54Z</time></trkpt><trkpt lat="44.899495" lon="-110.12497"><ele>2079.628</ele><time>2026-05-20T21:31:58Z</time></trkpt><trkpt lat="44.899495" lon="-110.125025"><ele>2080.452</ele><time>2026-05-20T21:32:03Z</time></trkpt><trkpt lat="44.899494" lon="-110.125032"><ele>2080.682</ele><time>2026-05-20T21:32:04Z</time></trkpt><trkpt lat="44.899484" lon="-110.125068"><ele>2081.835</ele><time>2026-05-20T21:32:09Z</time></trkpt><trkpt lat="44.899466" lon="-110.125087"><ele>2082.468</ele><time>2026-05-20T21:32:14Z</time></trkpt><trkpt lat="44.899468" lon="-110.125099"><ele>2082.842</ele><time>2026-05-20T21:32:15Z</time></trkpt><trkpt lat="44.899472" lon="-110.125117"><ele>2083.026</ele><time>2026-05-20T21:32:16Z</time></trkpt><trkpt lat="44.899483" lon="-110.12512"><ele>2083.009</ele><time>2026-05-20T21:32:17Z</time></trkpt><trkpt lat="44.899498" lon="-110.125129"><ele>2083.478</ele><time>2026-05-20T21:32:19Z</time></trkpt><trkpt lat="44.899521" lon="-110.12516"><ele>2084.062</ele><time>2026-05-20T21:32:22Z</time></trkpt><trkpt lat="44.899533" lon="-110.125206"><ele>2085.051</ele><time>2026-05-20T21:32:27Z</time></trkpt><trkpt lat="44.899535" lon="-110.125213"><ele>2085.268</ele><time>2026-05-20T21:32:28Z</time></trkpt><trkpt lat="44.899536" lon="-110.125274"><ele>2086.214</ele><time>2026-05-20T21:32:33Z</time></trkpt><trkpt lat="44.89955" lon="-110.125314"><ele>2086.667</ele><time>2026-05-20T21:32:37Z</time></trkpt><trkpt lat="44.899579" lon="-110.125354"><ele>2087.421</ele><time>2026-05-20T21:32:42Z</time></trkpt><trkpt lat="44.8996" lon="-110.125355"><ele>2087.881</ele><time>2026-05-20T21:32:45Z</time></trkpt><trkpt lat="44.899619" lon="-110.125367"><ele>2088.634</ele><time>2026-05-20T21:32:49Z</time></trkpt><trkpt lat="44.89964" lon="-110.125409"><ele>2089.215</ele><time>2026-05-20T21:32:53Z</time></trkpt><trkpt lat="44.899658" lon="-110.125478"><ele>2089.665</ele><time>2026-05-20T21:32:58Z</time></trkpt><trkpt lat="44.899677" lon="-110.125528"><ele>2089.811</ele><time>2026-05-20T21:33:02Z</time></trkpt><trkpt lat="44.899704" lon="-110.125561"><ele>2090.609</ele><time>2026-05-20T21:33:08Z</time></trkpt><trkpt lat="44.899705" lon="-110.12559"><ele>2091.233</ele><time>2026-05-20T21:33:11Z</time></trkpt><trkpt lat="44.899711" lon="-110.125612"><ele>2091.637</ele><time>2026-05-20T21:33:14Z</time></trkpt><trkpt lat="44.89975" lon="-110.125684"><ele>2092.896</ele><time>2026-05-20T21:33:21Z</time></trkpt><trkpt lat="44.899822" lon="-110.125711"><ele>2093.663</ele><time>2026-05-20T21:33:29Z</time></trkpt><trkpt lat="44.899828" lon="-110.125718"><ele>2093.819</ele><time>2026-05-20T21:33:31Z</time></trkpt><trkpt lat="44.899873" lon="-110.125736"><ele>2094.472</ele><time>2026-05-20T21:33:37Z</time></trkpt><trkpt lat="44.899902" lon="-110.125746"><ele>2094.896</ele><time>2026-05-20T21:33:41Z</time></trkpt><trkpt lat="44.899927" lon="-110.125754"><ele>2095.686</ele><time>2026-05-20T21:33:47Z</time></trkpt><trkpt lat="44.899937" lon="-110.125768"><ele>2096.049</ele><time>2026-05-20T21:33:50Z</time></trkpt><trkpt lat="44.899958" lon="-110.125792"><ele>2096.456</ele><time>2026-05-20T21:33:53Z</time></trkpt><trkpt lat="44.899971" lon="-110.125803"><ele>2096.659</ele><time>2026-05-20T21:33:54Z</time></trkpt><trkpt lat="44.899985" lon="-110.125814"><ele>2097.014</ele><time>2026-05-20T21:33:57Z</time></trkpt><trkpt lat="44.899998" lon="-110.125827"><ele>2098.009</ele><time>2026-05-20T21:34:02Z</time></trkpt><trkpt lat="44.900002" lon="-110.125833"><ele>2098.297</ele><time>2026-05-20T21:34:03Z</time></trkpt><trkpt lat="44.900031" lon="-110.125879"><ele>2099.421</ele><time>2026-05-20T21:34:09Z</time></trkpt><trkpt lat="44.900048" lon="-110.125899"><ele>2100.060</ele><time>2026-05-20T21:34:12Z</time></trkpt><trkpt lat="44.900063" lon="-110.125912"><ele>2100.267</ele><time>2026-05-20T21:34:14Z</time></trkpt><trkpt lat="44.900072" lon="-110.12592"><ele>2100.433</ele><time>2026-05-20T21:34:16Z</time></trkpt><trkpt lat="44.900115" lon="-110.125948"><ele>2101.656</ele><time>2026-05-20T21:34:22Z</time></trkpt><trkpt lat="44.900131" lon="-110.125964"><ele>2102.240</ele><time>2026-05-20T21:34:26Z</time></trkpt><trkpt lat="44.900132" lon="-110.125979"><ele>2102.660</ele><time>2026-05-20T21:34:28Z</time></trkpt><trkpt lat="44.900137" lon="-110.125986"><ele>2102.823</ele><time>2026-05-20T21:34:29Z</time></trkpt><trkpt lat="44.90015" lon="-110.126002"><ele>2103.494</ele><time>2026-05-20T21:34:32Z</time></trkpt><trkpt lat="44.900159" lon="-110.126023"><ele>2103.857</ele><time>2026-05-20T21:34:34Z</time></trkpt><trkpt lat="44.900172" lon="-110.126039"><ele>2104.022</ele><time>2026-05-20T21:34:37Z</time></trkpt><trkpt lat="44.900167" lon="-110.126062"><ele>2104.809</ele><time>2026-05-20T21:34:42Z</time></trkpt><trkpt lat="44.900167" lon="-110.126081"><ele>2105.281</ele><time>2026-05-20T21:34:45Z</time></trkpt><trkpt lat="44.900156" lon="-110.126107"><ele>2106.025</ele><time>2026-05-20T21:34:50Z</time></trkpt><trkpt lat="44.900148" lon="-110.126106"><ele>2106.214</ele><time>2026-05-20T21:34:51Z</time></trkpt><trkpt lat="44.900141" lon="-110.126114"><ele>2106.421</ele><time>2026-05-20T21:34:52Z</time></trkpt><trkpt lat="44.90012" lon="-110.126142"><ele>2107.017</ele><time>2026-05-20T21:34:58Z</time></trkpt><trkpt lat="44.900115" lon="-110.126147"><ele>2107.280</ele><time>2026-05-20T21:34:59Z</time></trkpt><trkpt lat="44.900095" lon="-110.126164"><ele>2107.444</ele><time>2026-05-20T21:35:02Z</time></trkpt><trkpt lat="44.900045" lon="-110.126199"><ele>2108.234</ele><time>2026-05-20T21:35:08Z</time></trkpt><trkpt lat="44.900035" lon="-110.126207"><ele>2108.447</ele><time>2026-05-20T21:35:10Z</time></trkpt><trkpt lat="44.89999" lon="-110.126253"><ele>2109.437</ele><time>2026-05-20T21:35:18Z</time></trkpt><trkpt lat="44.899945" lon="-110.12632"><ele>2110.249</ele><time>2026-05-20T21:35:27Z</time></trkpt><trkpt lat="44.899943" lon="-110.126321"><ele>2110.413</ele><time>2026-05-20T21:35:28Z</time></trkpt><trkpt lat="44.899916" lon="-110.12636"><ele>2111.609</ele><time>2026-05-20T21:35:35Z</time></trkpt><trkpt lat="44.899909" lon="-110.126365"><ele>2111.865</ele><time>2026-05-20T21:35:36Z</time></trkpt><trkpt lat="44.899875" lon="-110.126388"><ele>2112.689</ele><time>2026-05-20T21:35:40Z</time></trkpt><trkpt lat="44.899867" lon="-110.126393"><ele>2112.898</ele><time>2026-05-20T21:35:41Z</time></trkpt><trkpt lat="44.89984" lon="-110.126419"><ele>2113.815</ele><time>2026-05-20T21:35:46Z</time></trkpt><trkpt lat="44.899837" lon="-110.126427"><ele>2113.881</ele><time>2026-05-20T21:35:47Z</time></trkpt><trkpt lat="44.899802" lon="-110.126486"><ele>2114.254</ele><time>2026-05-20T21:35:54Z</time></trkpt><trkpt lat="44.899762" lon="-110.126545"><ele>2115.078</ele><time>2026-05-20T21:36:00Z</time></trkpt><trkpt lat="44.899747" lon="-110.126568"><ele>2115.028</ele><time>2026-05-20T21:36:02Z</time></trkpt><trkpt lat="44.899746" lon="-110.126646"><ele>2115.411</ele><time>2026-05-20T21:36:08Z</time></trkpt><trkpt lat="44.899759" lon="-110.126672"><ele>2116.077</ele><time>2026-05-20T21:36:11Z</time></trkpt><trkpt lat="44.899776" lon="-110.12671"><ele>2116.861</ele><time>2026-05-20T21:36:16Z</time></trkpt><trkpt lat="44.899782" lon="-110.126724"><ele>2117.227</ele><time>2026-05-20T21:36:18Z</time></trkpt><trkpt lat="44.899802" lon="-110.126771"><ele>2118.209</ele><time>2026-05-20T21:36:23Z</time></trkpt><trkpt lat="44.899805" lon="-110.126783"><ele>2118.489</ele><time>2026-05-20T21:36:24Z</time></trkpt><trkpt lat="44.899814" lon="-110.126851"><ele>2119.423</ele><time>2026-05-20T21:36:31Z</time></trkpt><trkpt lat="44.899818" lon="-110.12686"><ele>2119.852</ele><time>2026-05-20T21:36:32Z</time></trkpt><trkpt lat="44.899855" lon="-110.126911"><ele>2120.429</ele><time>2026-05-20T21:36:37Z</time></trkpt><trkpt lat="44.899904" lon="-110.126961"><ele>2120.895</ele><time>2026-05-20T21:36:41Z</time></trkpt><trkpt lat="44.899962" lon="-110.127024"><ele>2121.668</ele><time>2026-05-20T21:36:49Z</time></trkpt><trkpt lat="44.899992" lon="-110.127077"><ele>2122.672</ele><time>2026-05-20T21:36:55Z</time></trkpt><trkpt lat="44.900009" lon="-110.127093"><ele>2122.812</ele><time>2026-05-20T21:36:58Z</time></trkpt><trkpt lat="44.900042" lon="-110.127127"><ele>2123.655</ele><time>2026-05-20T21:37:04Z</time></trkpt><trkpt lat="44.900069" lon="-110.127188"><ele>2124.494</ele><time>2026-05-20T21:37:12Z</time></trkpt><trkpt lat="44.900114" lon="-110.127272"><ele>2124.657</ele><time>2026-05-20T21:37:20Z</time></trkpt><trkpt lat="44.90012" lon="-110.127296"><ele>2124.622</ele><time>2026-05-20T21:37:22Z</time></trkpt><trkpt lat="44.900144" lon="-110.1274"><ele>2124.609</ele><time>2026-05-20T21:37:29Z</time></trkpt><trkpt lat="44.900143" lon="-110.127477"><ele>2124.851</ele><time>2026-05-20T21:37:34Z</time></trkpt><trkpt lat="44.900131" lon="-110.127526"><ele>2125.645</ele><time>2026-05-20T21:37:39Z</time></trkpt><trkpt lat="44.900119" lon="-110.127543"><ele>2125.844</ele><time>2026-05-20T21:37:42Z</time></trkpt><trkpt lat="44.900099" lon="-110.1276"><ele>2125.481</ele><time>2026-05-20T21:37:48Z</time></trkpt><trkpt lat="44.900091" lon="-110.12762"><ele>2124.637</ele><time>2026-05-20T21:37:52Z</time></trkpt><trkpt lat="44.900084" lon="-110.127666"><ele>2123.860</ele><time>2026-05-20T21:37:55Z</time></trkpt><trkpt lat="44.900085" lon="-110.12769"><ele>2123.464</ele><time>2026-05-20T21:37:57Z</time></trkpt><trkpt lat="44.900088" lon="-110.127726"><ele>2122.664</ele><time>2026-05-20T21:38:01Z</time></trkpt><trkpt lat="44.900082" lon="-110.127741"><ele>2122.487</ele><time>2026-05-20T21:38:04Z</time></trkpt><trkpt lat="44.900069" lon="-110.12777"><ele>2121.831</ele><time>2026-05-20T21:38:10Z</time></trkpt><trkpt lat="44.900063" lon="-110.127776"><ele>2121.861</ele><time>2026-05-20T21:38:12Z</time></trkpt><trkpt lat="44.900059" lon="-110.127783"><ele>2121.807</ele><time>2026-05-20T21:38:14Z</time></trkpt><trkpt lat="44.900057" lon="-110.12782"><ele>2121.809</ele><time>2026-05-20T21:38:18Z</time></trkpt><trkpt lat="44.900071" lon="-110.127851"><ele>2121.485</ele><time>2026-05-20T21:38:21Z</time></trkpt><trkpt lat="44.900081" lon="-110.127868"><ele>2121.469</ele><time>2026-05-20T21:38:23Z</time></trkpt><trkpt lat="44.900107" lon="-110.127882"><ele>2121.418</ele><time>2026-05-20T21:38:30Z</time></trkpt><trkpt lat="44.900122" lon="-110.127858"><ele>2121.445</ele><time>2026-05-20T21:38:36Z</time></trkpt><trkpt lat="44.900126" lon="-110.127854"><ele>2121.281</ele><time>2026-05-20T21:38:37Z</time></trkpt><trkpt lat="44.900197" lon="-110.127861"><ele>2120.224</ele><time>2026-05-20T21:38:44Z</time></trkpt><trkpt lat="44.900215" lon="-110.127869"><ele>2120.028</ele><time>2026-05-20T21:38:46Z</time></trkpt><trkpt lat="44.90023" lon="-110.127902"><ele>2119.268</ele><time>2026-05-20T21:38:54Z</time></trkpt><trkpt lat="44.900227" lon="-110.127901"><ele>2119.221</ele><time>2026-05-20T21:38:55Z</time></trkpt><trkpt lat="44.900219" lon="-110.127894"><ele>2119.097</ele><time>2026-05-20T21:38:59Z</time></trkpt><trkpt lat="44.900233" lon="-110.127908"><ele>2119.223</ele><time>2026-05-20T21:39:04Z</time></trkpt><trkpt lat="44.900254" lon="-110.127932"><ele>2119.025</ele><time>2026-05-20T21:39:06Z</time></trkpt><trkpt lat="44.900339" lon="-110.127963"><ele>2118.809</ele><time>2026-05-20T21:39:14Z</time></trkpt><trkpt lat="44.900432" lon="-110.127995"><ele>2119.281</ele><time>2026-05-20T21:39:22Z</time></trkpt><trkpt lat="44.900499" lon="-110.127996"><ele>2119.665</ele><time>2026-05-20T21:39:28Z</time></trkpt><trkpt lat="44.900529" lon="-110.12801"><ele>2120.294</ele><time>2026-05-20T21:39:31Z</time></trkpt><trkpt lat="44.90058" lon="-110.128024"><ele>2120.481</ele><time>2026-05-20T21:39:35Z</time></trkpt><trkpt lat="44.900685" lon="-110.128048"><ele>2120.037</ele><time>2026-05-20T21:39:44Z</time></trkpt><trkpt lat="44.90068" lon="-110.128056"><ele>2120.230</ele><time>2026-05-20T21:39:50Z</time></trkpt><trkpt lat="44.900685" lon="-110.128058"><ele>2120.294</ele><time>2026-05-20T21:40:00Z</time></trkpt><trkpt lat="44.900686" lon="-110.128074"><ele>2120.044</ele><time>2026-05-20T21:40:10Z</time></trkpt><trkpt lat="44.900689" lon="-110.128075"><ele>2120.297</ele><time>2026-05-20T21:40:17Z</time></trkpt><trkpt lat="44.900691" lon="-110.12807"><ele>2120.087</ele><time>2026-05-20T21:40:20Z</time></trkpt><trkpt lat="44.900691" lon="-110.128069"><ele>2120.042</ele><time>2026-05-20T21:40:21Z</time></trkpt><trkpt lat="44.900689" lon="-110.128055"><ele>2120.426</ele><time>2026-05-20T21:40:29Z</time></trkpt><trkpt lat="44.900687" lon="-110.12803"><ele>2120.809</ele><time>2026-05-20T21:40:44Z</time></trkpt><trkpt lat="44.900692" lon="-110.128056"><ele>2121.090</ele><time>2026-05-20T21:40:57Z</time></trkpt><trkpt lat="44.900732" lon="-110.128099"><ele>2121.014</ele><time>2026-05-20T21:41:03Z</time></trkpt><trkpt lat="44.900725" lon="-110.128101"><ele>2121.263</ele><time>2026-05-20T21:41:09Z</time></trkpt><trkpt lat="44.900725" lon="-110.128103"><ele>2121.280</ele><time>2026-05-20T21:41:10Z</time></trkpt><trkpt lat="44.900725" lon="-110.12811"><ele>2121.496</ele><time>2026-05-20T21:41:14Z</time></trkpt><trkpt lat="44.900723" lon="-110.128102"><ele>2121.869</ele><time>2026-05-20T21:41:22Z</time></trkpt><trkpt lat="44.900715" lon="-110.128069"><ele>2121.653</ele><time>2026-05-20T21:41:31Z</time></trkpt><trkpt lat="44.90074" lon="-110.128097"><ele>2121.413</ele><time>2026-05-20T21:41:38Z</time></trkpt><trkpt lat="44.900745" lon="-110.128102"><ele>2122.026</ele><time>2026-05-20T21:41:46Z</time></trkpt><trkpt lat="44.900743" lon="-110.128101"><ele>2122.086</ele><time>2026-05-20T21:41:47Z</time></trkpt><trkpt lat="44.900743" lon="-110.1281"><ele>2122.060</ele><time>2026-05-20T21:41:48Z</time></trkpt><trkpt lat="44.900745" lon="-110.128101"><ele>2122.026</ele><time>2026-05-20T21:41:50Z</time></trkpt><trkpt lat="44.900762" lon="-110.128111"><ele>2121.809</ele><time>2026-05-20T21:41:56Z</time></trkpt><trkpt lat="44.900784" lon="-110.128138"><ele>2121.880</ele><time>2026-05-20T21:41:59Z</time></trkpt><trkpt lat="44.90081" lon="-110.128161"><ele>2122.454</ele><time>2026-05-20T21:42:02Z</time></trkpt><trkpt lat="44.900857" lon="-110.128234"><ele>2123.023</ele><time>2026-05-20T21:42:09Z</time></trkpt><trkpt lat="44.900863" lon="-110.128252"><ele>2122.840</ele><time>2026-05-20T21:42:12Z</time></trkpt><trkpt lat="44.900874" lon="-110.128272"><ele>2123.086</ele><time>2026-05-20T21:42:14Z</time></trkpt><trkpt lat="44.900914" lon="-110.128351"><ele>2123.259</ele><time>2026-05-20T21:42:22Z</time></trkpt><trkpt lat="44.900916" lon="-110.128357"><ele>2123.283</ele><time>2026-05-20T21:42:23Z</time></trkpt><trkpt lat="44.900927" lon="-110.128369"><ele>2123.693</ele><time>2026-05-20T21:42:25Z</time></trkpt><trkpt lat="44.900938" lon="-110.128385"><ele>2124.036</ele><time>2026-05-20T21:42:27Z</time></trkpt><trkpt lat="44.900953" lon="-110.128388"><ele>2124.638</ele><time>2026-05-20T21:42:30Z</time></trkpt><trkpt lat="44.900976" lon="-110.128392"><ele>2125.070</ele><time>2026-05-20T21:42:32Z</time></trkpt><trkpt lat="44.901004" lon="-110.128407"><ele>2125.617</ele><time>2026-05-20T21:42:35Z</time></trkpt><trkpt lat="44.901018" lon="-110.12842"><ele>2125.609</ele><time>2026-05-20T21:42:39Z</time></trkpt><trkpt lat="44.901015" lon="-110.128421"><ele>2125.695</ele><time>2026-05-20T21:42:40Z</time></trkpt><trkpt lat="44.900996" lon="-110.128406"><ele>2125.859</ele><time>2026-05-20T21:42:49Z</time></trkpt><trkpt lat="44.900995" lon="-110.128407"><ele>2126.058</ele><time>2026-05-20T21:42:53Z</time></trkpt><trkpt lat="44.900995" lon="-110.128407"><ele>2126.095</ele><time>2026-05-20T21:42:56Z</time></trkpt><trkpt lat="44.900995" lon="-110.128407"><ele>2126.011</ele><time>2026-05-20T21:42:57Z</time></trkpt><trkpt lat="44.900995" lon="-110.128407"><ele>2126.014</ele><time>2026-05-20T21:42:58Z</time></trkpt><trkpt lat="44.901028" lon="-110.128441"><ele>2125.878</ele><time>2026-05-20T21:43:03Z</time></trkpt><trkpt lat="44.901086" lon="-110.128501"><ele>2125.228</ele><time>2026-05-20T21:43:11Z</time></trkpt><trkpt lat="44.901145" lon="-110.128509"><ele>2124.631</ele><time>2026-05-20T21:43:17Z</time></trkpt><trkpt lat="44.901164" lon="-110.128526"><ele>2124.039</ele><time>2026-05-20T21:43:20Z</time></trkpt><trkpt lat="44.901217" lon="-110.128569"><ele>2123.401</ele><time>2026-05-20T21:43:26Z</time></trkpt><trkpt lat="44.901232" lon="-110.128575"><ele>2123.221</ele><time>2026-05-20T21:43:27Z</time></trkpt><trkpt lat="44.901258" lon="-110.128587"><ele>2122.609</ele><time>2026-05-20T21:43:31Z</time></trkpt><trkpt lat="44.901316" lon="-110.128634"><ele>2122.435</ele><time>2026-05-20T21:43:37Z</time></trkpt><trkpt lat="44.901335" lon="-110.12864"><ele>2122.489</ele><time>2026-05-20T21:43:39Z</time></trkpt><trkpt lat="44.901405" lon="-110.128691"><ele>2122.698</ele><time>2026-05-20T21:43:47Z</time></trkpt><trkpt lat="44.901432" lon="-110.128773"><ele>2122.275</ele><time>2026-05-20T21:43:54Z</time></trkpt><trkpt lat="44.901452" lon="-110.128822"><ele>2121.231</ele><time>2026-05-20T21:43:58Z</time></trkpt><trkpt lat="44.901489" lon="-110.128878"><ele>2121.064</ele><time>2026-05-20T21:44:03Z</time></trkpt><trkpt lat="44.901554" lon="-110.128972"><ele>2121.268</ele><time>2026-05-20T21:44:12Z</time></trkpt><trkpt lat="44.901555" lon="-110.128986"><ele>2121.458</ele><time>2026-05-20T21:44:13Z</time></trkpt><trkpt lat="44.901542" lon="-110.129087"><ele>2122.091</ele><time>2026-05-20T21:44:21Z</time></trkpt><trkpt lat="44.901544" lon="-110.129107"><ele>2122.249</ele><time>2026-05-20T21:44:24Z</time></trkpt><trkpt lat="44.901548" lon="-110.129164"><ele>2122.202</ele><time>2026-05-20T21:44:28Z</time></trkpt><trkpt lat="44.901574" lon="-110.129229"><ele>2121.422</ele><time>2026-05-20T21:44:33Z</time></trkpt><trkpt lat="44.90159" lon="-110.129267"><ele>2121.409</ele><time>2026-05-20T21:44:36Z</time></trkpt><trkpt lat="44.901615" lon="-110.129314"><ele>2121.676</ele><time>2026-05-20T21:44:43Z</time></trkpt><trkpt lat="44.901643" lon="-110.129333"><ele>2121.690</ele><time>2026-05-20T21:44:51Z</time></trkpt><trkpt lat="44.901642" lon="-110.129334"><ele>2121.689</ele><time>2026-05-20T21:44:53Z</time></trkpt><trkpt lat="44.901648" lon="-110.129338"><ele>2121.696</ele><time>2026-05-20T21:44:57Z</time></trkpt><trkpt lat="44.901642" lon="-110.129334"><ele>2121.682</ele><time>2026-05-20T21:45:09Z</time></trkpt><trkpt lat="44.901644" lon="-110.129336"><ele>2121.685</ele><time>2026-05-20T21:45:19Z</time></trkpt><trkpt lat="44.901651" lon="-110.129322"><ele>2122.029</ele><time>2026-05-20T21:45:28Z</time></trkpt><trkpt lat="44.901652" lon="-110.129335"><ele>2122.019</ele><time>2026-05-20T21:45:35Z</time></trkpt><trkpt lat="44.901654" lon="-110.129334"><ele>2122.032</ele><time>2026-05-20T21:45:36Z</time></trkpt><trkpt lat="44.90166" lon="-110.129324"><ele>2122.458</ele><time>2026-05-20T21:45:39Z</time></trkpt><trkpt lat="44.90166" lon="-110.129321"><ele>2122.652</ele><time>2026-05-20T21:45:42Z</time></trkpt><trkpt lat="44.901663" lon="-110.129323"><ele>2122.617</ele><time>2026-05-20T21:45:47Z</time></trkpt><trkpt lat="44.901665" lon="-110.129318"><ele>2122.409</ele><time>2026-05-20T21:45:49Z</time></trkpt><trkpt lat="44.901663" lon="-110.129335"><ele>2122.877</ele><time>2026-05-20T21:45:54Z</time></trkpt><trkpt lat="44.901668" lon="-110.129349"><ele>2122.871</ele><time>2026-05-20T21:45:55Z</time></trkpt><trkpt lat="44.901691" lon="-110.129421"><ele>2122.610</ele><time>2026-05-20T21:46:01Z</time></trkpt><trkpt lat="44.901699" lon="-110.129456"><ele>2122.697</ele><time>2026-05-20T21:46:04Z</time></trkpt><trkpt lat="44.901705" lon="-110.129478"><ele>2122.423</ele><time>2026-05-20T21:46:07Z</time></trkpt><trkpt lat="44.901706" lon="-110.129475"><ele>2122.466</ele><time>2026-05-20T21:46:10Z</time></trkpt><trkpt lat="44.901708" lon="-110.129463"><ele>2123.060</ele><time>2026-05-20T21:46:14Z</time></trkpt><trkpt lat="44.901706" lon="-110.129475"><ele>2123.060</ele><time>2026-05-20T21:46:20Z</time></trkpt><trkpt lat="44.901706" lon="-110.129475"><ele>2123.053</ele><time>2026-05-20T21:46:23Z</time></trkpt><trkpt lat="44.901707" lon="-110.129471"><ele>2122.845</ele><time>2026-05-20T21:46:30Z</time></trkpt><trkpt lat="44.901704" lon="-110.129503"><ele>2122.847</ele><time>2026-05-20T21:46:32Z</time></trkpt><trkpt lat="44.90171" lon="-110.129564"><ele>2123.411</ele><time>2026-05-20T21:46:36Z</time></trkpt><trkpt lat="44.901713" lon="-110.129576"><ele>2123.409</ele><time>2026-05-20T21:46:37Z</time></trkpt><trkpt lat="44.901733" lon="-110.129676"><ele>2122.816</ele><time>2026-05-20T21:46:45Z</time></trkpt><trkpt lat="44.901744" lon="-110.129678"><ele>2122.880</ele><time>2026-05-20T21:46:52Z</time></trkpt><trkpt lat="44.901746" lon="-110.12968"><ele>2123.059</ele><time>2026-05-20T21:47:01Z</time></trkpt><trkpt lat="44.901745" lon="-110.129678"><ele>2123.286</ele><time>2026-05-20T21:47:02Z</time></trkpt><trkpt lat="44.901744" lon="-110.129675"><ele>2123.292</ele><time>2026-05-20T21:47:03Z</time></trkpt><trkpt lat="44.901744" lon="-110.129671"><ele>2123.225</ele><time>2026-05-20T21:47:04Z</time></trkpt><trkpt lat="44.901738" lon="-110.129675"><ele>2123.239</ele><time>2026-05-20T21:47:07Z</time></trkpt><trkpt lat="44.901738" lon="-110.129675"><ele>2123.279</ele><time>2026-05-20T21:47:13Z</time></trkpt><trkpt lat="44.901738" lon="-110.129675"><ele>2123.262</ele><time>2026-05-20T21:47:18Z</time></trkpt><trkpt lat="44.901737" lon="-110.129683"><ele>2123.212</ele><time>2026-05-20T21:47:20Z</time></trkpt><trkpt lat="44.901732" lon="-110.129733"><ele>2123.232</ele><time>2026-05-20T21:47:24Z</time></trkpt><trkpt lat="44.901736" lon="-110.129749"><ele>2123.205</ele><time>2026-05-20T21:47:29Z</time></trkpt><trkpt lat="44.901736" lon="-110.129749"><ele>2123.209</ele><time>2026-05-20T21:47:32Z</time></trkpt><trkpt lat="44.901736" lon="-110.129749"><ele>2123.623</ele><time>2026-05-20T21:47:39Z</time></trkpt><trkpt lat="44.901736" lon="-110.129749"><ele>2123.687</ele><time>2026-05-20T21:47:41Z</time></trkpt><trkpt lat="44.901736" lon="-110.129749"><ele>2123.696</ele><time>2026-05-20T21:47:51Z</time></trkpt><trkpt lat="44.901747" lon="-110.129783"><ele>2123.633</ele><time>2026-05-20T21:47:57Z</time></trkpt><trkpt lat="44.901753" lon="-110.129873"><ele>2123.889</ele><time>2026-05-20T21:48:05Z</time></trkpt><trkpt lat="44.901753" lon="-110.129861"><ele>2123.622</ele><time>2026-05-20T21:48:09Z</time></trkpt><trkpt lat="44.901753" lon="-110.129861"><ele>2123.626</ele><time>2026-05-20T21:48:12Z</time></trkpt><trkpt lat="44.901753" lon="-110.129861"><ele>2123.616</ele><time>2026-05-20T21:48:13Z</time></trkpt><trkpt lat="44.901753" lon="-110.129861"><ele>2123.889</ele><time>2026-05-20T21:48:18Z</time></trkpt><trkpt lat="44.901753" lon="-110.129861"><ele>2123.832</ele><time>2026-05-20T21:48:19Z</time></trkpt><trkpt lat="44.901753" lon="-110.129861"><ele>2123.892</ele><time>2026-05-20T21:48:20Z</time></trkpt><trkpt lat="44.901753" lon="-110.129861"><ele>2123.611</ele><time>2026-05-20T21:48:21Z</time></trkpt><trkpt lat="44.90175" lon="-110.129863"><ele>2124.009</ele><time>2026-05-20T21:48:31Z</time></trkpt><trkpt lat="44.901749" lon="-110.129872"><ele>2123.635</ele><time>2026-05-20T21:48:35Z</time></trkpt><trkpt lat="44.90175" lon="-110.129863"><ele>2123.669</ele><time>2026-05-20T21:48:53Z</time></trkpt><trkpt lat="44.901752" lon="-110.129869"><ele>2123.878</ele><time>2026-05-20T21:49:04Z</time></trkpt><trkpt lat="44.901778" lon="-110.129924"><ele>2123.425</ele><time>2026-05-20T21:49:11Z</time></trkpt><trkpt lat="44.90178" lon="-110.12992"><ele>2123.481</ele><time>2026-05-20T21:49:14Z</time></trkpt><trkpt lat="44.901781" lon="-110.129915"><ele>2123.674</ele><time>2026-05-20T21:49:18Z</time></trkpt><trkpt lat="44.901758" lon="-110.129917"><ele>2123.648</ele><time>2026-05-20T21:49:26Z</time></trkpt><trkpt lat="44.901771" lon="-110.129925"><ele>2124.228</ele><time>2026-05-20T21:49:37Z</time></trkpt><trkpt lat="44.901771" lon="-110.129926"><ele>2124.271</ele><time>2026-05-20T21:49:44Z</time></trkpt><trkpt lat="44.901771" lon="-110.129926"><ele>2124.261</ele><time>2026-05-20T21:49:51Z</time></trkpt><trkpt lat="44.901771" lon="-110.129926"><ele>2124.421</ele><time>2026-05-20T21:50:05Z</time></trkpt><trkpt lat="44.901771" lon="-110.129926"><ele>2124.213</ele><time>2026-05-20T21:50:16Z</time></trkpt><trkpt lat="44.901771" lon="-110.129926"><ele>2124.409</ele><time>2026-05-20T21:50:20Z</time></trkpt><trkpt lat="44.901771" lon="-110.129926"><ele>2124.298</ele><time>2026-05-20T21:50:33Z</time></trkpt><trkpt lat="44.901765" lon="-110.129924"><ele>2123.812</ele><time>2026-05-20T21:50:42Z</time></trkpt><trkpt lat="44.901771" lon="-110.129926"><ele>2123.831</ele><time>2026-05-20T21:50:50Z</time></trkpt><trkpt lat="44.901771" lon="-110.129926"><ele>2123.868</ele><time>2026-05-20T21:50:55Z</time></trkpt><trkpt lat="44.901771" lon="-110.129926"><ele>2123.894</ele><time>2026-05-20T21:50:59Z</time></trkpt><trkpt lat="44.901771" lon="-110.129926"><ele>2123.847</ele><time>2026-05-20T21:51:04Z</time></trkpt><trkpt lat="44.901766" lon="-110.129928"><ele>2123.821</ele><time>2026-05-20T21:51:10Z</time></trkpt><trkpt lat="44.90176" lon="-110.129926"><ele>2123.871</ele><time>2026-05-20T21:51:12Z</time></trkpt><trkpt lat="44.901763" lon="-110.129921"><ele>2124.094</ele><time>2026-05-20T21:51:25Z</time></trkpt><trkpt lat="44.901768" lon="-110.129922"><ele>2124.067</ele><time>2026-05-20T21:51:28Z</time></trkpt><trkpt lat="44.901783" lon="-110.12992"><ele>2124.081</ele><time>2026-05-20T21:51:34Z</time></trkpt><trkpt lat="44.901756" lon="-110.129939"><ele>2124.619</ele><time>2026-05-20T21:51:45Z</time></trkpt><trkpt lat="44.901758" lon="-110.129941"><ele>2124.609</ele><time>2026-05-20T21:51:46Z</time></trkpt><trkpt lat="44.901762" lon="-110.129942"><ele>2124.688</ele><time>2026-05-20T21:51:50Z</time></trkpt><trkpt lat="44.901763" lon="-110.129942"><ele>2124.672</ele><time>2026-05-20T21:51:51Z</time></trkpt><trkpt lat="44.901784" lon="-110.12995"><ele>2124.231</ele><time>2026-05-20T21:51:55Z</time></trkpt><trkpt lat="44.901782" lon="-110.129944"><ele>2124.618</ele><time>2026-05-20T21:52:04Z</time></trkpt><trkpt lat="44.90183" lon="-110.129995"><ele>2124.434</ele><time>2026-05-20T21:52:12Z</time></trkpt><trkpt lat="44.901895" lon="-110.130051"><ele>2124.417</ele><time>2026-05-20T21:52:19Z</time></trkpt><trkpt lat="44.901943" lon="-110.130134"><ele>2125.211</ele><time>2026-05-20T21:52:27Z</time></trkpt><trkpt lat="44.902015" lon="-110.130175"><ele>2125.051</ele><time>2026-05-20T21:52:35Z</time></trkpt><trkpt lat="44.902047" lon="-110.130235"><ele>2124.654</ele><time>2026-05-20T21:52:42Z</time></trkpt><trkpt lat="44.902037" lon="-110.130284"><ele>2124.441</ele><time>2026-05-20T21:52:47Z</time></trkpt><trkpt lat="44.902028" lon="-110.130288"><ele>2124.481</ele><time>2026-05-20T21:52:48Z</time></trkpt><trkpt lat="44.901943" lon="-110.130339"><ele>2124.409</ele><time>2026-05-20T21:52:57Z</time></trkpt><trkpt lat="44.901882" lon="-110.130349"><ele>2124.409</ele><time>2026-05-20T21:53:05Z</time></trkpt><trkpt lat="44.90179" lon="-110.130329"><ele>2124.066</ele><time>2026-05-20T21:53:14Z</time></trkpt><trkpt lat="44.901773" lon="-110.130337"><ele>2124.030</ele><time>2026-05-20T21:53:21Z</time></trkpt><trkpt lat="44.901773" lon="-110.130337"><ele>2124.239</ele><time>2026-05-20T21:53:32Z</time></trkpt><trkpt lat="44.901775" lon="-110.130335"><ele>2124.256</ele><time>2026-05-20T21:53:34Z</time></trkpt><trkpt lat="44.90177" lon="-110.130338"><ele>2124.062</ele><time>2026-05-20T21:53:35Z</time></trkpt><trkpt lat="44.901747" lon="-110.130346"><ele>2123.885</ele><time>2026-05-20T21:53:38Z</time></trkpt><trkpt lat="44.901744" lon="-110.130344"><ele>2124.079</ele><time>2026-05-20T21:53:40Z</time></trkpt><trkpt lat="44.90174" lon="-110.130351"><ele>2124.479</ele><time>2026-05-20T21:53:50Z</time></trkpt><trkpt lat="44.90174" lon="-110.130351"><ele>2124.272</ele><time>2026-05-20T21:53:51Z</time></trkpt><trkpt lat="44.90174" lon="-110.130351"><ele>2123.811</ele><time>2026-05-20T21:53:59Z</time></trkpt><trkpt lat="44.90174" lon="-110.130351"><ele>2123.821</ele><time>2026-05-20T21:54:00Z</time></trkpt><trkpt lat="44.901749" lon="-110.130352"><ele>2124.003</ele><time>2026-05-20T21:54:02Z</time></trkpt><trkpt lat="44.901755" lon="-110.130346"><ele>2124.009</ele><time>2026-05-20T21:54:10Z</time></trkpt><trkpt lat="44.901758" lon="-110.130339"><ele>2124.043</ele><time>2026-05-20T21:54:13Z</time></trkpt><trkpt lat="44.90174" lon="-110.130351"><ele>2123.857</ele><time>2026-05-20T21:54:23Z</time></trkpt><trkpt lat="44.90174" lon="-110.130351"><ele>2123.846</ele><time>2026-05-20T21:54:29Z</time></trkpt><trkpt lat="44.901722" lon="-110.130352"><ele>2124.213</ele><time>2026-05-20T21:54:35Z</time></trkpt><trkpt lat="44.901722" lon="-110.130352"><ele>2124.279</ele><time>2026-05-20T21:54:37Z</time></trkpt><trkpt lat="44.901721" lon="-110.130351"><ele>2124.452</ele><time>2026-05-20T21:54:42Z</time></trkpt><trkpt lat="44.901721" lon="-110.130351"><ele>2124.436</ele><time>2026-05-20T21:54:43Z</time></trkpt><trkpt lat="44.901721" lon="-110.130351"><ele>2124.486</ele><time>2026-05-20T21:54:56Z</time></trkpt><trkpt lat="44.901721" lon="-110.130351"><ele>2124.419</ele><time>2026-05-20T21:54:59Z</time></trkpt><trkpt lat="44.901725" lon="-110.130354"><ele>2124.269</ele><time>2026-05-20T21:55:05Z</time></trkpt><trkpt lat="44.901727" lon="-110.130353"><ele>2124.204</ele><time>2026-05-20T21:55:10Z</time></trkpt><trkpt lat="44.901711" lon="-110.130352"><ele>2124.424</ele><time>2026-05-20T21:55:17Z</time></trkpt><trkpt lat="44.901713" lon="-110.130349"><ele>2124.409</ele><time>2026-05-20T21:55:23Z</time></trkpt><trkpt lat="44.901715" lon="-110.130351"><ele>2124.488</ele><time>2026-05-20T21:55:26Z</time></trkpt><trkpt lat="44.901725" lon="-110.130354"><ele>2124.252</ele><time>2026-05-20T21:55:34Z</time></trkpt><trkpt lat="44.901721" lon="-110.130351"><ele>2124.241</ele><time>2026-05-20T21:55:50Z</time></trkpt><trkpt lat="44.901713" lon="-110.130359"><ele>2124.038</ele><time>2026-05-20T21:55:54Z</time></trkpt><trkpt lat="44.901693" lon="-110.130379"><ele>2124.264</ele><time>2026-05-20T21:56:00Z</time></trkpt><trkpt lat="44.901662" lon="-110.130397"><ele>2124.017</ele><time>2026-05-20T21:56:05Z</time></trkpt><trkpt lat="44.901627" lon="-110.13043"><ele>2123.831</ele><time>2026-05-20T21:56:09Z</time></trkpt><trkpt lat="44.901613" lon="-110.130456"><ele>2123.871</ele><time>2026-05-20T21:56:11Z</time></trkpt><trkpt lat="44.901595" lon="-110.130468"><ele>2123.824</ele><time>2026-05-20T21:56:13Z</time></trkpt><trkpt lat="44.90153" lon="-110.130535"><ele>2124.051</ele><time>2026-05-20T21:56:20Z</time></trkpt><trkpt lat="44.901486" lon="-110.130619"><ele>2125.001</ele><time>2026-05-20T21:56:28Z</time></trkpt><trkpt lat="44.901419" lon="-110.130714"><ele>2124.611</ele><time>2026-05-20T21:56:37Z</time></trkpt><trkpt lat="44.901355" lon="-110.130755"><ele>2124.209</ele><time>2026-05-20T21:56:43Z</time></trkpt><trkpt lat="44.901347" lon="-110.130766"><ele>2124.287</ele><time>2026-05-20T21:56:49Z</time></trkpt><trkpt lat="44.901344" lon="-110.130766"><ele>2124.421</ele><time>2026-05-20T21:56:57Z</time></trkpt><trkpt lat="44.901344" lon="-110.130766"><ele>2124.460</ele><time>2026-05-20T21:57:03Z</time></trkpt><trkpt lat="44.901344" lon="-110.130766"><ele>2124.417</ele><time>2026-05-20T21:57:08Z</time></trkpt><trkpt lat="44.901344" lon="-110.130763"><ele>2124.033</ele><time>2026-05-20T21:57:17Z</time></trkpt><trkpt lat="44.90132" lon="-110.130807"><ele>2124.266</ele><time>2026-05-20T21:57:25Z</time></trkpt><trkpt lat="44.901296" lon="-110.130884"><ele>2124.440</ele><time>2026-05-20T21:57:33Z</time></trkpt><trkpt lat="44.901291" lon="-110.130907"><ele>2124.240</ele><time>2026-05-20T21:57:39Z</time></trkpt><trkpt lat="44.901291" lon="-110.130907"><ele>2124.483</ele><time>2026-05-20T21:57:43Z</time></trkpt><trkpt lat="44.901291" lon="-110.130907"><ele>2124.072</ele><time>2026-05-20T21:57:51Z</time></trkpt><trkpt lat="44.901291" lon="-110.130907"><ele>2124.213</ele><time>2026-05-20T21:57:53Z</time></trkpt><trkpt lat="44.901291" lon="-110.130907"><ele>2124.214</ele><time>2026-05-20T21:58:01Z</time></trkpt><trkpt lat="44.901288" lon="-110.130911"><ele>2124.409</ele><time>2026-05-20T21:58:09Z</time></trkpt><trkpt lat="44.901291" lon="-110.130907"><ele>2124.439</ele><time>2026-05-20T21:58:18Z</time></trkpt><trkpt lat="44.901291" lon="-110.130907"><ele>2124.453</ele><time>2026-05-20T21:58:26Z</time></trkpt><trkpt lat="44.901291" lon="-110.130907"><ele>2124.462</ele><time>2026-05-20T21:58:28Z</time></trkpt><trkpt lat="44.901291" lon="-110.130907"><ele>2124.479</ele><time>2026-05-20T21:58:30Z</time></trkpt><trkpt lat="44.901291" lon="-110.130907"><ele>2124.485</ele><time>2026-05-20T21:58:50Z</time></trkpt><trkpt lat="44.901291" lon="-110.130907"><ele>2124.448</ele><time>2026-05-20T21:58:55Z</time></trkpt><trkpt lat="44.901295" lon="-110.130911"><ele>2124.212</ele><time>2026-05-20T21:59:08Z</time></trkpt><trkpt lat="44.901293" lon="-110.130918"><ele>2124.042</ele><time>2026-05-20T21:59:12Z</time></trkpt><trkpt lat="44.901291" lon="-110.130917"><ele>2124.285</ele><time>2026-05-20T21:59:18Z</time></trkpt><trkpt lat="44.901291" lon="-110.130918"><ele>2124.237</ele><time>2026-05-20T21:59:19Z</time></trkpt><trkpt lat="44.901292" lon="-110.13093"><ele>2124.249</ele><time>2026-05-20T21:59:21Z</time></trkpt><trkpt lat="44.901277" lon="-110.130941"><ele>2124.013</ele><time>2026-05-20T21:59:23Z</time></trkpt><trkpt lat="44.901267" lon="-110.130947"><ele>2124.009</ele><time>2026-05-20T21:59:24Z</time></trkpt><trkpt lat="44.901224" lon="-110.131006"><ele>2124.445</ele><time>2026-05-20T21:59:29Z</time></trkpt><trkpt lat="44.901215" lon="-110.131014"><ele>2124.419</ele><time>2026-05-20T21:59:30Z</time></trkpt><trkpt lat="44.901155" lon="-110.131087"><ele>2124.288</ele><time>2026-05-20T21:59:36Z</time></trkpt><trkpt lat="44.901122" lon="-110.131202"><ele>2124.435</ele><time>2026-05-20T21:59:44Z</time></trkpt><trkpt lat="44.901057" lon="-110.131259"><ele>2124.451</ele><time>2026-05-20T21:59:51Z</time></trkpt><trkpt lat="44.900962" lon="-110.131247"><ele>2124.424</ele><time>2026-05-20T21:59:59Z</time></trkpt><trkpt lat="44.900934" lon="-110.131281"><ele>2124.688</ele><time>2026-05-20T22:00:05Z</time></trkpt><trkpt lat="44.900925" lon="-110.131306"><ele>2124.638</ele><time>2026-05-20T22:00:12Z</time></trkpt><trkpt lat="44.900912" lon="-110.131352"><ele>2124.651</ele><time>2026-05-20T22:00:18Z</time></trkpt><trkpt lat="44.900909" lon="-110.131373"><ele>2124.816</ele><time>2026-05-20T22:00:20Z</time></trkpt><trkpt lat="44.900895" lon="-110.131405"><ele>2125.476</ele><time>2026-05-20T22:00:23Z</time></trkpt><trkpt lat="44.900864" lon="-110.131434"><ele>2125.813</ele><time>2026-05-20T22:00:27Z</time></trkpt><trkpt lat="44.900818" lon="-110.131506"><ele>2124.809</ele><time>2026-05-20T22:00:33Z</time></trkpt><trkpt lat="44.90079" lon="-110.131599"><ele>2126.023</ele><time>2026-05-20T22:00:40Z</time></trkpt><trkpt lat="44.900771" lon="-110.131624"><ele>2126.497</ele><time>2026-05-20T22:00:43Z</time></trkpt><trkpt lat="44.90073" lon="-110.131653"><ele>2126.276</ele><time>2026-05-20T22:00:47Z</time></trkpt><trkpt lat="44.900685" lon="-110.131662"><ele>2125.283</ele><time>2026-05-20T22:00:51Z</time></trkpt><trkpt lat="44.900663" lon="-110.131682"><ele>2125.059</ele><time>2026-05-20T22:00:53Z</time></trkpt><trkpt lat="44.90064" lon="-110.131706"><ele>2125.062</ele><time>2026-05-20T22:00:59Z</time></trkpt><trkpt lat="44.900584" lon="-110.131707"><ele>2124.856</ele><time>2026-05-20T22:01:05Z</time></trkpt><trkpt lat="44.900545" lon="-110.131669"><ele>2124.436</ele><time>2026-05-20T22:01:12Z</time></trkpt><trkpt lat="44.900547" lon="-110.131675"><ele>2124.689</ele><time>2026-05-20T22:01:17Z</time></trkpt><trkpt lat="44.900535" lon="-110.131682"><ele>2124.612</ele><time>2026-05-20T22:01:23Z</time></trkpt><trkpt lat="44.900537" lon="-110.131693"><ele>2124.432</ele><time>2026-05-20T22:01:26Z</time></trkpt><trkpt lat="44.900535" lon="-110.131698"><ele>2124.205</ele><time>2026-05-20T22:01:32Z</time></trkpt><trkpt lat="44.900529" lon="-110.131697"><ele>2123.609</ele><time>2026-05-20T22:01:38Z</time></trkpt><trkpt lat="44.900527" lon="-110.1317"><ele>2124.693</ele><time>2026-05-20T22:16:12Z</time></trkpt><trkpt lat="44.900521" lon="-110.131698"><ele>2124.657</ele><time>2026-05-20T22:16:13Z</time></trkpt><trkpt lat="44.90053" lon="-110.131701"><ele>2124.816</ele><time>2026-05-20T22:16:18Z</time></trkpt><trkpt lat="44.900529" lon="-110.131709"><ele>2124.653</ele><time>2026-05-20T22:16:28Z</time></trkpt><trkpt lat="44.900529" lon="-110.131696"><ele>2124.659</ele><time>2026-05-20T22:16:34Z</time></trkpt><trkpt lat="44.900529" lon="-110.131696"><ele>2124.452</ele><time>2026-05-20T22:16:42Z</time></trkpt><trkpt lat="44.900529" lon="-110.131696"><ele>2124.856</ele><time>2026-05-20T22:16:56Z</time></trkpt><trkpt lat="44.900526" lon="-110.131707"><ele>2124.876</ele><time>2026-05-20T22:17:06Z</time></trkpt><trkpt lat="44.900521" lon="-110.131717"><ele>2124.689</ele><time>2026-05-20T22:17:16Z</time></trkpt><trkpt lat="44.900516" lon="-110.131718"><ele>2124.856</ele><time>2026-05-20T22:17:23Z</time></trkpt><trkpt lat="44.900516" lon="-110.131718"><ele>2124.859</ele><time>2026-05-20T22:17:28Z</time></trkpt><trkpt lat="44.900516" lon="-110.131718"><ele>2124.814</ele><time>2026-05-20T22:17:32Z</time></trkpt><trkpt lat="44.900516" lon="-110.131718"><ele>2124.809</ele><time>2026-05-20T22:17:33Z</time></trkpt><trkpt lat="44.900514" lon="-110.131718"><ele>2124.827</ele><time>2026-05-20T22:17:38Z</time></trkpt><trkpt lat="44.900516" lon="-110.131718"><ele>2124.671</ele><time>2026-05-20T22:17:49Z</time></trkpt><trkpt lat="44.900516" lon="-110.131718"><ele>2124.690</ele><time>2026-05-20T22:17:52Z</time></trkpt><trkpt lat="44.900516" lon="-110.131718"><ele>2124.817</ele><time>2026-05-20T22:17:55Z</time></trkpt><trkpt lat="44.900516" lon="-110.131718"><ele>2124.893</ele><time>2026-05-20T22:17:58Z</time></trkpt><trkpt lat="44.90048" lon="-110.131704"><ele>2124.656</ele><time>2026-05-20T22:18:09Z</time></trkpt><trkpt lat="44.90039" lon="-110.131637"><ele>2124.650</ele><time>2026-05-20T22:18:19Z</time></trkpt><trkpt lat="44.900324" lon="-110.131572"><ele>2124.630</ele><time>2026-05-20T22:18:27Z</time></trkpt><trkpt lat="44.900266" lon="-110.131499"><ele>2124.873</ele><time>2026-05-20T22:18:34Z</time></trkpt><trkpt lat="44.900197" lon="-110.13143"><ele>2125.235</ele><time>2026-05-20T22:18:42Z</time></trkpt><trkpt lat="44.900141" lon="-110.131299"><ele>2125.086</ele><time>2026-05-20T22:18:52Z</time></trkpt><trkpt lat="44.900075" lon="-110.131249"><ele>2125.414</ele><time>2026-05-20T22:18:59Z</time></trkpt><trkpt lat="44.900019" lon="-110.13119"><ele>2126.009</ele><time>2026-05-20T22:19:06Z</time></trkpt><trkpt lat="44.899985" lon="-110.131141"><ele>2125.645</ele><time>2026-05-20T22:19:10Z</time></trkpt><trkpt lat="44.899958" lon="-110.131105"><ele>2126.419</ele><time>2026-05-20T22:19:13Z</time></trkpt><trkpt lat="44.899923" lon="-110.131032"><ele>2125.658</ele><time>2026-05-20T22:19:18Z</time></trkpt><trkpt lat="44.899916" lon="-110.131014"><ele>2125.485</ele><time>2026-05-20T22:19:19Z</time></trkpt><trkpt lat="44.899897" lon="-110.130964"><ele>2124.261</ele><time>2026-05-20T22:19:23Z</time></trkpt><trkpt lat="44.899866" lon="-110.130941"><ele>2124.884</ele><time>2026-05-20T22:19:26Z</time></trkpt><trkpt lat="44.899857" lon="-110.130933"><ele>2125.218</ele><time>2026-05-20T22:19:27Z</time></trkpt><trkpt lat="44.899808" lon="-110.130879"><ele>2125.898</ele><time>2026-05-20T22:19:33Z</time></trkpt><trkpt lat="44.899808" lon="-110.130869"><ele>2125.671</ele><time>2026-05-20T22:19:34Z</time></trkpt><trkpt lat="44.899757" lon="-110.130824"><ele>2125.287</ele><time>2026-05-20T22:19:40Z</time></trkpt><trkpt lat="44.899701" lon="-110.130746"><ele>2124.842</ele><time>2026-05-20T22:19:48Z</time></trkpt><trkpt lat="44.899689" lon="-110.130747"><ele>2124.826</ele><time>2026-05-20T22:19:49Z</time></trkpt><trkpt lat="44.899646" lon="-110.130726"><ele>2125.209</ele><time>2026-05-20T22:19:54Z</time></trkpt><trkpt lat="44.899598" lon="-110.130706"><ele>2125.270</ele><time>2026-05-20T22:19:58Z</time></trkpt><trkpt lat="44.899559" lon="-110.130698"><ele>2125.014</ele><time>2026-05-20T22:20:01Z</time></trkpt><trkpt lat="44.899513" lon="-110.130674"><ele>2125.663</ele><time>2026-05-20T22:20:06Z</time></trkpt><trkpt lat="44.899501" lon="-110.130655"><ele>2125.670</ele><time>2026-05-20T22:20:10Z</time></trkpt><trkpt lat="44.899499" lon="-110.130642"><ele>2125.636</ele><time>2026-05-20T22:20:11Z</time></trkpt><trkpt lat="44.899473" lon="-110.130547"><ele>2125.279</ele><time>2026-05-20T22:20:17Z</time></trkpt><trkpt lat="44.899449" lon="-110.13047"><ele>2124.813</ele><time>2026-05-20T22:20:21Z</time></trkpt><trkpt lat="44.899417" lon="-110.1304"><ele>2124.823</ele><time>2026-05-20T22:20:25Z</time></trkpt><trkpt lat="44.899361" lon="-110.130295"><ele>2124.646</ele><time>2026-05-20T22:20:32Z</time></trkpt><trkpt lat="44.899338" lon="-110.130177"><ele>2124.691</ele><time>2026-05-20T22:20:40Z</time></trkpt><trkpt lat="44.899363" lon="-110.130054"><ele>2125.081</ele><time>2026-05-20T22:20:48Z</time></trkpt><trkpt lat="44.899399" lon="-110.129957"><ele>2125.219</ele><time>2026-05-20T22:20:55Z</time></trkpt><trkpt lat="44.899413" lon="-110.129816"><ele>2126.009</ele><time>2026-05-20T22:21:03Z</time></trkpt><trkpt lat="44.899414" lon="-110.129811"><ele>2126.211</ele><time>2026-05-20T22:21:04Z</time></trkpt><trkpt lat="44.89942" lon="-110.129753"><ele>2126.425</ele><time>2026-05-20T22:21:09Z</time></trkpt><trkpt lat="44.899423" lon="-110.129736"><ele>2126.424</ele><time>2026-05-20T22:21:10Z</time></trkpt><trkpt lat="44.899444" lon="-110.129617"><ele>2125.861</ele><time>2026-05-20T22:21:16Z</time></trkpt><trkpt lat="44.899447" lon="-110.129582"><ele>2126.077</ele><time>2026-05-20T22:21:18Z</time></trkpt><trkpt lat="44.89944" lon="-110.129475"><ele>2126.480</ele><time>2026-05-20T22:21:25Z</time></trkpt><trkpt lat="44.899448" lon="-110.129306"><ele>2127.054</ele><time>2026-05-20T22:21:35Z</time></trkpt><trkpt lat="44.899454" lon="-110.129261"><ele>2127.474</ele><time>2026-05-20T22:21:38Z</time></trkpt><trkpt lat="44.899475" lon="-110.129181"><ele>2127.477</ele><time>2026-05-20T22:21:43Z</time></trkpt><trkpt lat="44.899539" lon="-110.129098"><ele>2126.452</ele><time>2026-05-20T22:21:50Z</time></trkpt><trkpt lat="44.899548" lon="-110.129083"><ele>2126.053</ele><time>2026-05-20T22:21:51Z</time></trkpt><trkpt lat="44.899571" lon="-110.128995"><ele>2125.808</ele><time>2026-05-20T22:21:56Z</time></trkpt><trkpt lat="44.899579" lon="-110.128968"><ele>2126.209</ele><time>2026-05-20T22:21:58Z</time></trkpt><trkpt lat="44.89958" lon="-110.128853"><ele>2126.887</ele><time>2026-05-20T22:22:06Z</time></trkpt><trkpt lat="44.899604" lon="-110.128714"><ele>2126.641</ele><time>2026-05-20T22:22:15Z</time></trkpt><trkpt lat="44.899615" lon="-110.128652"><ele>2125.810</ele><time>2026-05-20T22:22:18Z</time></trkpt><trkpt lat="44.899625" lon="-110.128613"><ele>2125.037</ele><time>2026-05-20T22:22:20Z</time></trkpt><trkpt lat="44.89963" lon="-110.128596"><ele>2124.693</ele><time>2026-05-20T22:22:21Z</time></trkpt><trkpt lat="44.899644" lon="-110.128442"><ele>2124.656</ele><time>2026-05-20T22:22:31Z</time></trkpt><trkpt lat="44.899641" lon="-110.128337"><ele>2124.820</ele><time>2026-05-20T22:22:37Z</time></trkpt><trkpt lat="44.899634" lon="-110.128274"><ele>2125.480</ele><time>2026-05-20T22:22:41Z</time></trkpt><trkpt lat="44.899637" lon="-110.128085"><ele>2124.283</ele><time>2026-05-20T22:22:52Z</time></trkpt><trkpt lat="44.899681" lon="-110.128018"><ele>2125.226</ele><time>2026-05-20T22:22:58Z</time></trkpt><trkpt lat="44.899694" lon="-110.128016"><ele>2125.247</ele><time>2026-05-20T22:22:59Z</time></trkpt><trkpt lat="44.899795" lon="-110.128016"><ele>2125.811</ele><time>2026-05-20T22:23:07Z</time></trkpt><trkpt lat="44.899858" lon="-110.128082"><ele>2125.609</ele><time>2026-05-20T22:23:14Z</time></trkpt><trkpt lat="44.899949" lon="-110.128125"><ele>2125.444</ele><time>2026-05-20T22:23:22Z</time></trkpt><trkpt lat="44.899994" lon="-110.12814"><ele>2125.288</ele><time>2026-05-20T22:23:29Z</time></trkpt><trkpt lat="44.900002" lon="-110.128141"><ele>2125.047</ele><time>2026-05-20T22:23:32Z</time></trkpt><trkpt lat="44.900015" lon="-110.128131"><ele>2124.874</ele><time>2026-05-20T22:23:35Z</time></trkpt><trkpt lat="44.900036" lon="-110.128122"><ele>2125.090</ele><time>2026-05-20T22:23:38Z</time></trkpt><trkpt lat="44.900049" lon="-110.128122"><ele>2124.883</ele><time>2026-05-20T22:23:43Z</time></trkpt><trkpt lat="44.900054" lon="-110.128122"><ele>2124.887</ele><time>2026-05-20T22:23:49Z</time></trkpt><trkpt lat="44.900104" lon="-110.128084"><ele>2124.897</ele><time>2026-05-20T22:23:56Z</time></trkpt><trkpt lat="44.900164" lon="-110.128"><ele>2124.860</ele><time>2026-05-20T22:24:03Z</time></trkpt><trkpt lat="44.900221" lon="-110.127906"><ele>2125.076</ele><time>2026-05-20T22:24:11Z</time></trkpt><trkpt lat="44.900211" lon="-110.127804"><ele>2126.290</ele><time>2026-05-20T22:24:19Z</time></trkpt><trkpt lat="44.900169" lon="-110.127782"><ele>2127.219</ele><time>2026-05-20T22:24:24Z</time></trkpt><trkpt lat="44.900159" lon="-110.127786"><ele>2127.409</ele><time>2026-05-20T22:24:25Z</time></trkpt><trkpt lat="44.900142" lon="-110.127793"><ele>2127.699</ele><time>2026-05-20T22:24:27Z</time></trkpt><trkpt lat="44.900111" lon="-110.127779"><ele>2128.443</ele><time>2026-05-20T22:24:32Z</time></trkpt><trkpt lat="44.900118" lon="-110.127767"><ele>2128.832</ele><time>2026-05-20T22:24:34Z</time></trkpt><trkpt lat="44.900121" lon="-110.12776"><ele>2128.829</ele><time>2026-05-20T22:24:35Z</time></trkpt><trkpt lat="44.900127" lon="-110.127723"><ele>2129.425</ele><time>2026-05-20T22:24:39Z</time></trkpt><trkpt lat="44.900135" lon="-110.127678"><ele>2129.898</ele><time>2026-05-20T22:24:42Z</time></trkpt><trkpt lat="44.900149" lon="-110.127597"><ele>2130.622</ele><time>2026-05-20T22:24:47Z</time></trkpt><trkpt lat="44.900151" lon="-110.127585"><ele>2131.012</ele><time>2026-05-20T22:24:50Z</time></trkpt><trkpt lat="44.90016" lon="-110.12758"><ele>2131.625</ele><time>2026-05-20T22:24:53Z</time></trkpt><trkpt lat="44.900179" lon="-110.127552"><ele>2132.836</ele><time>2026-05-20T22:24:58Z</time></trkpt><trkpt lat="44.900192" lon="-110.127466"><ele>2132.417</ele><time>2026-05-20T22:25:04Z</time></trkpt><trkpt lat="44.900186" lon="-110.127409"><ele>2131.618</ele><time>2026-05-20T22:25:08Z</time></trkpt><trkpt lat="44.900159" lon="-110.127337"><ele>2131.209</ele><time>2026-05-20T22:25:13Z</time></trkpt><trkpt lat="44.900128" lon="-110.127204"><ele>2131.055</ele><time>2026-05-20T22:25:22Z</time></trkpt><trkpt lat="44.900089" lon="-110.127154"><ele>2130.669</ele><time>2026-05-20T22:25:26Z</time></trkpt><trkpt lat="44.90006" lon="-110.127072"><ele>2130.498</ele><time>2026-05-20T22:25:31Z</time></trkpt><trkpt lat="44.900004" lon="-110.127015"><ele>2129.625</ele><time>2026-05-20T22:25:37Z</time></trkpt><trkpt lat="44.899992" lon="-110.127011"><ele>2129.621</ele><time>2026-05-20T22:25:38Z</time></trkpt><trkpt lat="44.899981" lon="-110.127005"><ele>2129.494</ele><time>2026-05-20T22:25:39Z</time></trkpt><trkpt lat="44.899954" lon="-110.126963"><ele>2128.438</ele><time>2026-05-20T22:25:43Z</time></trkpt><trkpt lat="44.899933" lon="-110.126926"><ele>2127.428</ele><time>2026-05-20T22:25:47Z</time></trkpt><trkpt lat="44.899929" lon="-110.126915"><ele>2127.251</ele><time>2026-05-20T22:25:48Z</time></trkpt><trkpt lat="44.899916" lon="-110.126879"><ele>2127.063</ele><time>2026-05-20T22:25:54Z</time></trkpt><trkpt lat="44.89987" lon="-110.126824"><ele>2126.244</ele><time>2026-05-20T22:26:00Z</time></trkpt><trkpt lat="44.899857" lon="-110.126803"><ele>2125.818</ele><time>2026-05-20T22:26:02Z</time></trkpt><trkpt lat="44.899838" lon="-110.126761"><ele>2125.009</ele><time>2026-05-20T22:26:05Z</time></trkpt><trkpt lat="44.89982" lon="-110.12672"><ele>2123.868</ele><time>2026-05-20T22:26:08Z</time></trkpt><trkpt lat="44.899815" lon="-110.126706"><ele>2123.622</ele><time>2026-05-20T22:26:09Z</time></trkpt><trkpt lat="44.899795" lon="-110.126664"><ele>2122.631</ele><time>2026-05-20T22:26:12Z</time></trkpt><trkpt lat="44.899781" lon="-110.126633"><ele>2121.658</ele><time>2026-05-20T22:26:15Z</time></trkpt><trkpt lat="44.899776" lon="-110.126597"><ele>2121.084</ele><time>2026-05-20T22:26:18Z</time></trkpt><trkpt lat="44.899789" lon="-110.126566"><ele>2120.417</ele><time>2026-05-20T22:26:21Z</time></trkpt><trkpt lat="44.899832" lon="-110.126484"><ele>2120.011</ele><time>2026-05-20T22:26:27Z</time></trkpt><trkpt lat="44.899853" lon="-110.126444"><ele>2119.411</ele><time>2026-05-20T22:26:31Z</time></trkpt><trkpt lat="44.899869" lon="-110.126424"><ele>2119.074</ele><time>2026-05-20T22:26:34Z</time></trkpt><trkpt lat="44.899891" lon="-110.126402"><ele>2118.242</ele><time>2026-05-20T22:26:38Z</time></trkpt><trkpt lat="44.899921" lon="-110.126397"><ele>2117.022</ele><time>2026-05-20T22:26:42Z</time></trkpt><trkpt lat="44.899948" lon="-110.12637"><ele>2115.814</ele><time>2026-05-20T22:26:46Z</time></trkpt><trkpt lat="44.899974" lon="-110.126322"><ele>2114.609</ele><time>2026-05-20T22:26:50Z</time></trkpt><trkpt lat="44.899981" lon="-110.126308"><ele>2114.446</ele><time>2026-05-20T22:26:51Z</time></trkpt><trkpt lat="44.900019" lon="-110.126254"><ele>2113.640</ele><time>2026-05-20T22:26:55Z</time></trkpt><trkpt lat="44.900034" lon="-110.126228"><ele>2113.219</ele><time>2026-05-20T22:26:57Z</time></trkpt><trkpt lat="44.900077" lon="-110.126212"><ele>2112.656</ele><time>2026-05-20T22:27:01Z</time></trkpt><trkpt lat="44.900111" lon="-110.1262"><ele>2112.072</ele><time>2026-05-20T22:27:04Z</time></trkpt><trkpt lat="44.900132" lon="-110.126182"><ele>2111.885</ele><time>2026-05-20T22:27:06Z</time></trkpt><trkpt lat="44.900153" lon="-110.126157"><ele>2111.449</ele><time>2026-05-20T22:27:08Z</time></trkpt><trkpt lat="44.900194" lon="-110.126103"><ele>2110.639</ele><time>2026-05-20T22:27:13Z</time></trkpt><trkpt lat="44.900196" lon="-110.126073"><ele>2110.492</ele><time>2026-05-20T22:27:15Z</time></trkpt><trkpt lat="44.900182" lon="-110.126006"><ele>2109.456</ele><time>2026-05-20T22:27:19Z</time></trkpt><trkpt lat="44.900155" lon="-110.125955"><ele>2108.059</ele><time>2026-05-20T22:27:24Z</time></trkpt><trkpt lat="44.900145" lon="-110.125948"><ele>2107.814</ele><time>2026-05-20T22:27:25Z</time></trkpt><trkpt lat="44.900132" lon="-110.125916"><ele>2106.809</ele><time>2026-05-20T22:27:28Z</time></trkpt><trkpt lat="44.900116" lon="-110.125907"><ele>2106.487</ele><time>2026-05-20T22:27:30Z</time></trkpt><trkpt lat="44.900104" lon="-110.125892"><ele>2105.681</ele><time>2026-05-20T22:27:32Z</time></trkpt><trkpt lat="44.900074" lon="-110.125844"><ele>2104.450</ele><time>2026-05-20T22:27:36Z</time></trkpt><trkpt lat="44.900051" lon="-110.125806"><ele>2103.287</ele><time>2026-05-20T22:27:40Z</time></trkpt><trkpt lat="44.900044" lon="-110.1258"><ele>2103.023</ele><time>2026-05-20T22:27:41Z</time></trkpt><trkpt lat="44.90002" lon="-110.125787"><ele>2102.266</ele><time>2026-05-20T22:27:44Z</time></trkpt><trkpt lat="44.899971" lon="-110.12574"><ele>2101.060</ele><time>2026-05-20T22:27:49Z</time></trkpt><trkpt lat="44.899919" lon="-110.125701"><ele>2100.040</ele><time>2026-05-20T22:27:54Z</time></trkpt><trkpt lat="44.899896" lon="-110.125691"><ele>2099.433</ele><time>2026-05-20T22:27:56Z</time></trkpt><trkpt lat="44.899882" lon="-110.125675"><ele>2099.064</ele><time>2026-05-20T22:27:58Z</time></trkpt><trkpt lat="44.899867" lon="-110.125663"><ele>2098.806</ele><time>2026-05-20T22:27:59Z</time></trkpt><trkpt lat="44.899834" lon="-110.125642"><ele>2098.216</ele><time>2026-05-20T22:28:03Z</time></trkpt><trkpt lat="44.89982" lon="-110.125636"><ele>2097.809</ele><time>2026-05-20T22:28:05Z</time></trkpt><trkpt lat="44.89977" lon="-110.125617"><ele>2097.068</ele><time>2026-05-20T22:28:11Z</time></trkpt><trkpt lat="44.899747" lon="-110.125597"><ele>2096.812</ele><time>2026-05-20T22:28:14Z</time></trkpt><trkpt lat="44.899726" lon="-110.125545"><ele>2095.651</ele><time>2026-05-20T22:28:19Z</time></trkpt><trkpt lat="44.89971" lon="-110.1255"><ele>2094.458</ele><time>2026-05-20T22:28:24Z</time></trkpt><trkpt lat="44.899697" lon="-110.125468"><ele>2093.814</ele><time>2026-05-20T22:28:27Z</time></trkpt><trkpt lat="44.899684" lon="-110.125405"><ele>2093.417</ele><time>2026-05-20T22:28:32Z</time></trkpt><trkpt lat="44.899665" lon="-110.125356"><ele>2093.051</ele><time>2026-05-20T22:28:36Z</time></trkpt><trkpt lat="44.899641" lon="-110.125339"><ele>2093.241</ele><time>2026-05-20T22:28:42Z</time></trkpt><trkpt lat="44.899628" lon="-110.125334"><ele>2092.894</ele><time>2026-05-20T22:28:44Z</time></trkpt><trkpt lat="44.899613" lon="-110.125321"><ele>2092.236</ele><time>2026-05-20T22:28:46Z</time></trkpt><trkpt lat="44.899564" lon="-110.125267"><ele>2091.217</ele><time>2026-05-20T22:28:51Z</time></trkpt><trkpt lat="44.899561" lon="-110.125169"><ele>2090.418</ele><time>2026-05-20T22:28:59Z</time></trkpt><trkpt lat="44.899557" lon="-110.125153"><ele>2090.209</ele><time>2026-05-20T22:29:00Z</time></trkpt><trkpt lat="44.899538" lon="-110.125127"><ele>2089.225</ele><time>2026-05-20T22:29:03Z</time></trkpt><trkpt lat="44.899531" lon="-110.125125"><ele>2088.839</ele><time>2026-05-20T22:29:04Z</time></trkpt><trkpt lat="44.899512" lon="-110.125114"><ele>2088.038</ele><time>2026-05-20T22:29:07Z</time></trkpt><trkpt lat="44.89949" lon="-110.125095"><ele>2087.085</ele><time>2026-05-20T22:29:13Z</time></trkpt><trkpt lat="44.899491" lon="-110.125085"><ele>2086.681</ele><time>2026-05-20T22:29:14Z</time></trkpt><trkpt lat="44.899497" lon="-110.125069"><ele>2086.084</ele><time>2026-05-20T22:29:16Z</time></trkpt><trkpt lat="44.899506" lon="-110.125013"><ele>2084.818</ele><time>2026-05-20T22:29:22Z</time></trkpt><trkpt lat="44.899505" lon="-110.124957"><ele>2083.838</ele><time>2026-05-20T22:29:26Z</time></trkpt><trkpt lat="44.8995" lon="-110.124895"><ele>2082.691</ele><time>2026-05-20T22:29:30Z</time></trkpt><trkpt lat="44.899504" lon="-110.124849"><ele>2081.656</ele><time>2026-05-20T22:29:36Z</time></trkpt><trkpt lat="44.899527" lon="-110.124772"><ele>2080.659</ele><time>2026-05-20T22:29:46Z</time></trkpt><trkpt lat="44.89953" lon="-110.124761"><ele>2080.414</ele><time>2026-05-20T22:29:47Z</time></trkpt><trkpt lat="44.899532" lon="-110.124679"><ele>2079.209</ele><time>2026-05-20T22:29:53Z</time></trkpt><trkpt lat="44.899519" lon="-110.12461"><ele>2078.067</ele><time>2026-05-20T22:29:57Z</time></trkpt><trkpt lat="44.899504" lon="-110.12456"><ele>2077.291</ele><time>2026-05-20T22:30:01Z</time></trkpt><trkpt lat="44.89948" lon="-110.124479"><ele>2077.090</ele><time>2026-05-20T22:30:07Z</time></trkpt><trkpt lat="44.899455" lon="-110.124437"><ele>2076.687</ele><time>2026-05-20T22:30:11Z</time></trkpt><trkpt lat="44.899418" lon="-110.124346"><ele>2076.013</ele><time>2026-05-20T22:30:17Z</time></trkpt><trkpt lat="44.899415" lon="-110.124336"><ele>2075.836</ele><time>2026-05-20T22:30:18Z</time></trkpt><trkpt lat="44.899403" lon="-110.124302"><ele>2075.450</ele><time>2026-05-20T22:30:22Z</time></trkpt><trkpt lat="44.899392" lon="-110.124267"><ele>2075.030</ele><time>2026-05-20T22:30:25Z</time></trkpt><trkpt lat="44.899392" lon="-110.124263"><ele>2074.683</ele><time>2026-05-20T22:30:26Z</time></trkpt><trkpt lat="44.899367" lon="-110.124195"><ele>2073.829</ele><time>2026-05-20T22:30:33Z</time></trkpt><trkpt lat="44.899348" lon="-110.124161"><ele>2073.200</ele><time>2026-05-20T22:30:36Z</time></trkpt><trkpt lat="44.899336" lon="-110.124111"><ele>2072.820</ele><time>2026-05-20T22:30:40Z</time></trkpt><trkpt lat="44.899308" lon="-110.124041"><ele>2072.409</ele><time>2026-05-20T22:30:46Z</time></trkpt><trkpt lat="44.89929" lon="-110.123995"><ele>2071.624</ele><time>2026-05-20T22:30:50Z</time></trkpt><trkpt lat="44.899266" lon="-110.12394"><ele>2070.878</ele><time>2026-05-20T22:30:54Z</time></trkpt><trkpt lat="44.899249" lon="-110.123923"><ele>2070.667</ele><time>2026-05-20T22:30:56Z</time></trkpt><trkpt lat="44.899225" lon="-110.123881"><ele>2070.044</ele><time>2026-05-20T22:31:02Z</time></trkpt><trkpt lat="44.899188" lon="-110.123839"><ele>2069.490</ele><time>2026-05-20T22:31:07Z</time></trkpt><trkpt lat="44.899165" lon="-110.12383"><ele>2068.243</ele><time>2026-05-20T22:31:10Z</time></trkpt><trkpt lat="44.89912" lon="-110.123844"><ele>2067.297</ele><time>2026-05-20T22:31:16Z</time></trkpt><trkpt lat="44.899112" lon="-110.123841"><ele>2067.077</ele><time>2026-05-20T22:31:17Z</time></trkpt><trkpt lat="44.899093" lon="-110.123828"><ele>2066.040</ele><time>2026-05-20T22:31:20Z</time></trkpt><trkpt lat="44.899081" lon="-110.123785"><ele>2065.486</ele><time>2026-05-20T22:31:24Z</time></trkpt><trkpt lat="44.899074" lon="-110.123773"><ele>2065.060</ele><time>2026-05-20T22:31:26Z</time></trkpt><trkpt lat="44.899054" lon="-110.123744"><ele>2063.626</ele><time>2026-05-20T22:31:30Z</time></trkpt><trkpt lat="44.899053" lon="-110.123713"><ele>2063.209</ele><time>2026-05-20T22:31:33Z</time></trkpt><trkpt lat="44.89905" lon="-110.123676"><ele>2062.870</ele><time>2026-05-20T22:31:36Z</time></trkpt><trkpt lat="44.89905" lon="-110.123661"><ele>2062.664</ele><time>2026-05-20T22:31:37Z</time></trkpt><trkpt lat="44.899053" lon="-110.123635"><ele>2062.283</ele><time>2026-05-20T22:31:39Z</time></trkpt><trkpt lat="44.899052" lon="-110.123572"><ele>2062.080</ele><time>2026-05-20T22:31:43Z</time></trkpt><trkpt lat="44.899049" lon="-110.123531"><ele>2061.646</ele><time>2026-05-20T22:31:46Z</time></trkpt><trkpt lat="44.899066" lon="-110.123457"><ele>2061.269</ele><time>2026-05-20T22:31:52Z</time></trkpt><trkpt lat="44.899081" lon="-110.123348"><ele>2061.013</ele><time>2026-05-20T22:32:00Z</time></trkpt><trkpt lat="44.899111" lon="-110.123232"><ele>2061.653</ele><time>2026-05-20T22:32:08Z</time></trkpt><trkpt lat="44.899132" lon="-110.123188"><ele>2062.436</ele><time>2026-05-20T22:32:13Z</time></trkpt><trkpt lat="44.899134" lon="-110.123182"><ele>2062.617</ele><time>2026-05-20T22:32:14Z</time></trkpt><trkpt lat="44.899144" lon="-110.123168"><ele>2063.087</ele><time>2026-05-20T22:32:16Z</time></trkpt><trkpt lat="44.899167" lon="-110.123158"><ele>2063.015</ele><time>2026-05-20T22:32:19Z</time></trkpt><trkpt lat="44.899192" lon="-110.123153"><ele>2063.009</ele><time>2026-05-20T22:32:23Z</time></trkpt><trkpt lat="44.899197" lon="-110.123149"><ele>2063.093</ele><time>2026-05-20T22:32:24Z</time></trkpt><trkpt lat="44.899208" lon="-110.123139"><ele>2063.087</ele><time>2026-05-20T22:32:27Z</time></trkpt><trkpt lat="44.899223" lon="-110.123103"><ele>2063.246</ele><time>2026-05-20T22:32:30Z</time></trkpt><trkpt lat="44.899223" lon="-110.123085"><ele>2063.413</ele><time>2026-05-20T22:32:33Z</time></trkpt></trkseg></trk></gpx>