<?xml version="1.0" encoding="UTF-8"?><gpx creator="Wikiloc - http://www.wikiloc.com" version="1.1" xmlns="http://www.topografix.com/GPX/1/1" xmlns:xsi="http://www.w3.org/2001/XMLSchema-instance" xsi:schemaLocation="http://www.topografix.com/GPX/1/1 http://www.topografix.com/GPX/1/1/gpx.xsd"><trk><name><![CDATA[Yellowstone National Park: Artists' Paintpots]]></name><cmt><![CDATA[Canyon Junction]]></cmt><desc><![CDATA[Canyon Junction]]></desc><trkseg><trkpt lat="44.696269" lon="-110.741739"><ele>2240.466</ele><time>2026-05-24T23:35:44Z</time></trkpt><trkpt lat="44.696275" lon="-110.741599"><ele>2240.429</ele><time>2026-05-24T23:35:49Z</time></trkpt><trkpt lat="44.696241" lon="-110.741518"><ele>2240.621</ele><time>2026-05-24T23:35:56Z</time></trkpt><trkpt lat="44.696249" lon="-110.741445"><ele>2240.609</ele><time>2026-05-24T23:36:01Z</time></trkpt><trkpt lat="44.696245" lon="-110.741422"><ele>2240.618</ele><time>2026-05-24T23:36:03Z</time></trkpt><trkpt lat="44.696246" lon="-110.741302"><ele>2240.862</ele><time>2026-05-24T23:36:10Z</time></trkpt><trkpt lat="44.696263" lon="-110.741117"><ele>2240.842</ele><time>2026-05-24T23:36:21Z</time></trkpt><trkpt lat="44.696257" lon="-110.741013"><ele>2240.837</ele><time>2026-05-24T23:36:29Z</time></trkpt><trkpt lat="44.696254" lon="-110.741012"><ele>2240.688</ele><time>2026-05-24T23:36:35Z</time></trkpt><trkpt lat="44.696254" lon="-110.741012"><ele>2240.635</ele><time>2026-05-24T23:36:37Z</time></trkpt><trkpt lat="44.696232" lon="-110.741006"><ele>2240.676</ele><time>2026-05-24T23:36:40Z</time></trkpt><trkpt lat="44.6961" lon="-110.740947"><ele>2240.264</ele><time>2026-05-24T23:36:52Z</time></trkpt><trkpt lat="44.695976" lon="-110.740903"><ele>2240.014</ele><time>2026-05-24T23:37:02Z</time></trkpt><trkpt lat="44.695882" lon="-110.740918"><ele>2240.055</ele><time>2026-05-24T23:37:10Z</time></trkpt><trkpt lat="44.695776" lon="-110.740908"><ele>2240.407</ele><time>2026-05-24T23:37:19Z</time></trkpt><trkpt lat="44.695685" lon="-110.740816"><ele>2240.817</ele><time>2026-05-24T23:37:29Z</time></trkpt><trkpt lat="44.69561" lon="-110.740761"><ele>2241.009</ele><time>2026-05-24T23:37:36Z</time></trkpt><trkpt lat="44.695587" lon="-110.740741"><ele>2240.647</ele><time>2026-05-24T23:37:38Z</time></trkpt><trkpt lat="44.69553" lon="-110.740696"><ele>2241.051</ele><time>2026-05-24T23:37:44Z</time></trkpt><trkpt lat="44.695454" lon="-110.740573"><ele>2241.091</ele><time>2026-05-24T23:37:53Z</time></trkpt><trkpt lat="44.695438" lon="-110.740466"><ele>2241.466</ele><time>2026-05-24T23:38:00Z</time></trkpt><trkpt lat="44.695436" lon="-110.740451"><ele>2241.467</ele><time>2026-05-24T23:38:01Z</time></trkpt><trkpt lat="44.695403" lon="-110.740284"><ele>2241.824</ele><time>2026-05-24T23:38:12Z</time></trkpt><trkpt lat="44.69533" lon="-110.74014"><ele>2242.495</ele><time>2026-05-24T23:38:22Z</time></trkpt><trkpt lat="44.695255" lon="-110.73999"><ele>2242.453</ele><time>2026-05-24T23:38:32Z</time></trkpt><trkpt lat="44.695159" lon="-110.73981"><ele>2242.223</ele><time>2026-05-24T23:38:44Z</time></trkpt><trkpt lat="44.695144" lon="-110.739766"><ele>2242.289</ele><time>2026-05-24T23:38:48Z</time></trkpt><trkpt lat="44.695124" lon="-110.739696"><ele>2242.206</ele><time>2026-05-24T23:38:52Z</time></trkpt><trkpt lat="44.695111" lon="-110.739618"><ele>2242.026</ele><time>2026-05-24T23:38:58Z</time></trkpt><trkpt lat="44.695096" lon="-110.739556"><ele>2242.209</ele><time>2026-05-24T23:39:02Z</time></trkpt><trkpt lat="44.695068" lon="-110.739502"><ele>2242.620</ele><time>2026-05-24T23:39:06Z</time></trkpt><trkpt lat="44.694973" lon="-110.739453"><ele>2243.054</ele><time>2026-05-24T23:39:14Z</time></trkpt><trkpt lat="44.694925" lon="-110.739419"><ele>2243.474</ele><time>2026-05-24T23:39:18Z</time></trkpt><trkpt lat="44.694891" lon="-110.739396"><ele>2243.499</ele><time>2026-05-24T23:39:21Z</time></trkpt><trkpt lat="44.694843" lon="-110.739375"><ele>2243.670</ele><time>2026-05-24T23:39:25Z</time></trkpt><trkpt lat="44.694779" lon="-110.739342"><ele>2243.627</ele><time>2026-05-24T23:39:30Z</time></trkpt><trkpt lat="44.69471" lon="-110.739293"><ele>2244.028</ele><time>2026-05-24T23:39:36Z</time></trkpt><trkpt lat="44.69466" lon="-110.739249"><ele>2244.066</ele><time>2026-05-24T23:39:41Z</time></trkpt><trkpt lat="44.694592" lon="-110.739177"><ele>2244.466</ele><time>2026-05-24T23:39:48Z</time></trkpt><trkpt lat="44.694584" lon="-110.739165"><ele>2244.451</ele><time>2026-05-24T23:39:49Z</time></trkpt><trkpt lat="44.694576" lon="-110.739151"><ele>2244.401</ele><time>2026-05-24T23:39:50Z</time></trkpt><trkpt lat="44.694512" lon="-110.739084"><ele>2244.611</ele><time>2026-05-24T23:39:57Z</time></trkpt><trkpt lat="44.694502" lon="-110.73907"><ele>2244.609</ele><time>2026-05-24T23:39:58Z</time></trkpt><trkpt lat="44.694457" lon="-110.738997"><ele>2244.697</ele><time>2026-05-24T23:40:04Z</time></trkpt><trkpt lat="44.694399" lon="-110.738909"><ele>2245.631</ele><time>2026-05-24T23:40:12Z</time></trkpt><trkpt lat="44.694325" lon="-110.738791"><ele>2246.091</ele><time>2026-05-24T23:40:20Z</time></trkpt><trkpt lat="44.694321" lon="-110.738779"><ele>2246.226</ele><time>2026-05-24T23:40:21Z</time></trkpt><trkpt lat="44.694299" lon="-110.738717"><ele>2246.627</ele><time>2026-05-24T23:40:26Z</time></trkpt><trkpt lat="44.694274" lon="-110.738657"><ele>2246.644</ele><time>2026-05-24T23:40:30Z</time></trkpt><trkpt lat="44.694221" lon="-110.738543"><ele>2247.255</ele><time>2026-05-24T23:40:39Z</time></trkpt><trkpt lat="44.694131" lon="-110.738424"><ele>2247.663</ele><time>2026-05-24T23:40:48Z</time></trkpt><trkpt lat="44.694074" lon="-110.738294"><ele>2247.693</ele><time>2026-05-24T23:40:57Z</time></trkpt><trkpt lat="44.694011" lon="-110.738185"><ele>2247.674</ele><time>2026-05-24T23:41:05Z</time></trkpt><trkpt lat="44.693924" lon="-110.73811"><ele>2247.656</ele><time>2026-05-24T23:41:14Z</time></trkpt><trkpt lat="44.693902" lon="-110.738099"><ele>2247.821</ele><time>2026-05-24T23:41:16Z</time></trkpt><trkpt lat="44.693813" lon="-110.738059"><ele>2248.409</ele><time>2026-05-24T23:41:23Z</time></trkpt><trkpt lat="44.693699" lon="-110.738027"><ele>2248.619</ele><time>2026-05-24T23:41:32Z</time></trkpt><trkpt lat="44.693686" lon="-110.738023"><ele>2248.883</ele><time>2026-05-24T23:41:33Z</time></trkpt><trkpt lat="44.693597" lon="-110.737993"><ele>2249.093</ele><time>2026-05-24T23:41:41Z</time></trkpt><trkpt lat="44.693577" lon="-110.73799"><ele>2249.028</ele><time>2026-05-24T23:41:43Z</time></trkpt><trkpt lat="44.693488" lon="-110.737957"><ele>2249.059</ele><time>2026-05-24T23:41:51Z</time></trkpt><trkpt lat="44.693425" lon="-110.737937"><ele>2249.846</ele><time>2026-05-24T23:41:57Z</time></trkpt><trkpt lat="44.693402" lon="-110.737925"><ele>2250.057</ele><time>2026-05-24T23:41:59Z</time></trkpt><trkpt lat="44.693292" lon="-110.737865"><ele>2250.055</ele><time>2026-05-24T23:42:08Z</time></trkpt><trkpt lat="44.693205" lon="-110.737836"><ele>2250.275</ele><time>2026-05-24T23:42:16Z</time></trkpt><trkpt lat="44.693104" lon="-110.737827"><ele>2250.645</ele><time>2026-05-24T23:42:25Z</time></trkpt><trkpt lat="44.693091" lon="-110.737815"><ele>2250.847</ele><time>2026-05-24T23:42:27Z</time></trkpt><trkpt lat="44.693086" lon="-110.737801"><ele>2250.611</ele><time>2026-05-24T23:42:29Z</time></trkpt><trkpt lat="44.693085" lon="-110.737785"><ele>2250.609</ele><time>2026-05-24T23:42:30Z</time></trkpt><trkpt lat="44.693083" lon="-110.737732"><ele>2250.446</ele><time>2026-05-24T23:42:34Z</time></trkpt><trkpt lat="44.693075" lon="-110.737689"><ele>2250.830</ele><time>2026-05-24T23:42:37Z</time></trkpt><trkpt lat="44.693055" lon="-110.737671"><ele>2251.020</ele><time>2026-05-24T23:42:40Z</time></trkpt><trkpt lat="44.692977" lon="-110.737641"><ele>2251.885</ele><time>2026-05-24T23:42:48Z</time></trkpt><trkpt lat="44.692903" lon="-110.737604"><ele>2251.666</ele><time>2026-05-24T23:42:56Z</time></trkpt><trkpt lat="44.692895" lon="-110.7376"><ele>2251.683</ele><time>2026-05-24T23:42:57Z</time></trkpt><trkpt lat="44.692867" lon="-110.737562"><ele>2251.274</ele><time>2026-05-24T23:43:02Z</time></trkpt><trkpt lat="44.692869" lon="-110.73753"><ele>2251.072</ele><time>2026-05-24T23:43:04Z</time></trkpt><trkpt lat="44.692911" lon="-110.737455"><ele>2251.292</ele><time>2026-05-24T23:43:11Z</time></trkpt><trkpt lat="44.692917" lon="-110.737361"><ele>2251.646</ele><time>2026-05-24T23:43:17Z</time></trkpt><trkpt lat="44.692894" lon="-110.737313"><ele>2251.088</ele><time>2026-05-24T23:43:23Z</time></trkpt><trkpt lat="44.692894" lon="-110.73731"><ele>2251.016</ele><time>2026-05-24T23:43:26Z</time></trkpt><trkpt lat="44.692894" lon="-110.737356"><ele>2250.809</ele><time>2026-05-24T23:43:32Z</time></trkpt><trkpt lat="44.692909" lon="-110.737385"><ele>2251.066</ele><time>2026-05-24T23:43:36Z</time></trkpt><trkpt lat="44.692912" lon="-110.737388"><ele>2251.250</ele><time>2026-05-24T23:43:38Z</time></trkpt><trkpt lat="44.692915" lon="-110.737393"><ele>2251.250</ele><time>2026-05-24T23:43:43Z</time></trkpt><trkpt lat="44.692916" lon="-110.737395"><ele>2251.225</ele><time>2026-05-24T23:43:44Z</time></trkpt><trkpt lat="44.692915" lon="-110.737394"><ele>2251.256</ele><time>2026-05-24T23:43:45Z</time></trkpt><trkpt lat="44.692913" lon="-110.737394"><ele>2251.273</ele><time>2026-05-24T23:43:47Z</time></trkpt><trkpt lat="44.692911" lon="-110.737385"><ele>2250.634</ele><time>2026-05-24T23:43:51Z</time></trkpt><trkpt lat="44.69291" lon="-110.737376"><ele>2250.622</ele><time>2026-05-24T23:43:53Z</time></trkpt><trkpt lat="44.692901" lon="-110.737313"><ele>2251.452</ele><time>2026-05-24T23:43:57Z</time></trkpt><trkpt lat="44.692898" lon="-110.737285"><ele>2251.489</ele><time>2026-05-24T23:43:59Z</time></trkpt><trkpt lat="44.692877" lon="-110.737147"><ele>2251.806</ele><time>2026-05-24T23:44:08Z</time></trkpt><trkpt lat="44.692872" lon="-110.737116"><ele>2252.226</ele><time>2026-05-24T23:44:10Z</time></trkpt><trkpt lat="44.692835" lon="-110.737013"><ele>2252.409</ele><time>2026-05-24T23:44:17Z</time></trkpt><trkpt lat="44.692776" lon="-110.736895"><ele>2252.630</ele><time>2026-05-24T23:44:26Z</time></trkpt><trkpt lat="44.692769" lon="-110.736881"><ele>2252.674</ele><time>2026-05-24T23:44:27Z</time></trkpt><trkpt lat="44.692722" lon="-110.736785"><ele>2253.044</ele><time>2026-05-24T23:44:35Z</time></trkpt><trkpt lat="44.692694" lon="-110.736761"><ele>2253.239</ele><time>2026-05-24T23:44:38Z</time></trkpt><trkpt lat="44.69265" lon="-110.736734"><ele>2253.840</ele><time>2026-05-24T23:44:44Z</time></trkpt><trkpt lat="44.692642" lon="-110.736737"><ele>2253.857</ele><time>2026-05-24T23:44:54Z</time></trkpt><trkpt lat="44.69264" lon="-110.736738"><ele>2253.828</ele><time>2026-05-24T23:44:58Z</time></trkpt><trkpt lat="44.692642" lon="-110.736736"><ele>2253.826</ele><time>2026-05-24T23:45:01Z</time></trkpt><trkpt lat="44.692636" lon="-110.736709"><ele>2253.836</ele><time>2026-05-24T23:45:11Z</time></trkpt><trkpt lat="44.692624" lon="-110.736724"><ele>2253.822</ele><time>2026-05-24T23:45:17Z</time></trkpt><trkpt lat="44.692623" lon="-110.73672"><ele>2254.262</ele><time>2026-05-24T23:45:24Z</time></trkpt><trkpt lat="44.692623" lon="-110.736719"><ele>2253.808</ele><time>2026-05-24T23:45:37Z</time></trkpt><trkpt lat="44.69262" lon="-110.736734"><ele>2253.209</ele><time>2026-05-24T23:45:41Z</time></trkpt><trkpt lat="44.692629" lon="-110.73673"><ele>2252.684</ele><time>2026-05-24T23:46:02Z</time></trkpt><trkpt lat="44.692629" lon="-110.736729"><ele>2253.438</ele><time>2026-05-24T23:46:06Z</time></trkpt><trkpt lat="44.69263" lon="-110.736697"><ele>2252.898</ele><time>2026-05-24T23:46:16Z</time></trkpt><trkpt lat="44.692645" lon="-110.736663"><ele>2254.073</ele><time>2026-05-24T23:46:22Z</time></trkpt><trkpt lat="44.692648" lon="-110.736654"><ele>2254.434</ele><time>2026-05-24T23:46:23Z</time></trkpt><trkpt lat="44.692652" lon="-110.736642"><ele>2254.631</ele><time>2026-05-24T23:46:24Z</time></trkpt><trkpt lat="44.692654" lon="-110.736622"><ele>2255.022</ele><time>2026-05-24T23:46:26Z</time></trkpt><trkpt lat="44.692648" lon="-110.736613"><ele>2255.210</ele><time>2026-05-24T23:46:27Z</time></trkpt><trkpt lat="44.692644" lon="-110.736602"><ele>2255.450</ele><time>2026-05-24T23:46:28Z</time></trkpt><trkpt lat="44.692641" lon="-110.736592"><ele>2255.423</ele><time>2026-05-24T23:46:30Z</time></trkpt><trkpt lat="44.692606" lon="-110.736544"><ele>2255.883</ele><time>2026-05-24T23:46:37Z</time></trkpt><trkpt lat="44.692591" lon="-110.736467"><ele>2256.211</ele><time>2026-05-24T23:46:45Z</time></trkpt><trkpt lat="44.692589" lon="-110.736457"><ele>2256.409</ele><time>2026-05-24T23:46:46Z</time></trkpt><trkpt lat="44.692573" lon="-110.736393"><ele>2257.454</ele><time>2026-05-24T23:46:52Z</time></trkpt><trkpt lat="44.692567" lon="-110.736383"><ele>2257.658</ele><time>2026-05-24T23:46:53Z</time></trkpt><trkpt lat="44.692519" lon="-110.736335"><ele>2258.638</ele><time>2026-05-24T23:46:59Z</time></trkpt><trkpt lat="44.692501" lon="-110.736324"><ele>2259.283</ele><time>2026-05-24T23:47:01Z</time></trkpt><trkpt lat="44.692488" lon="-110.736312"><ele>2259.654</ele><time>2026-05-24T23:47:03Z</time></trkpt><trkpt lat="44.692481" lon="-110.73631"><ele>2259.811</ele><time>2026-05-24T23:47:04Z</time></trkpt><trkpt lat="44.692473" lon="-110.736289"><ele>2260.252</ele><time>2026-05-24T23:47:08Z</time></trkpt><trkpt lat="44.692469" lon="-110.736279"><ele>2260.610</ele><time>2026-05-24T23:47:10Z</time></trkpt><trkpt lat="44.692463" lon="-110.736275"><ele>2260.880</ele><time>2026-05-24T23:47:11Z</time></trkpt><trkpt lat="44.692455" lon="-110.73627"><ele>2261.043</ele><time>2026-05-24T23:47:12Z</time></trkpt><trkpt lat="44.692448" lon="-110.736265"><ele>2261.264</ele><time>2026-05-24T23:47:13Z</time></trkpt><trkpt lat="44.692413" lon="-110.736265"><ele>2262.010</ele><time>2026-05-24T23:47:18Z</time></trkpt><trkpt lat="44.692396" lon="-110.736284"><ele>2262.009</ele><time>2026-05-24T23:47:21Z</time></trkpt><trkpt lat="44.692393" lon="-110.736294"><ele>2262.256</ele><time>2026-05-24T23:47:22Z</time></trkpt><trkpt lat="44.692382" lon="-110.736319"><ele>2263.260</ele><time>2026-05-24T23:47:26Z</time></trkpt><trkpt lat="44.692365" lon="-110.736341"><ele>2263.630</ele><time>2026-05-24T23:47:30Z</time></trkpt><trkpt lat="44.692349" lon="-110.736388"><ele>2264.615</ele><time>2026-05-24T23:47:35Z</time></trkpt><trkpt lat="44.692349" lon="-110.736397"><ele>2264.826</ele><time>2026-05-24T23:47:36Z</time></trkpt><trkpt lat="44.692343" lon="-110.736428"><ele>2265.843</ele><time>2026-05-24T23:47:39Z</time></trkpt><trkpt lat="44.692344" lon="-110.736482"><ele>2266.654</ele><time>2026-05-24T23:47:43Z</time></trkpt><trkpt lat="44.692331" lon="-110.736506"><ele>2267.052</ele><time>2026-05-24T23:47:46Z</time></trkpt><trkpt lat="44.69232" lon="-110.736535"><ele>2267.212</ele><time>2026-05-24T23:47:50Z</time></trkpt><trkpt lat="44.692289" lon="-110.736577"><ele>2268.072</ele><time>2026-05-24T23:47:56Z</time></trkpt><trkpt lat="44.692271" lon="-110.736611"><ele>2268.213</ele><time>2026-05-24T23:47:59Z</time></trkpt><trkpt lat="44.692246" lon="-110.736672"><ele>2268.014</ele><time>2026-05-24T23:48:04Z</time></trkpt><trkpt lat="44.692243" lon="-110.736682"><ele>2268.009</ele><time>2026-05-24T23:48:05Z</time></trkpt><trkpt lat="44.69224" lon="-110.736715"><ele>2268.079</ele><time>2026-05-24T23:48:11Z</time></trkpt><trkpt lat="44.692239" lon="-110.736715"><ele>2268.073</ele><time>2026-05-24T23:48:12Z</time></trkpt><trkpt lat="44.69224" lon="-110.736715"><ele>2268.283</ele><time>2026-05-24T23:48:14Z</time></trkpt><trkpt lat="44.692239" lon="-110.736712"><ele>2268.478</ele><time>2026-05-24T23:48:16Z</time></trkpt><trkpt lat="44.692231" lon="-110.736721"><ele>2268.289</ele><time>2026-05-24T23:48:19Z</time></trkpt><trkpt lat="44.692219" lon="-110.736732"><ele>2268.476</ele><time>2026-05-24T23:48:23Z</time></trkpt><trkpt lat="44.692202" lon="-110.73679"><ele>2269.247</ele><time>2026-05-24T23:48:29Z</time></trkpt><trkpt lat="44.692192" lon="-110.736803"><ele>2269.225</ele><time>2026-05-24T23:48:31Z</time></trkpt><trkpt lat="44.692158" lon="-110.736865"><ele>2270.295</ele><time>2026-05-24T23:48:39Z</time></trkpt><trkpt lat="44.692139" lon="-110.736876"><ele>2270.895</ele><time>2026-05-24T23:48:46Z</time></trkpt><trkpt lat="44.692134" lon="-110.736889"><ele>2270.849</ele><time>2026-05-24T23:48:55Z</time></trkpt><trkpt lat="44.692137" lon="-110.736909"><ele>2271.023</ele><time>2026-05-24T23:49:03Z</time></trkpt><trkpt lat="44.692121" lon="-110.736934"><ele>2271.209</ele><time>2026-05-24T23:49:05Z</time></trkpt><trkpt lat="44.692072" lon="-110.737001"><ele>2271.881</ele><time>2026-05-24T23:49:12Z</time></trkpt><trkpt lat="44.692056" lon="-110.737023"><ele>2271.825</ele><time>2026-05-24T23:49:14Z</time></trkpt><trkpt lat="44.691992" lon="-110.737103"><ele>2271.295</ele><time>2026-05-24T23:49:22Z</time></trkpt><trkpt lat="44.691981" lon="-110.737104"><ele>2271.630</ele><time>2026-05-24T23:49:30Z</time></trkpt><trkpt lat="44.691982" lon="-110.7371"><ele>2271.221</ele><time>2026-05-24T23:49:37Z</time></trkpt><trkpt lat="44.691982" lon="-110.7371"><ele>2271.288</ele><time>2026-05-24T23:49:38Z</time></trkpt><trkpt lat="44.691982" lon="-110.737105"><ele>2271.279</ele><time>2026-05-24T23:49:39Z</time></trkpt><trkpt lat="44.691984" lon="-110.737111"><ele>2271.257</ele><time>2026-05-24T23:49:40Z</time></trkpt><trkpt lat="44.691986" lon="-110.737125"><ele>2271.247</ele><time>2026-05-24T23:49:41Z</time></trkpt><trkpt lat="44.691964" lon="-110.737213"><ele>2271.679</ele><time>2026-05-24T23:49:49Z</time></trkpt><trkpt lat="44.691956" lon="-110.737246"><ele>2272.405</ele><time>2026-05-24T23:49:52Z</time></trkpt><trkpt lat="44.691943" lon="-110.737275"><ele>2273.225</ele><time>2026-05-24T23:49:56Z</time></trkpt><trkpt lat="44.691934" lon="-110.737287"><ele>2273.609</ele><time>2026-05-24T23:49:58Z</time></trkpt><trkpt lat="44.691914" lon="-110.737344"><ele>2274.499</ele><time>2026-05-24T23:50:04Z</time></trkpt><trkpt lat="44.691915" lon="-110.737365"><ele>2274.623</ele><time>2026-05-24T23:50:06Z</time></trkpt><trkpt lat="44.691905" lon="-110.737411"><ele>2275.693</ele><time>2026-05-24T23:50:10Z</time></trkpt><trkpt lat="44.691906" lon="-110.737432"><ele>2275.698</ele><time>2026-05-24T23:50:12Z</time></trkpt><trkpt lat="44.691901" lon="-110.737471"><ele>2275.879</ele><time>2026-05-24T23:50:16Z</time></trkpt><trkpt lat="44.691898" lon="-110.737492"><ele>2276.216</ele><time>2026-05-24T23:50:19Z</time></trkpt><trkpt lat="44.691908" lon="-110.737535"><ele>2276.677</ele><time>2026-05-24T23:50:25Z</time></trkpt><trkpt lat="44.691908" lon="-110.737537"><ele>2276.275</ele><time>2026-05-24T23:50:42Z</time></trkpt><trkpt lat="44.691908" lon="-110.737537"><ele>2276.425</ele><time>2026-05-24T23:50:43Z</time></trkpt><trkpt lat="44.691908" lon="-110.737537"><ele>2276.442</ele><time>2026-05-24T23:50:44Z</time></trkpt><trkpt lat="44.691906" lon="-110.737543"><ele>2276.422</ele><time>2026-05-24T23:50:50Z</time></trkpt><trkpt lat="44.691908" lon="-110.737537"><ele>2276.814</ele><time>2026-05-24T23:50:59Z</time></trkpt><trkpt lat="44.691906" lon="-110.737542"><ele>2276.409</ele><time>2026-05-24T23:51:06Z</time></trkpt><trkpt lat="44.691908" lon="-110.737537"><ele>2275.856</ele><time>2026-05-24T23:51:15Z</time></trkpt><trkpt lat="44.691908" lon="-110.737537"><ele>2275.820</ele><time>2026-05-24T23:51:17Z</time></trkpt><trkpt lat="44.691908" lon="-110.737537"><ele>2275.860</ele><time>2026-05-24T23:51:20Z</time></trkpt><trkpt lat="44.691908" lon="-110.737537"><ele>2276.025</ele><time>2026-05-24T23:51:22Z</time></trkpt><trkpt lat="44.691908" lon="-110.737537"><ele>2276.026</ele><time>2026-05-24T23:51:28Z</time></trkpt><trkpt lat="44.691908" lon="-110.737537"><ele>2276.293</ele><time>2026-05-24T23:51:32Z</time></trkpt><trkpt lat="44.691908" lon="-110.737537"><ele>2276.454</ele><time>2026-05-24T23:51:34Z</time></trkpt><trkpt lat="44.691908" lon="-110.737537"><ele>2276.482</ele><time>2026-05-24T23:51:35Z</time></trkpt><trkpt lat="44.691908" lon="-110.737537"><ele>2276.692</ele><time>2026-05-24T23:51:37Z</time></trkpt><trkpt lat="44.691908" lon="-110.737537"><ele>2276.695</ele><time>2026-05-24T23:51:38Z</time></trkpt><trkpt lat="44.691908" lon="-110.737537"><ele>2276.449</ele><time>2026-05-24T23:51:40Z</time></trkpt><trkpt lat="44.691908" lon="-110.737537"><ele>2276.223</ele><time>2026-05-24T23:51:42Z</time></trkpt><trkpt lat="44.691909" lon="-110.73755"><ele>2275.609</ele><time>2026-05-24T23:51:55Z</time></trkpt><trkpt lat="44.691918" lon="-110.737545"><ele>2275.271</ele><time>2026-05-24T23:52:01Z</time></trkpt><trkpt lat="44.691922" lon="-110.737543"><ele>2275.445</ele><time>2026-05-24T23:52:06Z</time></trkpt><trkpt lat="44.69192" lon="-110.737544"><ele>2275.845</ele><time>2026-05-24T23:52:14Z</time></trkpt><trkpt lat="44.691896" lon="-110.737545"><ele>2275.880</ele><time>2026-05-24T23:52:20Z</time></trkpt><trkpt lat="44.691839" lon="-110.737571"><ele>2276.481</ele><time>2026-05-24T23:52:26Z</time></trkpt><trkpt lat="44.691807" lon="-110.737634"><ele>2276.288</ele><time>2026-05-24T23:52:34Z</time></trkpt><trkpt lat="44.691777" lon="-110.737702"><ele>2276.089</ele><time>2026-05-24T23:52:41Z</time></trkpt><trkpt lat="44.69176" lon="-110.737724"><ele>2275.897</ele><time>2026-05-24T23:52:45Z</time></trkpt><trkpt lat="44.691758" lon="-110.737723"><ele>2275.897</ele><time>2026-05-24T23:52:46Z</time></trkpt><trkpt lat="44.691758" lon="-110.737721"><ele>2276.033</ele><time>2026-05-24T23:52:48Z</time></trkpt><trkpt lat="44.691769" lon="-110.737727"><ele>2276.023</ele><time>2026-05-24T23:52:57Z</time></trkpt><trkpt lat="44.69176" lon="-110.737742"><ele>2275.415</ele><time>2026-05-24T23:53:03Z</time></trkpt><trkpt lat="44.69171" lon="-110.737849"><ele>2275.009</ele><time>2026-05-24T23:53:11Z</time></trkpt><trkpt lat="44.691691" lon="-110.737898"><ele>2276.055</ele><time>2026-05-24T23:53:15Z</time></trkpt><trkpt lat="44.691689" lon="-110.737882"><ele>2275.869</ele><time>2026-05-24T23:53:18Z</time></trkpt><trkpt lat="44.691681" lon="-110.737946"><ele>2275.469</ele><time>2026-05-24T23:53:26Z</time></trkpt><trkpt lat="44.691683" lon="-110.738044"><ele>2275.294</ele><time>2026-05-24T23:53:32Z</time></trkpt><trkpt lat="44.691657" lon="-110.738188"><ele>2275.255</ele><time>2026-05-24T23:53:41Z</time></trkpt><trkpt lat="44.691638" lon="-110.738194"><ele>2275.432</ele><time>2026-05-24T23:53:43Z</time></trkpt><trkpt lat="44.691615" lon="-110.73818"><ele>2275.433</ele><time>2026-05-24T23:53:47Z</time></trkpt><trkpt lat="44.691613" lon="-110.738185"><ele>2275.071</ele><time>2026-05-24T23:53:54Z</time></trkpt><trkpt lat="44.691595" lon="-110.738181"><ele>2275.091</ele><time>2026-05-24T23:54:00Z</time></trkpt><trkpt lat="44.691585" lon="-110.738177"><ele>2275.082</ele><time>2026-05-24T23:54:04Z</time></trkpt><trkpt lat="44.69158" lon="-110.738177"><ele>2274.843</ele><time>2026-05-24T23:54:06Z</time></trkpt><trkpt lat="44.691561" lon="-110.738172"><ele>2275.017</ele><time>2026-05-24T23:54:10Z</time></trkpt><trkpt lat="44.691558" lon="-110.738184"><ele>2273.809</ele><time>2026-05-24T23:54:15Z</time></trkpt><trkpt lat="44.691552" lon="-110.738195"><ele>2273.480</ele><time>2026-05-24T23:54:18Z</time></trkpt><trkpt lat="44.691552" lon="-110.7382"><ele>2273.454</ele><time>2026-05-24T23:54:19Z</time></trkpt><trkpt lat="44.691552" lon="-110.738205"><ele>2273.664</ele><time>2026-05-24T23:54:20Z</time></trkpt><trkpt lat="44.691553" lon="-110.738209"><ele>2273.859</ele><time>2026-05-24T23:54:21Z</time></trkpt><trkpt lat="44.691554" lon="-110.738212"><ele>2274.410</ele><time>2026-05-24T23:54:23Z</time></trkpt><trkpt lat="44.691554" lon="-110.738208"><ele>2275.047</ele><time>2026-05-24T23:54:25Z</time></trkpt><trkpt lat="44.691551" lon="-110.738196"><ele>2275.058</ele><time>2026-05-24T23:54:31Z</time></trkpt><trkpt lat="44.691547" lon="-110.738188"><ele>2275.016</ele><time>2026-05-24T23:54:33Z</time></trkpt><trkpt lat="44.691567" lon="-110.738186"><ele>2275.066</ele><time>2026-05-24T23:54:42Z</time></trkpt><trkpt lat="44.691568" lon="-110.738181"><ele>2274.278</ele><time>2026-05-24T23:54:52Z</time></trkpt><trkpt lat="44.691568" lon="-110.738181"><ele>2274.433</ele><time>2026-05-24T23:54:53Z</time></trkpt><trkpt lat="44.691566" lon="-110.738179"><ele>2275.226</ele><time>2026-05-24T23:54:59Z</time></trkpt><trkpt lat="44.691565" lon="-110.738176"><ele>2275.009</ele><time>2026-05-24T23:55:02Z</time></trkpt><trkpt lat="44.691565" lon="-110.738173"><ele>2274.879</ele><time>2026-05-24T23:55:03Z</time></trkpt><trkpt lat="44.691562" lon="-110.738171"><ele>2274.883</ele><time>2026-05-24T23:55:10Z</time></trkpt><trkpt lat="44.691559" lon="-110.738167"><ele>2275.093</ele><time>2026-05-24T23:55:13Z</time></trkpt><trkpt lat="44.691568" lon="-110.738181"><ele>2275.058</ele><time>2026-05-24T23:55:23Z</time></trkpt><trkpt lat="44.691568" lon="-110.738181"><ele>2274.819</ele><time>2026-05-24T23:55:32Z</time></trkpt><trkpt lat="44.691568" lon="-110.738181"><ele>2275.016</ele><time>2026-05-24T23:55:36Z</time></trkpt><trkpt lat="44.691568" lon="-110.738181"><ele>2275.467</ele><time>2026-05-24T23:55:54Z</time></trkpt><trkpt lat="44.691589" lon="-110.738179"><ele>2274.825</ele><time>2026-05-24T23:56:12Z</time></trkpt><trkpt lat="44.691643" lon="-110.738234"><ele>2275.045</ele><time>2026-05-24T23:56:19Z</time></trkpt><trkpt lat="44.691612" lon="-110.738311"><ele>2275.269</ele><time>2026-05-24T23:56:26Z</time></trkpt><trkpt lat="44.691595" lon="-110.738331"><ele>2275.204</ele><time>2026-05-24T23:56:29Z</time></trkpt><trkpt lat="44.69158" lon="-110.738339"><ele>2275.424</ele><time>2026-05-24T23:56:31Z</time></trkpt><trkpt lat="44.691567" lon="-110.73834"><ele>2275.409</ele><time>2026-05-24T23:56:33Z</time></trkpt><trkpt lat="44.691571" lon="-110.738343"><ele>2275.248</ele><time>2026-05-24T23:56:44Z</time></trkpt><trkpt lat="44.691571" lon="-110.738343"><ele>2275.452</ele><time>2026-05-24T23:56:50Z</time></trkpt><trkpt lat="44.691571" lon="-110.738343"><ele>2276.052</ele><time>2026-05-24T23:56:58Z</time></trkpt><trkpt lat="44.691571" lon="-110.738343"><ele>2275.697</ele><time>2026-05-24T23:57:06Z</time></trkpt><trkpt lat="44.691591" lon="-110.738323"><ele>2275.278</ele><time>2026-05-24T23:57:12Z</time></trkpt><trkpt lat="44.691591" lon="-110.738323"><ele>2274.885</ele><time>2026-05-24T23:57:17Z</time></trkpt><trkpt lat="44.691591" lon="-110.738328"><ele>2275.016</ele><time>2026-05-24T23:57:21Z</time></trkpt><trkpt lat="44.691591" lon="-110.738323"><ele>2275.064</ele><time>2026-05-24T23:57:26Z</time></trkpt><trkpt lat="44.691607" lon="-110.73832"><ele>2275.094</ele><time>2026-05-24T23:57:35Z</time></trkpt><trkpt lat="44.691609" lon="-110.738321"><ele>2275.492</ele><time>2026-05-24T23:57:36Z</time></trkpt><trkpt lat="44.691608" lon="-110.738322"><ele>2275.873</ele><time>2026-05-24T23:57:38Z</time></trkpt><trkpt lat="44.691607" lon="-110.738325"><ele>2276.020</ele><time>2026-05-24T23:57:39Z</time></trkpt><trkpt lat="44.691601" lon="-110.738327"><ele>2275.609</ele><time>2026-05-24T23:57:42Z</time></trkpt><trkpt lat="44.691592" lon="-110.738335"><ele>2274.811</ele><time>2026-05-24T23:57:47Z</time></trkpt><trkpt lat="44.691599" lon="-110.738349"><ele>2274.495</ele><time>2026-05-24T23:57:52Z</time></trkpt><trkpt lat="44.691654" lon="-110.738313"><ele>2274.415</ele><time>2026-05-24T23:57:58Z</time></trkpt><trkpt lat="44.691669" lon="-110.738334"><ele>2273.650</ele><time>2026-05-24T23:58:01Z</time></trkpt><trkpt lat="44.691671" lon="-110.738379"><ele>2273.261</ele><time>2026-05-24T23:58:05Z</time></trkpt><trkpt lat="44.691666" lon="-110.738482"><ele>2272.858</ele><time>2026-05-24T23:58:13Z</time></trkpt><trkpt lat="44.691661" lon="-110.738501"><ele>2272.649</ele><time>2026-05-24T23:58:14Z</time></trkpt><trkpt lat="44.691652" lon="-110.738569"><ele>2272.247</ele><time>2026-05-24T23:58:19Z</time></trkpt><trkpt lat="44.691638" lon="-110.738686"><ele>2272.077</ele><time>2026-05-24T23:58:27Z</time></trkpt><trkpt lat="44.691648" lon="-110.738765"><ele>2271.479</ele><time>2026-05-24T23:58:32Z</time></trkpt><trkpt lat="44.691651" lon="-110.738828"><ele>2270.805</ele><time>2026-05-24T23:58:35Z</time></trkpt><trkpt lat="44.691648" lon="-110.738863"><ele>2270.425</ele><time>2026-05-24T23:58:37Z</time></trkpt><trkpt lat="44.691622" lon="-110.738951"><ele>2269.209</ele><time>2026-05-24T23:58:42Z</time></trkpt><trkpt lat="44.691587" lon="-110.738999"><ele>2268.629</ele><time>2026-05-24T23:58:47Z</time></trkpt><trkpt lat="44.691555" lon="-110.739046"><ele>2268.693</ele><time>2026-05-24T23:58:51Z</time></trkpt><trkpt lat="44.691556" lon="-110.739091"><ele>2268.043</ele><time>2026-05-24T23:58:55Z</time></trkpt><trkpt lat="44.691562" lon="-110.739091"><ele>2267.818</ele><time>2026-05-24T23:58:56Z</time></trkpt><trkpt lat="44.691574" lon="-110.739086"><ele>2267.689</ele><time>2026-05-24T23:58:57Z</time></trkpt><trkpt lat="44.691618" lon="-110.739064"><ele>2267.056</ele><time>2026-05-24T23:59:01Z</time></trkpt><trkpt lat="44.691664" lon="-110.739037"><ele>2266.417</ele><time>2026-05-24T23:59:06Z</time></trkpt><trkpt lat="44.691687" lon="-110.739014"><ele>2266.015</ele><time>2026-05-24T23:59:09Z</time></trkpt><trkpt lat="44.691724" lon="-110.738987"><ele>2264.855</ele><time>2026-05-24T23:59:13Z</time></trkpt><trkpt lat="44.691745" lon="-110.738977"><ele>2264.435</ele><time>2026-05-24T23:59:15Z</time></trkpt><trkpt lat="44.691773" lon="-110.738962"><ele>2263.686</ele><time>2026-05-24T23:59:18Z</time></trkpt><trkpt lat="44.691799" lon="-110.738943"><ele>2262.614</ele><time>2026-05-24T23:59:21Z</time></trkpt><trkpt lat="44.691819" lon="-110.738925"><ele>2261.809</ele><time>2026-05-24T23:59:24Z</time></trkpt><trkpt lat="44.691821" lon="-110.738923"><ele>2261.435</ele><time>2026-05-24T23:59:25Z</time></trkpt><trkpt lat="44.691827" lon="-110.738924"><ele>2261.239</ele><time>2026-05-24T23:59:30Z</time></trkpt><trkpt lat="44.69188" lon="-110.738886"><ele>2260.219</ele><time>2026-05-24T23:59:35Z</time></trkpt><trkpt lat="44.691889" lon="-110.73888"><ele>2260.044</ele><time>2026-05-24T23:59:36Z</time></trkpt><trkpt lat="44.691936" lon="-110.738871"><ele>2259.245</ele><time>2026-05-24T23:59:43Z</time></trkpt><trkpt lat="44.691966" lon="-110.738867"><ele>2259.242</ele><time>2026-05-24T23:59:45Z</time></trkpt><trkpt lat="44.692" lon="-110.738861"><ele>2258.693</ele><time>2026-05-24T23:59:49Z</time></trkpt><trkpt lat="44.692035" lon="-110.738852"><ele>2258.291</ele><time>2026-05-24T23:59:53Z</time></trkpt><trkpt lat="44.692079" lon="-110.73886"><ele>2258.241</ele><time>2026-05-24T23:59:57Z</time></trkpt><trkpt lat="44.69219" lon="-110.738931"><ele>2257.496</ele><time>2026-05-25T00:00:07Z</time></trkpt><trkpt lat="44.692266" lon="-110.738943"><ele>2257.231</ele><time>2026-05-25T00:00:14Z</time></trkpt><trkpt lat="44.692292" lon="-110.738934"><ele>2256.624</ele><time>2026-05-25T00:00:16Z</time></trkpt><trkpt lat="44.692384" lon="-110.738879"><ele>2256.009</ele><time>2026-05-25T00:00:24Z</time></trkpt><trkpt lat="44.692463" lon="-110.738795"><ele>2255.631</ele><time>2026-05-25T00:00:32Z</time></trkpt><trkpt lat="44.692495" lon="-110.738751"><ele>2255.445</ele><time>2026-05-25T00:00:36Z</time></trkpt><trkpt lat="44.692516" lon="-110.738704"><ele>2255.265</ele><time>2026-05-25T00:00:39Z</time></trkpt><trkpt lat="44.692533" lon="-110.738657"><ele>2255.090</ele><time>2026-05-25T00:00:42Z</time></trkpt><trkpt lat="44.692547" lon="-110.738548"><ele>2254.831</ele><time>2026-05-25T00:00:49Z</time></trkpt><trkpt lat="44.692518" lon="-110.738395"><ele>2255.278</ele><time>2026-05-25T00:00:59Z</time></trkpt><trkpt lat="44.692513" lon="-110.73838"><ele>2255.269</ele><time>2026-05-25T00:01:00Z</time></trkpt><trkpt lat="44.692448" lon="-110.738304"><ele>2255.257</ele><time>2026-05-25T00:01:08Z</time></trkpt><trkpt lat="44.692403" lon="-110.738257"><ele>2255.687</ele><time>2026-05-25T00:01:17Z</time></trkpt><trkpt lat="44.692401" lon="-110.73827"><ele>2255.433</ele><time>2026-05-25T00:01:25Z</time></trkpt><trkpt lat="44.692382" lon="-110.738259"><ele>2255.623</ele><time>2026-05-25T00:01:28Z</time></trkpt><trkpt lat="44.692354" lon="-110.738247"><ele>2255.415</ele><time>2026-05-25T00:01:31Z</time></trkpt><trkpt lat="44.692334" lon="-110.738237"><ele>2255.409</ele><time>2026-05-25T00:01:33Z</time></trkpt><trkpt lat="44.692313" lon="-110.738162"><ele>2255.815</ele><time>2026-05-25T00:01:39Z</time></trkpt><trkpt lat="44.692319" lon="-110.738126"><ele>2255.649</ele><time>2026-05-25T00:01:41Z</time></trkpt><trkpt lat="44.692344" lon="-110.738097"><ele>2255.449</ele><time>2026-05-25T00:01:47Z</time></trkpt><trkpt lat="44.692396" lon="-110.738039"><ele>2255.264</ele><time>2026-05-25T00:01:54Z</time></trkpt><trkpt lat="44.69247" lon="-110.737965"><ele>2255.235</ele><time>2026-05-25T00:02:03Z</time></trkpt><trkpt lat="44.692494" lon="-110.737933"><ele>2255.472</ele><time>2026-05-25T00:02:09Z</time></trkpt><trkpt lat="44.692487" lon="-110.737948"><ele>2255.653</ele><time>2026-05-25T00:02:21Z</time></trkpt><trkpt lat="44.692531" lon="-110.737902"><ele>2255.671</ele><time>2026-05-25T00:02:32Z</time></trkpt><trkpt lat="44.692615" lon="-110.73786"><ele>2255.291</ele><time>2026-05-25T00:02:40Z</time></trkpt><trkpt lat="44.692645" lon="-110.73785"><ele>2255.415</ele><time>2026-05-25T00:02:42Z</time></trkpt><trkpt lat="44.692742" lon="-110.737813"><ele>2255.065</ele><time>2026-05-25T00:02:51Z</time></trkpt><trkpt lat="44.692826" lon="-110.737716"><ele>2254.211</ele><time>2026-05-25T00:03:00Z</time></trkpt><trkpt lat="44.69286" lon="-110.737609"><ele>2254.209</ele><time>2026-05-25T00:03:07Z</time></trkpt><trkpt lat="44.692892" lon="-110.737601"><ele>2254.283</ele><time>2026-05-25T00:03:11Z</time></trkpt><trkpt lat="44.692907" lon="-110.737614"><ele>2254.097</ele><time>2026-05-25T00:03:13Z</time></trkpt><trkpt lat="44.693" lon="-110.737672"><ele>2254.077</ele><time>2026-05-25T00:03:23Z</time></trkpt><trkpt lat="44.693018" lon="-110.737681"><ele>2253.862</ele><time>2026-05-25T00:03:25Z</time></trkpt><trkpt lat="44.693049" lon="-110.737706"><ele>2253.413</ele><time>2026-05-25T00:03:29Z</time></trkpt><trkpt lat="44.693054" lon="-110.737736"><ele>2253.420</ele><time>2026-05-25T00:03:31Z</time></trkpt><trkpt lat="44.693125" lon="-110.737851"><ele>2253.061</ele><time>2026-05-25T00:03:42Z</time></trkpt><trkpt lat="44.693169" lon="-110.737865"><ele>2252.819</ele><time>2026-05-25T00:03:47Z</time></trkpt><trkpt lat="44.693201" lon="-110.737871"><ele>2252.449</ele><time>2026-05-25T00:03:50Z</time></trkpt><trkpt lat="44.6933" lon="-110.737895"><ele>2252.065</ele><time>2026-05-25T00:03:58Z</time></trkpt><trkpt lat="44.69337" lon="-110.737927"><ele>2251.868</ele><time>2026-05-25T00:04:06Z</time></trkpt><trkpt lat="44.693388" lon="-110.737937"><ele>2251.814</ele><time>2026-05-25T00:04:08Z</time></trkpt><trkpt lat="44.693453" lon="-110.737969"><ele>2251.409</ele><time>2026-05-25T00:04:15Z</time></trkpt><trkpt lat="44.693548" lon="-110.738012"><ele>2251.238</ele><time>2026-05-25T00:04:24Z</time></trkpt><trkpt lat="44.693641" lon="-110.738052"><ele>2251.042</ele><time>2026-05-25T00:04:32Z</time></trkpt><trkpt lat="44.693673" lon="-110.738064"><ele>2250.892</ele><time>2026-05-25T00:04:35Z</time></trkpt><trkpt lat="44.693766" lon="-110.738085"><ele>2251.067</ele><time>2026-05-25T00:04:43Z</time></trkpt><trkpt lat="44.693884" lon="-110.738122"><ele>2250.848</ele><time>2026-05-25T00:04:53Z</time></trkpt><trkpt lat="44.69398" lon="-110.738186"><ele>2250.285</ele><time>2026-05-25T00:05:02Z</time></trkpt><trkpt lat="44.694031" lon="-110.738269"><ele>2250.286</ele><time>2026-05-25T00:05:09Z</time></trkpt><trkpt lat="44.694072" lon="-110.73835"><ele>2249.824</ele><time>2026-05-25T00:05:15Z</time></trkpt><trkpt lat="44.69408" lon="-110.738362"><ele>2249.654</ele><time>2026-05-25T00:05:16Z</time></trkpt><trkpt lat="44.694092" lon="-110.738389"><ele>2249.484</ele><time>2026-05-25T00:05:18Z</time></trkpt><trkpt lat="44.69412" lon="-110.738423"><ele>2249.207</ele><time>2026-05-25T00:05:21Z</time></trkpt><trkpt lat="44.69413" lon="-110.738437"><ele>2249.217</ele><time>2026-05-25T00:05:22Z</time></trkpt><trkpt lat="44.694212" lon="-110.738547"><ele>2249.209</ele><time>2026-05-25T00:05:32Z</time></trkpt><trkpt lat="44.694251" lon="-110.738656"><ele>2248.660</ele><time>2026-05-25T00:05:40Z</time></trkpt><trkpt lat="44.694298" lon="-110.738754"><ele>2248.284</ele><time>2026-05-25T00:05:47Z</time></trkpt><trkpt lat="44.694321" lon="-110.738839"><ele>2248.024</ele><time>2026-05-25T00:05:53Z</time></trkpt><trkpt lat="44.694342" lon="-110.738878"><ele>2247.669</ele><time>2026-05-25T00:05:56Z</time></trkpt><trkpt lat="44.694405" lon="-110.738976"><ele>2247.890</ele><time>2026-05-25T00:06:03Z</time></trkpt><trkpt lat="44.694458" lon="-110.739047"><ele>2247.297</ele><time>2026-05-25T00:06:11Z</time></trkpt><trkpt lat="44.69451" lon="-110.739124"><ele>2247.028</ele><time>2026-05-25T00:06:18Z</time></trkpt><trkpt lat="44.694593" lon="-110.739232"><ele>2246.686</ele><time>2026-05-25T00:06:27Z</time></trkpt><trkpt lat="44.694606" lon="-110.739246"><ele>2246.666</ele><time>2026-05-25T00:06:29Z</time></trkpt><trkpt lat="44.694674" lon="-110.739311"><ele>2246.659</ele><time>2026-05-25T00:06:36Z</time></trkpt><trkpt lat="44.694687" lon="-110.73932"><ele>2246.403</ele><time>2026-05-25T00:06:37Z</time></trkpt><trkpt lat="44.6948" lon="-110.739376"><ele>2246.223</ele><time>2026-05-25T00:06:45Z</time></trkpt><trkpt lat="44.69489" lon="-110.73942"><ele>2245.809</ele><time>2026-05-25T00:06:54Z</time></trkpt><trkpt lat="44.694983" lon="-110.739484"><ele>2245.847</ele><time>2026-05-25T00:07:02Z</time></trkpt><trkpt lat="44.694994" lon="-110.739491"><ele>2245.841</ele><time>2026-05-25T00:07:03Z</time></trkpt><trkpt lat="44.695064" lon="-110.739557"><ele>2245.671</ele><time>2026-05-25T00:07:11Z</time></trkpt><trkpt lat="44.695072" lon="-110.739572"><ele>2245.676</ele><time>2026-05-25T00:07:12Z</time></trkpt><trkpt lat="44.695094" lon="-110.739697"><ele>2245.297</ele><time>2026-05-25T00:07:19Z</time></trkpt><trkpt lat="44.695134" lon="-110.739785"><ele>2245.054</ele><time>2026-05-25T00:07:25Z</time></trkpt><trkpt lat="44.695141" lon="-110.739801"><ele>2245.045</ele><time>2026-05-25T00:07:26Z</time></trkpt><trkpt lat="44.695201" lon="-110.739935"><ele>2244.823</ele><time>2026-05-25T00:07:36Z</time></trkpt><trkpt lat="44.695264" lon="-110.740047"><ele>2244.683</ele><time>2026-05-25T00:07:43Z</time></trkpt><trkpt lat="44.69529" lon="-110.740096"><ele>2244.643</ele><time>2026-05-25T00:07:46Z</time></trkpt><trkpt lat="44.695324" lon="-110.740159"><ele>2244.664</ele><time>2026-05-25T00:07:50Z</time></trkpt><trkpt lat="44.695329" lon="-110.740181"><ele>2244.410</ele><time>2026-05-25T00:07:52Z</time></trkpt><trkpt lat="44.695389" lon="-110.74031"><ele>2244.209</ele><time>2026-05-25T00:08:02Z</time></trkpt><trkpt lat="44.695424" lon="-110.740486"><ele>2244.066</ele><time>2026-05-25T00:08:12Z</time></trkpt><trkpt lat="44.695455" lon="-110.740606"><ele>2243.890</ele><time>2026-05-25T00:08:20Z</time></trkpt><trkpt lat="44.695538" lon="-110.740745"><ele>2243.860</ele><time>2026-05-25T00:08:30Z</time></trkpt><trkpt lat="44.695594" lon="-110.740788"><ele>2243.495</ele><time>2026-05-25T00:08:35Z</time></trkpt><trkpt lat="44.695624" lon="-110.740812"><ele>2243.256</ele><time>2026-05-25T00:08:38Z</time></trkpt><trkpt lat="44.695721" lon="-110.740903"><ele>2243.043</ele><time>2026-05-25T00:08:47Z</time></trkpt><trkpt lat="44.695812" lon="-110.740952"><ele>2242.624</ele><time>2026-05-25T00:08:55Z</time></trkpt><trkpt lat="44.695907" lon="-110.740948"><ele>2242.432</ele><time>2026-05-25T00:09:03Z</time></trkpt><trkpt lat="44.695932" lon="-110.740944"><ele>2242.412</ele><time>2026-05-25T00:09:05Z</time></trkpt><trkpt lat="44.696012" lon="-110.740945"><ele>2242.018</ele><time>2026-05-25T00:09:11Z</time></trkpt><trkpt lat="44.696121" lon="-110.740985"><ele>2242.498</ele><time>2026-05-25T00:09:20Z</time></trkpt><trkpt lat="44.696218" lon="-110.741036"><ele>2243.017</ele><time>2026-05-25T00:09:30Z</time></trkpt><trkpt lat="44.696262" lon="-110.741121"><ele>2243.209</ele><time>2026-05-25T00:09:37Z</time></trkpt><trkpt lat="44.696265" lon="-110.741215"><ele>2243.213</ele><time>2026-05-25T00:09:43Z</time></trkpt><trkpt lat="44.696257" lon="-110.741346"><ele>2243.297</ele><time>2026-05-25T00:09:51Z</time></trkpt><trkpt lat="44.696247" lon="-110.741478"><ele>2243.097</ele><time>2026-05-25T00:10:00Z</time></trkpt><trkpt lat="44.696244" lon="-110.741548"><ele>2243.012</ele><time>2026-05-25T00:10:05Z</time></trkpt><trkpt lat="44.696261" lon="-110.741644"><ele>2242.693</ele><time>2026-05-25T00:10:12Z</time></trkpt><trkpt lat="44.696343" lon="-110.741807"><ele>2242.430</ele><time>2026-05-25T00:10:24Z</time></trkpt><trkpt lat="44.696367" lon="-110.741813"><ele>2242.251</ele><time>2026-05-25T00:10:27Z</time></trkpt><trkpt lat="44.696387" lon="-110.741795"><ele>2242.229</ele><time>2026-05-25T00:10:30Z</time></trkpt><trkpt lat="44.696394" lon="-110.741786"><ele>2242.249</ele><time>2026-05-25T00:10:41Z</time></trkpt><trkpt lat="44.696388" lon="-110.741776"><ele>2242.447</ele><time>2026-05-25T00:10:47Z</time></trkpt><trkpt lat="44.696385" lon="-110.741777"><ele>2242.429</ele><time>2026-05-25T00:10:48Z</time></trkpt><trkpt lat="44.696395" lon="-110.741778"><ele>2242.221</ele><time>2026-05-25T00:10:58Z</time></trkpt><trkpt lat="44.6964" lon="-110.741772"><ele>2242.609</ele><time>2026-05-25T00:11:10Z</time></trkpt><trkpt lat="44.696392" lon="-110.741779"><ele>2242.246</ele><time>2026-05-25T00:11:13Z</time></trkpt><trkpt lat="44.696398" lon="-110.74178"><ele>2242.270</ele><time>2026-05-25T00:11:16Z</time></trkpt><trkpt lat="44.69639" lon="-110.741789"><ele>2241.470</ele><time>2026-05-25T00:11:23Z</time></trkpt><trkpt lat="44.696393" lon="-110.741785"><ele>2241.465</ele><time>2026-05-25T00:11:24Z</time></trkpt><trkpt lat="44.696393" lon="-110.741782"><ele>2241.616</ele><time>2026-05-25T00:11:27Z</time></trkpt></trkseg></trk></gpx>