<?xml version="1.0" encoding="UTF-8"?><gpx creator="Wikiloc - http://www.wikiloc.com" version="1.1" xmlns="http://www.topografix.com/GPX/1/1" xmlns:xsi="http://www.w3.org/2001/XMLSchema-instance" xsi:schemaLocation="http://www.topografix.com/GPX/1/1 http://www.topografix.com/GPX/1/1/gpx.xsd"><trk><name><![CDATA[Yellowstone National Park: Old Faithful - Observation Point - Old Faithful]]></name><cmt><![CDATA[Three River Junction]]></cmt><desc><![CDATA[Three River Junction]]></desc><trkseg><trkpt lat="44.457807" lon="-110.830288"><ele>2243.454</ele><time>2026-05-18T22:48:41Z</time></trkpt><trkpt lat="44.457891" lon="-110.830218"><ele>2243.456</ele><time>2026-05-18T22:48:47Z</time></trkpt><trkpt lat="44.457903" lon="-110.830198"><ele>2243.411</ele><time>2026-05-18T22:48:49Z</time></trkpt><trkpt lat="44.457955" lon="-110.830112"><ele>2244.209</ele><time>2026-05-18T22:48:57Z</time></trkpt><trkpt lat="44.457995" lon="-110.830052"><ele>2243.877</ele><time>2026-05-18T22:49:05Z</time></trkpt><trkpt lat="44.458035" lon="-110.829951"><ele>2243.851</ele><time>2026-05-18T22:49:11Z</time></trkpt><trkpt lat="44.458055" lon="-110.829909"><ele>2243.899</ele><time>2026-05-18T22:49:14Z</time></trkpt><trkpt lat="44.45807" lon="-110.829883"><ele>2243.874</ele><time>2026-05-18T22:49:16Z</time></trkpt><trkpt lat="44.458086" lon="-110.829845"><ele>2243.842</ele><time>2026-05-18T22:49:19Z</time></trkpt><trkpt lat="44.458087" lon="-110.829838"><ele>2244.062</ele><time>2026-05-18T22:49:21Z</time></trkpt><trkpt lat="44.458119" lon="-110.829813"><ele>2243.863</ele><time>2026-05-18T22:49:28Z</time></trkpt><trkpt lat="44.458209" lon="-110.829709"><ele>2244.035</ele><time>2026-05-18T22:49:38Z</time></trkpt><trkpt lat="44.458266" lon="-110.829586"><ele>2244.065</ele><time>2026-05-18T22:49:46Z</time></trkpt><trkpt lat="44.458273" lon="-110.829575"><ele>2244.212</ele><time>2026-05-18T22:49:47Z</time></trkpt><trkpt lat="44.458279" lon="-110.829566"><ele>2244.232</ele><time>2026-05-18T22:49:48Z</time></trkpt><trkpt lat="44.458282" lon="-110.829561"><ele>2244.405</ele><time>2026-05-18T22:49:49Z</time></trkpt><trkpt lat="44.458319" lon="-110.829508"><ele>2245.009</ele><time>2026-05-18T22:49:54Z</time></trkpt><trkpt lat="44.4584" lon="-110.829413"><ele>2244.643</ele><time>2026-05-18T22:50:03Z</time></trkpt><trkpt lat="44.458453" lon="-110.829356"><ele>2245.647</ele><time>2026-05-18T22:50:10Z</time></trkpt><trkpt lat="44.458461" lon="-110.829306"><ele>2245.085</ele><time>2026-05-18T22:50:17Z</time></trkpt><trkpt lat="44.458463" lon="-110.829307"><ele>2245.450</ele><time>2026-05-18T22:50:23Z</time></trkpt><trkpt lat="44.45844" lon="-110.829306"><ele>2245.268</ele><time>2026-05-18T22:50:26Z</time></trkpt><trkpt lat="44.458451" lon="-110.829291"><ele>2245.028</ele><time>2026-05-18T22:50:27Z</time></trkpt><trkpt lat="44.458506" lon="-110.829275"><ele>2245.639</ele><time>2026-05-18T22:50:33Z</time></trkpt><trkpt lat="44.458529" lon="-110.829286"><ele>2245.671</ele><time>2026-05-18T22:50:35Z</time></trkpt><trkpt lat="44.458593" lon="-110.829316"><ele>2245.821</ele><time>2026-05-18T22:50:41Z</time></trkpt><trkpt lat="44.458619" lon="-110.829316"><ele>2245.817</ele><time>2026-05-18T22:50:43Z</time></trkpt><trkpt lat="44.458675" lon="-110.829298"><ele>2245.287</ele><time>2026-05-18T22:50:53Z</time></trkpt><trkpt lat="44.458727" lon="-110.829304"><ele>2245.415</ele><time>2026-05-18T22:51:04Z</time></trkpt><trkpt lat="44.458758" lon="-110.829322"><ele>2245.209</ele><time>2026-05-18T22:51:10Z</time></trkpt><trkpt lat="44.458791" lon="-110.829344"><ele>2245.213</ele><time>2026-05-18T22:51:14Z</time></trkpt><trkpt lat="44.458859" lon="-110.829292"><ele>2245.287</ele><time>2026-05-18T22:51:20Z</time></trkpt><trkpt lat="44.458933" lon="-110.829191"><ele>2245.095</ele><time>2026-05-18T22:51:28Z</time></trkpt><trkpt lat="44.458999" lon="-110.829102"><ele>2245.490</ele><time>2026-05-18T22:51:36Z</time></trkpt><trkpt lat="44.459076" lon="-110.828986"><ele>2246.028</ele><time>2026-05-18T22:51:45Z</time></trkpt><trkpt lat="44.459141" lon="-110.828929"><ele>2244.618</ele><time>2026-05-18T22:51:52Z</time></trkpt><trkpt lat="44.459211" lon="-110.828879"><ele>2245.049</ele><time>2026-05-18T22:51:58Z</time></trkpt><trkpt lat="44.459261" lon="-110.828856"><ele>2245.031</ele><time>2026-05-18T22:52:02Z</time></trkpt><trkpt lat="44.45934" lon="-110.828808"><ele>2244.421</ele><time>2026-05-18T22:52:09Z</time></trkpt><trkpt lat="44.459358" lon="-110.828797"><ele>2243.654</ele><time>2026-05-18T22:52:11Z</time></trkpt><trkpt lat="44.459368" lon="-110.828791"><ele>2243.456</ele><time>2026-05-18T22:52:12Z</time></trkpt><trkpt lat="44.459466" lon="-110.828731"><ele>2243.411</ele><time>2026-05-18T22:52:20Z</time></trkpt><trkpt lat="44.45956" lon="-110.828681"><ele>2244.209</ele><time>2026-05-18T22:52:27Z</time></trkpt><trkpt lat="44.45959" lon="-110.828641"><ele>2242.227</ele><time>2026-05-18T22:52:30Z</time></trkpt><trkpt lat="44.459595" lon="-110.828569"><ele>2243.071</ele><time>2026-05-18T22:52:34Z</time></trkpt><trkpt lat="44.459592" lon="-110.828555"><ele>2243.469</ele><time>2026-05-18T22:52:35Z</time></trkpt><trkpt lat="44.45958" lon="-110.828508"><ele>2244.644</ele><time>2026-05-18T22:52:38Z</time></trkpt><trkpt lat="44.45957" lon="-110.828415"><ele>2244.062</ele><time>2026-05-18T22:52:43Z</time></trkpt><trkpt lat="44.459547" lon="-110.828261"><ele>2244.212</ele><time>2026-05-18T22:52:52Z</time></trkpt><trkpt lat="44.459542" lon="-110.828057"><ele>2244.273</ele><time>2026-05-18T22:53:04Z</time></trkpt><trkpt lat="44.459552" lon="-110.827956"><ele>2244.685</ele><time>2026-05-18T22:53:09Z</time></trkpt><trkpt lat="44.459562" lon="-110.827862"><ele>2245.055</ele><time>2026-05-18T22:53:14Z</time></trkpt><trkpt lat="44.459597" lon="-110.82764"><ele>2245.234</ele><time>2026-05-18T22:53:27Z</time></trkpt><trkpt lat="44.459619" lon="-110.827509"><ele>2245.055</ele><time>2026-05-18T22:53:34Z</time></trkpt><trkpt lat="44.459669" lon="-110.827336"><ele>2244.810</ele><time>2026-05-18T22:53:44Z</time></trkpt><trkpt lat="44.459693" lon="-110.827279"><ele>2244.809</ele><time>2026-05-18T22:53:48Z</time></trkpt><trkpt lat="44.459734" lon="-110.827168"><ele>2244.655</ele><time>2026-05-18T22:53:55Z</time></trkpt><trkpt lat="44.459763" lon="-110.827105"><ele>2244.669</ele><time>2026-05-18T22:53:59Z</time></trkpt><trkpt lat="44.459807" lon="-110.82703"><ele>2244.827</ele><time>2026-05-18T22:54:04Z</time></trkpt><trkpt lat="44.459886" lon="-110.826913"><ele>2244.612</ele><time>2026-05-18T22:54:13Z</time></trkpt><trkpt lat="44.459906" lon="-110.826903"><ele>2244.840</ele><time>2026-05-18T22:54:19Z</time></trkpt><trkpt lat="44.459897" lon="-110.826912"><ele>2244.470</ele><time>2026-05-18T22:54:30Z</time></trkpt><trkpt lat="44.459929" lon="-110.826839"><ele>2244.461</ele><time>2026-05-18T22:54:37Z</time></trkpt><trkpt lat="44.459948" lon="-110.826814"><ele>2244.813</ele><time>2026-05-18T22:54:43Z</time></trkpt><trkpt lat="44.460026" lon="-110.82674"><ele>2244.883</ele><time>2026-05-18T22:54:49Z</time></trkpt><trkpt lat="44.460048" lon="-110.82672"><ele>2244.614</ele><time>2026-05-18T22:54:51Z</time></trkpt><trkpt lat="44.460122" lon="-110.826641"><ele>2244.854</ele><time>2026-05-18T22:54:58Z</time></trkpt><trkpt lat="44.460208" lon="-110.826624"><ele>2245.209</ele><time>2026-05-18T22:55:06Z</time></trkpt><trkpt lat="44.460291" lon="-110.826609"><ele>2244.809</ele><time>2026-05-18T22:55:12Z</time></trkpt><trkpt lat="44.460305" lon="-110.826607"><ele>2244.883</ele><time>2026-05-18T22:55:13Z</time></trkpt><trkpt lat="44.460437" lon="-110.82659"><ele>2243.647</ele><time>2026-05-18T22:55:23Z</time></trkpt><trkpt lat="44.460449" lon="-110.826586"><ele>2243.675</ele><time>2026-05-18T22:55:24Z</time></trkpt><trkpt lat="44.460566" lon="-110.826584"><ele>2243.050</ele><time>2026-05-18T22:55:34Z</time></trkpt><trkpt lat="44.460671" lon="-110.826623"><ele>2243.238</ele><time>2026-05-18T22:55:41Z</time></trkpt><trkpt lat="44.460749" lon="-110.826702"><ele>2243.298</ele><time>2026-05-18T22:55:48Z</time></trkpt><trkpt lat="44.460772" lon="-110.826721"><ele>2243.299</ele><time>2026-05-18T22:55:50Z</time></trkpt><trkpt lat="44.460842" lon="-110.826791"><ele>2243.651</ele><time>2026-05-18T22:55:57Z</time></trkpt><trkpt lat="44.460916" lon="-110.826877"><ele>2243.841</ele><time>2026-05-18T22:56:04Z</time></trkpt><trkpt lat="44.461021" lon="-110.826938"><ele>2244.238</ele><time>2026-05-18T22:56:13Z</time></trkpt><trkpt lat="44.461085" lon="-110.826891"><ele>2244.270</ele><time>2026-05-18T22:56:19Z</time></trkpt><trkpt lat="44.461202" lon="-110.826805"><ele>2242.817</ele><time>2026-05-18T22:56:29Z</time></trkpt><trkpt lat="44.461224" lon="-110.826791"><ele>2242.409</ele><time>2026-05-18T22:56:31Z</time></trkpt><trkpt lat="44.461309" lon="-110.826752"><ele>2241.675</ele><time>2026-05-18T22:56:38Z</time></trkpt><trkpt lat="44.461373" lon="-110.826755"><ele>2241.659</ele><time>2026-05-18T22:56:43Z</time></trkpt><trkpt lat="44.46138" lon="-110.826761"><ele>2241.487</ele><time>2026-05-18T22:56:44Z</time></trkpt><trkpt lat="44.461404" lon="-110.826777"><ele>2241.062</ele><time>2026-05-18T22:56:46Z</time></trkpt><trkpt lat="44.461487" lon="-110.826888"><ele>2239.690</ele><time>2026-05-18T22:56:55Z</time></trkpt><trkpt lat="44.461502" lon="-110.826924"><ele>2239.440</ele><time>2026-05-18T22:56:57Z</time></trkpt><trkpt lat="44.461509" lon="-110.82694"><ele>2239.281</ele><time>2026-05-18T22:56:58Z</time></trkpt><trkpt lat="44.461516" lon="-110.826959"><ele>2239.093</ele><time>2026-05-18T22:56:59Z</time></trkpt><trkpt lat="44.461532" lon="-110.827013"><ele>2238.643</ele><time>2026-05-18T22:57:02Z</time></trkpt><trkpt lat="44.461547" lon="-110.827051"><ele>2238.467</ele><time>2026-05-18T22:57:04Z</time></trkpt><trkpt lat="44.461596" lon="-110.827155"><ele>2237.681</ele><time>2026-05-18T22:57:11Z</time></trkpt><trkpt lat="44.461606" lon="-110.82717"><ele>2237.419</ele><time>2026-05-18T22:57:12Z</time></trkpt><trkpt lat="44.461653" lon="-110.827204"><ele>2236.409</ele><time>2026-05-18T22:57:16Z</time></trkpt><trkpt lat="44.461707" lon="-110.827192"><ele>2235.658</ele><time>2026-05-18T22:57:20Z</time></trkpt><trkpt lat="44.461848" lon="-110.827154"><ele>2235.812</ele><time>2026-05-18T22:57:30Z</time></trkpt><trkpt lat="44.461904" lon="-110.82714"><ele>2235.820</ele><time>2026-05-18T22:57:34Z</time></trkpt><trkpt lat="44.461967" lon="-110.827173"><ele>2236.415</ele><time>2026-05-18T22:57:40Z</time></trkpt><trkpt lat="44.462022" lon="-110.82724"><ele>2237.673</ele><time>2026-05-18T22:57:46Z</time></trkpt><trkpt lat="44.462041" lon="-110.827261"><ele>2237.893</ele><time>2026-05-18T22:57:48Z</time></trkpt><trkpt lat="44.462077" lon="-110.82731"><ele>2238.414</ele><time>2026-05-18T22:57:52Z</time></trkpt><trkpt lat="44.462084" lon="-110.827324"><ele>2238.656</ele><time>2026-05-18T22:57:53Z</time></trkpt><trkpt lat="44.462117" lon="-110.827379"><ele>2239.056</ele><time>2026-05-18T22:57:57Z</time></trkpt><trkpt lat="44.462157" lon="-110.827434"><ele>2239.687</ele><time>2026-05-18T22:58:01Z</time></trkpt><trkpt lat="44.462166" lon="-110.827446"><ele>2239.642</ele><time>2026-05-18T22:58:02Z</time></trkpt><trkpt lat="44.462237" lon="-110.827513"><ele>2239.826</ele><time>2026-05-18T22:58:11Z</time></trkpt><trkpt lat="44.46231" lon="-110.827591"><ele>2240.009</ele><time>2026-05-18T22:58:18Z</time></trkpt><trkpt lat="44.462431" lon="-110.827702"><ele>2240.050</ele><time>2026-05-18T22:58:29Z</time></trkpt><trkpt lat="44.46248" lon="-110.827759"><ele>2240.874</ele><time>2026-05-18T22:58:34Z</time></trkpt><trkpt lat="44.462516" lon="-110.827777"><ele>2241.412</ele><time>2026-05-18T22:58:37Z</time></trkpt><trkpt lat="44.462541" lon="-110.827785"><ele>2241.887</ele><time>2026-05-18T22:58:39Z</time></trkpt><trkpt lat="44.462604" lon="-110.827823"><ele>2242.445</ele><time>2026-05-18T22:58:45Z</time></trkpt><trkpt lat="44.462638" lon="-110.827849"><ele>2242.835</ele><time>2026-05-18T22:58:48Z</time></trkpt><trkpt lat="44.462683" lon="-110.827891"><ele>2243.616</ele><time>2026-05-18T22:58:53Z</time></trkpt><trkpt lat="44.462706" lon="-110.827905"><ele>2243.818</ele><time>2026-05-18T22:58:55Z</time></trkpt><trkpt lat="44.462762" lon="-110.827939"><ele>2244.638</ele><time>2026-05-18T22:59:00Z</time></trkpt><trkpt lat="44.462823" lon="-110.827982"><ele>2244.813</ele><time>2026-05-18T22:59:07Z</time></trkpt><trkpt lat="44.462831" lon="-110.827992"><ele>2244.843</ele><time>2026-05-18T22:59:08Z</time></trkpt><trkpt lat="44.462917" lon="-110.828082"><ele>2245.007</ele><time>2026-05-18T22:59:16Z</time></trkpt><trkpt lat="44.462962" lon="-110.82813"><ele>2246.009</ele><time>2026-05-18T22:59:21Z</time></trkpt><trkpt lat="44.463019" lon="-110.82818"><ele>2246.483</ele><time>2026-05-18T22:59:26Z</time></trkpt><trkpt lat="44.463102" lon="-110.828265"><ele>2246.297</ele><time>2026-05-18T22:59:35Z</time></trkpt><trkpt lat="44.463232" lon="-110.828301"><ele>2246.625</ele><time>2026-05-18T22:59:46Z</time></trkpt><trkpt lat="44.463281" lon="-110.828298"><ele>2247.010</ele><time>2026-05-18T22:59:50Z</time></trkpt><trkpt lat="44.463358" lon="-110.8283"><ele>2247.448</ele><time>2026-05-18T22:59:56Z</time></trkpt><trkpt lat="44.463451" lon="-110.828313"><ele>2248.028</ele><time>2026-05-18T23:00:04Z</time></trkpt><trkpt lat="44.463485" lon="-110.828318"><ele>2248.479</ele><time>2026-05-18T23:00:07Z</time></trkpt><trkpt lat="44.463542" lon="-110.828313"><ele>2249.271</ele><time>2026-05-18T23:00:12Z</time></trkpt><trkpt lat="44.463607" lon="-110.82831"><ele>2249.641</ele><time>2026-05-18T23:00:17Z</time></trkpt><trkpt lat="44.46368" lon="-110.828315"><ele>2250.223</ele><time>2026-05-18T23:00:23Z</time></trkpt><trkpt lat="44.463746" lon="-110.82835"><ele>2250.483</ele><time>2026-05-18T23:00:29Z</time></trkpt><trkpt lat="44.463784" lon="-110.828449"><ele>2251.411</ele><time>2026-05-18T23:00:36Z</time></trkpt><trkpt lat="44.463789" lon="-110.828461"><ele>2251.209</ele><time>2026-05-18T23:00:37Z</time></trkpt><trkpt lat="44.463801" lon="-110.828489"><ele>2250.214</ele><time>2026-05-18T23:00:41Z</time></trkpt><trkpt lat="44.463805" lon="-110.828524"><ele>2249.698</ele><time>2026-05-18T23:00:44Z</time></trkpt><trkpt lat="44.46381" lon="-110.828552"><ele>2249.096</ele><time>2026-05-18T23:00:46Z</time></trkpt><trkpt lat="44.463817" lon="-110.82859"><ele>2249.221</ele><time>2026-05-18T23:00:52Z</time></trkpt><trkpt lat="44.463816" lon="-110.828669"><ele>2247.879</ele><time>2026-05-18T23:01:00Z</time></trkpt><trkpt lat="44.463813" lon="-110.82875"><ele>2249.219</ele><time>2026-05-18T23:01:04Z</time></trkpt><trkpt lat="44.463816" lon="-110.828785"><ele>2250.420</ele><time>2026-05-18T23:01:06Z</time></trkpt><trkpt lat="44.463814" lon="-110.828869"><ele>2250.632</ele><time>2026-05-18T23:01:11Z</time></trkpt><trkpt lat="44.463818" lon="-110.829091"><ele>2250.272</ele><time>2026-05-18T23:01:23Z</time></trkpt><trkpt lat="44.463802" lon="-110.829233"><ele>2249.668</ele><time>2026-05-18T23:01:31Z</time></trkpt><trkpt lat="44.463792" lon="-110.829264"><ele>2249.242</ele><time>2026-05-18T23:01:33Z</time></trkpt><trkpt lat="44.46376" lon="-110.829392"><ele>2248.626</ele><time>2026-05-18T23:01:41Z</time></trkpt><trkpt lat="44.463749" lon="-110.829441"><ele>2248.209</ele><time>2026-05-18T23:01:44Z</time></trkpt><trkpt lat="44.463725" lon="-110.829542"><ele>2247.848</ele><time>2026-05-18T23:01:50Z</time></trkpt><trkpt lat="44.463738" lon="-110.829687"><ele>2247.052</ele><time>2026-05-18T23:01:58Z</time></trkpt><trkpt lat="44.463745" lon="-110.829703"><ele>2246.830</ele><time>2026-05-18T23:01:59Z</time></trkpt><trkpt lat="44.463789" lon="-110.829732"><ele>2246.635</ele><time>2026-05-18T23:02:03Z</time></trkpt><trkpt lat="44.46381" lon="-110.829712"><ele>2246.643</ele><time>2026-05-18T23:02:05Z</time></trkpt><trkpt lat="44.463941" lon="-110.829666"><ele>2246.843</ele><time>2026-05-18T23:02:15Z</time></trkpt><trkpt lat="44.464027" lon="-110.829661"><ele>2245.854</ele><time>2026-05-18T23:02:22Z</time></trkpt><trkpt lat="44.464049" lon="-110.829657"><ele>2246.476</ele><time>2026-05-18T23:02:24Z</time></trkpt><trkpt lat="44.464162" lon="-110.829643"><ele>2246.846</ele><time>2026-05-18T23:02:34Z</time></trkpt><trkpt lat="44.464281" lon="-110.829597"><ele>2246.689</ele><time>2026-05-18T23:02:44Z</time></trkpt><trkpt lat="44.464321" lon="-110.829572"><ele>2247.006</ele><time>2026-05-18T23:02:47Z</time></trkpt><trkpt lat="44.464394" lon="-110.829532"><ele>2247.426</ele><time>2026-05-18T23:02:53Z</time></trkpt><trkpt lat="44.464494" lon="-110.829554"><ele>2247.409</ele><time>2026-05-18T23:03:01Z</time></trkpt><trkpt lat="44.464629" lon="-110.829589"><ele>2247.470</ele><time>2026-05-18T23:03:13Z</time></trkpt><trkpt lat="44.464671" lon="-110.829646"><ele>2247.254</ele><time>2026-05-18T23:03:19Z</time></trkpt><trkpt lat="44.464671" lon="-110.829662"><ele>2247.242</ele><time>2026-05-18T23:03:20Z</time></trkpt><trkpt lat="44.464707" lon="-110.829792"><ele>2247.027</ele><time>2026-05-18T23:03:29Z</time></trkpt><trkpt lat="44.464784" lon="-110.829803"><ele>2246.615</ele><time>2026-05-18T23:03:36Z</time></trkpt><trkpt lat="44.464799" lon="-110.829809"><ele>2246.025</ele><time>2026-05-18T23:03:38Z</time></trkpt><trkpt lat="44.464841" lon="-110.829841"><ele>2246.436</ele><time>2026-05-18T23:03:42Z</time></trkpt><trkpt lat="44.464911" lon="-110.8299"><ele>2246.088</ele><time>2026-05-18T23:03:48Z</time></trkpt><trkpt lat="44.464975" lon="-110.829919"><ele>2246.078</ele><time>2026-05-18T23:03:53Z</time></trkpt><trkpt lat="44.46505" lon="-110.829858"><ele>2246.072</ele><time>2026-05-18T23:04:00Z</time></trkpt><trkpt lat="44.465089" lon="-110.829797"><ele>2245.813</ele><time>2026-05-18T23:04:07Z</time></trkpt><trkpt lat="44.465097" lon="-110.829788"><ele>2246.014</ele><time>2026-05-18T23:04:15Z</time></trkpt><trkpt lat="44.465123" lon="-110.829776"><ele>2246.009</ele><time>2026-05-18T23:04:18Z</time></trkpt><trkpt lat="44.465192" lon="-110.829682"><ele>2246.499</ele><time>2026-05-18T23:04:27Z</time></trkpt><trkpt lat="44.465251" lon="-110.829573"><ele>2247.023</ele><time>2026-05-18T23:04:37Z</time></trkpt><trkpt lat="44.465304" lon="-110.829507"><ele>2247.291</ele><time>2026-05-18T23:04:42Z</time></trkpt><trkpt lat="44.465325" lon="-110.829489"><ele>2247.266</ele><time>2026-05-18T23:04:45Z</time></trkpt><trkpt lat="44.465396" lon="-110.829421"><ele>2247.874</ele><time>2026-05-18T23:04:54Z</time></trkpt><trkpt lat="44.465506" lon="-110.829374"><ele>2248.054</ele><time>2026-05-18T23:05:03Z</time></trkpt><trkpt lat="44.46554" lon="-110.829354"><ele>2248.265</ele><time>2026-05-18T23:05:06Z</time></trkpt><trkpt lat="44.4656" lon="-110.829313"><ele>2249.047</ele><time>2026-05-18T23:05:12Z</time></trkpt><trkpt lat="44.465624" lon="-110.829308"><ele>2249.447</ele><time>2026-05-18T23:05:14Z</time></trkpt><trkpt lat="44.465677" lon="-110.829336"><ele>2249.864</ele><time>2026-05-18T23:05:20Z</time></trkpt><trkpt lat="44.465741" lon="-110.829374"><ele>2250.006</ele><time>2026-05-18T23:05:26Z</time></trkpt><trkpt lat="44.465763" lon="-110.829379"><ele>2250.016</ele><time>2026-05-18T23:05:28Z</time></trkpt><trkpt lat="44.465799" lon="-110.829379"><ele>2250.409</ele><time>2026-05-18T23:05:31Z</time></trkpt><trkpt lat="44.465878" lon="-110.829356"><ele>2250.618</ele><time>2026-05-18T23:05:37Z</time></trkpt><trkpt lat="44.465967" lon="-110.829336"><ele>2251.442</ele><time>2026-05-18T23:05:46Z</time></trkpt><trkpt lat="44.466054" lon="-110.829339"><ele>2252.290</ele><time>2026-05-18T23:05:54Z</time></trkpt><trkpt lat="44.466083" lon="-110.829341"><ele>2252.445</ele><time>2026-05-18T23:05:57Z</time></trkpt><trkpt lat="44.466172" lon="-110.829339"><ele>2252.483</ele><time>2026-05-18T23:06:05Z</time></trkpt><trkpt lat="44.466258" lon="-110.829315"><ele>2253.223</ele><time>2026-05-18T23:06:14Z</time></trkpt><trkpt lat="44.466288" lon="-110.829301"><ele>2253.694</ele><time>2026-05-18T23:06:18Z</time></trkpt><trkpt lat="44.466321" lon="-110.829312"><ele>2253.816</ele><time>2026-05-18T23:06:21Z</time></trkpt><trkpt lat="44.466384" lon="-110.829318"><ele>2254.696</ele><time>2026-05-18T23:06:27Z</time></trkpt><trkpt lat="44.466407" lon="-110.829318"><ele>2254.881</ele><time>2026-05-18T23:06:30Z</time></trkpt><trkpt lat="44.46649" lon="-110.829344"><ele>2255.861</ele><time>2026-05-18T23:06:39Z</time></trkpt><trkpt lat="44.466549" lon="-110.829346"><ele>2256.417</ele><time>2026-05-18T23:06:44Z</time></trkpt><trkpt lat="44.466582" lon="-110.829337"><ele>2256.609</ele><time>2026-05-18T23:06:47Z</time></trkpt><trkpt lat="44.466606" lon="-110.829344"><ele>2256.880</ele><time>2026-05-18T23:06:49Z</time></trkpt><trkpt lat="44.466642" lon="-110.82934"><ele>2257.614</ele><time>2026-05-18T23:06:54Z</time></trkpt><trkpt lat="44.466681" lon="-110.829334"><ele>2257.852</ele><time>2026-05-18T23:06:58Z</time></trkpt><trkpt lat="44.466725" lon="-110.829312"><ele>2258.227</ele><time>2026-05-18T23:07:02Z</time></trkpt><trkpt lat="44.466779" lon="-110.829294"><ele>2258.885</ele><time>2026-05-18T23:07:09Z</time></trkpt><trkpt lat="44.466801" lon="-110.829291"><ele>2259.015</ele><time>2026-05-18T23:07:12Z</time></trkpt><trkpt lat="44.466865" lon="-110.829296"><ele>2260.056</ele><time>2026-05-18T23:07:18Z</time></trkpt><trkpt lat="44.466938" lon="-110.829337"><ele>2261.048</ele><time>2026-05-18T23:07:26Z</time></trkpt><trkpt lat="44.466948" lon="-110.829334"><ele>2261.058</ele><time>2026-05-18T23:07:27Z</time></trkpt><trkpt lat="44.466991" lon="-110.829319"><ele>2261.897</ele><time>2026-05-18T23:07:32Z</time></trkpt><trkpt lat="44.46701" lon="-110.829306"><ele>2262.023</ele><time>2026-05-18T23:07:34Z</time></trkpt><trkpt lat="44.467061" lon="-110.829291"><ele>2262.825</ele><time>2026-05-18T23:07:43Z</time></trkpt><trkpt lat="44.467077" lon="-110.829304"><ele>2263.209</ele><time>2026-05-18T23:07:46Z</time></trkpt><trkpt lat="44.467122" lon="-110.829295"><ele>2263.651</ele><time>2026-05-18T23:07:53Z</time></trkpt><trkpt lat="44.467153" lon="-110.829278"><ele>2264.265</ele><time>2026-05-18T23:07:56Z</time></trkpt><trkpt lat="44.467195" lon="-110.829259"><ele>2265.023</ele><time>2026-05-18T23:08:00Z</time></trkpt><trkpt lat="44.467204" lon="-110.829252"><ele>2265.218</ele><time>2026-05-18T23:08:01Z</time></trkpt><trkpt lat="44.467265" lon="-110.829188"><ele>2266.226</ele><time>2026-05-18T23:08:11Z</time></trkpt><trkpt lat="44.467309" lon="-110.829169"><ele>2267.426</ele><time>2026-05-18T23:08:16Z</time></trkpt><trkpt lat="44.46734" lon="-110.829156"><ele>2267.437</ele><time>2026-05-18T23:08:20Z</time></trkpt><trkpt lat="44.467411" lon="-110.829147"><ele>2268.859</ele><time>2026-05-18T23:08:30Z</time></trkpt><trkpt lat="44.467424" lon="-110.829148"><ele>2269.269</ele><time>2026-05-18T23:08:31Z</time></trkpt><trkpt lat="44.467472" lon="-110.829175"><ele>2269.847</ele><time>2026-05-18T23:08:39Z</time></trkpt><trkpt lat="44.46748" lon="-110.829177"><ele>2270.029</ele><time>2026-05-18T23:08:40Z</time></trkpt><trkpt lat="44.467539" lon="-110.829207"><ele>2270.821</ele><time>2026-05-18T23:08:49Z</time></trkpt><trkpt lat="44.467546" lon="-110.829213"><ele>2271.009</ele><time>2026-05-18T23:08:50Z</time></trkpt><trkpt lat="44.46759" lon="-110.829235"><ele>2271.246</ele><time>2026-05-18T23:08:55Z</time></trkpt><trkpt lat="44.467618" lon="-110.829238"><ele>2272.030</ele><time>2026-05-18T23:08:59Z</time></trkpt><trkpt lat="44.467625" lon="-110.82924"><ele>2272.238</ele><time>2026-05-18T23:09:00Z</time></trkpt><trkpt lat="44.46771" lon="-110.829253"><ele>2273.223</ele><time>2026-05-18T23:09:09Z</time></trkpt><trkpt lat="44.467739" lon="-110.829263"><ele>2273.851</ele><time>2026-05-18T23:09:12Z</time></trkpt><trkpt lat="44.467751" lon="-110.829263"><ele>2274.061</ele><time>2026-05-18T23:09:14Z</time></trkpt><trkpt lat="44.467758" lon="-110.829264"><ele>2274.022</ele><time>2026-05-18T23:09:15Z</time></trkpt><trkpt lat="44.467764" lon="-110.829264"><ele>2274.294</ele><time>2026-05-18T23:09:17Z</time></trkpt><trkpt lat="44.467803" lon="-110.829269"><ele>2274.464</ele><time>2026-05-18T23:09:22Z</time></trkpt><trkpt lat="44.467892" lon="-110.829296"><ele>2275.255</ele><time>2026-05-18T23:09:33Z</time></trkpt><trkpt lat="44.467944" lon="-110.829314"><ele>2276.407</ele><time>2026-05-18T23:09:39Z</time></trkpt><trkpt lat="44.468036" lon="-110.829341"><ele>2277.217</ele><time>2026-05-18T23:09:50Z</time></trkpt><trkpt lat="44.468052" lon="-110.829348"><ele>2277.409</ele><time>2026-05-18T23:09:52Z</time></trkpt><trkpt lat="44.468094" lon="-110.829351"><ele>2277.897</ele><time>2026-05-18T23:09:57Z</time></trkpt><trkpt lat="44.468154" lon="-110.829347"><ele>2278.471</ele><time>2026-05-18T23:10:04Z</time></trkpt><trkpt lat="44.468183" lon="-110.829356"><ele>2278.679</ele><time>2026-05-18T23:10:07Z</time></trkpt><trkpt lat="44.46827" lon="-110.829375"><ele>2278.844</ele><time>2026-05-18T23:10:16Z</time></trkpt><trkpt lat="44.468305" lon="-110.829358"><ele>2279.482</ele><time>2026-05-18T23:10:20Z</time></trkpt><trkpt lat="44.468337" lon="-110.82935"><ele>2280.272</ele><time>2026-05-18T23:10:23Z</time></trkpt><trkpt lat="44.468422" lon="-110.829365"><ele>2279.863</ele><time>2026-05-18T23:10:32Z</time></trkpt><trkpt lat="44.468451" lon="-110.82935"><ele>2280.245</ele><time>2026-05-18T23:10:40Z</time></trkpt><trkpt lat="44.468448" lon="-110.82935"><ele>2280.045</ele><time>2026-05-18T23:10:51Z</time></trkpt><trkpt lat="44.468468" lon="-110.829294"><ele>2280.068</ele><time>2026-05-18T23:10:56Z</time></trkpt><trkpt lat="44.468488" lon="-110.829268"><ele>2280.242</ele><time>2026-05-18T23:10:59Z</time></trkpt><trkpt lat="44.468496" lon="-110.829254"><ele>2280.426</ele><time>2026-05-18T23:11:01Z</time></trkpt><trkpt lat="44.468498" lon="-110.829245"><ele>2280.809</ele><time>2026-05-18T23:11:07Z</time></trkpt><trkpt lat="44.468498" lon="-110.829245"><ele>2280.618</ele><time>2026-05-18T23:11:10Z</time></trkpt><trkpt lat="44.468498" lon="-110.829245"><ele>2279.412</ele><time>2026-05-18T23:11:15Z</time></trkpt><trkpt lat="44.468498" lon="-110.829245"><ele>2278.830</ele><time>2026-05-18T23:11:17Z</time></trkpt><trkpt lat="44.468498" lon="-110.829245"><ele>2280.065</ele><time>2026-05-18T23:11:26Z</time></trkpt><trkpt lat="44.468498" lon="-110.829245"><ele>2279.863</ele><time>2026-05-18T23:11:30Z</time></trkpt><trkpt lat="44.468498" lon="-110.829245"><ele>2280.683</ele><time>2026-05-18T23:11:34Z</time></trkpt><trkpt lat="44.468475" lon="-110.829255"><ele>2281.414</ele><time>2026-05-18T23:11:38Z</time></trkpt><trkpt lat="44.468463" lon="-110.82927"><ele>2281.486</ele><time>2026-05-18T23:11:44Z</time></trkpt><trkpt lat="44.468459" lon="-110.829279"><ele>2281.646</ele><time>2026-05-18T23:11:45Z</time></trkpt><trkpt lat="44.468455" lon="-110.82931"><ele>2280.623</ele><time>2026-05-18T23:11:52Z</time></trkpt><trkpt lat="44.468455" lon="-110.829323"><ele>2280.483</ele><time>2026-05-18T23:12:05Z</time></trkpt><trkpt lat="44.468457" lon="-110.829323"><ele>2280.011</ele><time>2026-05-18T23:12:07Z</time></trkpt><trkpt lat="44.468456" lon="-110.829328"><ele>2280.009</ele><time>2026-05-18T23:12:08Z</time></trkpt><trkpt lat="44.468456" lon="-110.829329"><ele>2280.294</ele><time>2026-05-18T23:12:09Z</time></trkpt><trkpt lat="44.468452" lon="-110.829323"><ele>2280.438</ele><time>2026-05-18T23:12:16Z</time></trkpt><trkpt lat="44.468457" lon="-110.829308"><ele>2280.886</ele><time>2026-05-18T23:12:24Z</time></trkpt><trkpt lat="44.468453" lon="-110.829316"><ele>2280.881</ele><time>2026-05-18T23:12:32Z</time></trkpt><trkpt lat="44.468457" lon="-110.829308"><ele>2280.899</ele><time>2026-05-18T23:12:41Z</time></trkpt><trkpt lat="44.468457" lon="-110.829308"><ele>2280.679</ele><time>2026-05-18T23:12:55Z</time></trkpt><trkpt lat="44.468457" lon="-110.829308"><ele>2279.260</ele><time>2026-05-18T23:13:07Z</time></trkpt><trkpt lat="44.468457" lon="-110.829308"><ele>2278.432</ele><time>2026-05-18T23:13:10Z</time></trkpt><trkpt lat="44.468457" lon="-110.829308"><ele>2278.252</ele><time>2026-05-18T23:13:12Z</time></trkpt><trkpt lat="44.468457" lon="-110.829308"><ele>2279.821</ele><time>2026-05-18T23:13:15Z</time></trkpt><trkpt lat="44.468457" lon="-110.829308"><ele>2280.441</ele><time>2026-05-18T23:13:16Z</time></trkpt><trkpt lat="44.468457" lon="-110.829308"><ele>2280.405</ele><time>2026-05-18T23:13:32Z</time></trkpt><trkpt lat="44.468454" lon="-110.829301"><ele>2280.009</ele><time>2026-05-18T23:13:40Z</time></trkpt><trkpt lat="44.468457" lon="-110.829304"><ele>2279.894</ele><time>2026-05-18T23:13:49Z</time></trkpt><trkpt lat="44.468464" lon="-110.829301"><ele>2279.838</ele><time>2026-05-18T23:13:53Z</time></trkpt><trkpt lat="44.468466" lon="-110.829301"><ele>2280.026</ele><time>2026-05-18T23:13:57Z</time></trkpt><trkpt lat="44.468455" lon="-110.829299"><ele>2280.651</ele><time>2026-05-18T23:14:01Z</time></trkpt><trkpt lat="44.468456" lon="-110.829308"><ele>2280.689</ele><time>2026-05-18T23:14:04Z</time></trkpt><trkpt lat="44.468457" lon="-110.829307"><ele>2280.899</ele><time>2026-05-18T23:14:05Z</time></trkpt><trkpt lat="44.468455" lon="-110.829311"><ele>2281.050</ele><time>2026-05-18T23:14:10Z</time></trkpt><trkpt lat="44.468452" lon="-110.829303"><ele>2281.072</ele><time>2026-05-18T23:14:14Z</time></trkpt><trkpt lat="44.468451" lon="-110.829318"><ele>2281.062</ele><time>2026-05-18T23:14:20Z</time></trkpt><trkpt lat="44.468452" lon="-110.829318"><ele>2281.689</ele><time>2026-05-18T23:14:29Z</time></trkpt><trkpt lat="44.468452" lon="-110.829318"><ele>2281.606</ele><time>2026-05-18T23:14:30Z</time></trkpt><trkpt lat="44.468451" lon="-110.829282"><ele>2282.026</ele><time>2026-05-18T23:14:36Z</time></trkpt><trkpt lat="44.468449" lon="-110.829276"><ele>2281.609</ele><time>2026-05-18T23:14:39Z</time></trkpt><trkpt lat="44.468452" lon="-110.829277"><ele>2281.210</ele><time>2026-05-18T23:14:43Z</time></trkpt><trkpt lat="44.468451" lon="-110.829277"><ele>2280.634</ele><time>2026-05-18T23:14:45Z</time></trkpt><trkpt lat="44.468451" lon="-110.829277"><ele>2280.432</ele><time>2026-05-18T23:14:52Z</time></trkpt><trkpt lat="44.468459" lon="-110.829302"><ele>2280.017</ele><time>2026-05-18T23:14:56Z</time></trkpt><trkpt lat="44.468456" lon="-110.829319"><ele>2280.695</ele><time>2026-05-18T23:15:04Z</time></trkpt><trkpt lat="44.468454" lon="-110.829311"><ele>2280.455</ele><time>2026-05-18T23:15:13Z</time></trkpt><trkpt lat="44.468459" lon="-110.829301"><ele>2280.286</ele><time>2026-05-18T23:15:22Z</time></trkpt><trkpt lat="44.468458" lon="-110.829303"><ele>2280.438</ele><time>2026-05-18T23:15:26Z</time></trkpt><trkpt lat="44.468457" lon="-110.829302"><ele>2280.618</ele><time>2026-05-18T23:15:31Z</time></trkpt><trkpt lat="44.468457" lon="-110.829302"><ele>2280.299</ele><time>2026-05-18T23:15:45Z</time></trkpt><trkpt lat="44.46847" lon="-110.829304"><ele>2280.407</ele><time>2026-05-18T23:15:48Z</time></trkpt><trkpt lat="44.468464" lon="-110.829305"><ele>2281.027</ele><time>2026-05-18T23:15:56Z</time></trkpt><trkpt lat="44.468461" lon="-110.829305"><ele>2281.609</ele><time>2026-05-18T23:15:58Z</time></trkpt><trkpt lat="44.468454" lon="-110.829314"><ele>2280.661</ele><time>2026-05-18T23:16:04Z</time></trkpt><trkpt lat="44.46845" lon="-110.82931"><ele>2280.235</ele><time>2026-05-18T23:16:06Z</time></trkpt><trkpt lat="44.468452" lon="-110.829302"><ele>2281.283</ele><time>2026-05-18T23:16:16Z</time></trkpt><trkpt lat="44.468461" lon="-110.829299"><ele>2281.448</ele><time>2026-05-18T23:16:21Z</time></trkpt><trkpt lat="44.468457" lon="-110.829302"><ele>2281.246</ele><time>2026-05-18T23:16:25Z</time></trkpt><trkpt lat="44.468457" lon="-110.829313"><ele>2280.046</ele><time>2026-05-18T23:16:33Z</time></trkpt><trkpt lat="44.468454" lon="-110.829291"><ele>2282.037</ele><time>2026-05-18T23:16:37Z</time></trkpt><trkpt lat="44.468435" lon="-110.829272"><ele>2282.049</ele><time>2026-05-18T23:16:40Z</time></trkpt><trkpt lat="44.468433" lon="-110.829273"><ele>2281.679</ele><time>2026-05-18T23:16:43Z</time></trkpt><trkpt lat="44.468435" lon="-110.829279"><ele>2281.483</ele><time>2026-05-18T23:16:47Z</time></trkpt><trkpt lat="44.468406" lon="-110.82926"><ele>2282.225</ele><time>2026-05-18T23:16:53Z</time></trkpt><trkpt lat="44.468384" lon="-110.829249"><ele>2281.417</ele><time>2026-05-18T23:17:00Z</time></trkpt><trkpt lat="44.468359" lon="-110.829221"><ele>2281.809</ele><time>2026-05-18T23:17:06Z</time></trkpt><trkpt lat="44.46828" lon="-110.82915"><ele>2281.060</ele><time>2026-05-18T23:17:14Z</time></trkpt><trkpt lat="44.468188" lon="-110.829115"><ele>2281.034</ele><time>2026-05-18T23:17:22Z</time></trkpt><trkpt lat="44.468151" lon="-110.829124"><ele>2280.812</ele><time>2026-05-18T23:17:26Z</time></trkpt><trkpt lat="44.468099" lon="-110.829105"><ele>2280.067</ele><time>2026-05-18T23:17:31Z</time></trkpt><trkpt lat="44.46809" lon="-110.829098"><ele>2279.845</ele><time>2026-05-18T23:17:32Z</time></trkpt><trkpt lat="44.468014" lon="-110.828989"><ele>2278.645</ele><time>2026-05-18T23:17:42Z</time></trkpt><trkpt lat="44.467952" lon="-110.828893"><ele>2278.076</ele><time>2026-05-18T23:17:51Z</time></trkpt><trkpt lat="44.467926" lon="-110.828826"><ele>2278.098</ele><time>2026-05-18T23:18:01Z</time></trkpt><trkpt lat="44.467907" lon="-110.828805"><ele>2277.658</ele><time>2026-05-18T23:18:07Z</time></trkpt><trkpt lat="44.467891" lon="-110.828781"><ele>2277.481</ele><time>2026-05-18T23:18:11Z</time></trkpt><trkpt lat="44.467828" lon="-110.828688"><ele>2278.061</ele><time>2026-05-18T23:18:20Z</time></trkpt><trkpt lat="44.467791" lon="-110.828632"><ele>2278.617</ele><time>2026-05-18T23:18:26Z</time></trkpt><trkpt lat="44.467768" lon="-110.828592"><ele>2279.209</ele><time>2026-05-18T23:18:30Z</time></trkpt><trkpt lat="44.467733" lon="-110.828558"><ele>2279.620</ele><time>2026-05-18T23:18:34Z</time></trkpt><trkpt lat="44.467721" lon="-110.828552"><ele>2279.614</ele><time>2026-05-18T23:18:35Z</time></trkpt><trkpt lat="44.467701" lon="-110.828544"><ele>2279.632</ele><time>2026-05-18T23:18:37Z</time></trkpt><trkpt lat="44.467634" lon="-110.828493"><ele>2280.057</ele><time>2026-05-18T23:18:43Z</time></trkpt><trkpt lat="44.467622" lon="-110.828486"><ele>2280.055</ele><time>2026-05-18T23:18:44Z</time></trkpt><trkpt lat="44.467544" lon="-110.828375"><ele>2279.875</ele><time>2026-05-18T23:18:54Z</time></trkpt><trkpt lat="44.467466" lon="-110.828256"><ele>2279.266</ele><time>2026-05-18T23:19:04Z</time></trkpt><trkpt lat="44.46739" lon="-110.828185"><ele>2278.628</ele><time>2026-05-18T23:19:11Z</time></trkpt><trkpt lat="44.467368" lon="-110.828168"><ele>2278.688</ele><time>2026-05-18T23:19:13Z</time></trkpt><trkpt lat="44.467301" lon="-110.82813"><ele>2278.217</ele><time>2026-05-18T23:19:21Z</time></trkpt><trkpt lat="44.467234" lon="-110.828135"><ele>2277.687</ele><time>2026-05-18T23:19:27Z</time></trkpt><trkpt lat="44.467221" lon="-110.828136"><ele>2277.415</ele><time>2026-05-18T23:19:28Z</time></trkpt><trkpt lat="44.467179" lon="-110.828153"><ele>2276.609</ele><time>2026-05-18T23:19:32Z</time></trkpt><trkpt lat="44.467126" lon="-110.828161"><ele>2276.083</ele><time>2026-05-18T23:19:37Z</time></trkpt><trkpt lat="44.467099" lon="-110.828162"><ele>2275.457</ele><time>2026-05-18T23:19:39Z</time></trkpt><trkpt lat="44.467022" lon="-110.828165"><ele>2274.445</ele><time>2026-05-18T23:19:46Z</time></trkpt><trkpt lat="44.466894" lon="-110.828182"><ele>2273.290</ele><time>2026-05-18T23:19:56Z</time></trkpt><trkpt lat="44.466804" lon="-110.828131"><ele>2272.888</ele><time>2026-05-18T23:20:04Z</time></trkpt><trkpt lat="44.466697" lon="-110.828082"><ele>2272.618</ele><time>2026-05-18T23:20:13Z</time></trkpt><trkpt lat="44.466583" lon="-110.828005"><ele>2272.439</ele><time>2026-05-18T23:20:22Z</time></trkpt><trkpt lat="44.466527" lon="-110.827899"><ele>2272.641</ele><time>2026-05-18T23:20:31Z</time></trkpt><trkpt lat="44.466447" lon="-110.827771"><ele>2273.071</ele><time>2026-05-18T23:20:40Z</time></trkpt><trkpt lat="44.466371" lon="-110.827653"><ele>2274.056</ele><time>2026-05-18T23:20:50Z</time></trkpt><trkpt lat="44.466332" lon="-110.827596"><ele>2274.059</ele><time>2026-05-18T23:20:54Z</time></trkpt><trkpt lat="44.466296" lon="-110.827546"><ele>2273.814</ele><time>2026-05-18T23:20:59Z</time></trkpt><trkpt lat="44.466205" lon="-110.827489"><ele>2274.209</ele><time>2026-05-18T23:21:09Z</time></trkpt><trkpt lat="44.466128" lon="-110.82745"><ele>2274.417</ele><time>2026-05-18T23:21:16Z</time></trkpt><trkpt lat="44.466089" lon="-110.827424"><ele>2274.441</ele><time>2026-05-18T23:21:20Z</time></trkpt><trkpt lat="44.466024" lon="-110.827335"><ele>2274.879</ele><time>2026-05-18T23:21:29Z</time></trkpt><trkpt lat="44.465935" lon="-110.827224"><ele>2275.214</ele><time>2026-05-18T23:21:39Z</time></trkpt><trkpt lat="44.465823" lon="-110.827189"><ele>2274.482</ele><time>2026-05-18T23:21:48Z</time></trkpt><trkpt lat="44.465787" lon="-110.827162"><ele>2274.232</ele><time>2026-05-18T23:21:53Z</time></trkpt><trkpt lat="44.465755" lon="-110.827142"><ele>2274.023</ele><time>2026-05-18T23:21:56Z</time></trkpt><trkpt lat="44.465659" lon="-110.827057"><ele>2274.045</ele><time>2026-05-18T23:22:06Z</time></trkpt><trkpt lat="44.465614" lon="-110.826941"><ele>2274.655</ele><time>2026-05-18T23:22:15Z</time></trkpt><trkpt lat="44.465539" lon="-110.826802"><ele>2275.252</ele><time>2026-05-18T23:22:25Z</time></trkpt><trkpt lat="44.465501" lon="-110.826747"><ele>2275.453</ele><time>2026-05-18T23:22:30Z</time></trkpt><trkpt lat="44.465477" lon="-110.826674"><ele>2275.408</ele><time>2026-05-18T23:22:35Z</time></trkpt><trkpt lat="44.465462" lon="-110.826608"><ele>2276.209</ele><time>2026-05-18T23:22:42Z</time></trkpt><trkpt lat="44.46546" lon="-110.826584"><ele>2276.437</ele><time>2026-05-18T23:22:44Z</time></trkpt><trkpt lat="44.465455" lon="-110.826555"><ele>2276.871</ele><time>2026-05-18T23:22:46Z</time></trkpt><trkpt lat="44.465447" lon="-110.826511"><ele>2277.699</ele><time>2026-05-18T23:22:50Z</time></trkpt><trkpt lat="44.465416" lon="-110.826421"><ele>2278.634</ele><time>2026-05-18T23:22:58Z</time></trkpt><trkpt lat="44.465332" lon="-110.826345"><ele>2279.622</ele><time>2026-05-18T23:23:07Z</time></trkpt><trkpt lat="44.465329" lon="-110.826336"><ele>2279.852</ele><time>2026-05-18T23:23:08Z</time></trkpt><trkpt lat="44.465312" lon="-110.8263"><ele>2280.883</ele><time>2026-05-18T23:23:13Z</time></trkpt><trkpt lat="44.465307" lon="-110.82624"><ele>2281.835</ele><time>2026-05-18T23:23:19Z</time></trkpt><trkpt lat="44.465302" lon="-110.826201"><ele>2282.635</ele><time>2026-05-18T23:23:23Z</time></trkpt><trkpt lat="44.465293" lon="-110.826186"><ele>2282.823</ele><time>2026-05-18T23:23:25Z</time></trkpt><trkpt lat="44.465289" lon="-110.826179"><ele>2283.083</ele><time>2026-05-18T23:23:26Z</time></trkpt><trkpt lat="44.465285" lon="-110.826153"><ele>2283.611</ele><time>2026-05-18T23:23:29Z</time></trkpt><trkpt lat="44.465284" lon="-110.826135"><ele>2284.009</ele><time>2026-05-18T23:23:31Z</time></trkpt><trkpt lat="44.465289" lon="-110.826119"><ele>2284.254</ele><time>2026-05-18T23:23:33Z</time></trkpt><trkpt lat="44.465285" lon="-110.826059"><ele>2284.878</ele><time>2026-05-18T23:23:38Z</time></trkpt><trkpt lat="44.465293" lon="-110.82603"><ele>2285.096</ele><time>2026-05-18T23:23:41Z</time></trkpt><trkpt lat="44.465298" lon="-110.82594"><ele>2285.251</ele><time>2026-05-18T23:23:48Z</time></trkpt><trkpt lat="44.465265" lon="-110.825877"><ele>2285.639</ele><time>2026-05-18T23:23:54Z</time></trkpt><trkpt lat="44.465249" lon="-110.825869"><ele>2285.869</ele><time>2026-05-18T23:23:56Z</time></trkpt><trkpt lat="44.465235" lon="-110.825865"><ele>2286.070</ele><time>2026-05-18T23:23:57Z</time></trkpt><trkpt lat="44.465153" lon="-110.825816"><ele>2286.832</ele><time>2026-05-18T23:24:04Z</time></trkpt><trkpt lat="44.465129" lon="-110.825782"><ele>2287.212</ele><time>2026-05-18T23:24:08Z</time></trkpt><trkpt lat="44.465107" lon="-110.825749"><ele>2287.432</ele><time>2026-05-18T23:24:11Z</time></trkpt><trkpt lat="44.465091" lon="-110.825725"><ele>2287.692</ele><time>2026-05-18T23:24:14Z</time></trkpt><trkpt lat="44.46508" lon="-110.825698"><ele>2288.011</ele><time>2026-05-18T23:24:17Z</time></trkpt><trkpt lat="44.465069" lon="-110.825674"><ele>2288.209</ele><time>2026-05-18T23:24:19Z</time></trkpt><trkpt lat="44.465063" lon="-110.82566"><ele>2288.235</ele><time>2026-05-18T23:24:20Z</time></trkpt><trkpt lat="44.465013" lon="-110.825543"><ele>2288.879</ele><time>2026-05-18T23:24:30Z</time></trkpt><trkpt lat="44.464984" lon="-110.82551"><ele>2289.277</ele><time>2026-05-18T23:24:34Z</time></trkpt><trkpt lat="44.464957" lon="-110.82547"><ele>2289.632</ele><time>2026-05-18T23:24:38Z</time></trkpt><trkpt lat="44.464935" lon="-110.825406"><ele>2290.470</ele><time>2026-05-18T23:24:45Z</time></trkpt><trkpt lat="44.464929" lon="-110.825379"><ele>2290.840</ele><time>2026-05-18T23:24:47Z</time></trkpt><trkpt lat="44.464893" lon="-110.825337"><ele>2291.431</ele><time>2026-05-18T23:24:52Z</time></trkpt><trkpt lat="44.464869" lon="-110.825305"><ele>2291.883</ele><time>2026-05-18T23:24:56Z</time></trkpt><trkpt lat="44.46482" lon="-110.825222"><ele>2292.023</ele><time>2026-05-18T23:25:05Z</time></trkpt><trkpt lat="44.464786" lon="-110.825163"><ele>2292.426</ele><time>2026-05-18T23:25:10Z</time></trkpt><trkpt lat="44.464766" lon="-110.825124"><ele>2292.847</ele><time>2026-05-18T23:25:14Z</time></trkpt><trkpt lat="44.464738" lon="-110.825046"><ele>2293.411</ele><time>2026-05-18T23:25:20Z</time></trkpt><trkpt lat="44.464719" lon="-110.82501"><ele>2293.809</ele><time>2026-05-18T23:25:23Z</time></trkpt><trkpt lat="44.464696" lon="-110.824959"><ele>2294.694</ele><time>2026-05-18T23:25:30Z</time></trkpt><trkpt lat="44.464692" lon="-110.824951"><ele>2294.838</ele><time>2026-05-18T23:25:31Z</time></trkpt><trkpt lat="44.464679" lon="-110.824884"><ele>2295.656</ele><time>2026-05-18T23:25:39Z</time></trkpt><trkpt lat="44.464676" lon="-110.824872"><ele>2295.881</ele><time>2026-05-18T23:25:40Z</time></trkpt><trkpt lat="44.464656" lon="-110.824833"><ele>2296.679</ele><time>2026-05-18T23:25:46Z</time></trkpt><trkpt lat="44.46465" lon="-110.824824"><ele>2296.899</ele><time>2026-05-18T23:25:47Z</time></trkpt><trkpt lat="44.464641" lon="-110.824812"><ele>2296.860</ele><time>2026-05-18T23:25:49Z</time></trkpt><trkpt lat="44.464608" lon="-110.824756"><ele>2297.682</ele><time>2026-05-18T23:25:58Z</time></trkpt><trkpt lat="44.464602" lon="-110.824745"><ele>2297.842</ele><time>2026-05-18T23:25:59Z</time></trkpt><trkpt lat="44.464587" lon="-110.824722"><ele>2298.223</ele><time>2026-05-18T23:26:01Z</time></trkpt><trkpt lat="44.464561" lon="-110.824681"><ele>2299.083</ele><time>2026-05-18T23:26:06Z</time></trkpt><trkpt lat="44.464542" lon="-110.824642"><ele>2299.211</ele><time>2026-05-18T23:26:12Z</time></trkpt><trkpt lat="44.464504" lon="-110.824536"><ele>2300.009</ele><time>2026-05-18T23:26:21Z</time></trkpt><trkpt lat="44.464499" lon="-110.824524"><ele>2300.024</ele><time>2026-05-18T23:26:22Z</time></trkpt><trkpt lat="44.464467" lon="-110.824443"><ele>2301.098</ele><time>2026-05-18T23:26:32Z</time></trkpt><trkpt lat="44.464454" lon="-110.824427"><ele>2301.026</ele><time>2026-05-18T23:26:34Z</time></trkpt><trkpt lat="44.464389" lon="-110.824307"><ele>2300.681</ele><time>2026-05-18T23:26:44Z</time></trkpt><trkpt lat="44.464372" lon="-110.824263"><ele>2301.049</ele><time>2026-05-18T23:26:48Z</time></trkpt><trkpt lat="44.464358" lon="-110.824217"><ele>2301.459</ele><time>2026-05-18T23:26:53Z</time></trkpt><trkpt lat="44.464342" lon="-110.824179"><ele>2302.090</ele><time>2026-05-18T23:26:58Z</time></trkpt><trkpt lat="44.464325" lon="-110.824143"><ele>2302.632</ele><time>2026-05-18T23:27:01Z</time></trkpt><trkpt lat="44.464315" lon="-110.824111"><ele>2303.272</ele><time>2026-05-18T23:27:04Z</time></trkpt><trkpt lat="44.464297" lon="-110.824066"><ele>2304.213</ele><time>2026-05-18T23:27:11Z</time></trkpt><trkpt lat="44.464293" lon="-110.824058"><ele>2304.443</ele><time>2026-05-18T23:27:12Z</time></trkpt><trkpt lat="44.464289" lon="-110.824021"><ele>2305.207</ele><time>2026-05-18T23:27:16Z</time></trkpt><trkpt lat="44.464281" lon="-110.823996"><ele>2305.209</ele><time>2026-05-18T23:27:18Z</time></trkpt><trkpt lat="44.464274" lon="-110.823973"><ele>2305.473</ele><time>2026-05-18T23:27:20Z</time></trkpt><trkpt lat="44.464245" lon="-110.823896"><ele>2306.487</ele><time>2026-05-18T23:27:30Z</time></trkpt><trkpt lat="44.464231" lon="-110.823853"><ele>2307.055</ele><time>2026-05-18T23:27:35Z</time></trkpt><trkpt lat="44.464225" lon="-110.823835"><ele>2307.250</ele><time>2026-05-18T23:27:37Z</time></trkpt><trkpt lat="44.464222" lon="-110.823812"><ele>2307.448</ele><time>2026-05-18T23:27:40Z</time></trkpt><trkpt lat="44.464221" lon="-110.823804"><ele>2307.498</ele><time>2026-05-18T23:27:41Z</time></trkpt><trkpt lat="44.464215" lon="-110.823766"><ele>2308.029</ele><time>2026-05-18T23:27:45Z</time></trkpt><trkpt lat="44.464203" lon="-110.823711"><ele>2308.631</ele><time>2026-05-18T23:27:51Z</time></trkpt><trkpt lat="44.464192" lon="-110.823669"><ele>2309.411</ele><time>2026-05-18T23:27:55Z</time></trkpt><trkpt lat="44.464193" lon="-110.823641"><ele>2309.687</ele><time>2026-05-18T23:27:58Z</time></trkpt><trkpt lat="44.464204" lon="-110.823621"><ele>2310.042</ele><time>2026-05-18T23:28:03Z</time></trkpt><trkpt lat="44.464229" lon="-110.823607"><ele>2310.826</ele><time>2026-05-18T23:28:08Z</time></trkpt><trkpt lat="44.464238" lon="-110.823601"><ele>2311.209</ele><time>2026-05-18T23:28:10Z</time></trkpt><trkpt lat="44.464246" lon="-110.823604"><ele>2311.610</ele><time>2026-05-18T23:28:12Z</time></trkpt><trkpt lat="44.464244" lon="-110.823615"><ele>2312.094</ele><time>2026-05-18T23:28:14Z</time></trkpt><trkpt lat="44.464252" lon="-110.823646"><ele>2312.632</ele><time>2026-05-18T23:28:18Z</time></trkpt><trkpt lat="44.464268" lon="-110.823685"><ele>2313.047</ele><time>2026-05-18T23:28:22Z</time></trkpt><trkpt lat="44.464275" lon="-110.823692"><ele>2313.285</ele><time>2026-05-18T23:28:23Z</time></trkpt><trkpt lat="44.464303" lon="-110.823734"><ele>2313.855</ele><time>2026-05-18T23:28:31Z</time></trkpt><trkpt lat="44.46434" lon="-110.823755"><ele>2314.016</ele><time>2026-05-18T23:28:38Z</time></trkpt><trkpt lat="44.464382" lon="-110.823804"><ele>2315.218</ele><time>2026-05-18T23:28:47Z</time></trkpt><trkpt lat="44.464392" lon="-110.823821"><ele>2315.428</ele><time>2026-05-18T23:28:50Z</time></trkpt><trkpt lat="44.464403" lon="-110.823834"><ele>2315.458</ele><time>2026-05-18T23:28:52Z</time></trkpt><trkpt lat="44.464407" lon="-110.823838"><ele>2315.652</ele><time>2026-05-18T23:28:53Z</time></trkpt><trkpt lat="44.464424" lon="-110.823868"><ele>2316.217</ele><time>2026-05-18T23:28:57Z</time></trkpt><trkpt lat="44.464468" lon="-110.823956"><ele>2317.009</ele><time>2026-05-18T23:29:07Z</time></trkpt><trkpt lat="44.464509" lon="-110.824065"><ele>2317.227</ele><time>2026-05-18T23:29:15Z</time></trkpt><trkpt lat="44.464515" lon="-110.824078"><ele>2317.261</ele><time>2026-05-18T23:29:16Z</time></trkpt><trkpt lat="44.464568" lon="-110.824195"><ele>2316.019</ele><time>2026-05-18T23:29:24Z</time></trkpt><trkpt lat="44.464575" lon="-110.824208"><ele>2315.844</ele><time>2026-05-18T23:29:25Z</time></trkpt><trkpt lat="44.464606" lon="-110.824307"><ele>2315.692</ele><time>2026-05-18T23:29:33Z</time></trkpt><trkpt lat="44.464651" lon="-110.82441"><ele>2316.052</ele><time>2026-05-18T23:29:41Z</time></trkpt><trkpt lat="44.464691" lon="-110.824443"><ele>2316.623</ele><time>2026-05-18T23:29:48Z</time></trkpt><trkpt lat="44.464679" lon="-110.824449"><ele>2316.875</ele><time>2026-05-18T23:29:55Z</time></trkpt><trkpt lat="44.464675" lon="-110.82445"><ele>2316.695</ele><time>2026-05-18T23:30:01Z</time></trkpt><trkpt lat="44.464674" lon="-110.824453"><ele>2316.851</ele><time>2026-05-18T23:30:02Z</time></trkpt><trkpt lat="44.464673" lon="-110.824456"><ele>2316.401</ele><time>2026-05-18T23:30:12Z</time></trkpt><trkpt lat="44.46468" lon="-110.82445"><ele>2316.211</ele><time>2026-05-18T23:30:20Z</time></trkpt><trkpt lat="44.464672" lon="-110.824454"><ele>2315.609</ele><time>2026-05-18T23:30:33Z</time></trkpt><trkpt lat="44.464673" lon="-110.824456"><ele>2315.877</ele><time>2026-05-18T23:30:45Z</time></trkpt><trkpt lat="44.464673" lon="-110.824456"><ele>2315.841</ele><time>2026-05-18T23:30:47Z</time></trkpt><trkpt lat="44.464668" lon="-110.824441"><ele>2316.069</ele><time>2026-05-18T23:30:50Z</time></trkpt><trkpt lat="44.464663" lon="-110.824427"><ele>2315.624</ele><time>2026-05-18T23:30:57Z</time></trkpt><trkpt lat="44.46465" lon="-110.824432"><ele>2316.012</ele><time>2026-05-18T23:31:08Z</time></trkpt><trkpt lat="44.46465" lon="-110.824432"><ele>2315.832</ele><time>2026-05-18T23:31:11Z</time></trkpt><trkpt lat="44.464656" lon="-110.824437"><ele>2315.853</ele><time>2026-05-18T23:31:15Z</time></trkpt><trkpt lat="44.464664" lon="-110.824436"><ele>2315.825</ele><time>2026-05-18T23:31:16Z</time></trkpt><trkpt lat="44.464669" lon="-110.824436"><ele>2315.665</ele><time>2026-05-18T23:31:18Z</time></trkpt><trkpt lat="44.464666" lon="-110.824439"><ele>2315.663</ele><time>2026-05-18T23:31:19Z</time></trkpt><trkpt lat="44.464661" lon="-110.824449"><ele>2316.044</ele><time>2026-05-18T23:31:26Z</time></trkpt><trkpt lat="44.464668" lon="-110.824459"><ele>2315.618</ele><time>2026-05-18T23:31:38Z</time></trkpt><trkpt lat="44.464665" lon="-110.824458"><ele>2315.009</ele><time>2026-05-18T23:31:54Z</time></trkpt><trkpt lat="44.464665" lon="-110.824458"><ele>2315.028</ele><time>2026-05-18T23:31:55Z</time></trkpt><trkpt lat="44.464665" lon="-110.824458"><ele>2314.832</ele><time>2026-05-18T23:32:03Z</time></trkpt><trkpt lat="44.464665" lon="-110.824458"><ele>2315.030</ele><time>2026-05-18T23:32:08Z</time></trkpt><trkpt lat="44.464665" lon="-110.824458"><ele>2315.085</ele><time>2026-05-18T23:32:10Z</time></trkpt><trkpt lat="44.464665" lon="-110.824458"><ele>2315.093</ele><time>2026-05-18T23:32:14Z</time></trkpt><trkpt lat="44.464665" lon="-110.824458"><ele>2314.443</ele><time>2026-05-18T23:32:21Z</time></trkpt><trkpt lat="44.464665" lon="-110.824458"><ele>2314.034</ele><time>2026-05-18T23:32:27Z</time></trkpt><trkpt lat="44.464665" lon="-110.824458"><ele>2315.036</ele><time>2026-05-18T23:32:38Z</time></trkpt><trkpt lat="44.464665" lon="-110.824458"><ele>2314.076</ele><time>2026-05-18T23:32:52Z</time></trkpt><trkpt lat="44.464665" lon="-110.824458"><ele>2314.073</ele><time>2026-05-18T23:32:54Z</time></trkpt><trkpt lat="44.464664" lon="-110.82446"><ele>2313.685</ele><time>2026-05-18T23:33:00Z</time></trkpt><trkpt lat="44.464665" lon="-110.824455"><ele>2313.613</ele><time>2026-05-18T23:33:05Z</time></trkpt><trkpt lat="44.464666" lon="-110.824458"><ele>2314.209</ele><time>2026-05-18T23:33:09Z</time></trkpt><trkpt lat="44.464665" lon="-110.82446"><ele>2314.259</ele><time>2026-05-18T23:33:11Z</time></trkpt><trkpt lat="44.464662" lon="-110.824459"><ele>2313.813</ele><time>2026-05-18T23:33:13Z</time></trkpt><trkpt lat="44.46466" lon="-110.824471"><ele>2313.651</ele><time>2026-05-18T23:33:27Z</time></trkpt><trkpt lat="44.464733" lon="-110.824496"><ele>2313.256</ele><time>2026-05-18T23:33:36Z</time></trkpt><trkpt lat="44.464796" lon="-110.824544"><ele>2313.864</ele><time>2026-05-18T23:33:44Z</time></trkpt><trkpt lat="44.464818" lon="-110.82455"><ele>2313.824</ele><time>2026-05-18T23:33:46Z</time></trkpt><trkpt lat="44.464872" lon="-110.824572"><ele>2314.665</ele><time>2026-05-18T23:33:51Z</time></trkpt><trkpt lat="44.464939" lon="-110.824622"><ele>2314.867</ele><time>2026-05-18T23:33:59Z</time></trkpt><trkpt lat="44.464973" lon="-110.824662"><ele>2314.677</ele><time>2026-05-18T23:34:03Z</time></trkpt><trkpt lat="44.465008" lon="-110.824691"><ele>2314.416</ele><time>2026-05-18T23:34:06Z</time></trkpt><trkpt lat="44.465081" lon="-110.824729"><ele>2314.476</ele><time>2026-05-18T23:34:13Z</time></trkpt><trkpt lat="44.465141" lon="-110.82479"><ele>2313.013</ele><time>2026-05-18T23:34:21Z</time></trkpt><trkpt lat="44.465147" lon="-110.824798"><ele>2312.809</ele><time>2026-05-18T23:34:22Z</time></trkpt><trkpt lat="44.465165" lon="-110.82485"><ele>2311.693</ele><time>2026-05-18T23:34:27Z</time></trkpt><trkpt lat="44.465164" lon="-110.824862"><ele>2311.437</ele><time>2026-05-18T23:34:28Z</time></trkpt><trkpt lat="44.46515" lon="-110.824885"><ele>2311.235</ele><time>2026-05-18T23:34:30Z</time></trkpt><trkpt lat="44.465125" lon="-110.824901"><ele>2310.670</ele><time>2026-05-18T23:34:33Z</time></trkpt><trkpt lat="44.465107" lon="-110.824908"><ele>2310.298</ele><time>2026-05-18T23:34:35Z</time></trkpt><trkpt lat="44.465075" lon="-110.824896"><ele>2309.488</ele><time>2026-05-18T23:34:38Z</time></trkpt><trkpt lat="44.465048" lon="-110.824874"><ele>2309.029</ele><time>2026-05-18T23:34:41Z</time></trkpt><trkpt lat="44.465015" lon="-110.824855"><ele>2308.441</ele><time>2026-05-18T23:34:46Z</time></trkpt><trkpt lat="44.464973" lon="-110.824856"><ele>2307.811</ele><time>2026-05-18T23:34:50Z</time></trkpt><trkpt lat="44.464953" lon="-110.824854"><ele>2307.247</ele><time>2026-05-18T23:34:53Z</time></trkpt><trkpt lat="44.464908" lon="-110.824845"><ele>2306.029</ele><time>2026-05-18T23:34:58Z</time></trkpt><trkpt lat="44.464881" lon="-110.824834"><ele>2305.421</ele><time>2026-05-18T23:35:01Z</time></trkpt><trkpt lat="44.464874" lon="-110.824827"><ele>2305.209</ele><time>2026-05-18T23:35:02Z</time></trkpt><trkpt lat="44.464867" lon="-110.824824"><ele>2305.046</ele><time>2026-05-18T23:35:03Z</time></trkpt><trkpt lat="44.464829" lon="-110.824803"><ele>2304.430</ele><time>2026-05-18T23:35:07Z</time></trkpt><trkpt lat="44.464812" lon="-110.824797"><ele>2304.098</ele><time>2026-05-18T23:35:09Z</time></trkpt><trkpt lat="44.464743" lon="-110.824726"><ele>2302.883</ele><time>2026-05-18T23:35:17Z</time></trkpt><trkpt lat="44.464712" lon="-110.824698"><ele>2302.481</ele><time>2026-05-18T23:35:20Z</time></trkpt><trkpt lat="44.464675" lon="-110.824672"><ele>2301.881</ele><time>2026-05-18T23:35:23Z</time></trkpt><trkpt lat="44.464655" lon="-110.82466"><ele>2301.642</ele><time>2026-05-18T23:35:25Z</time></trkpt><trkpt lat="44.464593" lon="-110.824602"><ele>2301.094</ele><time>2026-05-18T23:35:32Z</time></trkpt><trkpt lat="44.464575" lon="-110.824586"><ele>2300.844</ele><time>2026-05-18T23:35:35Z</time></trkpt><trkpt lat="44.464562" lon="-110.824565"><ele>2300.015</ele><time>2026-05-18T23:35:38Z</time></trkpt><trkpt lat="44.464557" lon="-110.824541"><ele>2299.665</ele><time>2026-05-18T23:35:40Z</time></trkpt><trkpt lat="44.464524" lon="-110.824498"><ele>2298.211</ele><time>2026-05-18T23:35:45Z</time></trkpt><trkpt lat="44.464522" lon="-110.824496"><ele>2297.809</ele><time>2026-05-18T23:35:46Z</time></trkpt><trkpt lat="44.4645" lon="-110.824495"><ele>2297.283</ele><time>2026-05-18T23:35:51Z</time></trkpt><trkpt lat="44.464504" lon="-110.824526"><ele>2296.637</ele><time>2026-05-18T23:35:54Z</time></trkpt><trkpt lat="44.464512" lon="-110.824566"><ele>2296.285</ele><time>2026-05-18T23:35:56Z</time></trkpt><trkpt lat="44.464524" lon="-110.824625"><ele>2295.630</ele><time>2026-05-18T23:35:59Z</time></trkpt><trkpt lat="44.464568" lon="-110.824743"><ele>2295.218</ele><time>2026-05-18T23:36:06Z</time></trkpt><trkpt lat="44.464585" lon="-110.824769"><ele>2295.068</ele><time>2026-05-18T23:36:08Z</time></trkpt><trkpt lat="44.464621" lon="-110.824829"><ele>2294.029</ele><time>2026-05-18T23:36:14Z</time></trkpt><trkpt lat="44.464632" lon="-110.824849"><ele>2293.891</ele><time>2026-05-18T23:36:16Z</time></trkpt><trkpt lat="44.464651" lon="-110.824903"><ele>2293.091</ele><time>2026-05-18T23:36:21Z</time></trkpt><trkpt lat="44.464671" lon="-110.824965"><ele>2292.269</ele><time>2026-05-18T23:36:25Z</time></trkpt><trkpt lat="44.464673" lon="-110.824976"><ele>2291.804</ele><time>2026-05-18T23:36:26Z</time></trkpt><trkpt lat="44.464694" lon="-110.825023"><ele>2290.824</ele><time>2026-05-18T23:36:31Z</time></trkpt><trkpt lat="44.4647" lon="-110.825032"><ele>2290.409</ele><time>2026-05-18T23:36:32Z</time></trkpt><trkpt lat="44.46474" lon="-110.825115"><ele>2289.678</ele><time>2026-05-18T23:36:38Z</time></trkpt><trkpt lat="44.464753" lon="-110.825141"><ele>2289.472</ele><time>2026-05-18T23:36:40Z</time></trkpt><trkpt lat="44.46479" lon="-110.825257"><ele>2288.630</ele><time>2026-05-18T23:36:50Z</time></trkpt><trkpt lat="44.464785" lon="-110.82526"><ele>2288.445</ele><time>2026-05-18T23:36:51Z</time></trkpt><trkpt lat="44.464773" lon="-110.825254"><ele>2288.093</ele><time>2026-05-18T23:36:53Z</time></trkpt><trkpt lat="44.464746" lon="-110.825234"><ele>2287.423</ele><time>2026-05-18T23:36:56Z</time></trkpt><trkpt lat="44.464726" lon="-110.825223"><ele>2286.824</ele><time>2026-05-18T23:36:58Z</time></trkpt><trkpt lat="44.464705" lon="-110.825209"><ele>2286.466</ele><time>2026-05-18T23:37:01Z</time></trkpt><trkpt lat="44.46466" lon="-110.825184"><ele>2285.236</ele><time>2026-05-18T23:37:07Z</time></trkpt><trkpt lat="44.464641" lon="-110.825181"><ele>2285.013</ele><time>2026-05-18T23:37:09Z</time></trkpt><trkpt lat="44.464592" lon="-110.825182"><ele>2284.243</ele><time>2026-05-18T23:37:13Z</time></trkpt><trkpt lat="44.46456" lon="-110.825193"><ele>2283.007</ele><time>2026-05-18T23:37:18Z</time></trkpt><trkpt lat="44.464507" lon="-110.825229"><ele>2282.009</ele><time>2026-05-18T23:37:23Z</time></trkpt><trkpt lat="44.464493" lon="-110.825237"><ele>2281.683</ele><time>2026-05-18T23:37:25Z</time></trkpt><trkpt lat="44.464463" lon="-110.825234"><ele>2281.057</ele><time>2026-05-18T23:37:28Z</time></trkpt><trkpt lat="44.464469" lon="-110.825204"><ele>2280.625</ele><time>2026-05-18T23:37:32Z</time></trkpt><trkpt lat="44.464462" lon="-110.825142"><ele>2281.210</ele><time>2026-05-18T23:37:42Z</time></trkpt><trkpt lat="44.464434" lon="-110.825152"><ele>2280.688</ele><time>2026-05-18T23:37:49Z</time></trkpt><trkpt lat="44.46444" lon="-110.825192"><ele>2280.628</ele><time>2026-05-18T23:37:58Z</time></trkpt><trkpt lat="44.464436" lon="-110.825188"><ele>2280.479</ele><time>2026-05-18T23:38:08Z</time></trkpt><trkpt lat="44.464438" lon="-110.825192"><ele>2280.681</ele><time>2026-05-18T23:38:15Z</time></trkpt><trkpt lat="44.46445" lon="-110.825187"><ele>2280.491</ele><time>2026-05-18T23:38:22Z</time></trkpt><trkpt lat="44.464453" lon="-110.82519"><ele>2280.658</ele><time>2026-05-18T23:38:25Z</time></trkpt><trkpt lat="44.464443" lon="-110.825176"><ele>2281.052</ele><time>2026-05-18T23:38:37Z</time></trkpt><trkpt lat="44.464432" lon="-110.825179"><ele>2280.817</ele><time>2026-05-18T23:38:48Z</time></trkpt><trkpt lat="44.464416" lon="-110.825194"><ele>2281.009</ele><time>2026-05-18T23:38:59Z</time></trkpt><trkpt lat="44.464387" lon="-110.825224"><ele>2279.877</ele><time>2026-05-18T23:39:05Z</time></trkpt><trkpt lat="44.46438" lon="-110.825212"><ele>2279.461</ele><time>2026-05-18T23:39:07Z</time></trkpt><trkpt lat="44.464363" lon="-110.825187"><ele>2278.879</ele><time>2026-05-18T23:39:10Z</time></trkpt><trkpt lat="44.464312" lon="-110.825199"><ele>2278.224</ele><time>2026-05-18T23:39:14Z</time></trkpt><trkpt lat="44.464301" lon="-110.825243"><ele>2277.632</ele><time>2026-05-18T23:39:17Z</time></trkpt><trkpt lat="44.464307" lon="-110.825282"><ele>2277.462</ele><time>2026-05-18T23:39:19Z</time></trkpt><trkpt lat="44.464336" lon="-110.825378"><ele>2276.833</ele><time>2026-05-18T23:39:26Z</time></trkpt><trkpt lat="44.464338" lon="-110.825405"><ele>2276.615</ele><time>2026-05-18T23:39:28Z</time></trkpt><trkpt lat="44.464347" lon="-110.825495"><ele>2275.855</ele><time>2026-05-18T23:39:34Z</time></trkpt><trkpt lat="44.464354" lon="-110.82554"><ele>2275.657</ele><time>2026-05-18T23:39:38Z</time></trkpt><trkpt lat="44.464366" lon="-110.825584"><ele>2274.400</ele><time>2026-05-18T23:39:42Z</time></trkpt><trkpt lat="44.464368" lon="-110.825612"><ele>2273.820</ele><time>2026-05-18T23:39:45Z</time></trkpt><trkpt lat="44.464366" lon="-110.825646"><ele>2273.409</ele><time>2026-05-18T23:39:48Z</time></trkpt><trkpt lat="44.464344" lon="-110.82568"><ele>2272.247</ele><time>2026-05-18T23:39:52Z</time></trkpt><trkpt lat="44.464335" lon="-110.825681"><ele>2271.871</ele><time>2026-05-18T23:39:53Z</time></trkpt><trkpt lat="44.464278" lon="-110.825668"><ele>2271.289</ele><time>2026-05-18T23:40:01Z</time></trkpt><trkpt lat="44.464259" lon="-110.825668"><ele>2271.054</ele><time>2026-05-18T23:40:02Z</time></trkpt><trkpt lat="44.464182" lon="-110.825646"><ele>2270.252</ele><time>2026-05-18T23:40:08Z</time></trkpt><trkpt lat="44.464146" lon="-110.825627"><ele>2270.032</ele><time>2026-05-18T23:40:11Z</time></trkpt><trkpt lat="44.46411" lon="-110.825617"><ele>2269.253</ele><time>2026-05-18T23:40:15Z</time></trkpt><trkpt lat="44.464101" lon="-110.825618"><ele>2269.025</ele><time>2026-05-18T23:40:16Z</time></trkpt><trkpt lat="44.46409" lon="-110.825647"><ele>2268.245</ele><time>2026-05-18T23:40:20Z</time></trkpt><trkpt lat="44.464089" lon="-110.82566"><ele>2268.065</ele><time>2026-05-18T23:40:21Z</time></trkpt><trkpt lat="44.464089" lon="-110.825676"><ele>2267.868</ele><time>2026-05-18T23:40:22Z</time></trkpt><trkpt lat="44.464072" lon="-110.825726"><ele>2267.014</ele><time>2026-05-18T23:40:27Z</time></trkpt><trkpt lat="44.464081" lon="-110.825746"><ele>2266.809</ele><time>2026-05-18T23:40:29Z</time></trkpt><trkpt lat="44.464088" lon="-110.825788"><ele>2266.088</ele><time>2026-05-18T23:40:32Z</time></trkpt><trkpt lat="44.464095" lon="-110.82582"><ele>2265.622</ele><time>2026-05-18T23:40:34Z</time></trkpt><trkpt lat="44.464107" lon="-110.825891"><ele>2265.030</ele><time>2026-05-18T23:40:40Z</time></trkpt><trkpt lat="44.464087" lon="-110.82593"><ele>2264.475</ele><time>2026-05-18T23:40:47Z</time></trkpt><trkpt lat="44.46406" lon="-110.825894"><ele>2263.213</ele><time>2026-05-18T23:40:51Z</time></trkpt><trkpt lat="44.464037" lon="-110.825867"><ele>2262.853</ele><time>2026-05-18T23:40:54Z</time></trkpt><trkpt lat="44.463984" lon="-110.825836"><ele>2262.284</ele><time>2026-05-18T23:41:00Z</time></trkpt><trkpt lat="44.463894" lon="-110.825795"><ele>2261.056</ele><time>2026-05-18T23:41:09Z</time></trkpt><trkpt lat="44.463883" lon="-110.825786"><ele>2261.016</ele><time>2026-05-18T23:41:11Z</time></trkpt><trkpt lat="44.463841" lon="-110.82575"><ele>2260.098</ele><time>2026-05-18T23:41:18Z</time></trkpt><trkpt lat="44.463829" lon="-110.825739"><ele>2259.615</ele><time>2026-05-18T23:41:20Z</time></trkpt><trkpt lat="44.463786" lon="-110.82572"><ele>2259.026</ele><time>2026-05-18T23:41:26Z</time></trkpt><trkpt lat="44.463773" lon="-110.825715"><ele>2259.009</ele><time>2026-05-18T23:41:27Z</time></trkpt><trkpt lat="44.463745" lon="-110.825694"><ele>2258.861</ele><time>2026-05-18T23:41:30Z</time></trkpt><trkpt lat="44.46366" lon="-110.825654"><ele>2258.215</ele><time>2026-05-18T23:41:38Z</time></trkpt><trkpt lat="44.463598" lon="-110.825644"><ele>2257.893</ele><time>2026-05-18T23:41:44Z</time></trkpt><trkpt lat="44.46355" lon="-110.825637"><ele>2257.448</ele><time>2026-05-18T23:41:49Z</time></trkpt><trkpt lat="44.463471" lon="-110.825606"><ele>2257.226</ele><time>2026-05-18T23:41:56Z</time></trkpt><trkpt lat="44.463392" lon="-110.825602"><ele>2257.036</ele><time>2026-05-18T23:42:03Z</time></trkpt><trkpt lat="44.463375" lon="-110.825624"><ele>2256.667</ele><time>2026-05-18T23:42:05Z</time></trkpt><trkpt lat="44.46332" lon="-110.825702"><ele>2256.669</ele><time>2026-05-18T23:42:12Z</time></trkpt><trkpt lat="44.463262" lon="-110.825806"><ele>2255.699</ele><time>2026-05-18T23:42:21Z</time></trkpt><trkpt lat="44.463253" lon="-110.825931"><ele>2255.046</ele><time>2026-05-18T23:42:29Z</time></trkpt><trkpt lat="44.463267" lon="-110.826038"><ele>2255.088</ele><time>2026-05-18T23:42:37Z</time></trkpt><trkpt lat="44.463269" lon="-110.826043"><ele>2254.616</ele><time>2026-05-18T23:42:42Z</time></trkpt><trkpt lat="44.463267" lon="-110.826042"><ele>2254.609</ele><time>2026-05-18T23:42:43Z</time></trkpt><trkpt lat="44.463264" lon="-110.826053"><ele>2255.086</ele><time>2026-05-18T23:42:51Z</time></trkpt><trkpt lat="44.463271" lon="-110.826069"><ele>2254.870</ele><time>2026-05-18T23:43:00Z</time></trkpt><trkpt lat="44.463282" lon="-110.8261"><ele>2255.078</ele><time>2026-05-18T23:43:11Z</time></trkpt><trkpt lat="44.463297" lon="-110.826188"><ele>2255.473</ele><time>2026-05-18T23:43:21Z</time></trkpt><trkpt lat="44.463325" lon="-110.82625"><ele>2255.611</ele><time>2026-05-18T23:43:26Z</time></trkpt><trkpt lat="44.463342" lon="-110.826287"><ele>2255.821</ele><time>2026-05-18T23:43:29Z</time></trkpt><trkpt lat="44.463341" lon="-110.826331"><ele>2255.842</ele><time>2026-05-18T23:43:33Z</time></trkpt><trkpt lat="44.463345" lon="-110.826361"><ele>2255.694</ele><time>2026-05-18T23:43:35Z</time></trkpt><trkpt lat="44.463353" lon="-110.826439"><ele>2255.224</ele><time>2026-05-18T23:43:41Z</time></trkpt><trkpt lat="44.46332" lon="-110.826537"><ele>2255.099</ele><time>2026-05-18T23:43:49Z</time></trkpt><trkpt lat="44.463326" lon="-110.826559"><ele>2255.007</ele><time>2026-05-18T23:43:51Z</time></trkpt><trkpt lat="44.463338" lon="-110.8266"><ele>2254.427</ele><time>2026-05-18T23:43:54Z</time></trkpt><trkpt lat="44.463341" lon="-110.826619"><ele>2254.009</ele><time>2026-05-18T23:43:56Z</time></trkpt><trkpt lat="44.463334" lon="-110.826649"><ele>2254.091</ele><time>2026-05-18T23:44:04Z</time></trkpt><trkpt lat="44.463314" lon="-110.826776"><ele>2253.675</ele><time>2026-05-18T23:44:11Z</time></trkpt><trkpt lat="44.463305" lon="-110.826788"><ele>2253.433</ele><time>2026-05-18T23:44:12Z</time></trkpt><trkpt lat="44.463259" lon="-110.826831"><ele>2252.498</ele><time>2026-05-18T23:44:18Z</time></trkpt><trkpt lat="44.46324" lon="-110.826846"><ele>2252.486</ele><time>2026-05-18T23:44:20Z</time></trkpt><trkpt lat="44.4632" lon="-110.82684"><ele>2251.846</ele><time>2026-05-18T23:44:24Z</time></trkpt><trkpt lat="44.463173" lon="-110.826831"><ele>2251.827</ele><time>2026-05-18T23:44:26Z</time></trkpt><trkpt lat="44.463047" lon="-110.826825"><ele>2252.079</ele><time>2026-05-18T23:44:37Z</time></trkpt><trkpt lat="44.462961" lon="-110.826837"><ele>2251.899</ele><time>2026-05-18T23:44:45Z</time></trkpt><trkpt lat="44.462854" lon="-110.826826"><ele>2251.427</ele><time>2026-05-18T23:44:54Z</time></trkpt><trkpt lat="44.462799" lon="-110.826798"><ele>2251.868</ele><time>2026-05-18T23:44:59Z</time></trkpt><trkpt lat="44.462771" lon="-110.826761"><ele>2251.814</ele><time>2026-05-18T23:45:02Z</time></trkpt><trkpt lat="44.462699" lon="-110.826681"><ele>2252.209</ele><time>2026-05-18T23:45:12Z</time></trkpt><trkpt lat="44.462652" lon="-110.826628"><ele>2252.274</ele><time>2026-05-18T23:45:17Z</time></trkpt><trkpt lat="44.46263" lon="-110.826592"><ele>2252.298</ele><time>2026-05-18T23:45:20Z</time></trkpt><trkpt lat="44.462573" lon="-110.826535"><ele>2252.266</ele><time>2026-05-18T23:45:28Z</time></trkpt><trkpt lat="44.462488" lon="-110.826423"><ele>2251.811</ele><time>2026-05-18T23:45:38Z</time></trkpt><trkpt lat="44.462442" lon="-110.826404"><ele>2251.459</ele><time>2026-05-18T23:45:46Z</time></trkpt><trkpt lat="44.462408" lon="-110.826446"><ele>2250.259</ele><time>2026-05-18T23:45:51Z</time></trkpt><trkpt lat="44.46237" lon="-110.826489"><ele>2249.480</ele><time>2026-05-18T23:45:56Z</time></trkpt><trkpt lat="44.46233" lon="-110.826531"><ele>2249.022</ele><time>2026-05-18T23:46:01Z</time></trkpt><trkpt lat="44.462321" lon="-110.826589"><ele>2248.672</ele><time>2026-05-18T23:46:06Z</time></trkpt><trkpt lat="44.462303" lon="-110.826625"><ele>2248.692</ele><time>2026-05-18T23:46:09Z</time></trkpt><trkpt lat="44.462292" lon="-110.826654"><ele>2248.273</ele><time>2026-05-18T23:46:12Z</time></trkpt><trkpt lat="44.462286" lon="-110.826673"><ele>2247.820</ele><time>2026-05-18T23:46:14Z</time></trkpt><trkpt lat="44.462241" lon="-110.826707"><ele>2247.009</ele><time>2026-05-18T23:46:19Z</time></trkpt><trkpt lat="44.462233" lon="-110.826716"><ele>2246.841</ele><time>2026-05-18T23:46:20Z</time></trkpt><trkpt lat="44.46217" lon="-110.826779"><ele>2245.835</ele><time>2026-05-18T23:46:27Z</time></trkpt><trkpt lat="44.46216" lon="-110.826787"><ele>2245.683</ele><time>2026-05-18T23:46:28Z</time></trkpt><trkpt lat="44.462087" lon="-110.826845"><ele>2244.678</ele><time>2026-05-18T23:46:36Z</time></trkpt><trkpt lat="44.46208" lon="-110.826856"><ele>2244.416</ele><time>2026-05-18T23:46:37Z</time></trkpt><trkpt lat="44.462084" lon="-110.826899"><ele>2244.016</ele><time>2026-05-18T23:46:40Z</time></trkpt><trkpt lat="44.462106" lon="-110.82694"><ele>2244.087</ele><time>2026-05-18T23:46:43Z</time></trkpt><trkpt lat="44.462127" lon="-110.827034"><ele>2243.469</ele><time>2026-05-18T23:46:51Z</time></trkpt><trkpt lat="44.462129" lon="-110.82705"><ele>2243.439</ele><time>2026-05-18T23:46:52Z</time></trkpt><trkpt lat="44.462153" lon="-110.827203"><ele>2243.043</ele><time>2026-05-18T23:47:01Z</time></trkpt><trkpt lat="44.462175" lon="-110.827323"><ele>2242.464</ele><time>2026-05-18T23:47:09Z</time></trkpt><trkpt lat="44.462181" lon="-110.827335"><ele>2242.210</ele><time>2026-05-18T23:47:10Z</time></trkpt><trkpt lat="44.462251" lon="-110.827459"><ele>2241.209</ele><time>2026-05-18T23:47:21Z</time></trkpt><trkpt lat="44.462251" lon="-110.827497"><ele>2241.036</ele><time>2026-05-18T23:47:24Z</time></trkpt><trkpt lat="44.462229" lon="-110.827519"><ele>2240.870</ele><time>2026-05-18T23:47:27Z</time></trkpt><trkpt lat="44.462216" lon="-110.827503"><ele>2240.838</ele><time>2026-05-18T23:47:29Z</time></trkpt><trkpt lat="44.462183" lon="-110.827447"><ele>2240.673</ele><time>2026-05-18T23:47:33Z</time></trkpt><trkpt lat="44.462131" lon="-110.82738"><ele>2240.281</ele><time>2026-05-18T23:47:39Z</time></trkpt><trkpt lat="44.462101" lon="-110.827348"><ele>2239.851</ele><time>2026-05-18T23:47:42Z</time></trkpt><trkpt lat="44.462028" lon="-110.827236"><ele>2239.212</ele><time>2026-05-18T23:47:52Z</time></trkpt><trkpt lat="44.462005" lon="-110.827199"><ele>2239.244</ele><time>2026-05-18T23:47:55Z</time></trkpt><trkpt lat="44.46194" lon="-110.827115"><ele>2238.444</ele><time>2026-05-18T23:48:02Z</time></trkpt><trkpt lat="44.461916" lon="-110.827111"><ele>2238.059</ele><time>2026-05-18T23:48:04Z</time></trkpt><trkpt lat="44.461872" lon="-110.827121"><ele>2237.403</ele><time>2026-05-18T23:48:08Z</time></trkpt><trkpt lat="44.46177" lon="-110.827164"><ele>2238.423</ele><time>2026-05-18T23:48:17Z</time></trkpt><trkpt lat="44.461715" lon="-110.827193"><ele>2238.409</ele><time>2026-05-18T23:48:23Z</time></trkpt><trkpt lat="44.461685" lon="-110.827208"><ele>2238.227</ele><time>2026-05-18T23:48:26Z</time></trkpt><trkpt lat="44.46161" lon="-110.827186"><ele>2238.871</ele><time>2026-05-18T23:48:34Z</time></trkpt><trkpt lat="44.461592" lon="-110.827169"><ele>2239.229</ele><time>2026-05-18T23:48:36Z</time></trkpt><trkpt lat="44.461557" lon="-110.827096"><ele>2240.064</ele><time>2026-05-18T23:48:42Z</time></trkpt><trkpt lat="44.461545" lon="-110.827068"><ele>2240.222</ele><time>2026-05-18T23:48:44Z</time></trkpt><trkpt lat="44.461523" lon="-110.827015"><ele>2240.832</ele><time>2026-05-18T23:48:48Z</time></trkpt><trkpt lat="44.461506" lon="-110.826969"><ele>2241.043</ele><time>2026-05-18T23:48:52Z</time></trkpt><trkpt lat="44.46149" lon="-110.826915"><ele>2241.435</ele><time>2026-05-18T23:48:56Z</time></trkpt><trkpt lat="44.46147" lon="-110.826838"><ele>2242.275</ele><time>2026-05-18T23:49:02Z</time></trkpt><trkpt lat="44.461437" lon="-110.826782"><ele>2242.617</ele><time>2026-05-18T23:49:07Z</time></trkpt><trkpt lat="44.461397" lon="-110.826748"><ele>2243.087</ele><time>2026-05-18T23:49:11Z</time></trkpt><trkpt lat="44.46134" lon="-110.826736"><ele>2243.615</ele><time>2026-05-18T23:49:16Z</time></trkpt><trkpt lat="44.461308" lon="-110.826733"><ele>2243.809</ele><time>2026-05-18T23:49:19Z</time></trkpt><trkpt lat="44.461212" lon="-110.826797"><ele>2244.263</ele><time>2026-05-18T23:49:28Z</time></trkpt><trkpt lat="44.461171" lon="-110.826831"><ele>2244.667</ele><time>2026-05-18T23:49:33Z</time></trkpt><trkpt lat="44.461111" lon="-110.8269"><ele>2245.025</ele><time>2026-05-18T23:49:39Z</time></trkpt><trkpt lat="44.461058" lon="-110.826939"><ele>2245.610</ele><time>2026-05-18T23:49:45Z</time></trkpt><trkpt lat="44.461044" lon="-110.826947"><ele>2245.888</ele><time>2026-05-18T23:49:46Z</time></trkpt><trkpt lat="44.46096" lon="-110.826947"><ele>2245.838</ele><time>2026-05-18T23:49:53Z</time></trkpt><trkpt lat="44.460893" lon="-110.826867"><ele>2245.689</ele><time>2026-05-18T23:50:00Z</time></trkpt><trkpt lat="44.460812" lon="-110.826785"><ele>2245.851</ele><time>2026-05-18T23:50:07Z</time></trkpt><trkpt lat="44.460791" lon="-110.826752"><ele>2245.261</ele><time>2026-05-18T23:50:10Z</time></trkpt><trkpt lat="44.460724" lon="-110.826685"><ele>2245.232</ele><time>2026-05-18T23:50:16Z</time></trkpt><trkpt lat="44.460635" lon="-110.826619"><ele>2244.892</ele><time>2026-05-18T23:50:24Z</time></trkpt><trkpt lat="44.460598" lon="-110.826601"><ele>2244.611</ele><time>2026-05-18T23:50:27Z</time></trkpt><trkpt lat="44.460527" lon="-110.826592"><ele>2245.009</ele><time>2026-05-18T23:50:33Z</time></trkpt><trkpt lat="44.460472" lon="-110.826601"><ele>2244.885</ele><time>2026-05-18T23:50:37Z</time></trkpt><trkpt lat="44.460363" lon="-110.826619"><ele>2245.289</ele><time>2026-05-18T23:50:46Z</time></trkpt><trkpt lat="44.460259" lon="-110.82663"><ele>2245.827</ele><time>2026-05-18T23:50:54Z</time></trkpt><trkpt lat="44.460242" lon="-110.826632"><ele>2246.012</ele><time>2026-05-18T23:50:55Z</time></trkpt><trkpt lat="44.460124" lon="-110.826661"><ele>2245.650</ele><time>2026-05-18T23:51:05Z</time></trkpt><trkpt lat="44.460112" lon="-110.826671"><ele>2245.660</ele><time>2026-05-18T23:51:06Z</time></trkpt><trkpt lat="44.460011" lon="-110.826754"><ele>2245.611</ele><time>2026-05-18T23:51:15Z</time></trkpt><trkpt lat="44.459949" lon="-110.826825"><ele>2245.833</ele><time>2026-05-18T23:51:21Z</time></trkpt><trkpt lat="44.459919" lon="-110.82688"><ele>2245.893</ele><time>2026-05-18T23:51:25Z</time></trkpt><trkpt lat="44.459855" lon="-110.82699"><ele>2245.472</ele><time>2026-05-18T23:51:33Z</time></trkpt><trkpt lat="44.459762" lon="-110.827161"><ele>2245.813</ele><time>2026-05-18T23:51:45Z</time></trkpt><trkpt lat="44.459695" lon="-110.827301"><ele>2246.014</ele><time>2026-05-18T23:51:55Z</time></trkpt><trkpt lat="44.459652" lon="-110.827442"><ele>2246.009</ele><time>2026-05-18T23:52:03Z</time></trkpt><trkpt lat="44.459611" lon="-110.827579"><ele>2246.489</ele><time>2026-05-18T23:52:12Z</time></trkpt><trkpt lat="44.459594" lon="-110.827649"><ele>2246.693</ele><time>2026-05-18T23:52:16Z</time></trkpt><trkpt lat="44.459583" lon="-110.827708"><ele>2246.681</ele><time>2026-05-18T23:52:19Z</time></trkpt><trkpt lat="44.45956" lon="-110.827837"><ele>2246.266</ele><time>2026-05-18T23:52:27Z</time></trkpt><trkpt lat="44.459557" lon="-110.827959"><ele>2246.644</ele><time>2026-05-18T23:52:34Z</time></trkpt><trkpt lat="44.459547" lon="-110.828146"><ele>2246.494</ele><time>2026-05-18T23:52:44Z</time></trkpt><trkpt lat="44.459552" lon="-110.828258"><ele>2246.445</ele><time>2026-05-18T23:52:50Z</time></trkpt><trkpt lat="44.459568" lon="-110.828361"><ele>2246.627</ele><time>2026-05-18T23:52:56Z</time></trkpt><trkpt lat="44.459574" lon="-110.828411"><ele>2247.017</ele><time>2026-05-18T23:52:59Z</time></trkpt><trkpt lat="44.459578" lon="-110.828429"><ele>2247.032</ele><time>2026-05-18T23:53:00Z</time></trkpt><trkpt lat="44.459597" lon="-110.828584"><ele>2246.492</ele><time>2026-05-18T23:53:09Z</time></trkpt><trkpt lat="44.459544" lon="-110.828685"><ele>2246.411</ele><time>2026-05-18T23:53:16Z</time></trkpt><trkpt lat="44.4595" lon="-110.828718"><ele>2246.009</ele><time>2026-05-18T23:53:20Z</time></trkpt><trkpt lat="44.45944" lon="-110.82876"><ele>2245.455</ele><time>2026-05-18T23:53:25Z</time></trkpt><trkpt lat="44.459351" lon="-110.828817"><ele>2245.479</ele><time>2026-05-18T23:53:33Z</time></trkpt><trkpt lat="44.459242" lon="-110.828885"><ele>2245.287</ele><time>2026-05-18T23:53:43Z</time></trkpt><trkpt lat="44.45922" lon="-110.828896"><ele>2244.882</ele><time>2026-05-18T23:53:45Z</time></trkpt><trkpt lat="44.459107" lon="-110.82896"><ele>2244.670</ele><time>2026-05-18T23:53:55Z</time></trkpt><trkpt lat="44.459029" lon="-110.829044"><ele>2244.480</ele><time>2026-05-18T23:54:04Z</time></trkpt><trkpt lat="44.458948" lon="-110.829162"><ele>2244.631</ele><time>2026-05-18T23:54:14Z</time></trkpt><trkpt lat="44.458915" lon="-110.829219"><ele>2244.453</ele><time>2026-05-18T23:54:20Z</time></trkpt><trkpt lat="44.458914" lon="-110.829231"><ele>2244.443</ele><time>2026-05-18T23:54:21Z</time></trkpt><trkpt lat="44.458872" lon="-110.829304"><ele>2244.252</ele><time>2026-05-18T23:54:29Z</time></trkpt><trkpt lat="44.458827" lon="-110.829335"><ele>2244.253</ele><time>2026-05-18T23:54:34Z</time></trkpt><trkpt lat="44.458767" lon="-110.829385"><ele>2244.808</ele><time>2026-05-18T23:54:43Z</time></trkpt><trkpt lat="44.458768" lon="-110.829374"><ele>2243.809</ele><time>2026-05-18T23:54:50Z</time></trkpt><trkpt lat="44.458768" lon="-110.829376"><ele>2243.897</ele><time>2026-05-18T23:54:54Z</time></trkpt><trkpt lat="44.458687" lon="-110.829359"><ele>2245.071</ele><time>2026-05-18T23:54:59Z</time></trkpt><trkpt lat="44.458625" lon="-110.829341"><ele>2244.849</ele><time>2026-05-18T23:55:06Z</time></trkpt><trkpt lat="44.458608" lon="-110.829271"><ele>2245.264</ele><time>2026-05-18T23:55:15Z</time></trkpt><trkpt lat="44.458615" lon="-110.829272"><ele>2245.212</ele><time>2026-05-18T23:55:16Z</time></trkpt><trkpt lat="44.458633" lon="-110.829314"><ele>2245.062</ele><time>2026-05-18T23:55:26Z</time></trkpt><trkpt lat="44.458564" lon="-110.829309"><ele>2245.043</ele><time>2026-05-18T23:55:36Z</time></trkpt><trkpt lat="44.458533" lon="-110.829305"><ele>2244.615</ele><time>2026-05-18T23:55:47Z</time></trkpt><trkpt lat="44.458484" lon="-110.829301"><ele>2244.675</ele><time>2026-05-18T23:55:58Z</time></trkpt><trkpt lat="44.458508" lon="-110.829314"><ele>2244.484</ele><time>2026-05-18T23:56:08Z</time></trkpt><trkpt lat="44.458544" lon="-110.829286"><ele>2244.407</ele><time>2026-05-18T23:56:18Z</time></trkpt><trkpt lat="44.45856" lon="-110.829289"><ele>2244.217</ele><time>2026-05-18T23:56:29Z</time></trkpt><trkpt lat="44.458555" lon="-110.829275"><ele>2244.209</ele><time>2026-05-18T23:56:33Z</time></trkpt><trkpt lat="44.458573" lon="-110.829292"><ele>2244.210</ele><time>2026-05-18T23:56:43Z</time></trkpt><trkpt lat="44.458578" lon="-110.829303"><ele>2244.034</ele><time>2026-05-18T23:56:45Z</time></trkpt><trkpt lat="44.458515" lon="-110.829403"><ele>2244.042</ele><time>2026-05-18T23:56:54Z</time></trkpt><trkpt lat="44.458477" lon="-110.829398"><ele>2243.827</ele><time>2026-05-18T23:57:07Z</time></trkpt><trkpt lat="44.458443" lon="-110.82943"><ele>2243.625</ele><time>2026-05-18T23:57:15Z</time></trkpt><trkpt lat="44.458401" lon="-110.829467"><ele>2243.865</ele><time>2026-05-18T23:57:25Z</time></trkpt><trkpt lat="44.458369" lon="-110.829519"><ele>2243.676</ele><time>2026-05-18T23:57:35Z</time></trkpt><trkpt lat="44.458351" lon="-110.829533"><ele>2243.488</ele><time>2026-05-18T23:57:38Z</time></trkpt><trkpt lat="44.458338" lon="-110.829528"><ele>2243.648</ele><time>2026-05-18T23:57:42Z</time></trkpt><trkpt lat="44.458287" lon="-110.829524"><ele>2243.429</ele><time>2026-05-18T23:57:47Z</time></trkpt><trkpt lat="44.458195" lon="-110.829435"><ele>2243.400</ele><time>2026-05-18T23:57:59Z</time></trkpt><trkpt lat="44.458231" lon="-110.82939"><ele>2243.620</ele><time>2026-05-18T23:58:11Z</time></trkpt><trkpt lat="44.458279" lon="-110.82939"><ele>2243.609</ele><time>2026-05-18T23:58:17Z</time></trkpt><trkpt lat="44.458307" lon="-110.829383"><ele>2243.884</ele><time>2026-05-18T23:58:21Z</time></trkpt><trkpt lat="44.45837" lon="-110.829357"><ele>2243.228</ele><time>2026-05-18T23:58:34Z</time></trkpt><trkpt lat="44.458407" lon="-110.829318"><ele>2243.446</ele><time>2026-05-18T23:58:44Z</time></trkpt><trkpt lat="44.458408" lon="-110.829356"><ele>2243.471</ele><time>2026-05-18T23:58:54Z</time></trkpt><trkpt lat="44.458327" lon="-110.82944"><ele>2243.259</ele><time>2026-05-18T23:59:01Z</time></trkpt><trkpt lat="44.458297" lon="-110.829419"><ele>2243.269</ele><time>2026-05-18T23:59:03Z</time></trkpt><trkpt lat="44.458296" lon="-110.829401"><ele>2243.060</ele><time>2026-05-18T23:59:04Z</time></trkpt><trkpt lat="44.458296" lon="-110.829398"><ele>2243.282</ele><time>2026-05-18T23:59:07Z</time></trkpt><trkpt lat="44.458298" lon="-110.829396"><ele>2243.232</ele><time>2026-05-18T23:59:09Z</time></trkpt><trkpt lat="44.458302" lon="-110.829433"><ele>2243.272</ele><time>2026-05-18T23:59:17Z</time></trkpt><trkpt lat="44.458296" lon="-110.829451"><ele>2243.213</ele><time>2026-05-18T23:59:24Z</time></trkpt><trkpt lat="44.458307" lon="-110.829477"><ele>2243.614</ele><time>2026-05-18T23:59:34Z</time></trkpt><trkpt lat="44.458314" lon="-110.829528"><ele>2243.609</ele><time>2026-05-18T23:59:42Z</time></trkpt><trkpt lat="44.458315" lon="-110.82953"><ele>2243.689</ele><time>2026-05-18T23:59:44Z</time></trkpt><trkpt lat="44.458306" lon="-110.829491"><ele>2243.673</ele><time>2026-05-18T23:59:50Z</time></trkpt><trkpt lat="44.4583" lon="-110.829472"><ele>2243.221</ele><time>2026-05-18T23:59:54Z</time></trkpt><trkpt lat="44.458322" lon="-110.829469"><ele>2243.226</ele><time>2026-05-19T00:00:04Z</time></trkpt><trkpt lat="44.458297" lon="-110.829412"><ele>2243.484</ele><time>2026-05-19T00:00:18Z</time></trkpt><trkpt lat="44.45827" lon="-110.829433"><ele>2243.654</ele><time>2026-05-19T00:00:28Z</time></trkpt><trkpt lat="44.458294" lon="-110.829452"><ele>2243.475</ele><time>2026-05-19T00:00:36Z</time></trkpt><trkpt lat="44.458265" lon="-110.829452"><ele>2243.617</ele><time>2026-05-19T00:00:46Z</time></trkpt><trkpt lat="44.458262" lon="-110.829446"><ele>2243.437</ele><time>2026-05-19T00:00:55Z</time></trkpt><trkpt lat="44.458282" lon="-110.829459"><ele>2243.414</ele><time>2026-05-19T00:01:02Z</time></trkpt><trkpt lat="44.458285" lon="-110.829459"><ele>2243.654</ele><time>2026-05-19T00:01:12Z</time></trkpt><trkpt lat="44.4583" lon="-110.829453"><ele>2243.609</ele><time>2026-05-19T00:01:18Z</time></trkpt><trkpt lat="44.458349" lon="-110.829441"><ele>2243.209</ele><time>2026-05-19T00:01:26Z</time></trkpt><trkpt lat="44.458389" lon="-110.829414"><ele>2243.023</ele><time>2026-05-19T00:01:35Z</time></trkpt><trkpt lat="44.458407" lon="-110.829408"><ele>2243.097</ele><time>2026-05-19T00:01:45Z</time></trkpt><trkpt lat="44.458407" lon="-110.829408"><ele>2242.815</ele><time>2026-05-19T00:01:53Z</time></trkpt><trkpt lat="44.458407" lon="-110.829408"><ele>2242.470</ele><time>2026-05-19T00:02:08Z</time></trkpt><trkpt lat="44.458407" lon="-110.829408"><ele>2242.888</ele><time>2026-05-19T00:02:29Z</time></trkpt><trkpt lat="44.458402" lon="-110.829447"><ele>2242.818</ele><time>2026-05-19T00:02:37Z</time></trkpt><trkpt lat="44.4584" lon="-110.829446"><ele>2242.879</ele><time>2026-05-19T00:02:51Z</time></trkpt><trkpt lat="44.458399" lon="-110.829423"><ele>2242.861</ele><time>2026-05-19T00:03:09Z</time></trkpt><trkpt lat="44.458405" lon="-110.829422"><ele>2242.611</ele><time>2026-05-19T00:03:19Z</time></trkpt><trkpt lat="44.458405" lon="-110.829422"><ele>2242.651</ele><time>2026-05-19T00:03:20Z</time></trkpt><trkpt lat="44.458411" lon="-110.829424"><ele>2242.601</ele><time>2026-05-19T00:03:21Z</time></trkpt><trkpt lat="44.458411" lon="-110.829451"><ele>2242.811</ele><time>2026-05-19T00:03:23Z</time></trkpt><trkpt lat="44.458412" lon="-110.829458"><ele>2242.809</ele><time>2026-05-19T00:03:24Z</time></trkpt><trkpt lat="44.458445" lon="-110.829444"><ele>2242.637</ele><time>2026-05-19T00:03:38Z</time></trkpt><trkpt lat="44.458428" lon="-110.829435"><ele>2243.071</ele><time>2026-05-19T00:03:49Z</time></trkpt><trkpt lat="44.458428" lon="-110.829435"><ele>2243.069</ele><time>2026-05-19T00:04:05Z</time></trkpt><trkpt lat="44.458428" lon="-110.829435"><ele>2243.284</ele><time>2026-05-19T00:04:16Z</time></trkpt><trkpt lat="44.458428" lon="-110.829435"><ele>2243.042</ele><time>2026-05-19T00:04:21Z</time></trkpt><trkpt lat="44.458428" lon="-110.829435"><ele>2243.052</ele><time>2026-05-19T00:04:30Z</time></trkpt><trkpt lat="44.458428" lon="-110.829435"><ele>2242.813</ele><time>2026-05-19T00:04:39Z</time></trkpt><trkpt lat="44.458428" lon="-110.829435"><ele>2243.055</ele><time>2026-05-19T00:04:42Z</time></trkpt><trkpt lat="44.458428" lon="-110.829435"><ele>2243.215</ele><time>2026-05-19T00:04:58Z</time></trkpt><trkpt lat="44.458391" lon="-110.82939"><ele>2243.464</ele><time>2026-05-19T00:05:09Z</time></trkpt><trkpt lat="44.458377" lon="-110.829397"><ele>2243.406</ele><time>2026-05-19T00:05:13Z</time></trkpt><trkpt lat="44.458399" lon="-110.829428"><ele>2243.216</ele><time>2026-05-19T00:05:19Z</time></trkpt><trkpt lat="44.45842" lon="-110.829428"><ele>2243.209</ele><time>2026-05-19T00:05:38Z</time></trkpt><trkpt lat="44.458407" lon="-110.829426"><ele>2243.038</ele><time>2026-05-19T00:05:44Z</time></trkpt><trkpt lat="44.458401" lon="-110.829421"><ele>2243.292</ele><time>2026-05-19T00:05:49Z</time></trkpt><trkpt lat="44.458401" lon="-110.829421"><ele>2242.850</ele><time>2026-05-19T00:06:02Z</time></trkpt><trkpt lat="44.458401" lon="-110.829421"><ele>2243.035</ele><time>2026-05-19T00:06:07Z</time></trkpt><trkpt lat="44.458401" lon="-110.829421"><ele>2242.853</ele><time>2026-05-19T00:06:22Z</time></trkpt><trkpt lat="44.458416" lon="-110.829419"><ele>2243.243</ele><time>2026-05-19T00:06:46Z</time></trkpt><trkpt lat="44.458418" lon="-110.829415"><ele>2243.414</ele><time>2026-05-19T00:06:50Z</time></trkpt><trkpt lat="44.458414" lon="-110.829421"><ele>2243.436</ele><time>2026-05-19T00:06:52Z</time></trkpt><trkpt lat="44.458412" lon="-110.829438"><ele>2243.266</ele><time>2026-05-19T00:06:56Z</time></trkpt><trkpt lat="44.458408" lon="-110.829441"><ele>2243.087</ele><time>2026-05-19T00:07:06Z</time></trkpt><trkpt lat="44.458403" lon="-110.829437"><ele>2243.442</ele><time>2026-05-19T00:07:20Z</time></trkpt><trkpt lat="44.458407" lon="-110.829445"><ele>2243.226</ele><time>2026-05-19T00:07:24Z</time></trkpt><trkpt lat="44.458394" lon="-110.829454"><ele>2243.009</ele><time>2026-05-19T00:07:30Z</time></trkpt><trkpt lat="44.458348" lon="-110.829513"><ele>2242.450</ele><time>2026-05-19T00:07:37Z</time></trkpt><trkpt lat="44.458344" lon="-110.829525"><ele>2242.874</ele><time>2026-05-19T00:07:39Z</time></trkpt><trkpt lat="44.458341" lon="-110.82953"><ele>2243.072</ele><time>2026-05-19T00:07:40Z</time></trkpt><trkpt lat="44.458341" lon="-110.82953"><ele>2243.297</ele><time>2026-05-19T00:07:41Z</time></trkpt><trkpt lat="44.458343" lon="-110.829521"><ele>2243.035</ele><time>2026-05-19T00:07:44Z</time></trkpt><trkpt lat="44.45833" lon="-110.829528"><ele>2242.835</ele><time>2026-05-19T00:07:51Z</time></trkpt><trkpt lat="44.458333" lon="-110.829524"><ele>2242.886</ele><time>2026-05-19T00:07:57Z</time></trkpt><trkpt lat="44.458333" lon="-110.829524"><ele>2242.828</ele><time>2026-05-19T00:07:59Z</time></trkpt><trkpt lat="44.458333" lon="-110.829524"><ele>2242.888</ele><time>2026-05-19T00:08:02Z</time></trkpt><trkpt lat="44.458336" lon="-110.829529"><ele>2242.899</ele><time>2026-05-19T00:08:12Z</time></trkpt><trkpt lat="44.458345" lon="-110.829521"><ele>2243.007</ele><time>2026-05-19T00:08:20Z</time></trkpt><trkpt lat="44.458345" lon="-110.829526"><ele>2243.027</ele><time>2026-05-19T00:08:23Z</time></trkpt><trkpt lat="44.458337" lon="-110.829517"><ele>2242.609</ele><time>2026-05-19T00:08:35Z</time></trkpt><trkpt lat="44.458338" lon="-110.829514"><ele>2242.631</ele><time>2026-05-19T00:08:36Z</time></trkpt><trkpt lat="44.458308" lon="-110.829546"><ele>2242.675</ele><time>2026-05-19T00:08:43Z</time></trkpt><trkpt lat="44.45828" lon="-110.829587"><ele>2242.033</ele><time>2026-05-19T00:08:47Z</time></trkpt><trkpt lat="44.458255" lon="-110.829625"><ele>2241.848</ele><time>2026-05-19T00:08:50Z</time></trkpt><trkpt lat="44.458186" lon="-110.829712"><ele>2242.416</ele><time>2026-05-19T00:08:58Z</time></trkpt><trkpt lat="44.458139" lon="-110.829792"><ele>2242.236</ele><time>2026-05-19T00:09:05Z</time></trkpt><trkpt lat="44.458093" lon="-110.829829"><ele>2242.037</ele><time>2026-05-19T00:09:11Z</time></trkpt><trkpt lat="44.458045" lon="-110.829883"><ele>2243.029</ele><time>2026-05-19T00:09:17Z</time></trkpt><trkpt lat="44.458028" lon="-110.829917"><ele>2242.639</ele><time>2026-05-19T00:09:20Z</time></trkpt><trkpt lat="44.457998" lon="-110.829986"><ele>2242.055</ele><time>2026-05-19T00:09:25Z</time></trkpt><trkpt lat="44.457987" lon="-110.830008"><ele>2241.807</ele><time>2026-05-19T00:09:27Z</time></trkpt><trkpt lat="44.45794" lon="-110.830097"><ele>2241.817</ele><time>2026-05-19T00:09:35Z</time></trkpt><trkpt lat="44.45791" lon="-110.830166"><ele>2242.009</ele><time>2026-05-19T00:09:40Z</time></trkpt><trkpt lat="44.457886" lon="-110.830222"><ele>2241.687</ele><time>2026-05-19T00:09:44Z</time></trkpt><trkpt lat="44.45784" lon="-110.830277"><ele>2241.611</ele><time>2026-05-19T00:09:52Z</time></trkpt><trkpt lat="44.457844" lon="-110.830281"><ele>2241.619</ele><time>2026-05-19T00:09:53Z</time></trkpt><trkpt lat="44.457854" lon="-110.830312"><ele>2241.424</ele><time>2026-05-19T00:09:59Z</time></trkpt><trkpt lat="44.45783" lon="-110.830381"><ele>2241.282</ele><time>2026-05-19T00:10:07Z</time></trkpt><trkpt lat="44.457789" lon="-110.830407"><ele>2241.622</ele><time>2026-05-19T00:10:13Z</time></trkpt><trkpt lat="44.457785" lon="-110.830407"><ele>2241.653</ele><time>2026-05-19T00:10:14Z</time></trkpt><trkpt lat="44.45772" lon="-110.830419"><ele>2241.215</ele><time>2026-05-19T00:10:20Z</time></trkpt><trkpt lat="44.457695" lon="-110.830406"><ele>2241.265</ele><time>2026-05-19T00:10:26Z</time></trkpt><trkpt lat="44.457701" lon="-110.830406"><ele>2241.276</ele><time>2026-05-19T00:10:27Z</time></trkpt><trkpt lat="44.457695" lon="-110.83041"><ele>2241.890</ele><time>2026-05-19T00:10:32Z</time></trkpt></trkseg></trk></gpx>