<?xml version="1.0" encoding="UTF-8"?><gpx creator="Wikiloc - http://www.wikiloc.com" version="1.1" xmlns="http://www.topografix.com/GPX/1/1" xmlns:xsi="http://www.w3.org/2001/XMLSchema-instance" xsi:schemaLocation="http://www.topografix.com/GPX/1/1 http://www.topografix.com/GPX/1/1/gpx.xsd"><trk><name><![CDATA[Yellowstone National Park: Grand Prismatic Overlook]]></name><cmt><![CDATA[West Thumb]]></cmt><desc><![CDATA[West Thumb]]></desc><trkseg><trkpt lat="44.51406" lon="-110.832504"><ele>2211.862</ele><time>2026-05-21T16:23:29Z</time></trkpt><trkpt lat="44.514066" lon="-110.832504"><ele>2211.683</ele><time>2026-05-21T16:23:34Z</time></trkpt><trkpt lat="44.514076" lon="-110.832502"><ele>2211.411</ele><time>2026-05-21T16:23:38Z</time></trkpt><trkpt lat="44.514079" lon="-110.832501"><ele>2211.409</ele><time>2026-05-21T16:23:48Z</time></trkpt><trkpt lat="44.51408" lon="-110.832498"><ele>2211.428</ele><time>2026-05-21T16:23:50Z</time></trkpt><trkpt lat="44.514083" lon="-110.8325"><ele>2211.412</ele><time>2026-05-21T16:23:52Z</time></trkpt><trkpt lat="44.514098" lon="-110.83249"><ele>2211.241</ele><time>2026-05-21T16:23:55Z</time></trkpt><trkpt lat="44.514162" lon="-110.832459"><ele>2211.231</ele><time>2026-05-21T16:24:05Z</time></trkpt><trkpt lat="44.514219" lon="-110.83243"><ele>2211.432</ele><time>2026-05-21T16:24:13Z</time></trkpt><trkpt lat="44.514231" lon="-110.832435"><ele>2211.456</ele><time>2026-05-21T16:24:20Z</time></trkpt><trkpt lat="44.514231" lon="-110.832435"><ele>2211.427</ele><time>2026-05-21T16:24:26Z</time></trkpt><trkpt lat="44.514231" lon="-110.832435"><ele>2211.293</ele><time>2026-05-21T16:24:34Z</time></trkpt><trkpt lat="44.514231" lon="-110.832435"><ele>2211.692</ele><time>2026-05-21T16:24:47Z</time></trkpt><trkpt lat="44.514231" lon="-110.832435"><ele>2211.693</ele><time>2026-05-21T16:25:03Z</time></trkpt><trkpt lat="44.514231" lon="-110.832435"><ele>2211.665</ele><time>2026-05-21T16:25:04Z</time></trkpt><trkpt lat="44.514231" lon="-110.832435"><ele>2211.621</ele><time>2026-05-21T16:25:05Z</time></trkpt><trkpt lat="44.514231" lon="-110.832435"><ele>2211.609</ele><time>2026-05-21T16:25:09Z</time></trkpt><trkpt lat="44.514221" lon="-110.832394"><ele>2211.681</ele><time>2026-05-21T16:25:17Z</time></trkpt><trkpt lat="44.514224" lon="-110.832407"><ele>2211.455</ele><time>2026-05-21T16:25:23Z</time></trkpt><trkpt lat="44.514223" lon="-110.832407"><ele>2211.454</ele><time>2026-05-21T16:25:27Z</time></trkpt><trkpt lat="44.514228" lon="-110.832433"><ele>2211.624</ele><time>2026-05-21T16:25:31Z</time></trkpt><trkpt lat="44.514239" lon="-110.83253"><ele>2211.445</ele><time>2026-05-21T16:25:39Z</time></trkpt><trkpt lat="44.514248" lon="-110.832554"><ele>2211.269</ele><time>2026-05-21T16:25:41Z</time></trkpt><trkpt lat="44.514281" lon="-110.832589"><ele>2210.880</ele><time>2026-05-21T16:25:45Z</time></trkpt><trkpt lat="44.514314" lon="-110.832604"><ele>2210.676</ele><time>2026-05-21T16:25:48Z</time></trkpt><trkpt lat="44.514346" lon="-110.83261"><ele>2210.815</ele><time>2026-05-21T16:25:51Z</time></trkpt><trkpt lat="44.514354" lon="-110.832612"><ele>2211.019</ele><time>2026-05-21T16:25:52Z</time></trkpt><trkpt lat="44.514372" lon="-110.832618"><ele>2211.209</ele><time>2026-05-21T16:25:54Z</time></trkpt><trkpt lat="44.514431" lon="-110.832637"><ele>2210.619</ele><time>2026-05-21T16:26:00Z</time></trkpt><trkpt lat="44.514537" lon="-110.832636"><ele>2210.409</ele><time>2026-05-21T16:26:10Z</time></trkpt><trkpt lat="44.514648" lon="-110.832616"><ele>2210.043</ele><time>2026-05-21T16:26:21Z</time></trkpt><trkpt lat="44.51474" lon="-110.832595"><ele>2210.247</ele><time>2026-05-21T16:26:30Z</time></trkpt><trkpt lat="44.514839" lon="-110.832585"><ele>2209.886</ele><time>2026-05-21T16:26:40Z</time></trkpt><trkpt lat="44.514945" lon="-110.832616"><ele>2210.066</ele><time>2026-05-21T16:26:49Z</time></trkpt><trkpt lat="44.515002" lon="-110.832654"><ele>2210.487</ele><time>2026-05-21T16:26:56Z</time></trkpt><trkpt lat="44.515026" lon="-110.832662"><ele>2210.411</ele><time>2026-05-21T16:26:58Z</time></trkpt><trkpt lat="44.515135" lon="-110.832741"><ele>2209.642</ele><time>2026-05-21T16:27:09Z</time></trkpt><trkpt lat="44.515198" lon="-110.83276"><ele>2208.678</ele><time>2026-05-21T16:27:15Z</time></trkpt><trkpt lat="44.515245" lon="-110.832768"><ele>2208.827</ele><time>2026-05-21T16:27:19Z</time></trkpt><trkpt lat="44.515256" lon="-110.832769"><ele>2209.014</ele><time>2026-05-21T16:27:20Z</time></trkpt><trkpt lat="44.515349" lon="-110.832759"><ele>2208.654</ele><time>2026-05-21T16:27:29Z</time></trkpt><trkpt lat="44.515452" lon="-110.832756"><ele>2209.009</ele><time>2026-05-21T16:27:39Z</time></trkpt><trkpt lat="44.515548" lon="-110.832726"><ele>2208.409</ele><time>2026-05-21T16:27:48Z</time></trkpt><trkpt lat="44.51565" lon="-110.832672"><ele>2208.693</ele><time>2026-05-21T16:27:59Z</time></trkpt><trkpt lat="44.51572" lon="-110.832638"><ele>2208.887</ele><time>2026-05-21T16:28:07Z</time></trkpt><trkpt lat="44.515804" lon="-110.832657"><ele>2209.046</ele><time>2026-05-21T16:28:15Z</time></trkpt><trkpt lat="44.51592" lon="-110.832689"><ele>2207.816</ele><time>2026-05-21T16:28:25Z</time></trkpt><trkpt lat="44.516039" lon="-110.832729"><ele>2208.247</ele><time>2026-05-21T16:28:35Z</time></trkpt><trkpt lat="44.516154" lon="-110.832787"><ele>2208.421</ele><time>2026-05-21T16:28:46Z</time></trkpt><trkpt lat="44.516281" lon="-110.832853"><ele>2208.242</ele><time>2026-05-21T16:28:57Z</time></trkpt><trkpt lat="44.516294" lon="-110.832861"><ele>2208.278</ele><time>2026-05-21T16:28:58Z</time></trkpt><trkpt lat="44.516317" lon="-110.832872"><ele>2208.487</ele><time>2026-05-21T16:29:00Z</time></trkpt><trkpt lat="44.516398" lon="-110.832904"><ele>2208.431</ele><time>2026-05-21T16:29:08Z</time></trkpt><trkpt lat="44.516429" lon="-110.832908"><ele>2208.661</ele><time>2026-05-21T16:29:11Z</time></trkpt><trkpt lat="44.516527" lon="-110.832916"><ele>2208.607</ele><time>2026-05-21T16:29:19Z</time></trkpt><trkpt lat="44.516627" lon="-110.832928"><ele>2209.209</ele><time>2026-05-21T16:29:28Z</time></trkpt><trkpt lat="44.516701" lon="-110.832894"><ele>2209.415</ele><time>2026-05-21T16:29:35Z</time></trkpt><trkpt lat="44.516787" lon="-110.832895"><ele>2209.499</ele><time>2026-05-21T16:29:43Z</time></trkpt><trkpt lat="44.5169" lon="-110.832887"><ele>2209.258</ele><time>2026-05-21T16:29:53Z</time></trkpt><trkpt lat="44.517021" lon="-110.832883"><ele>2209.488</ele><time>2026-05-21T16:30:03Z</time></trkpt><trkpt lat="44.517044" lon="-110.83288"><ele>2209.469</ele><time>2026-05-21T16:30:05Z</time></trkpt><trkpt lat="44.517067" lon="-110.832882"><ele>2209.693</ele><time>2026-05-21T16:30:07Z</time></trkpt><trkpt lat="44.517089" lon="-110.83288"><ele>2209.674</ele><time>2026-05-21T16:30:09Z</time></trkpt><trkpt lat="44.517136" lon="-110.832874"><ele>2209.420</ele><time>2026-05-21T16:30:14Z</time></trkpt><trkpt lat="44.517251" lon="-110.832869"><ele>2209.689</ele><time>2026-05-21T16:30:24Z</time></trkpt><trkpt lat="44.517364" lon="-110.832881"><ele>2209.848</ele><time>2026-05-21T16:30:33Z</time></trkpt><trkpt lat="44.517477" lon="-110.832879"><ele>2209.861</ele><time>2026-05-21T16:30:44Z</time></trkpt><trkpt lat="44.517537" lon="-110.832864"><ele>2210.217</ele><time>2026-05-21T16:30:52Z</time></trkpt><trkpt lat="44.517561" lon="-110.832864"><ele>2210.609</ele><time>2026-05-21T16:30:56Z</time></trkpt><trkpt lat="44.517575" lon="-110.832857"><ele>2210.496</ele><time>2026-05-21T16:30:59Z</time></trkpt><trkpt lat="44.517612" lon="-110.832852"><ele>2210.260</ele><time>2026-05-21T16:31:04Z</time></trkpt><trkpt lat="44.517648" lon="-110.83285"><ele>2210.419</ele><time>2026-05-21T16:31:08Z</time></trkpt><trkpt lat="44.517757" lon="-110.83285"><ele>2210.679</ele><time>2026-05-21T16:31:19Z</time></trkpt><trkpt lat="44.517799" lon="-110.832825"><ele>2211.060</ele><time>2026-05-21T16:31:28Z</time></trkpt><trkpt lat="44.517828" lon="-110.832857"><ele>2211.084</ele><time>2026-05-21T16:31:34Z</time></trkpt><trkpt lat="44.517947" lon="-110.83292"><ele>2211.255</ele><time>2026-05-21T16:31:46Z</time></trkpt><trkpt lat="44.518063" lon="-110.832962"><ele>2211.291</ele><time>2026-05-21T16:31:57Z</time></trkpt><trkpt lat="44.518134" lon="-110.832978"><ele>2211.630</ele><time>2026-05-21T16:32:07Z</time></trkpt><trkpt lat="44.518158" lon="-110.832992"><ele>2211.628</ele><time>2026-05-21T16:32:11Z</time></trkpt><trkpt lat="44.518218" lon="-110.833029"><ele>2211.889</ele><time>2026-05-21T16:32:17Z</time></trkpt><trkpt lat="44.518316" lon="-110.833069"><ele>2212.217</ele><time>2026-05-21T16:32:27Z</time></trkpt><trkpt lat="44.518414" lon="-110.833147"><ele>2212.209</ele><time>2026-05-21T16:32:38Z</time></trkpt><trkpt lat="44.518501" lon="-110.833184"><ele>2212.224</ele><time>2026-05-21T16:32:47Z</time></trkpt><trkpt lat="44.518585" lon="-110.833223"><ele>2212.648</ele><time>2026-05-21T16:32:55Z</time></trkpt><trkpt lat="44.518634" lon="-110.833239"><ele>2212.887</ele><time>2026-05-21T16:32:59Z</time></trkpt><trkpt lat="44.518756" lon="-110.833267"><ele>2212.247</ele><time>2026-05-21T16:33:11Z</time></trkpt><trkpt lat="44.518765" lon="-110.83327"><ele>2212.038</ele><time>2026-05-21T16:33:12Z</time></trkpt><trkpt lat="44.518843" lon="-110.833275"><ele>2211.632</ele><time>2026-05-21T16:33:19Z</time></trkpt><trkpt lat="44.518891" lon="-110.83328"><ele>2211.273</ele><time>2026-05-21T16:33:24Z</time></trkpt><trkpt lat="44.519029" lon="-110.833299"><ele>2211.249</ele><time>2026-05-21T16:33:36Z</time></trkpt><trkpt lat="44.519052" lon="-110.833302"><ele>2210.648</ele><time>2026-05-21T16:33:39Z</time></trkpt><trkpt lat="44.51911" lon="-110.833305"><ele>2210.474</ele><time>2026-05-21T16:33:44Z</time></trkpt><trkpt lat="44.519216" lon="-110.83332"><ele>2210.456</ele><time>2026-05-21T16:33:54Z</time></trkpt><trkpt lat="44.519228" lon="-110.833318"><ele>2210.421</ele><time>2026-05-21T16:33:55Z</time></trkpt><trkpt lat="44.519329" lon="-110.833299"><ele>2210.409</ele><time>2026-05-21T16:34:05Z</time></trkpt><trkpt lat="44.519417" lon="-110.833311"><ele>2210.019</ele><time>2026-05-21T16:34:15Z</time></trkpt><trkpt lat="44.519496" lon="-110.833338"><ele>2211.063</ele><time>2026-05-21T16:34:23Z</time></trkpt><trkpt lat="44.519574" lon="-110.833364"><ele>2209.412</ele><time>2026-05-21T16:34:31Z</time></trkpt><trkpt lat="44.51958" lon="-110.833368"><ele>2209.282</ele><time>2026-05-21T16:34:32Z</time></trkpt><trkpt lat="44.519609" lon="-110.833372"><ele>2209.063</ele><time>2026-05-21T16:34:35Z</time></trkpt><trkpt lat="44.519662" lon="-110.83338"><ele>2208.637</ele><time>2026-05-21T16:34:40Z</time></trkpt><trkpt lat="44.519724" lon="-110.83338"><ele>2208.498</ele><time>2026-05-21T16:34:46Z</time></trkpt><trkpt lat="44.519758" lon="-110.833384"><ele>2208.274</ele><time>2026-05-21T16:34:49Z</time></trkpt><trkpt lat="44.519824" lon="-110.833376"><ele>2208.053</ele><time>2026-05-21T16:34:54Z</time></trkpt><trkpt lat="44.519867" lon="-110.833389"><ele>2208.699</ele><time>2026-05-21T16:34:58Z</time></trkpt><trkpt lat="44.519876" lon="-110.833392"><ele>2208.607</ele><time>2026-05-21T16:34:59Z</time></trkpt><trkpt lat="44.519949" lon="-110.833425"><ele>2208.827</ele><time>2026-05-21T16:35:07Z</time></trkpt><trkpt lat="44.519994" lon="-110.833478"><ele>2209.409</ele><time>2026-05-21T16:35:12Z</time></trkpt><trkpt lat="44.520035" lon="-110.833504"><ele>2209.241</ele><time>2026-05-21T16:35:16Z</time></trkpt><trkpt lat="44.520126" lon="-110.83354"><ele>2209.275</ele><time>2026-05-21T16:35:25Z</time></trkpt><trkpt lat="44.520224" lon="-110.833587"><ele>2209.264</ele><time>2026-05-21T16:35:35Z</time></trkpt><trkpt lat="44.520298" lon="-110.833653"><ele>2209.044</ele><time>2026-05-21T16:35:44Z</time></trkpt><trkpt lat="44.520366" lon="-110.833687"><ele>2209.035</ele><time>2026-05-21T16:35:51Z</time></trkpt><trkpt lat="44.52039" lon="-110.833691"><ele>2209.279</ele><time>2026-05-21T16:35:53Z</time></trkpt><trkpt lat="44.520484" lon="-110.833717"><ele>2209.420</ele><time>2026-05-21T16:36:03Z</time></trkpt><trkpt lat="44.520577" lon="-110.833749"><ele>2210.236</ele><time>2026-05-21T16:36:13Z</time></trkpt><trkpt lat="44.520665" lon="-110.833814"><ele>2210.065</ele><time>2026-05-21T16:36:23Z</time></trkpt><trkpt lat="44.52075" lon="-110.83393"><ele>2209.475</ele><time>2026-05-21T16:36:35Z</time></trkpt><trkpt lat="44.520833" lon="-110.834056"><ele>2209.228</ele><time>2026-05-21T16:36:46Z</time></trkpt><trkpt lat="44.520841" lon="-110.834067"><ele>2209.220</ele><time>2026-05-21T16:36:47Z</time></trkpt><trkpt lat="44.520901" lon="-110.834149"><ele>2208.809</ele><time>2026-05-21T16:36:55Z</time></trkpt><trkpt lat="44.52092" lon="-110.834167"><ele>2208.829</ele><time>2026-05-21T16:36:57Z</time></trkpt><trkpt lat="44.520989" lon="-110.834267"><ele>2209.023</ele><time>2026-05-21T16:37:07Z</time></trkpt><trkpt lat="44.521043" lon="-110.834358"><ele>2208.622</ele><time>2026-05-21T16:37:16Z</time></trkpt><trkpt lat="44.521116" lon="-110.834489"><ele>2208.642</ele><time>2026-05-21T16:37:27Z</time></trkpt><trkpt lat="44.521189" lon="-110.834612"><ele>2209.493</ele><time>2026-05-21T16:37:38Z</time></trkpt><trkpt lat="44.521265" lon="-110.83474"><ele>2209.697</ele><time>2026-05-21T16:37:50Z</time></trkpt><trkpt lat="44.521341" lon="-110.834856"><ele>2209.418</ele><time>2026-05-21T16:38:00Z</time></trkpt><trkpt lat="44.521409" lon="-110.83498"><ele>2209.854</ele><time>2026-05-21T16:38:10Z</time></trkpt><trkpt lat="44.521487" lon="-110.83509"><ele>2210.043</ele><time>2026-05-21T16:38:21Z</time></trkpt><trkpt lat="44.521554" lon="-110.835202"><ele>2210.427</ele><time>2026-05-21T16:38:31Z</time></trkpt><trkpt lat="44.521622" lon="-110.835316"><ele>2210.268</ele><time>2026-05-21T16:38:42Z</time></trkpt><trkpt lat="44.52166" lon="-110.835376"><ele>2210.614</ele><time>2026-05-21T16:38:47Z</time></trkpt><trkpt lat="44.521704" lon="-110.835444"><ele>2210.809</ele><time>2026-05-21T16:38:53Z</time></trkpt><trkpt lat="44.521758" lon="-110.835565"><ele>2210.614</ele><time>2026-05-21T16:39:03Z</time></trkpt><trkpt lat="44.52184" lon="-110.835668"><ele>2210.698</ele><time>2026-05-21T16:39:14Z</time></trkpt><trkpt lat="44.521906" lon="-110.835721"><ele>2211.477</ele><time>2026-05-21T16:39:23Z</time></trkpt><trkpt lat="44.521958" lon="-110.835829"><ele>2211.467</ele><time>2026-05-21T16:39:31Z</time></trkpt><trkpt lat="44.522022" lon="-110.835917"><ele>2211.448</ele><time>2026-05-21T16:39:40Z</time></trkpt><trkpt lat="44.522037" lon="-110.83594"><ele>2211.682</ele><time>2026-05-21T16:39:42Z</time></trkpt><trkpt lat="44.522111" lon="-110.836058"><ele>2212.063</ele><time>2026-05-21T16:39:52Z</time></trkpt><trkpt lat="44.522169" lon="-110.836146"><ele>2212.629</ele><time>2026-05-21T16:40:01Z</time></trkpt><trkpt lat="44.522176" lon="-110.836158"><ele>2212.688</ele><time>2026-05-21T16:40:02Z</time></trkpt><trkpt lat="44.522198" lon="-110.836187"><ele>2212.897</ele><time>2026-05-21T16:40:05Z</time></trkpt><trkpt lat="44.522236" lon="-110.836243"><ele>2213.223</ele><time>2026-05-21T16:40:10Z</time></trkpt><trkpt lat="44.522275" lon="-110.836296"><ele>2213.425</ele><time>2026-05-21T16:40:15Z</time></trkpt><trkpt lat="44.5223" lon="-110.836322"><ele>2213.609</ele><time>2026-05-21T16:40:18Z</time></trkpt><trkpt lat="44.522342" lon="-110.83639"><ele>2214.451</ele><time>2026-05-21T16:40:24Z</time></trkpt><trkpt lat="44.522363" lon="-110.836421"><ele>2214.685</ele><time>2026-05-21T16:40:27Z</time></trkpt><trkpt lat="44.522426" lon="-110.836516"><ele>2215.844</ele><time>2026-05-21T16:40:36Z</time></trkpt><trkpt lat="44.522433" lon="-110.836528"><ele>2215.844</ele><time>2026-05-21T16:40:37Z</time></trkpt><trkpt lat="44.522507" lon="-110.836647"><ele>2216.465</ele><time>2026-05-21T16:40:48Z</time></trkpt><trkpt lat="44.522566" lon="-110.836765"><ele>2216.439</ele><time>2026-05-21T16:40:58Z</time></trkpt><trkpt lat="44.522613" lon="-110.836843"><ele>2216.640</ele><time>2026-05-21T16:41:05Z</time></trkpt><trkpt lat="44.52262" lon="-110.836854"><ele>2216.676</ele><time>2026-05-21T16:41:06Z</time></trkpt><trkpt lat="44.52264" lon="-110.836888"><ele>2216.835</ele><time>2026-05-21T16:41:09Z</time></trkpt><trkpt lat="44.522647" lon="-110.836898"><ele>2216.899</ele><time>2026-05-21T16:41:10Z</time></trkpt><trkpt lat="44.522661" lon="-110.836944"><ele>2217.007</ele><time>2026-05-21T16:41:14Z</time></trkpt><trkpt lat="44.522672" lon="-110.836976"><ele>2217.027</ele><time>2026-05-21T16:41:17Z</time></trkpt><trkpt lat="44.522728" lon="-110.837057"><ele>2217.009</ele><time>2026-05-21T16:41:25Z</time></trkpt><trkpt lat="44.522738" lon="-110.837144"><ele>2217.691</ele><time>2026-05-21T16:41:33Z</time></trkpt><trkpt lat="44.522739" lon="-110.83716"><ele>2217.895</ele><time>2026-05-21T16:41:34Z</time></trkpt><trkpt lat="44.522743" lon="-110.83726"><ele>2218.694</ele><time>2026-05-21T16:41:43Z</time></trkpt><trkpt lat="44.522745" lon="-110.837307"><ele>2218.864</ele><time>2026-05-21T16:41:47Z</time></trkpt><trkpt lat="44.522754" lon="-110.837377"><ele>2219.495</ele><time>2026-05-21T16:41:53Z</time></trkpt><trkpt lat="44.522795" lon="-110.837486"><ele>2219.229</ele><time>2026-05-21T16:42:03Z</time></trkpt><trkpt lat="44.522834" lon="-110.837581"><ele>2219.890</ele><time>2026-05-21T16:42:15Z</time></trkpt><trkpt lat="44.522889" lon="-110.837675"><ele>2221.016</ele><time>2026-05-21T16:42:25Z</time></trkpt><trkpt lat="44.52292" lon="-110.837718"><ele>2222.055</ele><time>2026-05-21T16:42:32Z</time></trkpt><trkpt lat="44.522926" lon="-110.837735"><ele>2222.291</ele><time>2026-05-21T16:42:34Z</time></trkpt><trkpt lat="44.52293" lon="-110.837744"><ele>2222.481</ele><time>2026-05-21T16:42:35Z</time></trkpt><trkpt lat="44.522968" lon="-110.837817"><ele>2223.219</ele><time>2026-05-21T16:42:42Z</time></trkpt><trkpt lat="44.522981" lon="-110.837841"><ele>2223.809</ele><time>2026-05-21T16:42:46Z</time></trkpt><trkpt lat="44.523001" lon="-110.837868"><ele>2224.241</ele><time>2026-05-21T16:42:50Z</time></trkpt><trkpt lat="44.523027" lon="-110.837915"><ele>2224.835</ele><time>2026-05-21T16:42:57Z</time></trkpt><trkpt lat="44.523043" lon="-110.837938"><ele>2225.254</ele><time>2026-05-21T16:43:02Z</time></trkpt><trkpt lat="44.523058" lon="-110.837977"><ele>2225.644</ele><time>2026-05-21T16:43:07Z</time></trkpt><trkpt lat="44.523067" lon="-110.838"><ele>2226.025</ele><time>2026-05-21T16:43:10Z</time></trkpt><trkpt lat="44.523085" lon="-110.838043"><ele>2226.489</ele><time>2026-05-21T16:43:16Z</time></trkpt><trkpt lat="44.523097" lon="-110.838076"><ele>2226.830</ele><time>2026-05-21T16:43:21Z</time></trkpt><trkpt lat="44.523119" lon="-110.838119"><ele>2227.246</ele><time>2026-05-21T16:43:27Z</time></trkpt><trkpt lat="44.523121" lon="-110.838125"><ele>2227.485</ele><time>2026-05-21T16:43:28Z</time></trkpt><trkpt lat="44.52313" lon="-110.838149"><ele>2227.637</ele><time>2026-05-21T16:43:31Z</time></trkpt><trkpt lat="44.523135" lon="-110.838162"><ele>2227.849</ele><time>2026-05-21T16:43:33Z</time></trkpt><trkpt lat="44.523144" lon="-110.838182"><ele>2227.813</ele><time>2026-05-21T16:43:36Z</time></trkpt><trkpt lat="44.52316" lon="-110.838218"><ele>2228.409</ele><time>2026-05-21T16:43:40Z</time></trkpt><trkpt lat="44.523165" lon="-110.838229"><ele>2228.675</ele><time>2026-05-21T16:43:41Z</time></trkpt><trkpt lat="44.523186" lon="-110.838282"><ele>2229.629</ele><time>2026-05-21T16:43:47Z</time></trkpt><trkpt lat="44.523196" lon="-110.838327"><ele>2230.248</ele><time>2026-05-21T16:43:52Z</time></trkpt><trkpt lat="44.523203" lon="-110.838367"><ele>2230.668</ele><time>2026-05-21T16:43:56Z</time></trkpt><trkpt lat="44.523206" lon="-110.838442"><ele>2231.449</ele><time>2026-05-21T16:44:03Z</time></trkpt><trkpt lat="44.523205" lon="-110.838476"><ele>2231.693</ele><time>2026-05-21T16:44:06Z</time></trkpt><trkpt lat="44.523203" lon="-110.838514"><ele>2232.064</ele><time>2026-05-21T16:44:10Z</time></trkpt><trkpt lat="44.523213" lon="-110.838581"><ele>2232.820</ele><time>2026-05-21T16:44:15Z</time></trkpt><trkpt lat="44.523239" lon="-110.838676"><ele>2233.879</ele><time>2026-05-21T16:44:23Z</time></trkpt><trkpt lat="44.523242" lon="-110.838688"><ele>2234.071</ele><time>2026-05-21T16:44:24Z</time></trkpt><trkpt lat="44.52326" lon="-110.838771"><ele>2234.841</ele><time>2026-05-21T16:44:32Z</time></trkpt><trkpt lat="44.523257" lon="-110.838799"><ele>2235.215</ele><time>2026-05-21T16:44:34Z</time></trkpt><trkpt lat="44.523258" lon="-110.838872"><ele>2235.609</ele><time>2026-05-21T16:44:39Z</time></trkpt><trkpt lat="44.523256" lon="-110.838884"><ele>2235.699</ele><time>2026-05-21T16:44:40Z</time></trkpt><trkpt lat="44.523254" lon="-110.838891"><ele>2235.843</ele><time>2026-05-21T16:44:41Z</time></trkpt><trkpt lat="44.523244" lon="-110.838924"><ele>2236.092</ele><time>2026-05-21T16:44:45Z</time></trkpt><trkpt lat="44.523239" lon="-110.838934"><ele>2236.062</ele><time>2026-05-21T16:44:46Z</time></trkpt><trkpt lat="44.523228" lon="-110.838954"><ele>2236.423</ele><time>2026-05-21T16:44:50Z</time></trkpt><trkpt lat="44.52322" lon="-110.838964"><ele>2236.487</ele><time>2026-05-21T16:44:52Z</time></trkpt><trkpt lat="44.523211" lon="-110.838975"><ele>2236.638</ele><time>2026-05-21T16:44:54Z</time></trkpt><trkpt lat="44.523208" lon="-110.83898"><ele>2236.614</ele><time>2026-05-21T16:44:55Z</time></trkpt><trkpt lat="44.523193" lon="-110.839013"><ele>2237.043</ele><time>2026-05-21T16:44:58Z</time></trkpt><trkpt lat="44.523185" lon="-110.839063"><ele>2237.419</ele><time>2026-05-21T16:45:03Z</time></trkpt><trkpt lat="44.523181" lon="-110.83909"><ele>2237.609</ele><time>2026-05-21T16:45:05Z</time></trkpt><trkpt lat="44.523175" lon="-110.839142"><ele>2237.819</ele><time>2026-05-21T16:45:10Z</time></trkpt><trkpt lat="44.523174" lon="-110.839149"><ele>2238.009</ele><time>2026-05-21T16:45:11Z</time></trkpt><trkpt lat="44.523163" lon="-110.839179"><ele>2238.493</ele><time>2026-05-21T16:45:15Z</time></trkpt><trkpt lat="44.523147" lon="-110.839229"><ele>2239.037</ele><time>2026-05-21T16:45:21Z</time></trkpt><trkpt lat="44.523141" lon="-110.839253"><ele>2239.056</ele><time>2026-05-21T16:45:23Z</time></trkpt><trkpt lat="44.523138" lon="-110.839279"><ele>2239.296</ele><time>2026-05-21T16:45:26Z</time></trkpt><trkpt lat="44.523115" lon="-110.839377"><ele>2239.867</ele><time>2026-05-21T16:45:36Z</time></trkpt><trkpt lat="44.52311" lon="-110.839392"><ele>2240.091</ele><time>2026-05-21T16:45:38Z</time></trkpt><trkpt lat="44.523092" lon="-110.839489"><ele>2241.212</ele><time>2026-05-21T16:45:48Z</time></trkpt><trkpt lat="44.523081" lon="-110.839582"><ele>2242.258</ele><time>2026-05-21T16:45:56Z</time></trkpt><trkpt lat="44.523079" lon="-110.839592"><ele>2242.417</ele><time>2026-05-21T16:45:57Z</time></trkpt><trkpt lat="44.523059" lon="-110.83964"><ele>2243.037</ele><time>2026-05-21T16:46:05Z</time></trkpt><trkpt lat="44.523057" lon="-110.839654"><ele>2243.049</ele><time>2026-05-21T16:46:06Z</time></trkpt><trkpt lat="44.523083" lon="-110.839774"><ele>2243.013</ele><time>2026-05-21T16:46:13Z</time></trkpt><trkpt lat="44.523097" lon="-110.839789"><ele>2243.009</ele><time>2026-05-21T16:46:15Z</time></trkpt><trkpt lat="44.523165" lon="-110.839869"><ele>2242.245</ele><time>2026-05-21T16:46:26Z</time></trkpt><trkpt lat="44.523247" lon="-110.839878"><ele>2241.699</ele><time>2026-05-21T16:46:33Z</time></trkpt><trkpt lat="44.523297" lon="-110.839914"><ele>2242.628</ele><time>2026-05-21T16:46:41Z</time></trkpt><trkpt lat="44.5233" lon="-110.839918"><ele>2242.858</ele><time>2026-05-21T16:46:42Z</time></trkpt><trkpt lat="44.523311" lon="-110.839933"><ele>2243.229</ele><time>2026-05-21T16:46:45Z</time></trkpt><trkpt lat="44.523346" lon="-110.839971"><ele>2243.663</ele><time>2026-05-21T16:46:52Z</time></trkpt><trkpt lat="44.52335" lon="-110.839979"><ele>2243.674</ele><time>2026-05-21T16:46:53Z</time></trkpt><trkpt lat="44.523374" lon="-110.840004"><ele>2243.890</ele><time>2026-05-21T16:46:56Z</time></trkpt><trkpt lat="44.523398" lon="-110.840072"><ele>2244.219</ele><time>2026-05-21T16:47:03Z</time></trkpt><trkpt lat="44.523396" lon="-110.840096"><ele>2244.254</ele><time>2026-05-21T16:47:05Z</time></trkpt><trkpt lat="44.523426" lon="-110.840201"><ele>2245.456</ele><time>2026-05-21T16:47:15Z</time></trkpt><trkpt lat="44.52343" lon="-110.840255"><ele>2245.811</ele><time>2026-05-21T16:47:20Z</time></trkpt><trkpt lat="44.523439" lon="-110.840286"><ele>2246.009</ele><time>2026-05-21T16:47:23Z</time></trkpt><trkpt lat="44.523475" lon="-110.840276"><ele>2246.227</ele><time>2026-05-21T16:47:30Z</time></trkpt><trkpt lat="44.523479" lon="-110.840246"><ele>2246.471</ele><time>2026-05-21T16:47:32Z</time></trkpt><trkpt lat="44.523485" lon="-110.840171"><ele>2247.260</ele><time>2026-05-21T16:47:39Z</time></trkpt><trkpt lat="44.523492" lon="-110.840135"><ele>2247.680</ele><time>2026-05-21T16:47:42Z</time></trkpt><trkpt lat="44.523496" lon="-110.84009"><ele>2248.271</ele><time>2026-05-21T16:47:48Z</time></trkpt><trkpt lat="44.5235" lon="-110.84005"><ele>2248.695</ele><time>2026-05-21T16:47:55Z</time></trkpt><trkpt lat="44.523504" lon="-110.840044"><ele>2248.826</ele><time>2026-05-21T16:47:56Z</time></trkpt><trkpt lat="44.523529" lon="-110.840017"><ele>2249.022</ele><time>2026-05-21T16:48:04Z</time></trkpt><trkpt lat="44.523533" lon="-110.840001"><ele>2249.421</ele><time>2026-05-21T16:48:10Z</time></trkpt><trkpt lat="44.523533" lon="-110.839982"><ele>2249.225</ele><time>2026-05-21T16:48:13Z</time></trkpt><trkpt lat="44.523535" lon="-110.839978"><ele>2249.226</ele><time>2026-05-21T16:48:23Z</time></trkpt><trkpt lat="44.523532" lon="-110.840007"><ele>2248.808</ele><time>2026-05-21T16:48:27Z</time></trkpt><trkpt lat="44.523531" lon="-110.840029"><ele>2248.809</ele><time>2026-05-21T16:48:30Z</time></trkpt><trkpt lat="44.523553" lon="-110.840044"><ele>2249.094</ele><time>2026-05-21T16:48:38Z</time></trkpt><trkpt lat="44.523557" lon="-110.840047"><ele>2249.078</ele><time>2026-05-21T16:48:52Z</time></trkpt><trkpt lat="44.523561" lon="-110.840058"><ele>2249.037</ele><time>2026-05-21T16:48:59Z</time></trkpt><trkpt lat="44.523567" lon="-110.840057"><ele>2248.647</ele><time>2026-05-21T16:49:04Z</time></trkpt><trkpt lat="44.523563" lon="-110.840038"><ele>2248.678</ele><time>2026-05-21T16:49:12Z</time></trkpt><trkpt lat="44.523568" lon="-110.840037"><ele>2248.462</ele><time>2026-05-21T16:49:20Z</time></trkpt><trkpt lat="44.523549" lon="-110.840039"><ele>2248.813</ele><time>2026-05-21T16:49:29Z</time></trkpt><trkpt lat="44.523537" lon="-110.840041"><ele>2248.449</ele><time>2026-05-21T16:49:36Z</time></trkpt><trkpt lat="44.523554" lon="-110.840045"><ele>2248.458</ele><time>2026-05-21T16:49:53Z</time></trkpt><trkpt lat="44.523554" lon="-110.840045"><ele>2248.839</ele><time>2026-05-21T16:49:57Z</time></trkpt><trkpt lat="44.523554" lon="-110.840045"><ele>2248.601</ele><time>2026-05-21T16:50:12Z</time></trkpt><trkpt lat="44.523554" lon="-110.840045"><ele>2248.421</ele><time>2026-05-21T16:50:14Z</time></trkpt><trkpt lat="44.523554" lon="-110.840045"><ele>2248.209</ele><time>2026-05-21T16:50:18Z</time></trkpt><trkpt lat="44.523554" lon="-110.840045"><ele>2248.015</ele><time>2026-05-21T16:50:28Z</time></trkpt><trkpt lat="44.523554" lon="-110.840045"><ele>2248.029</ele><time>2026-05-21T16:50:29Z</time></trkpt><trkpt lat="44.523554" lon="-110.840045"><ele>2248.218</ele><time>2026-05-21T16:50:32Z</time></trkpt><trkpt lat="44.523554" lon="-110.840045"><ele>2248.068</ele><time>2026-05-21T16:50:36Z</time></trkpt><trkpt lat="44.523554" lon="-110.840045"><ele>2248.069</ele><time>2026-05-21T16:50:46Z</time></trkpt><trkpt lat="44.523554" lon="-110.840045"><ele>2247.653</ele><time>2026-05-21T16:50:49Z</time></trkpt><trkpt lat="44.523554" lon="-110.840045"><ele>2247.644</ele><time>2026-05-21T16:50:51Z</time></trkpt><trkpt lat="44.523554" lon="-110.840045"><ele>2248.070</ele><time>2026-05-21T16:50:56Z</time></trkpt><trkpt lat="44.523554" lon="-110.840045"><ele>2248.289</ele><time>2026-05-21T16:51:01Z</time></trkpt><trkpt lat="44.523551" lon="-110.840054"><ele>2248.681</ele><time>2026-05-21T16:51:07Z</time></trkpt><trkpt lat="44.523552" lon="-110.840048"><ele>2248.661</ele><time>2026-05-21T16:51:10Z</time></trkpt><trkpt lat="44.523544" lon="-110.840054"><ele>2247.817</ele><time>2026-05-21T16:51:19Z</time></trkpt><trkpt lat="44.523532" lon="-110.840058"><ele>2248.009</ele><time>2026-05-21T16:51:31Z</time></trkpt><trkpt lat="44.523532" lon="-110.840058"><ele>2248.080</ele><time>2026-05-21T16:51:45Z</time></trkpt><trkpt lat="44.523532" lon="-110.840058"><ele>2247.674</ele><time>2026-05-21T16:51:52Z</time></trkpt><trkpt lat="44.523532" lon="-110.840058"><ele>2247.413</ele><time>2026-05-21T16:51:59Z</time></trkpt><trkpt lat="44.523542" lon="-110.840043"><ele>2248.073</ele><time>2026-05-21T16:52:06Z</time></trkpt><trkpt lat="44.523542" lon="-110.840043"><ele>2247.824</ele><time>2026-05-21T16:52:15Z</time></trkpt><trkpt lat="44.523542" lon="-110.840043"><ele>2247.668</ele><time>2026-05-21T16:52:21Z</time></trkpt><trkpt lat="44.523542" lon="-110.840043"><ele>2247.699</ele><time>2026-05-21T16:52:31Z</time></trkpt><trkpt lat="44.523542" lon="-110.840043"><ele>2247.815</ele><time>2026-05-21T16:52:33Z</time></trkpt><trkpt lat="44.523538" lon="-110.840043"><ele>2247.894</ele><time>2026-05-21T16:52:36Z</time></trkpt><trkpt lat="44.523531" lon="-110.840046"><ele>2247.451</ele><time>2026-05-21T16:52:44Z</time></trkpt><trkpt lat="44.523522" lon="-110.84005"><ele>2247.401</ele><time>2026-05-21T16:52:51Z</time></trkpt><trkpt lat="44.523523" lon="-110.84005"><ele>2247.411</ele><time>2026-05-21T16:52:55Z</time></trkpt><trkpt lat="44.523553" lon="-110.840035"><ele>2247.009</ele><time>2026-05-21T16:53:12Z</time></trkpt><trkpt lat="44.523544" lon="-110.840041"><ele>2246.637</ele><time>2026-05-21T16:53:18Z</time></trkpt><trkpt lat="44.523542" lon="-110.840043"><ele>2246.821</ele><time>2026-05-21T16:53:21Z</time></trkpt><trkpt lat="44.523541" lon="-110.840045"><ele>2246.860</ele><time>2026-05-21T16:53:23Z</time></trkpt><trkpt lat="44.523542" lon="-110.840043"><ele>2246.890</ele><time>2026-05-21T16:53:41Z</time></trkpt><trkpt lat="44.523534" lon="-110.840047"><ele>2246.661</ele><time>2026-05-21T16:53:44Z</time></trkpt><trkpt lat="44.523512" lon="-110.84005"><ele>2246.885</ele><time>2026-05-21T16:53:52Z</time></trkpt><trkpt lat="44.523524" lon="-110.840056"><ele>2246.626</ele><time>2026-05-21T16:53:59Z</time></trkpt><trkpt lat="44.523529" lon="-110.84006"><ele>2246.632</ele><time>2026-05-21T16:54:05Z</time></trkpt><trkpt lat="44.523534" lon="-110.840058"><ele>2246.671</ele><time>2026-05-21T16:54:09Z</time></trkpt><trkpt lat="44.52354" lon="-110.840054"><ele>2246.647</ele><time>2026-05-21T16:54:11Z</time></trkpt><trkpt lat="44.523547" lon="-110.840054"><ele>2246.829</ele><time>2026-05-21T16:54:24Z</time></trkpt><trkpt lat="44.523549" lon="-110.840052"><ele>2246.821</ele><time>2026-05-21T16:54:25Z</time></trkpt><trkpt lat="44.523542" lon="-110.840043"><ele>2246.809</ele><time>2026-05-21T16:54:34Z</time></trkpt><trkpt lat="44.523542" lon="-110.840043"><ele>2246.676</ele><time>2026-05-21T16:54:46Z</time></trkpt><trkpt lat="44.523542" lon="-110.840043"><ele>2246.630</ele><time>2026-05-21T16:54:48Z</time></trkpt><trkpt lat="44.523542" lon="-110.840043"><ele>2246.869</ele><time>2026-05-21T16:55:00Z</time></trkpt><trkpt lat="44.523542" lon="-110.840043"><ele>2246.459</ele><time>2026-05-21T16:55:16Z</time></trkpt><trkpt lat="44.523542" lon="-110.840043"><ele>2246.430</ele><time>2026-05-21T16:55:29Z</time></trkpt><trkpt lat="44.523528" lon="-110.840035"><ele>2246.284</ele><time>2026-05-21T16:55:38Z</time></trkpt><trkpt lat="44.523527" lon="-110.840056"><ele>2246.235</ele><time>2026-05-21T16:55:45Z</time></trkpt><trkpt lat="44.523547" lon="-110.84005"><ele>2246.291</ele><time>2026-05-21T16:55:56Z</time></trkpt><trkpt lat="44.52354" lon="-110.840049"><ele>2246.010</ele><time>2026-05-21T16:56:07Z</time></trkpt><trkpt lat="44.523538" lon="-110.840048"><ele>2245.837</ele><time>2026-05-21T16:56:13Z</time></trkpt><trkpt lat="44.523539" lon="-110.840047"><ele>2245.649</ele><time>2026-05-21T16:56:15Z</time></trkpt><trkpt lat="44.52354" lon="-110.840057"><ele>2245.613</ele><time>2026-05-21T16:56:20Z</time></trkpt><trkpt lat="44.523544" lon="-110.840053"><ele>2245.409</ele><time>2026-05-21T16:56:32Z</time></trkpt><trkpt lat="44.523544" lon="-110.840053"><ele>2245.635</ele><time>2026-05-21T16:56:38Z</time></trkpt><trkpt lat="44.523539" lon="-110.840063"><ele>2245.619</ele><time>2026-05-21T16:56:42Z</time></trkpt><trkpt lat="44.523525" lon="-110.840059"><ele>2245.698</ele><time>2026-05-21T16:56:52Z</time></trkpt><trkpt lat="44.52353" lon="-110.840066"><ele>2245.878</ele><time>2026-05-21T16:57:05Z</time></trkpt><trkpt lat="44.523539" lon="-110.840048"><ele>2245.639</ele><time>2026-05-21T16:57:17Z</time></trkpt><trkpt lat="44.52353" lon="-110.840054"><ele>2245.663</ele><time>2026-05-21T16:57:21Z</time></trkpt><trkpt lat="44.523531" lon="-110.840067"><ele>2245.644</ele><time>2026-05-21T16:57:27Z</time></trkpt><trkpt lat="44.523539" lon="-110.840065"><ele>2245.630</ele><time>2026-05-21T16:57:38Z</time></trkpt><trkpt lat="44.523544" lon="-110.840058"><ele>2245.819</ele><time>2026-05-21T16:57:43Z</time></trkpt><trkpt lat="44.523543" lon="-110.840049"><ele>2246.261</ele><time>2026-05-21T16:57:49Z</time></trkpt><trkpt lat="44.523543" lon="-110.840053"><ele>2246.021</ele><time>2026-05-21T16:57:57Z</time></trkpt><trkpt lat="44.523546" lon="-110.840047"><ele>2246.213</ele><time>2026-05-21T16:58:05Z</time></trkpt><trkpt lat="44.523542" lon="-110.840043"><ele>2246.209</ele><time>2026-05-21T16:58:11Z</time></trkpt><trkpt lat="44.523538" lon="-110.840055"><ele>2246.498</ele><time>2026-05-21T16:58:17Z</time></trkpt><trkpt lat="44.523537" lon="-110.84006"><ele>2245.692</ele><time>2026-05-21T16:58:23Z</time></trkpt><trkpt lat="44.523549" lon="-110.840058"><ele>2246.471</ele><time>2026-05-21T16:58:30Z</time></trkpt><trkpt lat="44.52355" lon="-110.840057"><ele>2246.611</ele><time>2026-05-21T16:58:31Z</time></trkpt><trkpt lat="44.523557" lon="-110.840061"><ele>2245.662</ele><time>2026-05-21T16:58:38Z</time></trkpt><trkpt lat="44.523555" lon="-110.840061"><ele>2245.676</ele><time>2026-05-21T16:58:43Z</time></trkpt><trkpt lat="44.523554" lon="-110.840056"><ele>2245.657</ele><time>2026-05-21T16:58:45Z</time></trkpt><trkpt lat="44.523561" lon="-110.840059"><ele>2246.073</ele><time>2026-05-21T16:58:47Z</time></trkpt><trkpt lat="44.523564" lon="-110.840039"><ele>2246.222</ele><time>2026-05-21T16:58:52Z</time></trkpt><trkpt lat="44.523544" lon="-110.840033"><ele>2246.482</ele><time>2026-05-21T16:59:01Z</time></trkpt><trkpt lat="44.523542" lon="-110.840038"><ele>2246.443</ele><time>2026-05-21T16:59:04Z</time></trkpt><trkpt lat="44.523542" lon="-110.840043"><ele>2246.217</ele><time>2026-05-21T16:59:11Z</time></trkpt><trkpt lat="44.523542" lon="-110.840043"><ele>2246.209</ele><time>2026-05-21T16:59:18Z</time></trkpt><trkpt lat="44.523542" lon="-110.840043"><ele>2246.220</ele><time>2026-05-21T16:59:21Z</time></trkpt><trkpt lat="44.523557" lon="-110.840055"><ele>2246.484</ele><time>2026-05-21T16:59:26Z</time></trkpt><trkpt lat="44.52356" lon="-110.840042"><ele>2245.643</ele><time>2026-05-21T16:59:35Z</time></trkpt><trkpt lat="44.523559" lon="-110.840039"><ele>2245.873</ele><time>2026-05-21T16:59:53Z</time></trkpt><trkpt lat="44.523559" lon="-110.840039"><ele>2245.824</ele><time>2026-05-21T17:00:05Z</time></trkpt><trkpt lat="44.523559" lon="-110.840039"><ele>2246.038</ele><time>2026-05-21T17:00:08Z</time></trkpt><trkpt lat="44.523559" lon="-110.840039"><ele>2246.059</ele><time>2026-05-21T17:00:25Z</time></trkpt><trkpt lat="44.523559" lon="-110.840039"><ele>2246.015</ele><time>2026-05-21T17:00:26Z</time></trkpt><trkpt lat="44.523559" lon="-110.840039"><ele>2245.814</ele><time>2026-05-21T17:00:39Z</time></trkpt><trkpt lat="44.523559" lon="-110.840039"><ele>2245.855</ele><time>2026-05-21T17:00:46Z</time></trkpt><trkpt lat="44.523559" lon="-110.840039"><ele>2246.007</ele><time>2026-05-21T17:00:53Z</time></trkpt><trkpt lat="44.523559" lon="-110.840039"><ele>2245.817</ele><time>2026-05-21T17:01:00Z</time></trkpt><trkpt lat="44.523559" lon="-110.840039"><ele>2246.009</ele><time>2026-05-21T17:01:22Z</time></trkpt><trkpt lat="44.523488" lon="-110.84001"><ele>2245.627</ele><time>2026-05-21T17:01:29Z</time></trkpt><trkpt lat="44.523474" lon="-110.840065"><ele>2244.671</ele><time>2026-05-21T17:01:36Z</time></trkpt><trkpt lat="44.523479" lon="-110.840123"><ele>2244.460</ele><time>2026-05-21T17:01:41Z</time></trkpt><trkpt lat="44.523481" lon="-110.840174"><ele>2243.630</ele><time>2026-05-21T17:01:45Z</time></trkpt><trkpt lat="44.523481" lon="-110.840193"><ele>2243.421</ele><time>2026-05-21T17:01:46Z</time></trkpt><trkpt lat="44.523469" lon="-110.840301"><ele>2242.245</ele><time>2026-05-21T17:01:54Z</time></trkpt><trkpt lat="44.523474" lon="-110.840374"><ele>2241.276</ele><time>2026-05-21T17:02:00Z</time></trkpt><trkpt lat="44.523499" lon="-110.840416"><ele>2240.642</ele><time>2026-05-21T17:02:04Z</time></trkpt><trkpt lat="44.523563" lon="-110.840508"><ele>2240.621</ele><time>2026-05-21T17:02:13Z</time></trkpt><trkpt lat="44.523586" lon="-110.840546"><ele>2240.682</ele><time>2026-05-21T17:02:17Z</time></trkpt><trkpt lat="44.523608" lon="-110.840587"><ele>2240.843</ele><time>2026-05-21T17:02:23Z</time></trkpt><trkpt lat="44.523615" lon="-110.840615"><ele>2240.217</ele><time>2026-05-21T17:02:28Z</time></trkpt><trkpt lat="44.52364" lon="-110.840647"><ele>2239.009</ele><time>2026-05-21T17:02:33Z</time></trkpt><trkpt lat="44.523648" lon="-110.840645"><ele>2239.010</ele><time>2026-05-21T17:02:34Z</time></trkpt><trkpt lat="44.523657" lon="-110.840642"><ele>2238.824</ele><time>2026-05-21T17:02:35Z</time></trkpt><trkpt lat="44.523725" lon="-110.840613"><ele>2238.663</ele><time>2026-05-21T17:02:42Z</time></trkpt><trkpt lat="44.523771" lon="-110.840605"><ele>2238.053</ele><time>2026-05-21T17:02:47Z</time></trkpt><trkpt lat="44.523801" lon="-110.840601"><ele>2237.234</ele><time>2026-05-21T17:02:52Z</time></trkpt><trkpt lat="44.523818" lon="-110.840602"><ele>2236.868</ele><time>2026-05-21T17:02:54Z</time></trkpt><trkpt lat="44.523864" lon="-110.840631"><ele>2236.019</ele><time>2026-05-21T17:03:00Z</time></trkpt><trkpt lat="44.523905" lon="-110.840666"><ele>2235.825</ele><time>2026-05-21T17:03:06Z</time></trkpt><trkpt lat="44.523932" lon="-110.840693"><ele>2234.864</ele><time>2026-05-21T17:03:10Z</time></trkpt><trkpt lat="44.523969" lon="-110.840709"><ele>2233.894</ele><time>2026-05-21T17:03:15Z</time></trkpt><trkpt lat="44.523998" lon="-110.840728"><ele>2233.257</ele><time>2026-05-21T17:03:20Z</time></trkpt><trkpt lat="44.524016" lon="-110.840739"><ele>2232.822</ele><time>2026-05-21T17:03:23Z</time></trkpt><trkpt lat="44.524053" lon="-110.840767"><ele>2232.409</ele><time>2026-05-21T17:03:30Z</time></trkpt><trkpt lat="44.524093" lon="-110.840807"><ele>2231.611</ele><time>2026-05-21T17:03:36Z</time></trkpt><trkpt lat="44.524115" lon="-110.840829"><ele>2231.075</ele><time>2026-05-21T17:03:39Z</time></trkpt><trkpt lat="44.524132" lon="-110.840844"><ele>2230.474</ele><time>2026-05-21T17:03:42Z</time></trkpt><trkpt lat="44.524174" lon="-110.840884"><ele>2229.634</ele><time>2026-05-21T17:03:49Z</time></trkpt><trkpt lat="44.524166" lon="-110.840886"><ele>2230.245</ele><time>2026-05-21T17:03:56Z</time></trkpt><trkpt lat="44.524198" lon="-110.840901"><ele>2229.479</ele><time>2026-05-21T17:03:59Z</time></trkpt><trkpt lat="44.524233" lon="-110.840927"><ele>2228.240</ele><time>2026-05-21T17:04:03Z</time></trkpt><trkpt lat="44.524274" lon="-110.840976"><ele>2227.266</ele><time>2026-05-21T17:04:11Z</time></trkpt><trkpt lat="44.524277" lon="-110.840982"><ele>2227.065</ele><time>2026-05-21T17:04:12Z</time></trkpt><trkpt lat="44.524298" lon="-110.841014"><ele>2226.083</ele><time>2026-05-21T17:04:17Z</time></trkpt><trkpt lat="44.524316" lon="-110.841054"><ele>2225.025</ele><time>2026-05-21T17:04:21Z</time></trkpt><trkpt lat="44.524322" lon="-110.841065"><ele>2224.817</ele><time>2026-05-21T17:04:22Z</time></trkpt><trkpt lat="44.524348" lon="-110.84112"><ele>2223.609</ele><time>2026-05-21T17:04:28Z</time></trkpt><trkpt lat="44.52436" lon="-110.841136"><ele>2223.250</ele><time>2026-05-21T17:04:30Z</time></trkpt><trkpt lat="44.524408" lon="-110.841208"><ele>2222.674</ele><time>2026-05-21T17:04:38Z</time></trkpt><trkpt lat="44.524436" lon="-110.841238"><ele>2222.433</ele><time>2026-05-21T17:04:42Z</time></trkpt><trkpt lat="44.524462" lon="-110.841265"><ele>2222.493</ele><time>2026-05-21T17:04:46Z</time></trkpt><trkpt lat="44.524492" lon="-110.841301"><ele>2222.024</ele><time>2026-05-21T17:04:52Z</time></trkpt><trkpt lat="44.524505" lon="-110.841315"><ele>2221.668</ele><time>2026-05-21T17:04:55Z</time></trkpt><trkpt lat="44.524536" lon="-110.84134"><ele>2221.019</ele><time>2026-05-21T17:05:01Z</time></trkpt><trkpt lat="44.524559" lon="-110.841371"><ele>2220.665</ele><time>2026-05-21T17:05:06Z</time></trkpt><trkpt lat="44.524584" lon="-110.841401"><ele>2220.254</ele><time>2026-05-21T17:05:10Z</time></trkpt><trkpt lat="44.524624" lon="-110.841438"><ele>2219.693</ele><time>2026-05-21T17:05:17Z</time></trkpt><trkpt lat="44.524636" lon="-110.841444"><ele>2219.065</ele><time>2026-05-21T17:05:19Z</time></trkpt><trkpt lat="44.524649" lon="-110.841426"><ele>2218.621</ele><time>2026-05-21T17:05:23Z</time></trkpt><trkpt lat="44.524659" lon="-110.841399"><ele>2218.409</ele><time>2026-05-21T17:05:26Z</time></trkpt><trkpt lat="44.524623" lon="-110.841295"><ele>2217.631</ele><time>2026-05-21T17:05:36Z</time></trkpt><trkpt lat="44.524616" lon="-110.841277"><ele>2217.425</ele><time>2026-05-21T17:05:38Z</time></trkpt><trkpt lat="44.524595" lon="-110.84119"><ele>2216.644</ele><time>2026-05-21T17:05:46Z</time></trkpt><trkpt lat="44.524594" lon="-110.841165"><ele>2216.454</ele><time>2026-05-21T17:05:48Z</time></trkpt><trkpt lat="44.524578" lon="-110.841052"><ele>2216.025</ele><time>2026-05-21T17:05:57Z</time></trkpt><trkpt lat="44.52459" lon="-110.84094"><ele>2215.489</ele><time>2026-05-21T17:06:05Z</time></trkpt><trkpt lat="44.524589" lon="-110.840927"><ele>2215.440</ele><time>2026-05-21T17:06:06Z</time></trkpt><trkpt lat="44.524544" lon="-110.840844"><ele>2215.496</ele><time>2026-05-21T17:06:14Z</time></trkpt><trkpt lat="44.524478" lon="-110.840769"><ele>2215.645</ele><time>2026-05-21T17:06:23Z</time></trkpt><trkpt lat="44.52442" lon="-110.840674"><ele>2215.464</ele><time>2026-05-21T17:06:34Z</time></trkpt><trkpt lat="44.524356" lon="-110.840576"><ele>2215.806</ele><time>2026-05-21T17:06:45Z</time></trkpt><trkpt lat="44.524302" lon="-110.84047"><ele>2215.416</ele><time>2026-05-21T17:06:56Z</time></trkpt><trkpt lat="44.524241" lon="-110.840352"><ele>2215.609</ele><time>2026-05-21T17:07:07Z</time></trkpt><trkpt lat="44.524173" lon="-110.840221"><ele>2216.268</ele><time>2026-05-21T17:07:20Z</time></trkpt><trkpt lat="44.524154" lon="-110.840171"><ele>2216.442</ele><time>2026-05-21T17:07:24Z</time></trkpt><trkpt lat="44.524122" lon="-110.840113"><ele>2216.671</ele><time>2026-05-21T17:07:31Z</time></trkpt><trkpt lat="44.524072" lon="-110.840019"><ele>2216.451</ele><time>2026-05-21T17:07:40Z</time></trkpt><trkpt lat="44.524011" lon="-110.839924"><ele>2216.022</ele><time>2026-05-21T17:07:50Z</time></trkpt><trkpt lat="44.523957" lon="-110.839776"><ele>2215.856</ele><time>2026-05-21T17:08:01Z</time></trkpt><trkpt lat="44.523906" lon="-110.839653"><ele>2216.817</ele><time>2026-05-21T17:08:12Z</time></trkpt><trkpt lat="44.52388" lon="-110.83957"><ele>2217.433</ele><time>2026-05-21T17:08:20Z</time></trkpt><trkpt lat="44.523867" lon="-110.839518"><ele>2217.892</ele><time>2026-05-21T17:08:24Z</time></trkpt><trkpt lat="44.523849" lon="-110.839453"><ele>2218.255</ele><time>2026-05-21T17:08:29Z</time></trkpt><trkpt lat="44.523834" lon="-110.839405"><ele>2218.207</ele><time>2026-05-21T17:08:33Z</time></trkpt><trkpt lat="44.52382" lon="-110.839361"><ele>2218.217</ele><time>2026-05-21T17:08:36Z</time></trkpt><trkpt lat="44.523774" lon="-110.839236"><ele>2217.809</ele><time>2026-05-21T17:08:46Z</time></trkpt><trkpt lat="44.523739" lon="-110.839082"><ele>2217.417</ele><time>2026-05-21T17:08:57Z</time></trkpt><trkpt lat="44.52369" lon="-110.83889"><ele>2217.641</ele><time>2026-05-21T17:09:10Z</time></trkpt><trkpt lat="44.523646" lon="-110.83875"><ele>2218.260</ele><time>2026-05-21T17:09:21Z</time></trkpt><trkpt lat="44.523593" lon="-110.838598"><ele>2218.650</ele><time>2026-05-21T17:09:32Z</time></trkpt><trkpt lat="44.523587" lon="-110.838582"><ele>2218.621</ele><time>2026-05-21T17:09:33Z</time></trkpt><trkpt lat="44.523518" lon="-110.83841"><ele>2218.435</ele><time>2026-05-21T17:09:45Z</time></trkpt><trkpt lat="44.523478" lon="-110.838272"><ele>2218.446</ele><time>2026-05-21T17:09:55Z</time></trkpt><trkpt lat="44.523432" lon="-110.838161"><ele>2218.482</ele><time>2026-05-21T17:10:04Z</time></trkpt><trkpt lat="44.523361" lon="-110.837985"><ele>2219.051</ele><time>2026-05-21T17:10:17Z</time></trkpt><trkpt lat="44.523311" lon="-110.837898"><ele>2219.234</ele><time>2026-05-21T17:10:25Z</time></trkpt><trkpt lat="44.523216" lon="-110.837783"><ele>2217.655</ele><time>2026-05-21T17:10:36Z</time></trkpt><trkpt lat="44.523208" lon="-110.837772"><ele>2217.410</ele><time>2026-05-21T17:10:37Z</time></trkpt><trkpt lat="44.523133" lon="-110.83765"><ele>2216.409</ele><time>2026-05-21T17:10:47Z</time></trkpt><trkpt lat="44.523123" lon="-110.837638"><ele>2216.495</ele><time>2026-05-21T17:10:48Z</time></trkpt><trkpt lat="44.523042" lon="-110.83752"><ele>2215.669</ele><time>2026-05-21T17:10:58Z</time></trkpt><trkpt lat="44.522965" lon="-110.837392"><ele>2216.858</ele><time>2026-05-21T17:11:09Z</time></trkpt><trkpt lat="44.522891" lon="-110.837262"><ele>2217.478</ele><time>2026-05-21T17:11:20Z</time></trkpt><trkpt lat="44.522864" lon="-110.837206"><ele>2217.639</ele><time>2026-05-21T17:11:25Z</time></trkpt><trkpt lat="44.522835" lon="-110.837158"><ele>2217.663</ele><time>2026-05-21T17:11:29Z</time></trkpt><trkpt lat="44.522808" lon="-110.837116"><ele>2217.644</ele><time>2026-05-21T17:11:33Z</time></trkpt><trkpt lat="44.522769" lon="-110.837069"><ele>2217.810</ele><time>2026-05-21T17:11:37Z</time></trkpt><trkpt lat="44.522725" lon="-110.837002"><ele>2217.839</ele><time>2026-05-21T17:11:43Z</time></trkpt><trkpt lat="44.522633" lon="-110.836906"><ele>2217.846</ele><time>2026-05-21T17:11:54Z</time></trkpt><trkpt lat="44.522578" lon="-110.836797"><ele>2217.688</ele><time>2026-05-21T17:12:04Z</time></trkpt><trkpt lat="44.522515" lon="-110.836689"><ele>2217.216</ele><time>2026-05-21T17:12:14Z</time></trkpt><trkpt lat="44.522429" lon="-110.836556"><ele>2216.809</ele><time>2026-05-21T17:12:27Z</time></trkpt><trkpt lat="44.522405" lon="-110.836523"><ele>2216.416</ele><time>2026-05-21T17:12:30Z</time></trkpt><trkpt lat="44.522351" lon="-110.836448"><ele>2216.090</ele><time>2026-05-21T17:12:37Z</time></trkpt><trkpt lat="44.522278" lon="-110.836346"><ele>2215.269</ele><time>2026-05-21T17:12:46Z</time></trkpt><trkpt lat="44.522244" lon="-110.836303"><ele>2215.079</ele><time>2026-05-21T17:12:50Z</time></trkpt><trkpt lat="44.522178" lon="-110.836204"><ele>2214.270</ele><time>2026-05-21T17:12:59Z</time></trkpt><trkpt lat="44.522169" lon="-110.836193"><ele>2214.284</ele><time>2026-05-21T17:13:00Z</time></trkpt><trkpt lat="44.5221" lon="-110.836091"><ele>2213.875</ele><time>2026-05-21T17:13:09Z</time></trkpt><trkpt lat="44.522094" lon="-110.83608"><ele>2213.691</ele><time>2026-05-21T17:13:10Z</time></trkpt><trkpt lat="44.522086" lon="-110.836069"><ele>2213.630</ele><time>2026-05-21T17:13:11Z</time></trkpt><trkpt lat="44.522058" lon="-110.836037"><ele>2213.233</ele><time>2026-05-21T17:13:14Z</time></trkpt><trkpt lat="44.521981" lon="-110.835909"><ele>2212.423</ele><time>2026-05-21T17:13:25Z</time></trkpt><trkpt lat="44.521901" lon="-110.835805"><ele>2212.415</ele><time>2026-05-21T17:13:35Z</time></trkpt><trkpt lat="44.521888" lon="-110.835783"><ele>2212.209</ele><time>2026-05-21T17:13:38Z</time></trkpt><trkpt lat="44.521831" lon="-110.835697"><ele>2212.025</ele><time>2026-05-21T17:13:46Z</time></trkpt><trkpt lat="44.521754" lon="-110.835553"><ele>2212.089</ele><time>2026-05-21T17:13:57Z</time></trkpt><trkpt lat="44.52167" lon="-110.835394"><ele>2211.818</ele><time>2026-05-21T17:14:09Z</time></trkpt><trkpt lat="44.521608" lon="-110.83528"><ele>2212.028</ele><time>2026-05-21T17:14:18Z</time></trkpt><trkpt lat="44.521541" lon="-110.835163"><ele>2211.679</ele><time>2026-05-21T17:14:28Z</time></trkpt><trkpt lat="44.52145" lon="-110.835007"><ele>2211.683</ele><time>2026-05-21T17:14:41Z</time></trkpt><trkpt lat="44.521326" lon="-110.834818"><ele>2211.214</ele><time>2026-05-21T17:14:56Z</time></trkpt><trkpt lat="44.521309" lon="-110.834794"><ele>2211.060</ele><time>2026-05-21T17:14:58Z</time></trkpt><trkpt lat="44.521224" lon="-110.834641"><ele>2210.669</ele><time>2026-05-21T17:15:10Z</time></trkpt><trkpt lat="44.521139" lon="-110.834513"><ele>2210.262</ele><time>2026-05-21T17:15:21Z</time></trkpt><trkpt lat="44.52108" lon="-110.834429"><ele>2210.283</ele><time>2026-05-21T17:15:28Z</time></trkpt><trkpt lat="44.521016" lon="-110.834333"><ele>2210.011</ele><time>2026-05-21T17:15:36Z</time></trkpt><trkpt lat="44.520965" lon="-110.834244"><ele>2210.609</ele><time>2026-05-21T17:15:44Z</time></trkpt><trkpt lat="44.520948" lon="-110.834219"><ele>2210.678</ele><time>2026-05-21T17:15:46Z</time></trkpt><trkpt lat="44.52091" lon="-110.83416"><ele>2210.072</ele><time>2026-05-21T17:15:51Z</time></trkpt><trkpt lat="44.520894" lon="-110.834135"><ele>2210.031</ele><time>2026-05-21T17:15:53Z</time></trkpt><trkpt lat="44.520817" lon="-110.834028"><ele>2210.041</ele><time>2026-05-21T17:16:03Z</time></trkpt><trkpt lat="44.52072" lon="-110.833885"><ele>2209.892</ele><time>2026-05-21T17:16:16Z</time></trkpt><trkpt lat="44.520692" lon="-110.833831"><ele>2210.216</ele><time>2026-05-21T17:16:21Z</time></trkpt><trkpt lat="44.520674" lon="-110.8338"><ele>2210.677</ele><time>2026-05-21T17:16:24Z</time></trkpt><trkpt lat="44.520567" lon="-110.833723"><ele>2210.843</ele><time>2026-05-21T17:16:34Z</time></trkpt><trkpt lat="44.520558" lon="-110.833719"><ele>2210.872</ele><time>2026-05-21T17:16:35Z</time></trkpt><trkpt lat="44.520546" lon="-110.833715"><ele>2210.893</ele><time>2026-05-21T17:16:36Z</time></trkpt><trkpt lat="44.520445" lon="-110.833674"><ele>2210.065</ele><time>2026-05-21T17:16:45Z</time></trkpt><trkpt lat="44.520318" lon="-110.833608"><ele>2209.621</ele><time>2026-05-21T17:16:57Z</time></trkpt><trkpt lat="44.520193" lon="-110.833538"><ele>2209.809</ele><time>2026-05-21T17:17:09Z</time></trkpt><trkpt lat="44.520076" lon="-110.833484"><ele>2209.431</ele><time>2026-05-21T17:17:19Z</time></trkpt><trkpt lat="44.520029" lon="-110.833453"><ele>2209.065</ele><time>2026-05-21T17:17:24Z</time></trkpt><trkpt lat="44.519979" lon="-110.83343"><ele>2209.234</ele><time>2026-05-21T17:17:28Z</time></trkpt><trkpt lat="44.519869" lon="-110.833369"><ele>2209.064</ele><time>2026-05-21T17:17:38Z</time></trkpt><trkpt lat="44.519731" lon="-110.833346"><ele>2209.045</ele><time>2026-05-21T17:17:50Z</time></trkpt><trkpt lat="44.519633" lon="-110.833341"><ele>2209.659</ele><time>2026-05-21T17:18:00Z</time></trkpt><trkpt lat="44.519559" lon="-110.833336"><ele>2209.870</ele><time>2026-05-21T17:18:08Z</time></trkpt><trkpt lat="44.51947" lon="-110.833321"><ele>2210.096</ele><time>2026-05-21T17:18:16Z</time></trkpt><trkpt lat="44.51933" lon="-110.833303"><ele>2210.435</ele><time>2026-05-21T17:18:29Z</time></trkpt><trkpt lat="44.519198" lon="-110.833296"><ele>2210.661</ele><time>2026-05-21T17:18:40Z</time></trkpt><trkpt lat="44.519089" lon="-110.833286"><ele>2210.621</ele><time>2026-05-21T17:18:50Z</time></trkpt><trkpt lat="44.518994" lon="-110.833279"><ele>2211.213</ele><time>2026-05-21T17:18:59Z</time></trkpt><trkpt lat="44.518963" lon="-110.833276"><ele>2211.209</ele><time>2026-05-21T17:19:02Z</time></trkpt><trkpt lat="44.518835" lon="-110.833261"><ele>2211.618</ele><time>2026-05-21T17:19:13Z</time></trkpt><trkpt lat="44.518753" lon="-110.833255"><ele>2212.262</ele><time>2026-05-21T17:19:20Z</time></trkpt><trkpt lat="44.518695" lon="-110.833254"><ele>2213.081</ele><time>2026-05-21T17:19:26Z</time></trkpt><trkpt lat="44.51859" lon="-110.833218"><ele>2213.081</ele><time>2026-05-21T17:19:36Z</time></trkpt><trkpt lat="44.518482" lon="-110.833157"><ele>2212.822</ele><time>2026-05-21T17:19:46Z</time></trkpt><trkpt lat="44.518351" lon="-110.833092"><ele>2212.876</ele><time>2026-05-21T17:19:58Z</time></trkpt><trkpt lat="44.51824" lon="-110.833032"><ele>2212.477</ele><time>2026-05-21T17:20:09Z</time></trkpt><trkpt lat="44.518111" lon="-110.832957"><ele>2211.893</ele><time>2026-05-21T17:20:21Z</time></trkpt><trkpt lat="44.517991" lon="-110.832902"><ele>2211.842</ele><time>2026-05-21T17:20:30Z</time></trkpt><trkpt lat="44.517861" lon="-110.832857"><ele>2211.663</ele><time>2026-05-21T17:20:41Z</time></trkpt><trkpt lat="44.517831" lon="-110.83285"><ele>2211.844</ele><time>2026-05-21T17:20:44Z</time></trkpt><trkpt lat="44.517753" lon="-110.832842"><ele>2211.018</ele><time>2026-05-21T17:20:51Z</time></trkpt><trkpt lat="44.517691" lon="-110.832841"><ele>2211.009</ele><time>2026-05-21T17:20:56Z</time></trkpt><trkpt lat="44.517526" lon="-110.832848"><ele>2210.648</ele><time>2026-05-21T17:21:10Z</time></trkpt><trkpt lat="44.517372" lon="-110.832859"><ele>2210.222</ele><time>2026-05-21T17:21:23Z</time></trkpt><trkpt lat="44.517194" lon="-110.832859"><ele>2210.211</ele><time>2026-05-21T17:21:38Z</time></trkpt><trkpt lat="44.517174" lon="-110.83286"><ele>2210.011</ele><time>2026-05-21T17:21:40Z</time></trkpt><trkpt lat="44.517062" lon="-110.832857"><ele>2209.832</ele><time>2026-05-21T17:21:50Z</time></trkpt><trkpt lat="44.516947" lon="-110.832869"><ele>2209.866</ele><time>2026-05-21T17:22:00Z</time></trkpt><trkpt lat="44.516822" lon="-110.832885"><ele>2209.897</ele><time>2026-05-21T17:22:12Z</time></trkpt><trkpt lat="44.516694" lon="-110.832893"><ele>2209.433</ele><time>2026-05-21T17:22:24Z</time></trkpt><trkpt lat="44.516553" lon="-110.832908"><ele>2210.042</ele><time>2026-05-21T17:22:36Z</time></trkpt><trkpt lat="44.516424" lon="-110.832898"><ele>2209.062</ele><time>2026-05-21T17:22:47Z</time></trkpt><trkpt lat="44.516397" lon="-110.832891"><ele>2208.883</ele><time>2026-05-21T17:22:49Z</time></trkpt><trkpt lat="44.516299" lon="-110.832866"><ele>2209.011</ele><time>2026-05-21T17:22:58Z</time></trkpt><trkpt lat="44.516199" lon="-110.832812"><ele>2208.409</ele><time>2026-05-21T17:23:07Z</time></trkpt><trkpt lat="44.51617" lon="-110.832794"><ele>2208.458</ele><time>2026-05-21T17:23:10Z</time></trkpt><trkpt lat="44.516047" lon="-110.832732"><ele>2208.482</ele><time>2026-05-21T17:23:22Z</time></trkpt><trkpt lat="44.515912" lon="-110.832667"><ele>2208.821</ele><time>2026-05-21T17:23:35Z</time></trkpt><trkpt lat="44.5158" lon="-110.832611"><ele>2209.071</ele><time>2026-05-21T17:23:45Z</time></trkpt><trkpt lat="44.515695" lon="-110.832589"><ele>2209.282</ele><time>2026-05-21T17:23:54Z</time></trkpt><trkpt lat="44.515598" lon="-110.832572"><ele>2209.696</ele><time>2026-05-21T17:24:03Z</time></trkpt><trkpt lat="44.515509" lon="-110.832592"><ele>2210.097</ele><time>2026-05-21T17:24:12Z</time></trkpt><trkpt lat="44.5155" lon="-110.832597"><ele>2210.283</ele><time>2026-05-21T17:24:13Z</time></trkpt><trkpt lat="44.515405" lon="-110.832627"><ele>2210.662</ele><time>2026-05-21T17:24:22Z</time></trkpt><trkpt lat="44.515392" lon="-110.832631"><ele>2210.643</ele><time>2026-05-21T17:24:23Z</time></trkpt><trkpt lat="44.515312" lon="-110.832632"><ele>2210.664</ele><time>2026-05-21T17:24:30Z</time></trkpt><trkpt lat="44.515211" lon="-110.832598"><ele>2210.810</ele><time>2026-05-21T17:24:39Z</time></trkpt><trkpt lat="44.515158" lon="-110.832576"><ele>2211.209</ele><time>2026-05-21T17:24:44Z</time></trkpt><trkpt lat="44.515107" lon="-110.832538"><ele>2211.486</ele><time>2026-05-21T17:24:50Z</time></trkpt><trkpt lat="44.515018" lon="-110.832474"><ele>2211.470</ele><time>2026-05-21T17:24:59Z</time></trkpt><trkpt lat="44.514997" lon="-110.832457"><ele>2211.629</ele><time>2026-05-21T17:25:01Z</time></trkpt><trkpt lat="44.514958" lon="-110.832425"><ele>2212.089</ele><time>2026-05-21T17:25:05Z</time></trkpt><trkpt lat="44.514931" lon="-110.8324"><ele>2211.810</ele><time>2026-05-21T17:25:08Z</time></trkpt><trkpt lat="44.514832" lon="-110.832317"><ele>2212.094</ele><time>2026-05-21T17:25:18Z</time></trkpt><trkpt lat="44.514822" lon="-110.832309"><ele>2212.255</ele><time>2026-05-21T17:25:19Z</time></trkpt><trkpt lat="44.514741" lon="-110.832247"><ele>2212.251</ele><time>2026-05-21T17:25:27Z</time></trkpt><trkpt lat="44.514631" lon="-110.832222"><ele>2212.420</ele><time>2026-05-21T17:25:37Z</time></trkpt><trkpt lat="44.514516" lon="-110.832283"><ele>2212.034</ele><time>2026-05-21T17:25:47Z</time></trkpt><trkpt lat="44.514494" lon="-110.832299"><ele>2212.055</ele><time>2026-05-21T17:25:49Z</time></trkpt><trkpt lat="44.514464" lon="-110.832314"><ele>2211.810</ele><time>2026-05-21T17:25:52Z</time></trkpt><trkpt lat="44.514431" lon="-110.832333"><ele>2211.609</ele><time>2026-05-21T17:25:55Z</time></trkpt><trkpt lat="44.514293" lon="-110.8324"><ele>2211.485</ele><time>2026-05-21T17:26:07Z</time></trkpt><trkpt lat="44.514242" lon="-110.832439"><ele>2211.299</ele><time>2026-05-21T17:26:12Z</time></trkpt><trkpt lat="44.514232" lon="-110.832449"><ele>2211.278</ele><time>2026-05-21T17:26:13Z</time></trkpt><trkpt lat="44.514193" lon="-110.832477"><ele>2211.278</ele><time>2026-05-21T17:26:17Z</time></trkpt><trkpt lat="44.514074" lon="-110.832506"><ele>2211.299</ele><time>2026-05-21T17:26:29Z</time></trkpt><trkpt lat="44.514044" lon="-110.832509"><ele>2211.473</ele><time>2026-05-21T17:26:32Z</time></trkpt></trkseg></trk></gpx>