<?xml version="1.0" encoding="UTF-8"?><gpx creator="Wikiloc - http://www.wikiloc.com" version="1.1" xmlns="http://www.topografix.com/GPX/1/1" xmlns:xsi="http://www.w3.org/2001/XMLSchema-instance" xsi:schemaLocation="http://www.topografix.com/GPX/1/1 http://www.topografix.com/GPX/1/1/gpx.xsd"><trk><name><![CDATA[Yosemite National Park: Lower Yosemite Fall]]></name><cmt><![CDATA[Ruta circular des de Yosemite Village passant per:
- Lower Yosemite Fall (1.6 km)]]></cmt><desc><![CDATA[Ruta circular des de Yosemite Village passant per:
- Lower Yosemite Fall (1.6 km)]]></desc><trkseg><trkpt lat="37.741437" lon="-119.601403"><ele>1205.088</ele><time>2026-09-02T15:35:33Z</time></trkpt><trkpt lat="37.741392" lon="-119.601366"><ele>1204.824</ele><time>2026-09-02T15:35:40Z</time></trkpt><trkpt lat="37.741386" lon="-119.601369"><ele>1204.826</ele><time>2026-09-02T15:35:41Z</time></trkpt><trkpt lat="37.74138" lon="-119.60138"><ele>1204.809</ele><time>2026-09-02T15:35:42Z</time></trkpt><trkpt lat="37.741352" lon="-119.60139"><ele>1204.820</ele><time>2026-09-02T15:35:50Z</time></trkpt><trkpt lat="37.741377" lon="-119.601381"><ele>1204.866</ele><time>2026-09-02T15:36:01Z</time></trkpt><trkpt lat="37.741384" lon="-119.601339"><ele>1205.091</ele><time>2026-09-02T15:36:13Z</time></trkpt><trkpt lat="37.741373" lon="-119.601246"><ele>1204.833</ele><time>2026-09-02T15:36:20Z</time></trkpt><trkpt lat="37.741365" lon="-119.601137"><ele>1204.637</ele><time>2026-09-02T15:36:29Z</time></trkpt><trkpt lat="37.741367" lon="-119.601056"><ele>1204.819</ele><time>2026-09-02T15:36:38Z</time></trkpt><trkpt lat="37.741373" lon="-119.600962"><ele>1204.626</ele><time>2026-09-02T15:36:47Z</time></trkpt><trkpt lat="37.741406" lon="-119.60085"><ele>1204.495</ele><time>2026-09-02T15:36:58Z</time></trkpt><trkpt lat="37.741454" lon="-119.600745"><ele>1204.657</ele><time>2026-09-02T15:37:08Z</time></trkpt><trkpt lat="37.74147" lon="-119.600648"><ele>1204.865</ele><time>2026-09-02T15:37:17Z</time></trkpt><trkpt lat="37.741489" lon="-119.600589"><ele>1204.868</ele><time>2026-09-02T15:37:23Z</time></trkpt><trkpt lat="37.741488" lon="-119.600569"><ele>1204.814</ele><time>2026-09-02T15:37:26Z</time></trkpt><trkpt lat="37.741481" lon="-119.600558"><ele>1204.609</ele><time>2026-09-02T15:37:27Z</time></trkpt><trkpt lat="37.741454" lon="-119.600517"><ele>1204.448</ele><time>2026-09-02T15:37:33Z</time></trkpt><trkpt lat="37.741425" lon="-119.60049"><ele>1204.474</ele><time>2026-09-02T15:37:42Z</time></trkpt><trkpt lat="37.741422" lon="-119.60051"><ele>1204.299</ele><time>2026-09-02T15:37:49Z</time></trkpt><trkpt lat="37.741425" lon="-119.600527"><ele>1204.411</ele><time>2026-09-02T15:37:52Z</time></trkpt><trkpt lat="37.74142" lon="-119.60054"><ele>1204.245</ele><time>2026-09-02T15:38:03Z</time></trkpt><trkpt lat="37.741428" lon="-119.600545"><ele>1203.847</ele><time>2026-09-02T15:38:07Z</time></trkpt><trkpt lat="37.741433" lon="-119.600558"><ele>1203.634</ele><time>2026-09-02T15:38:12Z</time></trkpt><trkpt lat="37.741409" lon="-119.600552"><ele>1203.673</ele><time>2026-09-02T15:38:23Z</time></trkpt><trkpt lat="37.741403" lon="-119.600552"><ele>1203.435</ele><time>2026-09-02T15:38:34Z</time></trkpt><trkpt lat="37.741375" lon="-119.600516"><ele>1203.473</ele><time>2026-09-02T15:38:47Z</time></trkpt><trkpt lat="37.741371" lon="-119.600511"><ele>1203.485</ele><time>2026-09-02T15:38:48Z</time></trkpt><trkpt lat="37.741426" lon="-119.600524"><ele>1204.013</ele><time>2026-09-02T15:38:56Z</time></trkpt><trkpt lat="37.741425" lon="-119.600533"><ele>1204.409</ele><time>2026-09-02T15:38:59Z</time></trkpt><trkpt lat="37.741445" lon="-119.600539"><ele>1204.259</ele><time>2026-09-02T15:39:01Z</time></trkpt><trkpt lat="37.741453" lon="-119.600543"><ele>1204.235</ele><time>2026-09-02T15:39:03Z</time></trkpt><trkpt lat="37.741446" lon="-119.600539"><ele>1204.090</ele><time>2026-09-02T15:39:08Z</time></trkpt><trkpt lat="37.741432" lon="-119.600532"><ele>1204.262</ele><time>2026-09-02T15:39:10Z</time></trkpt><trkpt lat="37.741407" lon="-119.600522"><ele>1204.256</ele><time>2026-09-02T15:39:17Z</time></trkpt><trkpt lat="37.741434" lon="-119.600568"><ele>1204.238</ele><time>2026-09-02T15:39:27Z</time></trkpt><trkpt lat="37.741418" lon="-119.60059"><ele>1204.225</ele><time>2026-09-02T15:39:35Z</time></trkpt><trkpt lat="37.7414" lon="-119.600512"><ele>1204.264</ele><time>2026-09-02T15:39:44Z</time></trkpt><trkpt lat="37.74135" lon="-119.600355"><ele>1204.076</ele><time>2026-09-02T15:39:55Z</time></trkpt><trkpt lat="37.741284" lon="-119.6003"><ele>1203.866</ele><time>2026-09-02T15:40:02Z</time></trkpt><trkpt lat="37.741143" lon="-119.600261"><ele>1203.429</ele><time>2026-09-02T15:40:14Z</time></trkpt><trkpt lat="37.741076" lon="-119.600213"><ele>1203.021</ele><time>2026-09-02T15:40:23Z</time></trkpt><trkpt lat="37.741042" lon="-119.600169"><ele>1202.809</ele><time>2026-09-02T15:40:27Z</time></trkpt><trkpt lat="37.741027" lon="-119.600124"><ele>1202.868</ele><time>2026-09-02T15:40:31Z</time></trkpt><trkpt lat="37.741001" lon="-119.59999"><ele>1202.464</ele><time>2026-09-02T15:40:41Z</time></trkpt><trkpt lat="37.740971" lon="-119.599852"><ele>1202.239</ele><time>2026-09-02T15:40:51Z</time></trkpt><trkpt lat="37.741001" lon="-119.599752"><ele>1202.271</ele><time>2026-09-02T15:40:59Z</time></trkpt><trkpt lat="37.741082" lon="-119.599671"><ele>1202.435</ele><time>2026-09-02T15:41:07Z</time></trkpt><trkpt lat="37.741174" lon="-119.599611"><ele>1202.487</ele><time>2026-09-02T15:41:16Z</time></trkpt><trkpt lat="37.741256" lon="-119.599523"><ele>1202.664</ele><time>2026-09-02T15:41:26Z</time></trkpt><trkpt lat="37.741339" lon="-119.599466"><ele>1202.683</ele><time>2026-09-02T15:41:34Z</time></trkpt><trkpt lat="37.741439" lon="-119.599411"><ele>1202.865</ele><time>2026-09-02T15:41:42Z</time></trkpt><trkpt lat="37.741532" lon="-119.599369"><ele>1202.856</ele><time>2026-09-02T15:41:51Z</time></trkpt><trkpt lat="37.74162" lon="-119.599301"><ele>1203.059</ele><time>2026-09-02T15:42:00Z</time></trkpt><trkpt lat="37.741708" lon="-119.599209"><ele>1203.014</ele><time>2026-09-02T15:42:09Z</time></trkpt><trkpt lat="37.74175" lon="-119.59915"><ele>1203.009</ele><time>2026-09-02T15:42:15Z</time></trkpt><trkpt lat="37.74181" lon="-119.599018"><ele>1203.067</ele><time>2026-09-02T15:42:25Z</time></trkpt><trkpt lat="37.741869" lon="-119.598899"><ele>1203.213</ele><time>2026-09-02T15:42:35Z</time></trkpt><trkpt lat="37.741868" lon="-119.598764"><ele>1203.238</ele><time>2026-09-02T15:42:45Z</time></trkpt><trkpt lat="37.7419" lon="-119.598591"><ele>1203.220</ele><time>2026-09-02T15:42:55Z</time></trkpt><trkpt lat="37.741923" lon="-119.598438"><ele>1203.084</ele><time>2026-09-02T15:43:06Z</time></trkpt><trkpt lat="37.741972" lon="-119.598338"><ele>1203.076</ele><time>2026-09-02T15:43:15Z</time></trkpt><trkpt lat="37.741996" lon="-119.59824"><ele>1203.013</ele><time>2026-09-02T15:43:24Z</time></trkpt><trkpt lat="37.742041" lon="-119.598065"><ele>1202.862</ele><time>2026-09-02T15:43:34Z</time></trkpt><trkpt lat="37.742106" lon="-119.598008"><ele>1203.074</ele><time>2026-09-02T15:43:40Z</time></trkpt><trkpt lat="37.742198" lon="-119.597955"><ele>1203.033</ele><time>2026-09-02T15:43:48Z</time></trkpt><trkpt lat="37.742278" lon="-119.597902"><ele>1203.223</ele><time>2026-09-02T15:43:56Z</time></trkpt><trkpt lat="37.742402" lon="-119.597893"><ele>1203.415</ele><time>2026-09-02T15:44:06Z</time></trkpt><trkpt lat="37.742476" lon="-119.597816"><ele>1203.409</ele><time>2026-09-02T15:44:14Z</time></trkpt><trkpt lat="37.742498" lon="-119.597669"><ele>1203.485</ele><time>2026-09-02T15:44:23Z</time></trkpt><trkpt lat="37.742559" lon="-119.597553"><ele>1203.431</ele><time>2026-09-02T15:44:32Z</time></trkpt><trkpt lat="37.742654" lon="-119.597469"><ele>1203.456</ele><time>2026-09-02T15:44:41Z</time></trkpt><trkpt lat="37.742706" lon="-119.597359"><ele>1203.468</ele><time>2026-09-02T15:44:49Z</time></trkpt><trkpt lat="37.742801" lon="-119.597265"><ele>1203.492</ele><time>2026-09-02T15:44:59Z</time></trkpt><trkpt lat="37.742869" lon="-119.597189"><ele>1203.484</ele><time>2026-09-02T15:45:07Z</time></trkpt><trkpt lat="37.74295" lon="-119.597098"><ele>1203.221</ele><time>2026-09-02T15:45:16Z</time></trkpt><trkpt lat="37.743034" lon="-119.597031"><ele>1203.270</ele><time>2026-09-02T15:45:24Z</time></trkpt><trkpt lat="37.743164" lon="-119.597023"><ele>1203.222</ele><time>2026-09-02T15:45:34Z</time></trkpt><trkpt lat="37.743264" lon="-119.597033"><ele>1203.224</ele><time>2026-09-02T15:45:43Z</time></trkpt><trkpt lat="37.743276" lon="-119.597035"><ele>1203.204</ele><time>2026-09-02T15:45:44Z</time></trkpt><trkpt lat="37.743301" lon="-119.597035"><ele>1203.214</ele><time>2026-09-02T15:45:47Z</time></trkpt><trkpt lat="37.743351" lon="-119.597036"><ele>1203.209</ele><time>2026-09-02T15:45:51Z</time></trkpt><trkpt lat="37.743374" lon="-119.597037"><ele>1203.214</ele><time>2026-09-02T15:45:53Z</time></trkpt><trkpt lat="37.743468" lon="-119.597049"><ele>1203.230</ele><time>2026-09-02T15:46:01Z</time></trkpt><trkpt lat="37.743561" lon="-119.597055"><ele>1203.445</ele><time>2026-09-02T15:46:09Z</time></trkpt><trkpt lat="37.743603" lon="-119.597069"><ele>1203.647</ele><time>2026-09-02T15:46:17Z</time></trkpt><trkpt lat="37.743646" lon="-119.597084"><ele>1203.611</ele><time>2026-09-02T15:46:25Z</time></trkpt><trkpt lat="37.743747" lon="-119.597148"><ele>1203.863</ele><time>2026-09-02T15:46:35Z</time></trkpt><trkpt lat="37.743792" lon="-119.597175"><ele>1203.890</ele><time>2026-09-02T15:46:40Z</time></trkpt><trkpt lat="37.743854" lon="-119.597212"><ele>1204.049</ele><time>2026-09-02T15:46:46Z</time></trkpt><trkpt lat="37.743961" lon="-119.597279"><ele>1204.471</ele><time>2026-09-02T15:46:54Z</time></trkpt><trkpt lat="37.744024" lon="-119.597306"><ele>1204.848</ele><time>2026-09-02T15:47:01Z</time></trkpt><trkpt lat="37.744036" lon="-119.59731"><ele>1205.061</ele><time>2026-09-02T15:47:03Z</time></trkpt><trkpt lat="37.744045" lon="-119.597311"><ele>1205.017</ele><time>2026-09-02T15:47:04Z</time></trkpt><trkpt lat="37.744131" lon="-119.597327"><ele>1205.609</ele><time>2026-09-02T15:47:12Z</time></trkpt><trkpt lat="37.744166" lon="-119.597331"><ele>1205.836</ele><time>2026-09-02T15:47:15Z</time></trkpt><trkpt lat="37.744179" lon="-119.597329"><ele>1206.052</ele><time>2026-09-02T15:47:16Z</time></trkpt><trkpt lat="37.74427" lon="-119.597313"><ele>1206.047</ele><time>2026-09-02T15:47:24Z</time></trkpt><trkpt lat="37.744365" lon="-119.597293"><ele>1206.029</ele><time>2026-09-02T15:47:32Z</time></trkpt><trkpt lat="37.744448" lon="-119.597288"><ele>1206.233</ele><time>2026-09-02T15:47:40Z</time></trkpt><trkpt lat="37.744461" lon="-119.597288"><ele>1206.225</ele><time>2026-09-02T15:47:41Z</time></trkpt><trkpt lat="37.744555" lon="-119.597293"><ele>1206.682</ele><time>2026-09-02T15:47:50Z</time></trkpt><trkpt lat="37.744577" lon="-119.597295"><ele>1206.651</ele><time>2026-09-02T15:47:52Z</time></trkpt><trkpt lat="37.744624" lon="-119.597298"><ele>1206.633</ele><time>2026-09-02T15:47:58Z</time></trkpt><trkpt lat="37.744628" lon="-119.597305"><ele>1206.685</ele><time>2026-09-02T15:48:01Z</time></trkpt><trkpt lat="37.74463" lon="-119.59731"><ele>1206.689</ele><time>2026-09-02T15:48:10Z</time></trkpt><trkpt lat="37.744577" lon="-119.597192"><ele>1206.417</ele><time>2026-09-02T15:48:18Z</time></trkpt><trkpt lat="37.74457" lon="-119.597163"><ele>1206.609</ele><time>2026-09-02T15:48:23Z</time></trkpt><trkpt lat="37.744613" lon="-119.597254"><ele>1206.810</ele><time>2026-09-02T15:48:29Z</time></trkpt><trkpt lat="37.744635" lon="-119.59727"><ele>1206.676</ele><time>2026-09-02T15:48:35Z</time></trkpt><trkpt lat="37.74467" lon="-119.597281"><ele>1206.691</ele><time>2026-09-02T15:48:41Z</time></trkpt><trkpt lat="37.744751" lon="-119.597298"><ele>1206.643</ele><time>2026-09-02T15:48:48Z</time></trkpt><trkpt lat="37.744817" lon="-119.597309"><ele>1206.627</ele><time>2026-09-02T15:48:53Z</time></trkpt><trkpt lat="37.744836" lon="-119.597321"><ele>1206.689</ele><time>2026-09-02T15:48:56Z</time></trkpt><trkpt lat="37.744834" lon="-119.597329"><ele>1206.666</ele><time>2026-09-02T15:48:57Z</time></trkpt><trkpt lat="37.744832" lon="-119.597331"><ele>1206.655</ele><time>2026-09-02T15:48:58Z</time></trkpt><trkpt lat="37.744832" lon="-119.597336"><ele>1206.667</ele><time>2026-09-02T15:48:59Z</time></trkpt><trkpt lat="37.744811" lon="-119.597353"><ele>1206.649</ele><time>2026-09-02T15:49:06Z</time></trkpt><trkpt lat="37.744789" lon="-119.59737"><ele>1206.402</ele><time>2026-09-02T15:49:13Z</time></trkpt><trkpt lat="37.744786" lon="-119.59737"><ele>1206.622</ele><time>2026-09-02T15:49:17Z</time></trkpt><trkpt lat="37.744792" lon="-119.597376"><ele>1206.609</ele><time>2026-09-02T15:49:26Z</time></trkpt><trkpt lat="37.74479" lon="-119.597357"><ele>1206.646</ele><time>2026-09-02T15:49:29Z</time></trkpt><trkpt lat="37.744798" lon="-119.59735"><ele>1206.692</ele><time>2026-09-02T15:49:30Z</time></trkpt><trkpt lat="37.744793" lon="-119.597346"><ele>1206.647</ele><time>2026-09-02T15:49:31Z</time></trkpt><trkpt lat="37.744794" lon="-119.597339"><ele>1206.659</ele><time>2026-09-02T15:49:32Z</time></trkpt><trkpt lat="37.744798" lon="-119.597317"><ele>1206.443</ele><time>2026-09-02T15:49:36Z</time></trkpt><trkpt lat="37.744811" lon="-119.597288"><ele>1206.685</ele><time>2026-09-02T15:49:40Z</time></trkpt><trkpt lat="37.74482" lon="-119.597274"><ele>1206.672</ele><time>2026-09-02T15:49:42Z</time></trkpt><trkpt lat="37.744827" lon="-119.59727"><ele>1206.681</ele><time>2026-09-02T15:49:43Z</time></trkpt><trkpt lat="37.744855" lon="-119.59725"><ele>1206.653</ele><time>2026-09-02T15:49:47Z</time></trkpt><trkpt lat="37.744887" lon="-119.597229"><ele>1206.842</ele><time>2026-09-02T15:49:52Z</time></trkpt><trkpt lat="37.745017" lon="-119.597193"><ele>1207.022</ele><time>2026-09-02T15:50:05Z</time></trkpt><trkpt lat="37.745122" lon="-119.597183"><ele>1207.214</ele><time>2026-09-02T15:50:16Z</time></trkpt><trkpt lat="37.745217" lon="-119.597194"><ele>1207.209</ele><time>2026-09-02T15:50:25Z</time></trkpt><trkpt lat="37.745289" lon="-119.597254"><ele>1207.686</ele><time>2026-09-02T15:50:33Z</time></trkpt><trkpt lat="37.745297" lon="-119.597258"><ele>1207.682</ele><time>2026-09-02T15:50:34Z</time></trkpt><trkpt lat="37.74539" lon="-119.597271"><ele>1207.837</ele><time>2026-09-02T15:50:42Z</time></trkpt><trkpt lat="37.745467" lon="-119.597268"><ele>1208.029</ele><time>2026-09-02T15:50:50Z</time></trkpt><trkpt lat="37.745478" lon="-119.597266"><ele>1208.013</ele><time>2026-09-02T15:50:51Z</time></trkpt><trkpt lat="37.745518" lon="-119.597255"><ele>1208.235</ele><time>2026-09-02T15:50:55Z</time></trkpt><trkpt lat="37.745554" lon="-119.59725"><ele>1208.412</ele><time>2026-09-02T15:50:58Z</time></trkpt><trkpt lat="37.74563" lon="-119.597252"><ele>1208.651</ele><time>2026-09-02T15:51:05Z</time></trkpt><trkpt lat="37.745671" lon="-119.597257"><ele>1208.693</ele><time>2026-09-02T15:51:09Z</time></trkpt><trkpt lat="37.745727" lon="-119.59726"><ele>1209.031</ele><time>2026-09-02T15:51:14Z</time></trkpt><trkpt lat="37.745776" lon="-119.597254"><ele>1209.261</ele><time>2026-09-02T15:51:18Z</time></trkpt><trkpt lat="37.745801" lon="-119.597251"><ele>1209.207</ele><time>2026-09-02T15:51:20Z</time></trkpt><trkpt lat="37.745895" lon="-119.597245"><ele>1209.209</ele><time>2026-09-02T15:51:29Z</time></trkpt><trkpt lat="37.74598" lon="-119.597259"><ele>1209.295</ele><time>2026-09-02T15:51:36Z</time></trkpt><trkpt lat="37.74603" lon="-119.597233"><ele>1209.081</ele><time>2026-09-02T15:51:45Z</time></trkpt><trkpt lat="37.746037" lon="-119.59722"><ele>1209.086</ele><time>2026-09-02T15:51:47Z</time></trkpt><trkpt lat="37.746075" lon="-119.597186"><ele>1209.028</ele><time>2026-09-02T15:51:52Z</time></trkpt><trkpt lat="37.746119" lon="-119.597149"><ele>1208.872</ele><time>2026-09-02T15:51:57Z</time></trkpt><trkpt lat="37.746147" lon="-119.597046"><ele>1208.444</ele><time>2026-09-02T15:52:05Z</time></trkpt><trkpt lat="37.746169" lon="-119.596933"><ele>1208.071</ele><time>2026-09-02T15:52:14Z</time></trkpt><trkpt lat="37.746169" lon="-119.596923"><ele>1208.020</ele><time>2026-09-02T15:52:15Z</time></trkpt><trkpt lat="37.746173" lon="-119.596879"><ele>1208.062</ele><time>2026-09-02T15:52:19Z</time></trkpt><trkpt lat="37.746196" lon="-119.596828"><ele>1207.819</ele><time>2026-09-02T15:52:23Z</time></trkpt><trkpt lat="37.746202" lon="-119.596822"><ele>1207.809</ele><time>2026-09-02T15:52:24Z</time></trkpt><trkpt lat="37.746261" lon="-119.59678"><ele>1207.419</ele><time>2026-09-02T15:52:30Z</time></trkpt><trkpt lat="37.746286" lon="-119.596786"><ele>1207.409</ele><time>2026-09-02T15:52:33Z</time></trkpt><trkpt lat="37.746328" lon="-119.59682"><ele>1207.213</ele><time>2026-09-02T15:52:41Z</time></trkpt><trkpt lat="37.746353" lon="-119.596832"><ele>1207.469</ele><time>2026-09-02T15:52:50Z</time></trkpt><trkpt lat="37.746344" lon="-119.596835"><ele>1207.244</ele><time>2026-09-02T15:52:57Z</time></trkpt><trkpt lat="37.746337" lon="-119.596821"><ele>1207.256</ele><time>2026-09-02T15:52:59Z</time></trkpt><trkpt lat="37.746304" lon="-119.596803"><ele>1207.440</ele><time>2026-09-02T15:53:08Z</time></trkpt><trkpt lat="37.746254" lon="-119.596736"><ele>1207.242</ele><time>2026-09-02T15:53:18Z</time></trkpt><trkpt lat="37.746241" lon="-119.596725"><ele>1207.429</ele><time>2026-09-02T15:53:25Z</time></trkpt><trkpt lat="37.746241" lon="-119.596733"><ele>1207.458</ele><time>2026-09-02T15:53:26Z</time></trkpt><trkpt lat="37.746243" lon="-119.596752"><ele>1207.470</ele><time>2026-09-02T15:53:30Z</time></trkpt><trkpt lat="37.746245" lon="-119.596755"><ele>1207.458</ele><time>2026-09-02T15:53:31Z</time></trkpt><trkpt lat="37.746255" lon="-119.596764"><ele>1207.452</ele><time>2026-09-02T15:53:32Z</time></trkpt><trkpt lat="37.746276" lon="-119.596783"><ele>1207.417</ele><time>2026-09-02T15:53:36Z</time></trkpt><trkpt lat="37.746287" lon="-119.59679"><ele>1207.409</ele><time>2026-09-02T15:53:38Z</time></trkpt><trkpt lat="37.746302" lon="-119.59681"><ele>1207.237</ele><time>2026-09-02T15:53:47Z</time></trkpt><trkpt lat="37.746302" lon="-119.596797"><ele>1207.443</ele><time>2026-09-02T15:53:52Z</time></trkpt><trkpt lat="37.7463" lon="-119.59678"><ele>1207.428</ele><time>2026-09-02T15:53:54Z</time></trkpt><trkpt lat="37.746288" lon="-119.596761"><ele>1207.460</ele><time>2026-09-02T15:53:58Z</time></trkpt><trkpt lat="37.746289" lon="-119.596747"><ele>1207.454</ele><time>2026-09-02T15:54:01Z</time></trkpt><trkpt lat="37.74629" lon="-119.596735"><ele>1207.236</ele><time>2026-09-02T15:54:08Z</time></trkpt><trkpt lat="37.746295" lon="-119.596735"><ele>1207.263</ele><time>2026-09-02T15:54:12Z</time></trkpt><trkpt lat="37.746299" lon="-119.596732"><ele>1207.442</ele><time>2026-09-02T15:54:14Z</time></trkpt><trkpt lat="37.746299" lon="-119.596728"><ele>1207.474</ele><time>2026-09-02T15:54:15Z</time></trkpt><trkpt lat="37.746303" lon="-119.596726"><ele>1207.234</ele><time>2026-09-02T15:54:18Z</time></trkpt><trkpt lat="37.746311" lon="-119.59673"><ele>1207.255</ele><time>2026-09-02T15:54:21Z</time></trkpt><trkpt lat="37.746292" lon="-119.596727"><ele>1207.410</ele><time>2026-09-02T15:54:31Z</time></trkpt><trkpt lat="37.74629" lon="-119.596736"><ele>1207.409</ele><time>2026-09-02T15:54:38Z</time></trkpt><trkpt lat="37.746294" lon="-119.596735"><ele>1207.225</ele><time>2026-09-02T15:54:39Z</time></trkpt><trkpt lat="37.746294" lon="-119.596738"><ele>1207.281</ele><time>2026-09-02T15:54:40Z</time></trkpt><trkpt lat="37.74631" lon="-119.596748"><ele>1207.456</ele><time>2026-09-02T15:54:46Z</time></trkpt><trkpt lat="37.746311" lon="-119.596749"><ele>1207.468</ele><time>2026-09-02T15:54:47Z</time></trkpt><trkpt lat="37.746314" lon="-119.596751"><ele>1207.452</ele><time>2026-09-02T15:54:50Z</time></trkpt><trkpt lat="37.746272" lon="-119.596753"><ele>1207.454</ele><time>2026-09-02T15:54:58Z</time></trkpt><trkpt lat="37.746284" lon="-119.59674"><ele>1207.491</ele><time>2026-09-02T15:55:06Z</time></trkpt><trkpt lat="37.746288" lon="-119.596725"><ele>1207.480</ele><time>2026-09-02T15:55:13Z</time></trkpt><trkpt lat="37.74629" lon="-119.596712"><ele>1207.622</ele><time>2026-09-02T15:55:20Z</time></trkpt><trkpt lat="37.746353" lon="-119.596685"><ele>1207.419</ele><time>2026-09-02T15:55:29Z</time></trkpt><trkpt lat="37.746392" lon="-119.596642"><ele>1207.209</ele><time>2026-09-02T15:55:37Z</time></trkpt><trkpt lat="37.746397" lon="-119.596602"><ele>1207.219</ele><time>2026-09-02T15:55:45Z</time></trkpt><trkpt lat="37.746408" lon="-119.596587"><ele>1207.009</ele><time>2026-09-02T15:55:52Z</time></trkpt><trkpt lat="37.746408" lon="-119.596586"><ele>1207.043</ele><time>2026-09-02T15:55:54Z</time></trkpt><trkpt lat="37.746405" lon="-119.596578"><ele>1207.089</ele><time>2026-09-02T15:55:57Z</time></trkpt><trkpt lat="37.746417" lon="-119.596574"><ele>1207.024</ele><time>2026-09-02T15:56:02Z</time></trkpt><trkpt lat="37.746429" lon="-119.596574"><ele>1207.096</ele><time>2026-09-02T15:56:04Z</time></trkpt><trkpt lat="37.746448" lon="-119.596582"><ele>1207.010</ele><time>2026-09-02T15:56:06Z</time></trkpt><trkpt lat="37.746462" lon="-119.596581"><ele>1206.822</ele><time>2026-09-02T15:56:07Z</time></trkpt><trkpt lat="37.746549" lon="-119.596641"><ele>1206.829</ele><time>2026-09-02T15:56:14Z</time></trkpt><trkpt lat="37.746565" lon="-119.596638"><ele>1207.268</ele><time>2026-09-02T15:56:22Z</time></trkpt><trkpt lat="37.746588" lon="-119.596611"><ele>1207.290</ele><time>2026-09-02T15:56:32Z</time></trkpt><trkpt lat="37.746599" lon="-119.596587"><ele>1207.497</ele><time>2026-09-02T15:56:40Z</time></trkpt><trkpt lat="37.746591" lon="-119.596574"><ele>1207.223</ele><time>2026-09-02T15:56:47Z</time></trkpt><trkpt lat="37.746604" lon="-119.596591"><ele>1207.225</ele><time>2026-09-02T15:56:54Z</time></trkpt><trkpt lat="37.746572" lon="-119.596638"><ele>1207.009</ele><time>2026-09-02T15:57:00Z</time></trkpt><trkpt lat="37.74657" lon="-119.596621"><ele>1207.441</ele><time>2026-09-02T15:57:06Z</time></trkpt><trkpt lat="37.746592" lon="-119.596544"><ele>1207.497</ele><time>2026-09-02T15:57:14Z</time></trkpt><trkpt lat="37.746615" lon="-119.596502"><ele>1207.492</ele><time>2026-09-02T15:57:21Z</time></trkpt><trkpt lat="37.746676" lon="-119.596414"><ele>1206.844</ele><time>2026-09-02T15:57:30Z</time></trkpt><trkpt lat="37.746721" lon="-119.59634"><ele>1206.218</ele><time>2026-09-02T15:57:38Z</time></trkpt><trkpt lat="37.746811" lon="-119.596354"><ele>1206.230</ele><time>2026-09-02T15:57:46Z</time></trkpt><trkpt lat="37.746917" lon="-119.596382"><ele>1206.247</ele><time>2026-09-02T15:57:55Z</time></trkpt><trkpt lat="37.746926" lon="-119.596382"><ele>1206.436</ele><time>2026-09-02T15:57:56Z</time></trkpt><trkpt lat="37.747018" lon="-119.596377"><ele>1206.458</ele><time>2026-09-02T15:58:05Z</time></trkpt><trkpt lat="37.747123" lon="-119.596368"><ele>1206.626</ele><time>2026-09-02T15:58:13Z</time></trkpt><trkpt lat="37.747237" lon="-119.596387"><ele>1206.847</ele><time>2026-09-02T15:58:23Z</time></trkpt><trkpt lat="37.747309" lon="-119.5964"><ele>1207.611</ele><time>2026-09-02T15:58:31Z</time></trkpt><trkpt lat="37.747382" lon="-119.596404"><ele>1207.409</ele><time>2026-09-02T15:58:36Z</time></trkpt><trkpt lat="37.747412" lon="-119.59641"><ele>1207.474</ele><time>2026-09-02T15:58:39Z</time></trkpt><trkpt lat="37.747527" lon="-119.596445"><ele>1207.660</ele><time>2026-09-02T15:58:49Z</time></trkpt><trkpt lat="37.747635" lon="-119.596444"><ele>1207.885</ele><time>2026-09-02T15:58:58Z</time></trkpt><trkpt lat="37.747722" lon="-119.596423"><ele>1208.057</ele><time>2026-09-02T15:59:08Z</time></trkpt><trkpt lat="37.747727" lon="-119.596444"><ele>1208.061</ele><time>2026-09-02T15:59:13Z</time></trkpt><trkpt lat="37.747731" lon="-119.596448"><ele>1208.083</ele><time>2026-09-02T15:59:14Z</time></trkpt><trkpt lat="37.747743" lon="-119.596433"><ele>1208.030</ele><time>2026-09-02T15:59:25Z</time></trkpt><trkpt lat="37.747711" lon="-119.596451"><ele>1208.019</ele><time>2026-09-02T15:59:34Z</time></trkpt><trkpt lat="37.74777" lon="-119.596497"><ele>1208.271</ele><time>2026-09-02T15:59:41Z</time></trkpt><trkpt lat="37.747877" lon="-119.596523"><ele>1208.685</ele><time>2026-09-02T15:59:50Z</time></trkpt><trkpt lat="37.747942" lon="-119.596541"><ele>1208.889</ele><time>2026-09-02T15:59:55Z</time></trkpt><trkpt lat="37.748006" lon="-119.596546"><ele>1208.817</ele><time>2026-09-02T15:59:59Z</time></trkpt><trkpt lat="37.748014" lon="-119.596547"><ele>1209.009</ele><time>2026-09-02T16:00:00Z</time></trkpt><trkpt lat="37.74807" lon="-119.596537"><ele>1209.040</ele><time>2026-09-02T16:00:05Z</time></trkpt><trkpt lat="37.748111" lon="-119.59652"><ele>1209.046</ele><time>2026-09-02T16:00:09Z</time></trkpt><trkpt lat="37.748138" lon="-119.59651"><ele>1209.011</ele><time>2026-09-02T16:00:11Z</time></trkpt><trkpt lat="37.748163" lon="-119.596495"><ele>1209.093</ele><time>2026-09-02T16:00:14Z</time></trkpt><trkpt lat="37.748247" lon="-119.596437"><ele>1209.057</ele><time>2026-09-02T16:00:23Z</time></trkpt><trkpt lat="37.748299" lon="-119.596427"><ele>1208.869</ele><time>2026-09-02T16:00:28Z</time></trkpt><trkpt lat="37.748316" lon="-119.596416"><ele>1208.866</ele><time>2026-09-02T16:00:32Z</time></trkpt><trkpt lat="37.748321" lon="-119.596404"><ele>1208.815</ele><time>2026-09-02T16:00:33Z</time></trkpt><trkpt lat="37.74831" lon="-119.596396"><ele>1208.827</ele><time>2026-09-02T16:00:35Z</time></trkpt><trkpt lat="37.748281" lon="-119.596384"><ele>1208.883</ele><time>2026-09-02T16:00:38Z</time></trkpt><trkpt lat="37.74823" lon="-119.596359"><ele>1208.625</ele><time>2026-09-02T16:00:47Z</time></trkpt><trkpt lat="37.748259" lon="-119.596285"><ele>1208.817</ele><time>2026-09-02T16:00:56Z</time></trkpt><trkpt lat="37.748256" lon="-119.596282"><ele>1208.809</ele><time>2026-09-02T16:01:04Z</time></trkpt><trkpt lat="37.748183" lon="-119.596341"><ele>1208.830</ele><time>2026-09-02T16:01:13Z</time></trkpt><trkpt lat="37.74817" lon="-119.596344"><ele>1208.876</ele><time>2026-09-02T16:01:14Z</time></trkpt><trkpt lat="37.748148" lon="-119.596381"><ele>1209.071</ele><time>2026-09-02T16:01:19Z</time></trkpt><trkpt lat="37.748123" lon="-119.59643"><ele>1209.043</ele><time>2026-09-02T16:01:24Z</time></trkpt><trkpt lat="37.748127" lon="-119.596496"><ele>1209.297</ele><time>2026-09-02T16:01:30Z</time></trkpt><trkpt lat="37.748135" lon="-119.596508"><ele>1209.219</ele><time>2026-09-02T16:01:33Z</time></trkpt><trkpt lat="37.748152" lon="-119.596491"><ele>1209.276</ele><time>2026-09-02T16:01:40Z</time></trkpt><trkpt lat="37.748173" lon="-119.596502"><ele>1209.275</ele><time>2026-09-02T16:01:43Z</time></trkpt><trkpt lat="37.748256" lon="-119.596468"><ele>1209.447</ele><time>2026-09-02T16:01:50Z</time></trkpt><trkpt lat="37.748362" lon="-119.59645"><ele>1209.462</ele><time>2026-09-02T16:02:00Z</time></trkpt><trkpt lat="37.74846" lon="-119.596407"><ele>1209.283</ele><time>2026-09-02T16:02:08Z</time></trkpt><trkpt lat="37.748567" lon="-119.596354"><ele>1209.411</ele><time>2026-09-02T16:02:19Z</time></trkpt><trkpt lat="37.74865" lon="-119.596278"><ele>1209.809</ele><time>2026-09-02T16:02:29Z</time></trkpt><trkpt lat="37.748656" lon="-119.596274"><ele>1210.058</ele><time>2026-09-02T16:02:31Z</time></trkpt><trkpt lat="37.748723" lon="-119.596253"><ele>1210.264</ele><time>2026-09-02T16:02:37Z</time></trkpt><trkpt lat="37.748781" lon="-119.596249"><ele>1210.679</ele><time>2026-09-02T16:02:44Z</time></trkpt><trkpt lat="37.748807" lon="-119.596251"><ele>1210.661</ele><time>2026-09-02T16:02:46Z</time></trkpt><trkpt lat="37.748844" lon="-119.596249"><ele>1211.015</ele><time>2026-09-02T16:02:49Z</time></trkpt><trkpt lat="37.748909" lon="-119.59624"><ele>1211.477</ele><time>2026-09-02T16:02:54Z</time></trkpt><trkpt lat="37.749038" lon="-119.596196"><ele>1212.244</ele><time>2026-09-02T16:03:03Z</time></trkpt><trkpt lat="37.749057" lon="-119.596184"><ele>1212.293</ele><time>2026-09-02T16:03:05Z</time></trkpt><trkpt lat="37.749123" lon="-119.596118"><ele>1212.255</ele><time>2026-09-02T16:03:12Z</time></trkpt><trkpt lat="37.749178" lon="-119.596024"><ele>1212.843</ele><time>2026-09-02T16:03:20Z</time></trkpt><trkpt lat="37.749197" lon="-119.595987"><ele>1213.264</ele><time>2026-09-02T16:03:24Z</time></trkpt><trkpt lat="37.749216" lon="-119.595949"><ele>1213.610</ele><time>2026-09-02T16:03:27Z</time></trkpt><trkpt lat="37.749276" lon="-119.595852"><ele>1214.009</ele><time>2026-09-02T16:03:36Z</time></trkpt><trkpt lat="37.749304" lon="-119.595834"><ele>1214.216</ele><time>2026-09-02T16:03:39Z</time></trkpt><trkpt lat="37.749348" lon="-119.595846"><ele>1214.842</ele><time>2026-09-02T16:03:44Z</time></trkpt><trkpt lat="37.749382" lon="-119.595874"><ele>1215.247</ele><time>2026-09-02T16:03:49Z</time></trkpt><trkpt lat="37.749417" lon="-119.59589"><ele>1215.889</ele><time>2026-09-02T16:03:53Z</time></trkpt><trkpt lat="37.749448" lon="-119.595902"><ele>1216.483</ele><time>2026-09-02T16:03:57Z</time></trkpt><trkpt lat="37.749492" lon="-119.595937"><ele>1217.265</ele><time>2026-09-02T16:04:03Z</time></trkpt><trkpt lat="37.749501" lon="-119.595943"><ele>1217.442</ele><time>2026-09-02T16:04:04Z</time></trkpt><trkpt lat="37.749572" lon="-119.596017"><ele>1218.441</ele><time>2026-09-02T16:04:12Z</time></trkpt><trkpt lat="37.749582" lon="-119.596031"><ele>1218.833</ele><time>2026-09-02T16:04:14Z</time></trkpt><trkpt lat="37.749625" lon="-119.596072"><ele>1219.428</ele><time>2026-09-02T16:04:19Z</time></trkpt><trkpt lat="37.749646" lon="-119.596094"><ele>1220.089</ele><time>2026-09-02T16:04:22Z</time></trkpt><trkpt lat="37.749678" lon="-119.596111"><ele>1220.617</ele><time>2026-09-02T16:04:26Z</time></trkpt><trkpt lat="37.749731" lon="-119.596092"><ele>1221.409</ele><time>2026-09-02T16:04:30Z</time></trkpt><trkpt lat="37.749748" lon="-119.596082"><ele>1221.494</ele><time>2026-09-02T16:04:31Z</time></trkpt><trkpt lat="37.749758" lon="-119.596074"><ele>1221.690</ele><time>2026-09-02T16:04:32Z</time></trkpt><trkpt lat="37.749825" lon="-119.596014"><ele>1222.255</ele><time>2026-09-02T16:04:39Z</time></trkpt><trkpt lat="37.749882" lon="-119.595953"><ele>1222.487</ele><time>2026-09-02T16:04:46Z</time></trkpt><trkpt lat="37.749887" lon="-119.595948"><ele>1222.481</ele><time>2026-09-02T16:04:47Z</time></trkpt><trkpt lat="37.749937" lon="-119.595944"><ele>1222.623</ele><time>2026-09-02T16:04:56Z</time></trkpt><trkpt lat="37.749915" lon="-119.595974"><ele>1222.410</ele><time>2026-09-02T16:05:04Z</time></trkpt><trkpt lat="37.749893" lon="-119.595886"><ele>1222.639</ele><time>2026-09-02T16:05:12Z</time></trkpt><trkpt lat="37.74989" lon="-119.595902"><ele>1222.651</ele><time>2026-09-02T16:05:18Z</time></trkpt><trkpt lat="37.749897" lon="-119.5959"><ele>1222.687</ele><time>2026-09-02T16:05:25Z</time></trkpt><trkpt lat="37.749896" lon="-119.595905"><ele>1222.642</ele><time>2026-09-02T16:05:29Z</time></trkpt><trkpt lat="37.749901" lon="-119.595898"><ele>1222.626</ele><time>2026-09-02T16:05:30Z</time></trkpt><trkpt lat="37.749913" lon="-119.595877"><ele>1222.209</ele><time>2026-09-02T16:05:37Z</time></trkpt><trkpt lat="37.749892" lon="-119.595868"><ele>1222.610</ele><time>2026-09-02T16:05:45Z</time></trkpt><trkpt lat="37.749894" lon="-119.595904"><ele>1222.636</ele><time>2026-09-02T16:05:53Z</time></trkpt><trkpt lat="37.74991" lon="-119.595926"><ele>1222.461</ele><time>2026-09-02T16:05:58Z</time></trkpt><trkpt lat="37.749912" lon="-119.595923"><ele>1222.463</ele><time>2026-09-02T16:06:00Z</time></trkpt><trkpt lat="37.749909" lon="-119.595911"><ele>1222.677</ele><time>2026-09-02T16:06:09Z</time></trkpt><trkpt lat="37.749891" lon="-119.595916"><ele>1222.629</ele><time>2026-09-02T16:06:19Z</time></trkpt><trkpt lat="37.749889" lon="-119.595901"><ele>1222.616</ele><time>2026-09-02T16:06:23Z</time></trkpt><trkpt lat="37.749884" lon="-119.59584"><ele>1222.495</ele><time>2026-09-02T16:06:27Z</time></trkpt><trkpt lat="37.749913" lon="-119.595789"><ele>1222.677</ele><time>2026-09-02T16:06:32Z</time></trkpt><trkpt lat="37.749935" lon="-119.595781"><ele>1222.633</ele><time>2026-09-02T16:06:35Z</time></trkpt><trkpt lat="37.74996" lon="-119.595798"><ele>1222.623</ele><time>2026-09-02T16:06:44Z</time></trkpt><trkpt lat="37.749958" lon="-119.595795"><ele>1222.415</ele><time>2026-09-02T16:06:53Z</time></trkpt><trkpt lat="37.749986" lon="-119.595749"><ele>1222.409</ele><time>2026-09-02T16:07:00Z</time></trkpt><trkpt lat="37.749994" lon="-119.595736"><ele>1222.485</ele><time>2026-09-02T16:07:02Z</time></trkpt><trkpt lat="37.750011" lon="-119.595679"><ele>1222.451</ele><time>2026-09-02T16:07:13Z</time></trkpt><trkpt lat="37.750008" lon="-119.595677"><ele>1222.446</ele><time>2026-09-02T16:07:16Z</time></trkpt><trkpt lat="37.75001" lon="-119.59567"><ele>1222.438</ele><time>2026-09-02T16:07:23Z</time></trkpt><trkpt lat="37.750006" lon="-119.595676"><ele>1222.442</ele><time>2026-09-02T16:07:32Z</time></trkpt><trkpt lat="37.749986" lon="-119.595668"><ele>1222.644</ele><time>2026-09-02T16:07:42Z</time></trkpt><trkpt lat="37.749993" lon="-119.59568"><ele>1222.411</ele><time>2026-09-02T16:07:45Z</time></trkpt><trkpt lat="37.750001" lon="-119.595687"><ele>1222.420</ele><time>2026-09-02T16:07:47Z</time></trkpt><trkpt lat="37.750004" lon="-119.595691"><ele>1222.442</ele><time>2026-09-02T16:07:48Z</time></trkpt><trkpt lat="37.750007" lon="-119.595716"><ele>1222.453</ele><time>2026-09-02T16:07:52Z</time></trkpt><trkpt lat="37.75001" lon="-119.595722"><ele>1222.404</ele><time>2026-09-02T16:07:56Z</time></trkpt><trkpt lat="37.749989" lon="-119.595659"><ele>1222.414</ele><time>2026-09-02T16:08:05Z</time></trkpt><trkpt lat="37.750065" lon="-119.595673"><ele>1222.609</ele><time>2026-09-02T16:08:16Z</time></trkpt><trkpt lat="37.750092" lon="-119.595698"><ele>1222.667</ele><time>2026-09-02T16:08:22Z</time></trkpt><trkpt lat="37.750099" lon="-119.595711"><ele>1222.633</ele><time>2026-09-02T16:08:26Z</time></trkpt><trkpt lat="37.750065" lon="-119.595735"><ele>1222.648</ele><time>2026-09-02T16:08:41Z</time></trkpt><trkpt lat="37.750038" lon="-119.595704"><ele>1222.690</ele><time>2026-09-02T16:08:56Z</time></trkpt><trkpt lat="37.749969" lon="-119.595671"><ele>1222.464</ele><time>2026-09-02T16:09:05Z</time></trkpt><trkpt lat="37.749932" lon="-119.595721"><ele>1222.846</ele><time>2026-09-02T16:09:13Z</time></trkpt><trkpt lat="37.749886" lon="-119.595782"><ele>1222.823</ele><time>2026-09-02T16:09:21Z</time></trkpt><trkpt lat="37.749878" lon="-119.595832"><ele>1222.862</ele><time>2026-09-02T16:09:28Z</time></trkpt><trkpt lat="37.749884" lon="-119.595843"><ele>1222.884</ele><time>2026-09-02T16:09:30Z</time></trkpt><trkpt lat="37.749906" lon="-119.59591"><ele>1222.856</ele><time>2026-09-02T16:09:36Z</time></trkpt><trkpt lat="37.749914" lon="-119.595891"><ele>1222.859</ele><time>2026-09-02T16:09:47Z</time></trkpt><trkpt lat="37.749915" lon="-119.595891"><ele>1223.014</ele><time>2026-09-02T16:09:49Z</time></trkpt><trkpt lat="37.749916" lon="-119.595896"><ele>1223.009</ele><time>2026-09-02T16:09:51Z</time></trkpt><trkpt lat="37.749902" lon="-119.595883"><ele>1222.447</ele><time>2026-09-02T16:09:55Z</time></trkpt><trkpt lat="37.749895" lon="-119.595883"><ele>1222.433</ele><time>2026-09-02T16:10:04Z</time></trkpt><trkpt lat="37.7499" lon="-119.595885"><ele>1222.428</ele><time>2026-09-02T16:10:08Z</time></trkpt><trkpt lat="37.749903" lon="-119.595883"><ele>1222.450</ele><time>2026-09-02T16:10:11Z</time></trkpt><trkpt lat="37.74989" lon="-119.595856"><ele>1222.434</ele><time>2026-09-02T16:10:16Z</time></trkpt><trkpt lat="37.749885" lon="-119.595849"><ele>1222.456</ele><time>2026-09-02T16:10:18Z</time></trkpt><trkpt lat="37.749869" lon="-119.595872"><ele>1222.413</ele><time>2026-09-02T16:10:28Z</time></trkpt><trkpt lat="37.749883" lon="-119.595877"><ele>1222.682</ele><time>2026-09-02T16:10:38Z</time></trkpt><trkpt lat="37.749885" lon="-119.595885"><ele>1222.674</ele><time>2026-09-02T16:10:40Z</time></trkpt><trkpt lat="37.749877" lon="-119.595862"><ele>1222.616</ele><time>2026-09-02T16:10:44Z</time></trkpt><trkpt lat="37.750001" lon="-119.595709"><ele>1224.076</ele><time>2026-09-02T16:39:01Z</time></trkpt><trkpt lat="37.750003" lon="-119.595706"><ele>1224.013</ele><time>2026-09-02T16:39:02Z</time></trkpt><trkpt lat="37.750023" lon="-119.595682"><ele>1224.009</ele><time>2026-09-02T16:39:08Z</time></trkpt><trkpt lat="37.750037" lon="-119.595655"><ele>1224.083</ele><time>2026-09-02T16:39:12Z</time></trkpt><trkpt lat="37.750023" lon="-119.595659"><ele>1224.079</ele><time>2026-09-02T16:39:17Z</time></trkpt><trkpt lat="37.750044" lon="-119.595655"><ele>1224.044</ele><time>2026-09-02T16:39:29Z</time></trkpt><trkpt lat="37.750036" lon="-119.59568"><ele>1223.846</ele><time>2026-09-02T16:39:38Z</time></trkpt><trkpt lat="37.750063" lon="-119.595628"><ele>1224.080</ele><time>2026-09-02T16:39:46Z</time></trkpt><trkpt lat="37.750079" lon="-119.59561"><ele>1224.042</ele><time>2026-09-02T16:39:53Z</time></trkpt><trkpt lat="37.750114" lon="-119.595531"><ele>1224.099</ele><time>2026-09-02T16:40:02Z</time></trkpt><trkpt lat="37.750187" lon="-119.595432"><ele>1223.638</ele><time>2026-09-02T16:40:12Z</time></trkpt><trkpt lat="37.750266" lon="-119.595422"><ele>1223.220</ele><time>2026-09-02T16:40:20Z</time></trkpt><trkpt lat="37.750341" lon="-119.595415"><ele>1223.084</ele><time>2026-09-02T16:40:27Z</time></trkpt><trkpt lat="37.750357" lon="-119.595404"><ele>1223.007</ele><time>2026-09-02T16:40:29Z</time></trkpt><trkpt lat="37.750395" lon="-119.595306"><ele>1222.817</ele><time>2026-09-02T16:40:38Z</time></trkpt><trkpt lat="37.75041" lon="-119.595221"><ele>1222.609</ele><time>2026-09-02T16:40:46Z</time></trkpt><trkpt lat="37.750416" lon="-119.595226"><ele>1222.630</ele><time>2026-09-02T16:40:54Z</time></trkpt><trkpt lat="37.750401" lon="-119.595121"><ele>1222.616</ele><time>2026-09-02T16:41:02Z</time></trkpt><trkpt lat="37.750388" lon="-119.59507"><ele>1222.481</ele><time>2026-09-02T16:41:10Z</time></trkpt><trkpt lat="37.750387" lon="-119.595061"><ele>1222.643</ele><time>2026-09-02T16:41:11Z</time></trkpt><trkpt lat="37.750384" lon="-119.595043"><ele>1222.697</ele><time>2026-09-02T16:41:13Z</time></trkpt><trkpt lat="37.750361" lon="-119.595013"><ele>1222.489</ele><time>2026-09-02T16:41:20Z</time></trkpt><trkpt lat="37.750367" lon="-119.595022"><ele>1222.686</ele><time>2026-09-02T16:41:22Z</time></trkpt><trkpt lat="37.750373" lon="-119.595031"><ele>1222.695</ele><time>2026-09-02T16:41:27Z</time></trkpt><trkpt lat="37.750389" lon="-119.595025"><ele>1222.677</ele><time>2026-09-02T16:41:35Z</time></trkpt><trkpt lat="37.750391" lon="-119.595027"><ele>1222.632</ele><time>2026-09-02T16:41:36Z</time></trkpt><trkpt lat="37.750392" lon="-119.595031"><ele>1222.692</ele><time>2026-09-02T16:41:37Z</time></trkpt><trkpt lat="37.750403" lon="-119.595065"><ele>1222.611</ele><time>2026-09-02T16:41:45Z</time></trkpt><trkpt lat="37.750398" lon="-119.595059"><ele>1222.609</ele><time>2026-09-02T16:41:51Z</time></trkpt><trkpt lat="37.750378" lon="-119.595049"><ele>1222.485</ele><time>2026-09-02T16:41:58Z</time></trkpt><trkpt lat="37.750351" lon="-119.595044"><ele>1222.661</ele><time>2026-09-02T16:42:05Z</time></trkpt><trkpt lat="37.750353" lon="-119.595043"><ele>1222.496</ele><time>2026-09-02T16:42:12Z</time></trkpt><trkpt lat="37.750362" lon="-119.595035"><ele>1222.638</ele><time>2026-09-02T16:42:22Z</time></trkpt><trkpt lat="37.750366" lon="-119.595018"><ele>1222.652</ele><time>2026-09-02T16:42:29Z</time></trkpt><trkpt lat="37.750352" lon="-119.595024"><ele>1222.654</ele><time>2026-09-02T16:42:36Z</time></trkpt><trkpt lat="37.750343" lon="-119.595025"><ele>1222.451</ele><time>2026-09-02T16:42:38Z</time></trkpt><trkpt lat="37.75031" lon="-119.595039"><ele>1222.410</ele><time>2026-09-02T16:42:43Z</time></trkpt><trkpt lat="37.750247" lon="-119.595022"><ele>1222.442</ele><time>2026-09-02T16:42:51Z</time></trkpt><trkpt lat="37.750155" lon="-119.595024"><ele>1222.098</ele><time>2026-09-02T16:43:00Z</time></trkpt><trkpt lat="37.750139" lon="-119.595013"><ele>1221.815</ele><time>2026-09-02T16:43:02Z</time></trkpt><trkpt lat="37.750085" lon="-119.594948"><ele>1221.426</ele><time>2026-09-02T16:43:10Z</time></trkpt><trkpt lat="37.750079" lon="-119.594937"><ele>1221.409</ele><time>2026-09-02T16:43:11Z</time></trkpt><trkpt lat="37.750085" lon="-119.594849"><ele>1221.261</ele><time>2026-09-02T16:43:22Z</time></trkpt><trkpt lat="37.750102" lon="-119.594798"><ele>1221.037</ele><time>2026-09-02T16:43:27Z</time></trkpt><trkpt lat="37.750101" lon="-119.59473"><ele>1220.692</ele><time>2026-09-02T16:43:33Z</time></trkpt><trkpt lat="37.750124" lon="-119.594663"><ele>1220.454</ele><time>2026-09-02T16:43:42Z</time></trkpt><trkpt lat="37.750164" lon="-119.594664"><ele>1220.488</ele><time>2026-09-02T16:43:45Z</time></trkpt><trkpt lat="37.750219" lon="-119.594674"><ele>1220.650</ele><time>2026-09-02T16:43:49Z</time></trkpt><trkpt lat="37.750332" lon="-119.594639"><ele>1220.837</ele><time>2026-09-02T16:44:00Z</time></trkpt><trkpt lat="37.75034" lon="-119.594632"><ele>1220.816</ele><time>2026-09-02T16:44:01Z</time></trkpt><trkpt lat="37.750419" lon="-119.5946"><ele>1220.218</ele><time>2026-09-02T16:44:11Z</time></trkpt><trkpt lat="37.75048" lon="-119.594599"><ele>1219.825</ele><time>2026-09-02T16:44:16Z</time></trkpt><trkpt lat="37.750556" lon="-119.594586"><ele>1219.626</ele><time>2026-09-02T16:44:21Z</time></trkpt><trkpt lat="37.750624" lon="-119.5945"><ele>1219.608</ele><time>2026-09-02T16:44:30Z</time></trkpt><trkpt lat="37.750609" lon="-119.594358"><ele>1219.009</ele><time>2026-09-02T16:44:38Z</time></trkpt><trkpt lat="37.750604" lon="-119.594287"><ele>1218.894</ele><time>2026-09-02T16:44:42Z</time></trkpt><trkpt lat="37.750583" lon="-119.594171"><ele>1218.420</ele><time>2026-09-02T16:44:49Z</time></trkpt><trkpt lat="37.75056" lon="-119.594092"><ele>1218.065</ele><time>2026-09-02T16:44:58Z</time></trkpt><trkpt lat="37.750565" lon="-119.594061"><ele>1217.847</ele><time>2026-09-02T16:45:00Z</time></trkpt><trkpt lat="37.750555" lon="-119.593949"><ele>1217.471</ele><time>2026-09-02T16:45:07Z</time></trkpt><trkpt lat="37.750532" lon="-119.593935"><ele>1217.253</ele><time>2026-09-02T16:45:09Z</time></trkpt><trkpt lat="37.750475" lon="-119.593921"><ele>1217.090</ele><time>2026-09-02T16:45:14Z</time></trkpt><trkpt lat="37.75044" lon="-119.593906"><ele>1216.899</ele><time>2026-09-02T16:45:17Z</time></trkpt><trkpt lat="37.750387" lon="-119.593847"><ele>1216.421</ele><time>2026-09-02T16:45:24Z</time></trkpt><trkpt lat="37.750353" lon="-119.593734"><ele>1215.881</ele><time>2026-09-02T16:45:33Z</time></trkpt><trkpt lat="37.750355" lon="-119.593626"><ele>1215.061</ele><time>2026-09-02T16:45:42Z</time></trkpt><trkpt lat="37.75026" lon="-119.59354"><ele>1214.817</ele><time>2026-09-02T16:45:52Z</time></trkpt><trkpt lat="37.750248" lon="-119.593468"><ele>1214.609</ele><time>2026-09-02T16:45:58Z</time></trkpt><trkpt lat="37.750251" lon="-119.593434"><ele>1214.650</ele><time>2026-09-02T16:46:01Z</time></trkpt><trkpt lat="37.750269" lon="-119.593328"><ele>1214.066</ele><time>2026-09-02T16:46:11Z</time></trkpt><trkpt lat="37.750287" lon="-119.593172"><ele>1214.081</ele><time>2026-09-02T16:46:19Z</time></trkpt><trkpt lat="37.750256" lon="-119.593151"><ele>1213.683</ele><time>2026-09-02T16:46:22Z</time></trkpt><trkpt lat="37.750221" lon="-119.59314"><ele>1213.257</ele><time>2026-09-02T16:46:25Z</time></trkpt><trkpt lat="37.750181" lon="-119.593129"><ele>1213.039</ele><time>2026-09-02T16:46:29Z</time></trkpt><trkpt lat="37.750115" lon="-119.59313"><ele>1213.056</ele><time>2026-09-02T16:46:35Z</time></trkpt><trkpt lat="37.75008" lon="-119.593137"><ele>1212.635</ele><time>2026-09-02T16:46:38Z</time></trkpt><trkpt lat="37.750004" lon="-119.593145"><ele>1212.457</ele><time>2026-09-02T16:46:47Z</time></trkpt><trkpt lat="37.74994" lon="-119.593141"><ele>1212.671</ele><time>2026-09-02T16:46:53Z</time></trkpt><trkpt lat="37.749901" lon="-119.593137"><ele>1212.641</ele><time>2026-09-02T16:46:56Z</time></trkpt><trkpt lat="37.749866" lon="-119.593133"><ele>1212.615</ele><time>2026-09-02T16:46:59Z</time></trkpt><trkpt lat="37.749847" lon="-119.59313"><ele>1212.609</ele><time>2026-09-02T16:47:01Z</time></trkpt><trkpt lat="37.749793" lon="-119.593128"><ele>1212.449</ele><time>2026-09-02T16:47:07Z</time></trkpt><trkpt lat="37.749692" lon="-119.593104"><ele>1212.015</ele><time>2026-09-02T16:47:16Z</time></trkpt><trkpt lat="37.74959" lon="-119.593113"><ele>1211.830</ele><time>2026-09-02T16:47:24Z</time></trkpt><trkpt lat="37.749493" lon="-119.593194"><ele>1211.842</ele><time>2026-09-02T16:47:32Z</time></trkpt><trkpt lat="37.749445" lon="-119.593285"><ele>1212.046</ele><time>2026-09-02T16:47:40Z</time></trkpt><trkpt lat="37.749397" lon="-119.593346"><ele>1211.898</ele><time>2026-09-02T16:47:48Z</time></trkpt><trkpt lat="37.749339" lon="-119.593325"><ele>1212.045</ele><time>2026-09-02T16:47:56Z</time></trkpt><trkpt lat="37.749278" lon="-119.593204"><ele>1211.644</ele><time>2026-09-02T16:48:06Z</time></trkpt><trkpt lat="37.749188" lon="-119.593149"><ele>1211.216</ele><time>2026-09-02T16:48:16Z</time></trkpt><trkpt lat="37.749087" lon="-119.593112"><ele>1210.866</ele><time>2026-09-02T16:48:24Z</time></trkpt><trkpt lat="37.749028" lon="-119.593117"><ele>1210.829</ele><time>2026-09-02T16:48:31Z</time></trkpt><trkpt lat="37.748951" lon="-119.593099"><ele>1210.821</ele><time>2026-09-02T16:48:38Z</time></trkpt><trkpt lat="37.748895" lon="-119.593055"><ele>1210.409</ele><time>2026-09-02T16:48:45Z</time></trkpt><trkpt lat="37.748872" lon="-119.593043"><ele>1210.448</ele><time>2026-09-02T16:48:47Z</time></trkpt><trkpt lat="37.748759" lon="-119.592995"><ele>1210.434</ele><time>2026-09-02T16:48:57Z</time></trkpt><trkpt lat="37.748679" lon="-119.592973"><ele>1210.439</ele><time>2026-09-02T16:49:07Z</time></trkpt><trkpt lat="37.748582" lon="-119.592906"><ele>1210.251</ele><time>2026-09-02T16:49:16Z</time></trkpt><trkpt lat="37.748479" lon="-119.592847"><ele>1210.295</ele><time>2026-09-02T16:49:25Z</time></trkpt><trkpt lat="37.748371" lon="-119.592788"><ele>1210.057</ele><time>2026-09-02T16:49:35Z</time></trkpt><trkpt lat="37.74828" lon="-119.592737"><ele>1210.064</ele><time>2026-09-02T16:49:46Z</time></trkpt><trkpt lat="37.748155" lon="-119.592722"><ele>1210.083</ele><time>2026-09-02T16:49:56Z</time></trkpt><trkpt lat="37.748058" lon="-119.592777"><ele>1210.035</ele><time>2026-09-02T16:50:03Z</time></trkpt><trkpt lat="37.747994" lon="-119.592822"><ele>1209.882</ele><time>2026-09-02T16:50:11Z</time></trkpt><trkpt lat="37.74792" lon="-119.592892"><ele>1210.043</ele><time>2026-09-02T16:50:19Z</time></trkpt><trkpt lat="37.747846" lon="-119.592934"><ele>1209.817</ele><time>2026-09-02T16:50:26Z</time></trkpt><trkpt lat="37.74773" lon="-119.592947"><ele>1209.609</ele><time>2026-09-02T16:50:35Z</time></trkpt><trkpt lat="37.747624" lon="-119.592986"><ele>1209.610</ele><time>2026-09-02T16:50:43Z</time></trkpt><trkpt lat="37.747596" lon="-119.593009"><ele>1209.466</ele><time>2026-09-02T16:50:48Z</time></trkpt><trkpt lat="37.747572" lon="-119.592999"><ele>1209.491</ele><time>2026-09-02T16:50:51Z</time></trkpt><trkpt lat="37.747501" lon="-119.592953"><ele>1209.623</ele><time>2026-09-02T16:50:58Z</time></trkpt><trkpt lat="37.747461" lon="-119.592867"><ele>1209.697</ele><time>2026-09-02T16:51:06Z</time></trkpt><trkpt lat="37.747391" lon="-119.592796"><ele>1209.679</ele><time>2026-09-02T16:51:14Z</time></trkpt><trkpt lat="37.747267" lon="-119.592736"><ele>1209.036</ele><time>2026-09-02T16:51:24Z</time></trkpt><trkpt lat="37.747115" lon="-119.592711"><ele>1209.295</ele><time>2026-09-02T16:51:35Z</time></trkpt><trkpt lat="37.747011" lon="-119.592791"><ele>1209.267</ele><time>2026-09-02T16:51:45Z</time></trkpt><trkpt lat="37.74695" lon="-119.592865"><ele>1209.259</ele><time>2026-09-02T16:51:50Z</time></trkpt><trkpt lat="37.746905" lon="-119.592917"><ele>1209.403</ele><time>2026-09-02T16:51:54Z</time></trkpt><trkpt lat="37.746819" lon="-119.592969"><ele>1209.223</ele><time>2026-09-02T16:52:04Z</time></trkpt><trkpt lat="37.746727" lon="-119.59302"><ele>1209.009</ele><time>2026-09-02T16:52:14Z</time></trkpt><trkpt lat="37.746682" lon="-119.593033"><ele>1209.057</ele><time>2026-09-02T16:52:22Z</time></trkpt><trkpt lat="37.746538" lon="-119.593094"><ele>1209.243</ele><time>2026-09-02T16:52:35Z</time></trkpt><trkpt lat="37.746474" lon="-119.593256"><ele>1209.038</ele><time>2026-09-02T16:52:44Z</time></trkpt><trkpt lat="37.746455" lon="-119.593389"><ele>1208.850</ele><time>2026-09-02T16:52:54Z</time></trkpt><trkpt lat="37.746407" lon="-119.593497"><ele>1208.834</ele><time>2026-09-02T16:53:03Z</time></trkpt><trkpt lat="37.74636" lon="-119.593619"><ele>1208.426</ele><time>2026-09-02T16:53:12Z</time></trkpt><trkpt lat="37.746357" lon="-119.593637"><ele>1208.483</ele><time>2026-09-02T16:53:13Z</time></trkpt><trkpt lat="37.746351" lon="-119.593749"><ele>1208.472</ele><time>2026-09-02T16:53:22Z</time></trkpt><trkpt lat="37.746312" lon="-119.593817"><ele>1208.454</ele><time>2026-09-02T16:53:30Z</time></trkpt><trkpt lat="37.74624" lon="-119.593902"><ele>1208.686</ele><time>2026-09-02T16:53:38Z</time></trkpt><trkpt lat="37.746174" lon="-119.594008"><ele>1208.660</ele><time>2026-09-02T16:53:46Z</time></trkpt><trkpt lat="37.746125" lon="-119.594055"><ele>1208.426</ele><time>2026-09-02T16:53:55Z</time></trkpt><trkpt lat="37.746027" lon="-119.594059"><ele>1208.009</ele><time>2026-09-02T16:54:06Z</time></trkpt><trkpt lat="37.745963" lon="-119.59398"><ele>1208.450</ele><time>2026-09-02T16:54:15Z</time></trkpt><trkpt lat="37.74596" lon="-119.593972"><ele>1208.456</ele><time>2026-09-02T16:54:16Z</time></trkpt><trkpt lat="37.745881" lon="-119.593862"><ele>1208.651</ele><time>2026-09-02T16:54:25Z</time></trkpt><trkpt lat="37.745806" lon="-119.593784"><ele>1208.463</ele><time>2026-09-02T16:54:33Z</time></trkpt><trkpt lat="37.745795" lon="-119.593778"><ele>1208.487</ele><time>2026-09-02T16:54:34Z</time></trkpt><trkpt lat="37.745713" lon="-119.593756"><ele>1208.649</ele><time>2026-09-02T16:54:42Z</time></trkpt><trkpt lat="37.745611" lon="-119.593742"><ele>1208.876</ele><time>2026-09-02T16:54:50Z</time></trkpt><trkpt lat="37.745603" lon="-119.593738"><ele>1208.895</ele><time>2026-09-02T16:54:51Z</time></trkpt><trkpt lat="37.745538" lon="-119.593705"><ele>1208.627</ele><time>2026-09-02T16:55:00Z</time></trkpt><trkpt lat="37.745439" lon="-119.593666"><ele>1208.885</ele><time>2026-09-02T16:55:09Z</time></trkpt><trkpt lat="37.74531" lon="-119.593605"><ele>1209.089</ele><time>2026-09-02T16:55:18Z</time></trkpt><trkpt lat="37.745288" lon="-119.593607"><ele>1209.017</ele><time>2026-09-02T16:55:20Z</time></trkpt><trkpt lat="37.745203" lon="-119.593667"><ele>1209.209</ele><time>2026-09-02T16:55:27Z</time></trkpt><trkpt lat="37.745119" lon="-119.593744"><ele>1208.610</ele><time>2026-09-02T16:55:36Z</time></trkpt><trkpt lat="37.745065" lon="-119.593737"><ele>1208.686</ele><time>2026-09-02T16:55:41Z</time></trkpt><trkpt lat="37.745045" lon="-119.593739"><ele>1208.661</ele><time>2026-09-02T16:55:43Z</time></trkpt><trkpt lat="37.744968" lon="-119.593749"><ele>1208.663</ele><time>2026-09-02T16:55:51Z</time></trkpt><trkpt lat="37.744845" lon="-119.593799"><ele>1208.087</ele><time>2026-09-02T16:56:02Z</time></trkpt><trkpt lat="37.744743" lon="-119.593788"><ele>1208.029</ele><time>2026-09-02T16:56:13Z</time></trkpt><trkpt lat="37.744669" lon="-119.59373"><ele>1208.096</ele><time>2026-09-02T16:56:21Z</time></trkpt><trkpt lat="37.74466" lon="-119.59372"><ele>1208.015</ele><time>2026-09-02T16:56:22Z</time></trkpt><trkpt lat="37.744603" lon="-119.593615"><ele>1208.217</ele><time>2026-09-02T16:56:30Z</time></trkpt><trkpt lat="37.744543" lon="-119.593561"><ele>1208.091</ele><time>2026-09-02T16:56:38Z</time></trkpt><trkpt lat="37.744481" lon="-119.593501"><ele>1207.881</ele><time>2026-09-02T16:56:48Z</time></trkpt><trkpt lat="37.7444" lon="-119.593442"><ele>1207.819</ele><time>2026-09-02T16:56:57Z</time></trkpt><trkpt lat="37.744322" lon="-119.593386"><ele>1207.409</ele><time>2026-09-02T16:57:05Z</time></trkpt><trkpt lat="37.744201" lon="-119.593375"><ele>1207.481</ele><time>2026-09-02T16:57:15Z</time></trkpt><trkpt lat="37.74406" lon="-119.593386"><ele>1207.497</ele><time>2026-09-02T16:57:27Z</time></trkpt><trkpt lat="37.743953" lon="-119.593396"><ele>1207.652</ele><time>2026-09-02T16:57:36Z</time></trkpt><trkpt lat="37.743879" lon="-119.593405"><ele>1207.494</ele><time>2026-09-02T16:57:42Z</time></trkpt><trkpt lat="37.74382" lon="-119.593413"><ele>1207.418</ele><time>2026-09-02T16:57:47Z</time></trkpt><trkpt lat="37.743704" lon="-119.59344"><ele>1207.240</ele><time>2026-09-02T16:57:57Z</time></trkpt><trkpt lat="37.743553" lon="-119.593436"><ele>1207.017</ele><time>2026-09-02T16:58:10Z</time></trkpt><trkpt lat="37.743473" lon="-119.593395"><ele>1206.626</ele><time>2026-09-02T16:58:19Z</time></trkpt><trkpt lat="37.743413" lon="-119.593348"><ele>1207.018</ele><time>2026-09-02T16:58:26Z</time></trkpt><trkpt lat="37.743403" lon="-119.593339"><ele>1207.055</ele><time>2026-09-02T16:58:28Z</time></trkpt><trkpt lat="37.743344" lon="-119.593256"><ele>1207.007</ele><time>2026-09-02T16:58:38Z</time></trkpt><trkpt lat="37.743287" lon="-119.593155"><ele>1208.017</ele><time>2026-09-02T16:58:47Z</time></trkpt><trkpt lat="37.743277" lon="-119.593142"><ele>1208.209</ele><time>2026-09-02T16:58:48Z</time></trkpt><trkpt lat="37.74321" lon="-119.593082"><ele>1208.027</ele><time>2026-09-02T16:58:55Z</time></trkpt><trkpt lat="37.743194" lon="-119.593059"><ele>1208.043</ele><time>2026-09-02T16:58:57Z</time></trkpt><trkpt lat="37.743122" lon="-119.592962"><ele>1208.048</ele><time>2026-09-02T16:59:07Z</time></trkpt><trkpt lat="37.743059" lon="-119.592869"><ele>1208.050</ele><time>2026-09-02T16:59:16Z</time></trkpt><trkpt lat="37.742982" lon="-119.592758"><ele>1207.834</ele><time>2026-09-02T16:59:25Z</time></trkpt><trkpt lat="37.742959" lon="-119.592735"><ele>1207.896</ele><time>2026-09-02T16:59:32Z</time></trkpt><trkpt lat="37.742962" lon="-119.592723"><ele>1207.683</ele><time>2026-09-02T16:59:45Z</time></trkpt><trkpt lat="37.743009" lon="-119.592739"><ele>1207.212</ele><time>2026-09-02T16:59:56Z</time></trkpt><trkpt lat="37.742979" lon="-119.592707"><ele>1207.054</ele><time>2026-09-02T17:00:04Z</time></trkpt><trkpt lat="37.742895" lon="-119.592611"><ele>1206.493</ele><time>2026-09-02T17:00:12Z</time></trkpt><trkpt lat="37.742842" lon="-119.592654"><ele>1205.865</ele><time>2026-09-02T17:00:18Z</time></trkpt><trkpt lat="37.742786" lon="-119.59275"><ele>1205.621</ele><time>2026-09-02T17:00:26Z</time></trkpt><trkpt lat="37.742713" lon="-119.592833"><ele>1206.009</ele><time>2026-09-02T17:00:34Z</time></trkpt><trkpt lat="37.742661" lon="-119.592899"><ele>1205.821</ele><time>2026-09-02T17:00:41Z</time></trkpt><trkpt lat="37.742602" lon="-119.592991"><ele>1205.887</ele><time>2026-09-02T17:00:49Z</time></trkpt><trkpt lat="37.742515" lon="-119.59307"><ele>1205.872</ele><time>2026-09-02T17:00:59Z</time></trkpt><trkpt lat="37.742446" lon="-119.593119"><ele>1205.854</ele><time>2026-09-02T17:01:07Z</time></trkpt><trkpt lat="37.742396" lon="-119.593217"><ele>1205.898</ele><time>2026-09-02T17:01:16Z</time></trkpt><trkpt lat="37.74233" lon="-119.593277"><ele>1206.010</ele><time>2026-09-02T17:01:23Z</time></trkpt><trkpt lat="37.742259" lon="-119.593326"><ele>1205.827</ele><time>2026-09-02T17:01:31Z</time></trkpt><trkpt lat="37.742208" lon="-119.593358"><ele>1205.826</ele><time>2026-09-02T17:01:40Z</time></trkpt><trkpt lat="37.742213" lon="-119.593357"><ele>1206.218</ele><time>2026-09-02T17:01:47Z</time></trkpt><trkpt lat="37.742221" lon="-119.593372"><ele>1205.634</ele><time>2026-09-02T17:01:56Z</time></trkpt><trkpt lat="37.742206" lon="-119.593387"><ele>1205.655</ele><time>2026-09-02T17:02:05Z</time></trkpt><trkpt lat="37.742213" lon="-119.593376"><ele>1205.610</ele><time>2026-09-02T17:02:16Z</time></trkpt><trkpt lat="37.742198" lon="-119.593367"><ele>1205.609</ele><time>2026-09-02T17:02:23Z</time></trkpt><trkpt lat="37.742158" lon="-119.593392"><ele>1205.875</ele><time>2026-09-02T17:02:29Z</time></trkpt><trkpt lat="37.742116" lon="-119.593406"><ele>1205.631</ele><time>2026-09-02T17:02:39Z</time></trkpt><trkpt lat="37.742068" lon="-119.593432"><ele>1205.696</ele><time>2026-09-02T17:02:47Z</time></trkpt><trkpt lat="37.742035" lon="-119.593464"><ele>1206.028</ele><time>2026-09-02T17:02:56Z</time></trkpt><trkpt lat="37.741967" lon="-119.593503"><ele>1206.212</ele><time>2026-09-02T17:03:04Z</time></trkpt><trkpt lat="37.741904" lon="-119.593542"><ele>1205.854</ele><time>2026-09-02T17:03:12Z</time></trkpt><trkpt lat="37.741895" lon="-119.593547"><ele>1205.811</ele><time>2026-09-02T17:03:20Z</time></trkpt><trkpt lat="37.741876" lon="-119.593554"><ele>1205.840</ele><time>2026-09-02T17:03:24Z</time></trkpt><trkpt lat="37.741863" lon="-119.593558"><ele>1205.862</ele><time>2026-09-02T17:03:27Z</time></trkpt><trkpt lat="37.741854" lon="-119.593566"><ele>1205.812</ele><time>2026-09-02T17:03:37Z</time></trkpt><trkpt lat="37.741824" lon="-119.593605"><ele>1205.832</ele><time>2026-09-02T17:03:43Z</time></trkpt><trkpt lat="37.741731" lon="-119.593663"><ele>1205.805</ele><time>2026-09-02T17:03:52Z</time></trkpt><trkpt lat="37.741731" lon="-119.593675"><ele>1205.809</ele><time>2026-09-02T17:03:58Z</time></trkpt><trkpt lat="37.741709" lon="-119.593727"><ele>1205.433</ele><time>2026-09-02T17:04:05Z</time></trkpt><trkpt lat="37.74168" lon="-119.593798"><ele>1204.849</ele><time>2026-09-02T17:04:14Z</time></trkpt><trkpt lat="37.741647" lon="-119.593827"><ele>1204.844</ele><time>2026-09-02T17:04:22Z</time></trkpt><trkpt lat="37.741602" lon="-119.593852"><ele>1204.826</ele><time>2026-09-02T17:04:30Z</time></trkpt><trkpt lat="37.741547" lon="-119.59388"><ele>1204.850</ele><time>2026-09-02T17:04:37Z</time></trkpt><trkpt lat="37.741517" lon="-119.593884"><ele>1204.642</ele><time>2026-09-02T17:04:45Z</time></trkpt><trkpt lat="37.7415" lon="-119.593885"><ele>1204.849</ele><time>2026-09-02T17:04:55Z</time></trkpt><trkpt lat="37.741465" lon="-119.593906"><ele>1205.098</ele><time>2026-09-02T17:05:03Z</time></trkpt><trkpt lat="37.741447" lon="-119.593908"><ele>1204.650</ele><time>2026-09-02T17:05:10Z</time></trkpt><trkpt lat="37.741397" lon="-119.593937"><ele>1204.691</ele><time>2026-09-02T17:05:16Z</time></trkpt><trkpt lat="37.74138" lon="-119.593946"><ele>1204.481</ele><time>2026-09-02T17:05:19Z</time></trkpt><trkpt lat="37.741355" lon="-119.59396"><ele>1204.419</ele><time>2026-09-02T17:05:28Z</time></trkpt><trkpt lat="37.741348" lon="-119.593965"><ele>1204.409</ele><time>2026-09-02T17:05:29Z</time></trkpt><trkpt lat="37.741342" lon="-119.593969"><ele>1204.211</ele><time>2026-09-02T17:05:30Z</time></trkpt><trkpt lat="37.741319" lon="-119.593979"><ele>1204.677</ele><time>2026-09-02T17:05:35Z</time></trkpt><trkpt lat="37.741249" lon="-119.59401"><ele>1204.632</ele><time>2026-09-02T17:05:44Z</time></trkpt><trkpt lat="37.741213" lon="-119.594034"><ele>1204.654</ele><time>2026-09-02T17:05:51Z</time></trkpt><trkpt lat="37.741146" lon="-119.594054"><ele>1204.638</ele><time>2026-09-02T17:05:59Z</time></trkpt><trkpt lat="37.741091" lon="-119.594101"><ele>1204.670</ele><time>2026-09-02T17:06:08Z</time></trkpt><trkpt lat="37.74103" lon="-119.594102"><ele>1204.637</ele><time>2026-09-02T17:06:17Z</time></trkpt><trkpt lat="37.740953" lon="-119.594087"><ele>1204.496</ele><time>2026-09-02T17:06:25Z</time></trkpt><trkpt lat="37.740897" lon="-119.59407"><ele>1204.878</ele><time>2026-09-02T17:06:33Z</time></trkpt><trkpt lat="37.740916" lon="-119.594077"><ele>1205.057</ele><time>2026-09-02T17:06:38Z</time></trkpt><trkpt lat="37.740916" lon="-119.594073"><ele>1205.000</ele><time>2026-09-02T17:06:39Z</time></trkpt><trkpt lat="37.740915" lon="-119.594071"><ele>1205.020</ele><time>2026-09-02T17:06:40Z</time></trkpt><trkpt lat="37.740915" lon="-119.59407"><ele>1204.809</ele><time>2026-09-02T17:06:41Z</time></trkpt><trkpt lat="37.740911" lon="-119.594069"><ele>1204.857</ele><time>2026-09-02T17:06:45Z</time></trkpt><trkpt lat="37.740887" lon="-119.59405"><ele>1204.643</ele><time>2026-09-02T17:06:48Z</time></trkpt><trkpt lat="37.740815" lon="-119.594046"><ele>1204.648</ele><time>2026-09-02T17:06:56Z</time></trkpt><trkpt lat="37.740767" lon="-119.594086"><ele>1204.410</ele><time>2026-09-02T17:07:05Z</time></trkpt><trkpt lat="37.740726" lon="-119.594073"><ele>1204.644</ele><time>2026-09-02T17:07:14Z</time></trkpt><trkpt lat="37.740693" lon="-119.59405"><ele>1204.626</ele><time>2026-09-02T17:07:21Z</time></trkpt><trkpt lat="37.740661" lon="-119.594051"><ele>1204.883</ele><time>2026-09-02T17:07:26Z</time></trkpt><trkpt lat="37.740641" lon="-119.594056"><ele>1204.882</ele><time>2026-09-02T17:07:33Z</time></trkpt><trkpt lat="37.740627" lon="-119.59408"><ele>1205.084</ele><time>2026-09-02T17:07:41Z</time></trkpt><trkpt lat="37.740617" lon="-119.594083"><ele>1205.093</ele><time>2026-09-02T17:07:43Z</time></trkpt><trkpt lat="37.740611" lon="-119.594078"><ele>1205.265</ele><time>2026-09-02T17:07:44Z</time></trkpt><trkpt lat="37.740594" lon="-119.594072"><ele>1205.421</ele><time>2026-09-02T17:07:47Z</time></trkpt><trkpt lat="37.740588" lon="-119.594069"><ele>1205.409</ele><time>2026-09-02T17:07:48Z</time></trkpt><trkpt lat="37.74054" lon="-119.594054"><ele>1205.251</ele><time>2026-09-02T17:07:55Z</time></trkpt><trkpt lat="37.74052" lon="-119.594056"><ele>1205.217</ele><time>2026-09-02T17:08:05Z</time></trkpt><trkpt lat="37.740506" lon="-119.594063"><ele>1205.012</ele><time>2026-09-02T17:08:11Z</time></trkpt><trkpt lat="37.740487" lon="-119.594069"><ele>1204.814</ele><time>2026-09-02T17:08:19Z</time></trkpt><trkpt lat="37.740462" lon="-119.594076"><ele>1204.698</ele><time>2026-09-02T17:08:25Z</time></trkpt><trkpt lat="37.740447" lon="-119.594084"><ele>1204.680</ele><time>2026-09-02T17:08:27Z</time></trkpt><trkpt lat="37.740413" lon="-119.594091"><ele>1204.897</ele><time>2026-09-02T17:08:31Z</time></trkpt><trkpt lat="37.74039" lon="-119.594088"><ele>1204.626</ele><time>2026-09-02T17:08:34Z</time></trkpt><trkpt lat="37.740387" lon="-119.594085"><ele>1204.668</ele><time>2026-09-02T17:08:35Z</time></trkpt><trkpt lat="37.740373" lon="-119.594087"><ele>1204.843</ele><time>2026-09-02T17:08:41Z</time></trkpt><trkpt lat="37.740369" lon="-119.594088"><ele>1204.864</ele><time>2026-09-02T17:08:43Z</time></trkpt><trkpt lat="37.740342" lon="-119.594089"><ele>1204.610</ele><time>2026-09-02T17:08:49Z</time></trkpt><trkpt lat="37.740301" lon="-119.594088"><ele>1204.809</ele><time>2026-09-02T17:08:59Z</time></trkpt><trkpt lat="37.740215" lon="-119.594081"><ele>1204.626</ele><time>2026-09-02T17:09:08Z</time></trkpt><trkpt lat="37.740153" lon="-119.594099"><ele>1204.222</ele><time>2026-09-02T17:09:16Z</time></trkpt><trkpt lat="37.740105" lon="-119.594129"><ele>1204.447</ele><time>2026-09-02T17:09:24Z</time></trkpt><trkpt lat="37.740064" lon="-119.59414"><ele>1204.679</ele><time>2026-09-02T17:09:30Z</time></trkpt><trkpt lat="37.740058" lon="-119.594141"><ele>1204.843</ele><time>2026-09-02T17:09:31Z</time></trkpt><trkpt lat="37.740044" lon="-119.594145"><ele>1205.065</ele><time>2026-09-02T17:09:33Z</time></trkpt><trkpt lat="37.740021" lon="-119.594154"><ele>1205.462</ele><time>2026-09-02T17:09:38Z</time></trkpt><trkpt lat="37.739999" lon="-119.594159"><ele>1206.011</ele><time>2026-09-02T17:09:42Z</time></trkpt><trkpt lat="37.739981" lon="-119.594165"><ele>1206.293</ele><time>2026-09-02T17:09:45Z</time></trkpt><trkpt lat="37.739988" lon="-119.594166"><ele>1206.296</ele><time>2026-09-02T17:09:50Z</time></trkpt><trkpt lat="37.740003" lon="-119.59417"><ele>1206.231</ele><time>2026-09-02T17:09:53Z</time></trkpt><trkpt lat="37.739994" lon="-119.594175"><ele>1206.024</ele><time>2026-09-02T17:09:59Z</time></trkpt><trkpt lat="37.739976" lon="-119.594177"><ele>1206.009</ele><time>2026-09-02T17:10:02Z</time></trkpt><trkpt lat="37.739905" lon="-119.594239"><ele>1205.871</ele><time>2026-09-02T17:10:11Z</time></trkpt><trkpt lat="37.73987" lon="-119.594302"><ele>1206.097</ele><time>2026-09-02T17:10:18Z</time></trkpt><trkpt lat="37.739844" lon="-119.594388"><ele>1206.032</ele><time>2026-09-02T17:10:28Z</time></trkpt><trkpt lat="37.739827" lon="-119.594486"><ele>1205.644</ele><time>2026-09-02T17:10:38Z</time></trkpt><trkpt lat="37.73982" lon="-119.594541"><ele>1205.858</ele><time>2026-09-02T17:10:47Z</time></trkpt><trkpt lat="37.739829" lon="-119.594553"><ele>1206.090</ele><time>2026-09-02T17:10:55Z</time></trkpt><trkpt lat="37.73983" lon="-119.594559"><ele>1206.047</ele><time>2026-09-02T17:10:56Z</time></trkpt><trkpt lat="37.739825" lon="-119.594553"><ele>1206.096</ele><time>2026-09-02T17:11:06Z</time></trkpt><trkpt lat="37.739821" lon="-119.594547"><ele>1205.818</ele><time>2026-09-02T17:11:10Z</time></trkpt><trkpt lat="37.739814" lon="-119.594553"><ele>1205.872</ele><time>2026-09-02T17:11:12Z</time></trkpt><trkpt lat="37.73981" lon="-119.594556"><ele>1205.813</ele><time>2026-09-02T17:11:14Z</time></trkpt><trkpt lat="37.739803" lon="-119.594562"><ele>1205.614</ele><time>2026-09-02T17:11:17Z</time></trkpt><trkpt lat="37.739792" lon="-119.594614"><ele>1205.809</ele><time>2026-09-02T17:11:24Z</time></trkpt><trkpt lat="37.739759" lon="-119.594715"><ele>1206.059</ele><time>2026-09-02T17:11:32Z</time></trkpt><trkpt lat="37.739704" lon="-119.594731"><ele>1206.285</ele><time>2026-09-02T17:11:40Z</time></trkpt><trkpt lat="37.739658" lon="-119.594725"><ele>1206.280</ele><time>2026-09-02T17:11:47Z</time></trkpt><trkpt lat="37.739642" lon="-119.594729"><ele>1206.292</ele><time>2026-09-02T17:11:49Z</time></trkpt><trkpt lat="37.739589" lon="-119.594768"><ele>1206.076</ele><time>2026-09-02T17:11:58Z</time></trkpt><trkpt lat="37.739547" lon="-119.594859"><ele>1205.688</ele><time>2026-09-02T17:12:08Z</time></trkpt><trkpt lat="37.739526" lon="-119.594925"><ele>1205.415</ele><time>2026-09-02T17:12:14Z</time></trkpt><trkpt lat="37.739521" lon="-119.594935"><ele>1205.284</ele><time>2026-09-02T17:12:17Z</time></trkpt><trkpt lat="37.739508" lon="-119.594942"><ele>1205.246</ele><time>2026-09-02T17:12:27Z</time></trkpt><trkpt lat="37.739509" lon="-119.594943"><ele>1205.219</ele><time>2026-09-02T17:12:28Z</time></trkpt><trkpt lat="37.739524" lon="-119.594919"><ele>1205.209</ele><time>2026-09-02T17:12:37Z</time></trkpt><trkpt lat="37.739499" lon="-119.594904"><ele>1205.419</ele><time>2026-09-02T17:12:48Z</time></trkpt><trkpt lat="37.73948" lon="-119.594912"><ele>1205.609</ele><time>2026-09-02T17:12:55Z</time></trkpt><trkpt lat="37.739484" lon="-119.594921"><ele>1205.663</ele><time>2026-09-02T17:12:58Z</time></trkpt><trkpt lat="37.739485" lon="-119.594915"><ele>1205.699</ele><time>2026-09-02T17:13:07Z</time></trkpt><trkpt lat="37.739466" lon="-119.594891"><ele>1205.454</ele><time>2026-09-02T17:13:12Z</time></trkpt><trkpt lat="37.739447" lon="-119.594883"><ele>1205.476</ele><time>2026-09-02T17:13:16Z</time></trkpt><trkpt lat="37.739413" lon="-119.594849"><ele>1205.070</ele><time>2026-09-02T17:13:23Z</time></trkpt><trkpt lat="37.739374" lon="-119.594805"><ele>1205.052</ele><time>2026-09-02T17:13:30Z</time></trkpt><trkpt lat="37.739369" lon="-119.594804"><ele>1204.899</ele><time>2026-09-02T17:13:31Z</time></trkpt><trkpt lat="37.739377" lon="-119.594824"><ele>1205.438</ele><time>2026-09-02T17:13:40Z</time></trkpt><trkpt lat="37.739372" lon="-119.594804"><ele>1205.240</ele><time>2026-09-02T17:13:46Z</time></trkpt><trkpt lat="37.739366" lon="-119.594794"><ele>1205.248</ele><time>2026-09-02T17:13:47Z</time></trkpt><trkpt lat="37.739349" lon="-119.594771"><ele>1205.461</ele><time>2026-09-02T17:13:49Z</time></trkpt><trkpt lat="37.739313" lon="-119.594743"><ele>1205.617</ele><time>2026-09-02T17:13:54Z</time></trkpt><trkpt lat="37.73925" lon="-119.59469"><ele>1206.009</ele><time>2026-09-02T17:14:01Z</time></trkpt><trkpt lat="37.739204" lon="-119.594652"><ele>1206.416</ele><time>2026-09-02T17:14:06Z</time></trkpt><trkpt lat="37.739194" lon="-119.59465"><ele>1206.422</ele><time>2026-09-02T17:14:08Z</time></trkpt><trkpt lat="37.739178" lon="-119.594662"><ele>1206.467</ele><time>2026-09-02T17:14:11Z</time></trkpt><trkpt lat="37.73917" lon="-119.594673"><ele>1206.649</ele><time>2026-09-02T17:14:17Z</time></trkpt><trkpt lat="37.739166" lon="-119.594693"><ele>1206.483</ele><time>2026-09-02T17:14:24Z</time></trkpt><trkpt lat="37.739153" lon="-119.594719"><ele>1207.015</ele><time>2026-09-02T17:14:31Z</time></trkpt><trkpt lat="37.739149" lon="-119.594723"><ele>1207.092</ele><time>2026-09-02T17:14:38Z</time></trkpt><trkpt lat="37.739144" lon="-119.594735"><ele>1206.411</ele><time>2026-09-02T17:14:48Z</time></trkpt><trkpt lat="37.739147" lon="-119.594727"><ele>1206.693</ele><time>2026-09-02T17:14:57Z</time></trkpt><trkpt lat="37.739151" lon="-119.594735"><ele>1206.687</ele><time>2026-09-02T17:15:02Z</time></trkpt><trkpt lat="37.739154" lon="-119.594741"><ele>1206.642</ele><time>2026-09-02T17:15:04Z</time></trkpt><trkpt lat="37.739152" lon="-119.594745"><ele>1206.626</ele><time>2026-09-02T17:15:06Z</time></trkpt><trkpt lat="37.739116" lon="-119.594765"><ele>1206.609</ele><time>2026-09-02T17:15:18Z</time></trkpt><trkpt lat="37.739049" lon="-119.594861"><ele>1206.610</ele><time>2026-09-02T17:15:26Z</time></trkpt><trkpt lat="37.738963" lon="-119.595005"><ele>1206.836</ele><time>2026-09-02T17:15:38Z</time></trkpt><trkpt lat="37.738913" lon="-119.595081"><ele>1207.061</ele><time>2026-09-02T17:15:46Z</time></trkpt><trkpt lat="37.738861" lon="-119.595173"><ele>1207.413</ele><time>2026-09-02T17:15:53Z</time></trkpt><trkpt lat="37.738793" lon="-119.595242"><ele>1207.067</ele><time>2026-09-02T17:16:00Z</time></trkpt><trkpt lat="37.738721" lon="-119.595352"><ele>1207.499</ele><time>2026-09-02T17:16:09Z</time></trkpt><trkpt lat="37.738658" lon="-119.595445"><ele>1207.016</ele><time>2026-09-02T17:16:18Z</time></trkpt><trkpt lat="37.738599" lon="-119.595547"><ele>1207.295</ele><time>2026-09-02T17:16:25Z</time></trkpt><trkpt lat="37.738573" lon="-119.595588"><ele>1207.047</ele><time>2026-09-02T17:16:28Z</time></trkpt><trkpt lat="37.738525" lon="-119.595644"><ele>1207.052</ele><time>2026-09-02T17:16:34Z</time></trkpt><trkpt lat="37.738465" lon="-119.595735"><ele>1207.053</ele><time>2026-09-02T17:16:42Z</time></trkpt><trkpt lat="37.738405" lon="-119.595824"><ele>1207.208</ele><time>2026-09-02T17:16:49Z</time></trkpt><trkpt lat="37.738347" lon="-119.595936"><ele>1207.209</ele><time>2026-09-02T17:16:58Z</time></trkpt><trkpt lat="37.738308" lon="-119.595992"><ele>1207.267</ele><time>2026-09-02T17:17:03Z</time></trkpt><trkpt lat="37.738295" lon="-119.596015"><ele>1207.293</ele><time>2026-09-02T17:17:05Z</time></trkpt><trkpt lat="37.738281" lon="-119.59604"><ele>1207.288</ele><time>2026-09-02T17:17:07Z</time></trkpt><trkpt lat="37.738263" lon="-119.596069"><ele>1207.490</ele><time>2026-09-02T17:17:09Z</time></trkpt><trkpt lat="37.738192" lon="-119.596162"><ele>1207.244</ele><time>2026-09-02T17:17:17Z</time></trkpt><trkpt lat="37.738116" lon="-119.596267"><ele>1207.636</ele><time>2026-09-02T17:17:26Z</time></trkpt><trkpt lat="37.738036" lon="-119.596384"><ele>1207.673</ele><time>2026-09-02T17:17:36Z</time></trkpt><trkpt lat="37.737958" lon="-119.596506"><ele>1207.862</ele><time>2026-09-02T17:17:46Z</time></trkpt><trkpt lat="37.737914" lon="-119.596567"><ele>1208.024</ele><time>2026-09-02T17:17:51Z</time></trkpt><trkpt lat="37.737879" lon="-119.5966"><ele>1208.051</ele><time>2026-09-02T17:17:55Z</time></trkpt><trkpt lat="37.737789" lon="-119.596688"><ele>1208.401</ele><time>2026-09-02T17:18:05Z</time></trkpt><trkpt lat="37.737705" lon="-119.596816"><ele>1208.811</ele><time>2026-09-02T17:18:16Z</time></trkpt><trkpt lat="37.737683" lon="-119.596864"><ele>1209.009</ele><time>2026-09-02T17:18:19Z</time></trkpt><trkpt lat="37.73766" lon="-119.596918"><ele>1209.237</ele><time>2026-09-02T17:18:24Z</time></trkpt><trkpt lat="37.737625" lon="-119.597046"><ele>1209.093</ele><time>2026-09-02T17:18:31Z</time></trkpt><trkpt lat="37.737588" lon="-119.597124"><ele>1209.058</ele><time>2026-09-02T17:18:40Z</time></trkpt><trkpt lat="37.737532" lon="-119.597209"><ele>1209.290</ele><time>2026-09-02T17:18:48Z</time></trkpt><trkpt lat="37.737453" lon="-119.597324"><ele>1209.494</ele><time>2026-09-02T17:18:57Z</time></trkpt><trkpt lat="37.737442" lon="-119.597343"><ele>1209.486</ele><time>2026-09-02T17:18:59Z</time></trkpt><trkpt lat="37.737422" lon="-119.5974"><ele>1209.273</ele><time>2026-09-02T17:19:04Z</time></trkpt><trkpt lat="37.737403" lon="-119.59746"><ele>1209.462</ele><time>2026-09-02T17:19:08Z</time></trkpt><trkpt lat="37.737354" lon="-119.597561"><ele>1209.234</ele><time>2026-09-02T17:19:17Z</time></trkpt><trkpt lat="37.737311" lon="-119.597677"><ele>1209.499</ele><time>2026-09-02T17:19:26Z</time></trkpt><trkpt lat="37.737246" lon="-119.597814"><ele>1209.607</ele><time>2026-09-02T17:19:36Z</time></trkpt><trkpt lat="37.73719" lon="-119.597935"><ele>1209.627</ele><time>2026-09-02T17:19:46Z</time></trkpt><trkpt lat="37.73711" lon="-119.598067"><ele>1209.809</ele><time>2026-09-02T17:19:57Z</time></trkpt><trkpt lat="37.737057" lon="-119.598212"><ele>1209.641</ele><time>2026-09-02T17:20:07Z</time></trkpt><trkpt lat="37.737062" lon="-119.598373"><ele>1209.427</ele><time>2026-09-02T17:20:16Z</time></trkpt><trkpt lat="37.737062" lon="-119.598508"><ele>1209.262</ele><time>2026-09-02T17:20:24Z</time></trkpt><trkpt lat="37.737021" lon="-119.598639"><ele>1209.034</ele><time>2026-09-02T17:20:34Z</time></trkpt><trkpt lat="37.736995" lon="-119.598743"><ele>1208.838</ele><time>2026-09-02T17:20:42Z</time></trkpt><trkpt lat="37.736988" lon="-119.598771"><ele>1208.880</ele><time>2026-09-02T17:20:44Z</time></trkpt><trkpt lat="37.736949" lon="-119.598916"><ele>1208.417</ele><time>2026-09-02T17:20:54Z</time></trkpt><trkpt lat="37.736935" lon="-119.599052"><ele>1208.236</ele><time>2026-09-02T17:21:04Z</time></trkpt><trkpt lat="37.736873" lon="-119.599193"><ele>1208.488</ele><time>2026-09-02T17:21:13Z</time></trkpt><trkpt lat="37.736846" lon="-119.599317"><ele>1208.257</ele><time>2026-09-02T17:21:22Z</time></trkpt><trkpt lat="37.736837" lon="-119.599383"><ele>1208.200</ele><time>2026-09-02T17:21:27Z</time></trkpt><trkpt lat="37.736818" lon="-119.599456"><ele>1208.220</ele><time>2026-09-02T17:21:31Z</time></trkpt><trkpt lat="37.736793" lon="-119.59956"><ele>1208.209</ele><time>2026-09-02T17:21:38Z</time></trkpt><trkpt lat="37.736796" lon="-119.599593"><ele>1208.067</ele><time>2026-09-02T17:21:40Z</time></trkpt><trkpt lat="37.736818" lon="-119.599683"><ele>1207.823</ele><time>2026-09-02T17:21:45Z</time></trkpt><trkpt lat="37.736837" lon="-119.59977"><ele>1207.698</ele><time>2026-09-02T17:21:52Z</time></trkpt><trkpt lat="37.736867" lon="-119.599871"><ele>1207.670</ele><time>2026-09-02T17:22:00Z</time></trkpt><trkpt lat="37.736907" lon="-119.600017"><ele>1207.664</ele><time>2026-09-02T17:22:09Z</time></trkpt><trkpt lat="37.736913" lon="-119.600091"><ele>1207.826</ele><time>2026-09-02T17:22:16Z</time></trkpt><trkpt lat="37.736942" lon="-119.600222"><ele>1207.663</ele><time>2026-09-02T17:22:25Z</time></trkpt><trkpt lat="37.736958" lon="-119.600348"><ele>1207.892</ele><time>2026-09-02T17:22:35Z</time></trkpt><trkpt lat="37.736991" lon="-119.600494"><ele>1207.694</ele><time>2026-09-02T17:22:45Z</time></trkpt><trkpt lat="37.737013" lon="-119.600614"><ele>1207.665</ele><time>2026-09-02T17:22:53Z</time></trkpt><trkpt lat="37.737046" lon="-119.600645"><ele>1207.468</ele><time>2026-09-02T17:22:59Z</time></trkpt><trkpt lat="37.737048" lon="-119.600621"><ele>1207.014</ele><time>2026-09-02T17:23:01Z</time></trkpt><trkpt lat="37.73706" lon="-119.600526"><ele>1205.809</ele><time>2026-09-02T17:23:07Z</time></trkpt><trkpt lat="37.737066" lon="-119.600491"><ele>1205.418</ele><time>2026-09-02T17:23:09Z</time></trkpt><trkpt lat="37.737067" lon="-119.600411"><ele>1204.864</ele><time>2026-09-02T17:23:14Z</time></trkpt><trkpt lat="37.73707" lon="-119.600348"><ele>1204.429</ele><time>2026-09-02T17:23:19Z</time></trkpt><trkpt lat="37.737081" lon="-119.600241"><ele>1204.421</ele><time>2026-09-02T17:23:28Z</time></trkpt><trkpt lat="37.737059" lon="-119.600106"><ele>1204.085</ele><time>2026-09-02T17:23:37Z</time></trkpt><trkpt lat="37.737057" lon="-119.600077"><ele>1203.897</ele><time>2026-09-02T17:23:39Z</time></trkpt><trkpt lat="37.737061" lon="-119.600026"><ele>1203.854</ele><time>2026-09-02T17:23:46Z</time></trkpt><trkpt lat="37.737058" lon="-119.600031"><ele>1204.063</ele><time>2026-09-02T17:23:53Z</time></trkpt><trkpt lat="37.737047" lon="-119.600034"><ele>1203.875</ele><time>2026-09-02T17:23:59Z</time></trkpt><trkpt lat="37.737045" lon="-119.600039"><ele>1203.673</ele><time>2026-09-02T17:24:02Z</time></trkpt><trkpt lat="37.737061" lon="-119.600023"><ele>1203.885</ele><time>2026-09-02T17:24:08Z</time></trkpt><trkpt lat="37.737058" lon="-119.600024"><ele>1203.813</ele><time>2026-09-02T17:24:15Z</time></trkpt><trkpt lat="37.73705" lon="-119.6001"><ele>1204.609</ele><time>2026-09-02T17:49:54Z</time></trkpt><trkpt lat="37.737068" lon="-119.600109"><ele>1204.899</ele><time>2026-09-02T17:49:55Z</time></trkpt><trkpt lat="37.737084" lon="-119.600147"><ele>1205.095</ele><time>2026-09-02T17:49:58Z</time></trkpt><trkpt lat="37.737085" lon="-119.600162"><ele>1205.090</ele><time>2026-09-02T17:50:00Z</time></trkpt><trkpt lat="37.737082" lon="-119.600217"><ele>1204.842</ele><time>2026-09-02T17:50:07Z</time></trkpt><trkpt lat="37.73709" lon="-119.600247"><ele>1204.826</ele><time>2026-09-02T17:50:11Z</time></trkpt><trkpt lat="37.737101" lon="-119.600266"><ele>1204.838</ele><time>2026-09-02T17:50:13Z</time></trkpt><trkpt lat="37.737114" lon="-119.600311"><ele>1204.825</ele><time>2026-09-02T17:50:20Z</time></trkpt><trkpt lat="37.737121" lon="-119.600372"><ele>1204.684</ele><time>2026-09-02T17:50:28Z</time></trkpt><trkpt lat="37.737129" lon="-119.600435"><ele>1204.676</ele><time>2026-09-02T17:50:38Z</time></trkpt><trkpt lat="37.737139" lon="-119.600471"><ele>1205.492</ele><time>2026-09-02T17:50:45Z</time></trkpt><trkpt lat="37.737141" lon="-119.600484"><ele>1205.873</ele><time>2026-09-02T17:50:47Z</time></trkpt><trkpt lat="37.737164" lon="-119.600542"><ele>1206.820</ele><time>2026-09-02T17:50:54Z</time></trkpt><trkpt lat="37.737192" lon="-119.600612"><ele>1206.609</ele><time>2026-09-02T17:51:01Z</time></trkpt><trkpt lat="37.737224" lon="-119.600668"><ele>1206.611</ele><time>2026-09-02T17:51:08Z</time></trkpt><trkpt lat="37.737268" lon="-119.600708"><ele>1207.027</ele><time>2026-09-02T17:51:16Z</time></trkpt><trkpt lat="37.737361" lon="-119.600703"><ele>1207.232</ele><time>2026-09-02T17:51:25Z</time></trkpt><trkpt lat="37.737408" lon="-119.600675"><ele>1207.474</ele><time>2026-09-02T17:51:31Z</time></trkpt><trkpt lat="37.737483" lon="-119.600625"><ele>1207.628</ele><time>2026-09-02T17:51:39Z</time></trkpt><trkpt lat="37.737553" lon="-119.600589"><ele>1207.820</ele><time>2026-09-02T17:51:47Z</time></trkpt><trkpt lat="37.737598" lon="-119.600559"><ele>1208.057</ele><time>2026-09-02T17:51:53Z</time></trkpt><trkpt lat="37.737608" lon="-119.600554"><ele>1208.216</ele><time>2026-09-02T17:51:55Z</time></trkpt><trkpt lat="37.737688" lon="-119.600546"><ele>1208.098</ele><time>2026-09-02T17:52:02Z</time></trkpt><trkpt lat="37.737714" lon="-119.600533"><ele>1208.034</ele><time>2026-09-02T17:52:09Z</time></trkpt><trkpt lat="37.737762" lon="-119.600528"><ele>1208.055</ele><time>2026-09-02T17:52:16Z</time></trkpt><trkpt lat="37.737758" lon="-119.600545"><ele>1208.010</ele><time>2026-09-02T17:52:23Z</time></trkpt><trkpt lat="37.737743" lon="-119.600539"><ele>1208.009</ele><time>2026-09-02T17:52:31Z</time></trkpt><trkpt lat="37.737747" lon="-119.600535"><ele>1208.025</ele><time>2026-09-02T17:52:35Z</time></trkpt><trkpt lat="37.737765" lon="-119.600533"><ele>1207.861</ele><time>2026-09-02T17:52:40Z</time></trkpt><trkpt lat="37.737776" lon="-119.60052"><ele>1207.896</ele><time>2026-09-02T17:52:42Z</time></trkpt><trkpt lat="37.737783" lon="-119.600516"><ele>1208.088</ele><time>2026-09-02T17:52:46Z</time></trkpt><trkpt lat="37.737819" lon="-119.600551"><ele>1208.062</ele><time>2026-09-02T17:52:52Z</time></trkpt><trkpt lat="37.737855" lon="-119.600572"><ele>1208.054</ele><time>2026-09-02T17:52:59Z</time></trkpt><trkpt lat="37.737845" lon="-119.600544"><ele>1208.091</ele><time>2026-09-02T17:53:10Z</time></trkpt><trkpt lat="37.737858" lon="-119.600565"><ele>1208.080</ele><time>2026-09-02T17:53:17Z</time></trkpt><trkpt lat="37.737889" lon="-119.600589"><ele>1207.692</ele><time>2026-09-02T17:53:24Z</time></trkpt><trkpt lat="37.737877" lon="-119.600586"><ele>1208.297</ele><time>2026-09-02T17:53:33Z</time></trkpt><trkpt lat="37.737879" lon="-119.600572"><ele>1208.023</ele><time>2026-09-02T17:53:40Z</time></trkpt><trkpt lat="37.73789" lon="-119.600575"><ele>1208.025</ele><time>2026-09-02T17:53:42Z</time></trkpt><trkpt lat="37.737874" lon="-119.600575"><ele>1208.009</ele><time>2026-09-02T17:53:48Z</time></trkpt><trkpt lat="37.73787" lon="-119.600574"><ele>1208.021</ele><time>2026-09-02T17:53:49Z</time></trkpt><trkpt lat="37.737868" lon="-119.600581"><ele>1207.847</ele><time>2026-09-02T17:53:54Z</time></trkpt><trkpt lat="37.737888" lon="-119.600569"><ele>1208.072</ele><time>2026-09-02T17:54:01Z</time></trkpt><trkpt lat="37.737925" lon="-119.600589"><ele>1207.824</ele><time>2026-09-02T17:54:06Z</time></trkpt><trkpt lat="37.73801" lon="-119.600669"><ele>1208.048</ele><time>2026-09-02T17:54:17Z</time></trkpt><trkpt lat="37.738073" lon="-119.600704"><ele>1207.860</ele><time>2026-09-02T17:54:24Z</time></trkpt><trkpt lat="37.738139" lon="-119.600756"><ele>1208.217</ele><time>2026-09-02T17:54:34Z</time></trkpt><trkpt lat="37.738245" lon="-119.600808"><ele>1208.026</ele><time>2026-09-02T17:54:46Z</time></trkpt><trkpt lat="37.738329" lon="-119.600839"><ele>1208.028</ele><time>2026-09-02T17:54:55Z</time></trkpt><trkpt lat="37.738394" lon="-119.600836"><ele>1208.037</ele><time>2026-09-02T17:55:03Z</time></trkpt><trkpt lat="37.738418" lon="-119.600837"><ele>1208.049</ele><time>2026-09-02T17:55:06Z</time></trkpt><trkpt lat="37.738486" lon="-119.600839"><ele>1208.013</ele><time>2026-09-02T17:55:12Z</time></trkpt><trkpt lat="37.738563" lon="-119.600834"><ele>1207.809</ele><time>2026-09-02T17:55:19Z</time></trkpt><trkpt lat="37.738635" lon="-119.600831"><ele>1207.845</ele><time>2026-09-02T17:55:27Z</time></trkpt><trkpt lat="37.738622" lon="-119.600854"><ele>1207.681</ele><time>2026-09-02T17:55:34Z</time></trkpt><trkpt lat="37.738615" lon="-119.600854"><ele>1207.066</ele><time>2026-09-02T17:55:35Z</time></trkpt><trkpt lat="37.738612" lon="-119.600856"><ele>1206.868</ele><time>2026-09-02T17:55:36Z</time></trkpt><trkpt lat="37.738621" lon="-119.600861"><ele>1207.452</ele><time>2026-09-02T17:55:43Z</time></trkpt><trkpt lat="37.738611" lon="-119.600861"><ele>1207.824</ele><time>2026-09-02T17:55:47Z</time></trkpt><trkpt lat="37.738599" lon="-119.600841"><ele>1208.631</ele><time>2026-09-02T17:55:53Z</time></trkpt><trkpt lat="37.738595" lon="-119.600833"><ele>1208.680</ele><time>2026-09-02T17:55:55Z</time></trkpt><trkpt lat="37.738593" lon="-119.60084"><ele>1208.492</ele><time>2026-09-02T17:55:57Z</time></trkpt><trkpt lat="37.738599" lon="-119.60085"><ele>1208.464</ele><time>2026-09-02T17:56:00Z</time></trkpt><trkpt lat="37.738615" lon="-119.600862"><ele>1208.606</ele><time>2026-09-02T17:56:03Z</time></trkpt><trkpt lat="37.738631" lon="-119.60087"><ele>1208.616</ele><time>2026-09-02T17:56:14Z</time></trkpt><trkpt lat="37.738639" lon="-119.600871"><ele>1208.609</ele><time>2026-09-02T17:56:23Z</time></trkpt><trkpt lat="37.738631" lon="-119.600858"><ele>1208.678</ele><time>2026-09-02T17:56:31Z</time></trkpt><trkpt lat="37.738621" lon="-119.600855"><ele>1208.684</ele><time>2026-09-02T17:56:33Z</time></trkpt><trkpt lat="37.738615" lon="-119.600859"><ele>1208.449</ele><time>2026-09-02T17:56:34Z</time></trkpt><trkpt lat="37.738596" lon="-119.600874"><ele>1208.841</ele><time>2026-09-02T17:56:39Z</time></trkpt><trkpt lat="37.738602" lon="-119.600874"><ele>1208.685</ele><time>2026-09-02T17:56:43Z</time></trkpt><trkpt lat="37.738602" lon="-119.600867"><ele>1208.417</ele><time>2026-09-02T17:56:45Z</time></trkpt><trkpt lat="37.738595" lon="-119.600865"><ele>1208.084</ele><time>2026-09-02T17:56:48Z</time></trkpt><trkpt lat="37.738595" lon="-119.600864"><ele>1207.843</ele><time>2026-09-02T17:56:50Z</time></trkpt><trkpt lat="37.738604" lon="-119.600862"><ele>1207.825</ele><time>2026-09-02T17:56:56Z</time></trkpt><trkpt lat="37.738597" lon="-119.600856"><ele>1207.879</ele><time>2026-09-02T17:57:00Z</time></trkpt><trkpt lat="37.738603" lon="-119.600845"><ele>1207.805</ele><time>2026-09-02T17:57:09Z</time></trkpt><trkpt lat="37.73867" lon="-119.600843"><ele>1208.225</ele><time>2026-09-02T17:57:17Z</time></trkpt><trkpt lat="37.738762" lon="-119.60083"><ele>1208.409</ele><time>2026-09-02T17:57:26Z</time></trkpt><trkpt lat="37.738826" lon="-119.600824"><ele>1208.499</ele><time>2026-09-02T17:57:32Z</time></trkpt><trkpt lat="37.738862" lon="-119.600833"><ele>1208.275</ele><time>2026-09-02T17:57:35Z</time></trkpt><trkpt lat="37.738941" lon="-119.600864"><ele>1208.290</ele><time>2026-09-02T17:57:44Z</time></trkpt><trkpt lat="37.739055" lon="-119.60086"><ele>1208.482</ele><time>2026-09-02T17:57:54Z</time></trkpt><trkpt lat="37.73907" lon="-119.600859"><ele>1208.416</ele><time>2026-09-02T17:57:55Z</time></trkpt><trkpt lat="37.739162" lon="-119.600866"><ele>1208.258</ele><time>2026-09-02T17:58:04Z</time></trkpt><trkpt lat="37.739275" lon="-119.600902"><ele>1208.655</ele><time>2026-09-02T17:58:14Z</time></trkpt><trkpt lat="37.739412" lon="-119.600926"><ele>1208.664</ele><time>2026-09-02T17:58:24Z</time></trkpt><trkpt lat="37.739507" lon="-119.600976"><ele>1208.486</ele><time>2026-09-02T17:58:34Z</time></trkpt><trkpt lat="37.739596" lon="-119.601056"><ele>1208.411</ele><time>2026-09-02T17:58:44Z</time></trkpt><trkpt lat="37.739703" lon="-119.601067"><ele>1208.821</ele><time>2026-09-02T17:58:53Z</time></trkpt><trkpt lat="37.739737" lon="-119.601069"><ele>1208.803</ele><time>2026-09-02T17:58:55Z</time></trkpt><trkpt lat="37.739845" lon="-119.601033"><ele>1208.809</ele><time>2026-09-02T17:59:04Z</time></trkpt><trkpt lat="37.739979" lon="-119.600996"><ele>1209.023</ele><time>2026-09-02T17:59:16Z</time></trkpt><trkpt lat="37.740075" lon="-119.60098"><ele>1208.849</ele><time>2026-09-02T17:59:24Z</time></trkpt><trkpt lat="37.740169" lon="-119.600949"><ele>1209.414</ele><time>2026-09-02T17:59:33Z</time></trkpt><trkpt lat="37.74022" lon="-119.600932"><ele>1209.816</ele><time>2026-09-02T17:59:38Z</time></trkpt><trkpt lat="37.740229" lon="-119.600932"><ele>1210.010</ele><time>2026-09-02T17:59:39Z</time></trkpt><trkpt lat="37.740277" lon="-119.600929"><ele>1210.032</ele><time>2026-09-02T17:59:42Z</time></trkpt><trkpt lat="37.740363" lon="-119.600943"><ele>1210.429</ele><time>2026-09-02T17:59:50Z</time></trkpt><trkpt lat="37.740412" lon="-119.600964"><ele>1210.488</ele><time>2026-09-02T17:59:55Z</time></trkpt><trkpt lat="37.740427" lon="-119.600972"><ele>1210.440</ele><time>2026-09-02T17:59:56Z</time></trkpt><trkpt lat="37.740438" lon="-119.600979"><ele>1210.486</ele><time>2026-09-02T17:59:57Z</time></trkpt><trkpt lat="37.740448" lon="-119.600987"><ele>1210.460</ele><time>2026-09-02T17:59:58Z</time></trkpt><trkpt lat="37.74051" lon="-119.601021"><ele>1210.626</ele><time>2026-09-02T18:00:03Z</time></trkpt><trkpt lat="37.740539" lon="-119.601005"><ele>1210.809</ele><time>2026-09-02T18:00:07Z</time></trkpt><trkpt lat="37.740565" lon="-119.601018"><ele>1210.620</ele><time>2026-09-02T18:00:12Z</time></trkpt><trkpt lat="37.740569" lon="-119.601035"><ele>1210.676</ele><time>2026-09-02T18:00:13Z</time></trkpt><trkpt lat="37.740609" lon="-119.601125"><ele>1211.031</ele><time>2026-09-02T18:00:21Z</time></trkpt><trkpt lat="37.740621" lon="-119.601151"><ele>1211.033</ele><time>2026-09-02T18:00:24Z</time></trkpt><trkpt lat="37.740646" lon="-119.601225"><ele>1211.277</ele><time>2026-09-02T18:00:29Z</time></trkpt><trkpt lat="37.740681" lon="-119.601287"><ele>1211.639</ele><time>2026-09-02T18:00:34Z</time></trkpt><trkpt lat="37.740711" lon="-119.601297"><ele>1212.056</ele><time>2026-09-02T18:00:38Z</time></trkpt><trkpt lat="37.740736" lon="-119.601318"><ele>1212.215</ele><time>2026-09-02T18:00:41Z</time></trkpt><trkpt lat="37.740805" lon="-119.601367"><ele>1212.267</ele><time>2026-09-02T18:00:49Z</time></trkpt><trkpt lat="37.740825" lon="-119.601373"><ele>1212.238</ele><time>2026-09-02T18:00:51Z</time></trkpt><trkpt lat="37.7409" lon="-119.60137"><ele>1212.470</ele><time>2026-09-02T18:00:58Z</time></trkpt><trkpt lat="37.740915" lon="-119.601361"><ele>1212.417</ele><time>2026-09-02T18:01:00Z</time></trkpt><trkpt lat="37.740972" lon="-119.601359"><ele>1212.609</ele><time>2026-09-02T18:01:07Z</time></trkpt><trkpt lat="37.741068" lon="-119.60137"><ele>1212.845</ele><time>2026-09-02T18:01:16Z</time></trkpt><trkpt lat="37.741122" lon="-119.601414"><ele>1213.051</ele><time>2026-09-02T18:01:22Z</time></trkpt><trkpt lat="37.741133" lon="-119.601407"><ele>1213.296</ele><time>2026-09-02T18:01:23Z</time></trkpt><trkpt lat="37.741144" lon="-119.601403"><ele>1213.298</ele><time>2026-09-02T18:01:24Z</time></trkpt><trkpt lat="37.741224" lon="-119.601376"><ele>1213.612</ele><time>2026-09-02T18:01:32Z</time></trkpt><trkpt lat="37.741271" lon="-119.601325"><ele>1213.474</ele><time>2026-09-02T18:01:39Z</time></trkpt><trkpt lat="37.741271" lon="-119.601327"><ele>1213.471</ele><time>2026-09-02T18:01:46Z</time></trkpt><trkpt lat="37.741271" lon="-119.601327"><ele>1213.280</ele><time>2026-09-02T18:01:48Z</time></trkpt><trkpt lat="37.741271" lon="-119.601327"><ele>1213.452</ele><time>2026-09-02T18:01:51Z</time></trkpt><trkpt lat="37.741269" lon="-119.601348"><ele>1213.424</ele><time>2026-09-02T18:01:57Z</time></trkpt><trkpt lat="37.741272" lon="-119.601349"><ele>1213.404</ele><time>2026-09-02T18:01:58Z</time></trkpt><trkpt lat="37.741276" lon="-119.601365"><ele>1213.414</ele><time>2026-09-02T18:02:02Z</time></trkpt><trkpt lat="37.74129" lon="-119.601353"><ele>1213.809</ele><time>2026-09-02T18:02:07Z</time></trkpt><trkpt lat="37.741316" lon="-119.601357"><ele>1213.644</ele><time>2026-09-02T18:02:16Z</time></trkpt></trkseg></trk></gpx>